{
  "type": "FeatureCollection",
  "features": [
    {
      "type": "Feature",
      "geometry": {
        "type": "LineString",
        "coordinates": [
          [
            13.0693,
            38.1695
          ],
          [
            13.0693,
            38.1695
          ],
          [
            13.0527,
            38.1643
          ],
          [
            13.0379,
            38.1599
          ],
          [
            13.0176,
            38.1613
          ],
          [
            12.9979,
            38.1756
          ],
          [
            12.9706,
            38.1957
          ],
          [
            12.9362,
            38.2155
          ],
          [
            12.8845,
            38.2464
          ],
          [
            12.8397,
            38.2731
          ],
          [
            12.7945,
            38.299
          ],
          [
            12.7338,
            38.3346
          ],
          [
            12.7136,
            38.36
          ],
          [
            12.704,
            38.4429
          ],
          [
            12.7078,
            38.5266
          ],
          [
            12.7125,
            38.5827
          ],
          [
            12.7161,
            38.6439
          ],
          [
            12.7195,
            38.7004
          ],
          [
            12.7218,
            38.7659
          ],
          [
            12.7178,
            38.8318
          ],
          [
            12.7124,
            38.8908
          ],
          [
            12.7067,
            38.9536
          ],
          [
            12.7022,
            39.0124
          ],
          [
            12.6976,
            39.0722
          ],
          [
            12.6932,
            39.1303
          ],
          [
            12.6888,
            39.1883
          ],
          [
            12.6845,
            39.2457
          ],
          [
            12.6803,
            39.303
          ],
          [
            12.6757,
            39.3648
          ],
          [
            12.671,
            39.4251
          ],
          [
            12.6663,
            39.4887
          ],
          [
            12.6619,
            39.5468
          ],
          [
            12.6573,
            39.6072
          ],
          [
            12.6526,
            39.6687
          ],
          [
            12.6484,
            39.7251
          ],
          [
            12.6439,
            39.7868
          ],
          [
            12.6388,
            39.8505
          ],
          [
            12.6343,
            39.9106
          ],
          [
            12.6299,
            39.969
          ],
          [
            12.6237,
            40.0509
          ],
          [
            12.6183,
            40.1209
          ],
          [
            12.6137,
            40.1805
          ],
          [
            12.6086,
            40.2463
          ],
          [
            12.6041,
            40.3068
          ],
          [
            12.6001,
            40.3677
          ],
          [
            12.5959,
            40.4269
          ],
          [
            12.5915,
            40.4884
          ],
          [
            12.5875,
            40.546
          ],
          [
            12.5832,
            40.6072
          ],
          [
            12.5789,
            40.6698
          ],
          [
            12.5747,
            40.7298
          ],
          [
            12.5706,
            40.7883
          ],
          [
            12.5662,
            40.851
          ],
          [
            12.5618,
            40.9123
          ],
          [
            12.5574,
            40.9753
          ],
          [
            12.553,
            41.0374
          ],
          [
            12.5485,
            41.0994
          ],
          [
            12.5441,
            41.1626
          ],
          [
            12.5397,
            41.2224
          ],
          [
            12.5352,
            41.2869
          ],
          [
            12.5309,
            41.3488
          ],
          [
            12.5263,
            41.4102
          ],
          [
            12.5217,
            41.4752
          ],
          [
            12.5173,
            41.5358
          ],
          [
            12.5128,
            41.5985
          ],
          [
            12.5081,
            41.6629
          ],
          [
            12.5035,
            41.7247
          ],
          [
            12.4991,
            41.7843
          ],
          [
            12.4948,
            41.8478
          ],
          [
            12.4901,
            41.9101
          ],
          [
            12.4856,
            41.9715
          ],
          [
            12.4813,
            42.0319
          ],
          [
            12.4765,
            42.095
          ],
          [
            12.4721,
            42.1563
          ],
          [
            12.4677,
            42.2175
          ],
          [
            12.4631,
            42.2783
          ],
          [
            12.4586,
            42.3392
          ],
          [
            12.454,
            42.4016
          ],
          [
            12.4492,
            42.4643
          ],
          [
            12.4448,
            42.5254
          ],
          [
            12.4405,
            42.5855
          ],
          [
            12.4356,
            42.6465
          ],
          [
            12.4312,
            42.7088
          ],
          [
            12.4267,
            42.7678
          ],
          [
            12.4219,
            42.8307
          ],
          [
            12.4174,
            42.8903
          ],
          [
            12.4126,
            42.954
          ],
          [
            12.4084,
            43.0121
          ],
          [
            12.4036,
            43.0732
          ],
          [
            12.399,
            43.1341
          ],
          [
            12.3947,
            43.1923
          ],
          [
            12.3898,
            43.2563
          ],
          [
            12.3852,
            43.3167
          ],
          [
            12.3806,
            43.375
          ],
          [
            12.376,
            43.4351
          ],
          [
            12.3622,
            43.5013
          ],
          [
            12.3464,
            43.5568
          ],
          [
            12.3297,
            43.6141
          ],
          [
            12.315,
            43.6698
          ],
          [
            12.2997,
            43.7256
          ],
          [
            12.2848,
            43.7812
          ],
          [
            12.27,
            43.8367
          ],
          [
            12.2546,
            43.8935
          ],
          [
            12.24,
            43.9478
          ],
          [
            12.2245,
            44.0043
          ],
          [
            12.2093,
            44.0611
          ],
          [
            12.1934,
            44.1199
          ],
          [
            12.1779,
            44.1771
          ],
          [
            12.1614,
            44.2374
          ],
          [
            12.1459,
            44.2944
          ],
          [
            12.1293,
            44.355
          ],
          [
            12.1122,
            44.4179
          ],
          [
            12.0958,
            44.477
          ],
          [
            12.0797,
            44.5364
          ],
          [
            12.0631,
            44.5968
          ],
          [
            12.0465,
            44.6563
          ],
          [
            12.0299,
            44.7165
          ],
          [
            12.0127,
            44.7792
          ],
          [
            11.9951,
            44.842
          ],
          [
            11.9777,
            44.9043
          ],
          [
            11.9605,
            44.9658
          ],
          [
            11.945,
            45.0227
          ],
          [
            11.9286,
            45.0805
          ],
          [
            11.9117,
            45.1399
          ],
          [
            11.8955,
            45.1976
          ],
          [
            11.8785,
            45.2586
          ],
          [
            11.8618,
            45.3174
          ],
          [
            11.8461,
            45.3726
          ],
          [
            11.8291,
            45.4328
          ],
          [
            11.8128,
            45.4895
          ],
          [
            11.7967,
            45.5467
          ],
          [
            11.7816,
            45.5994
          ],
          [
            11.766,
            45.6539
          ],
          [
            11.7501,
            45.7095
          ],
          [
            11.7345,
            45.7636
          ],
          [
            11.7187,
            45.8188
          ],
          [
            11.7029,
            45.8731
          ],
          [
            11.6878,
            45.9257
          ],
          [
            11.6721,
            45.9799
          ],
          [
            11.6568,
            46.033
          ],
          [
            11.6411,
            46.0866
          ],
          [
            11.6256,
            46.1397
          ],
          [
            11.6102,
            46.1927
          ],
          [
            11.5944,
            46.2467
          ],
          [
            11.5786,
            46.301
          ],
          [
            11.562,
            46.3571
          ],
          [
            11.5492,
            46.4004
          ],
          [
            11.5328,
            46.4563
          ],
          [
            11.5157,
            46.5146
          ],
          [
            11.4989,
            46.571
          ],
          [
            11.4826,
            46.6259
          ],
          [
            11.4653,
            46.685
          ],
          [
            11.4481,
            46.7416
          ],
          [
            11.432,
            46.7963
          ],
          [
            11.4143,
            46.8553
          ],
          [
            11.3973,
            46.9119
          ],
          [
            11.3812,
            46.9667
          ],
          [
            11.377,
            46.9971
          ],
          [
            11.3758,
            47.0374
          ],
          [
            11.3763,
            47.0934
          ],
          [
            11.3752,
            47.1531
          ],
          [
            11.3675,
            47.1884
          ],
          [
            11.3447,
            47.2319
          ],
          [
            11.3214,
            47.2633
          ],
          [
            11.2836,
            47.3096
          ],
          [
            11.2416,
            47.3599
          ],
          [
            11.1994,
            47.4128
          ],
          [
            11.1592,
            47.4638
          ],
          [
            11.1191,
            47.5144
          ],
          [
            11.08,
            47.5636
          ],
          [
            11.0399,
            47.6141
          ],
          [
            10.9978,
            47.6674
          ],
          [
            10.9422,
            47.7373
          ],
          [
            10.904,
            47.7852
          ],
          [
            10.8485,
            47.8547
          ],
          [
            10.8086,
            47.9046
          ],
          [
            10.7624,
            47.9621
          ],
          [
            10.7213,
            48.0131
          ],
          [
            10.681,
            48.0632
          ],
          [
            10.6418,
            48.1116
          ],
          [
            10.6051,
            48.157
          ],
          [
            10.5485,
            48.2267
          ],
          [
            10.5094,
            48.2745
          ],
          [
            10.4715,
            48.321
          ],
          [
            10.4405,
            48.3591
          ],
          [
            10.4029,
            48.405
          ],
          [
            10.3612,
            48.4559
          ],
          [
            10.3017,
            48.528
          ],
          [
            10.2612,
            48.5772
          ],
          [
            10.2177,
            48.6297
          ],
          [
            10.1753,
            48.6808
          ],
          [
            10.1324,
            48.7325
          ],
          [
            10.0912,
            48.7819
          ],
          [
            10.0484,
            48.8333
          ],
          [
            10.0034,
            48.8867
          ],
          [
            9.9759,
            48.9196
          ],
          [
            9.9096,
            48.9988
          ],
          [
            9.8711,
            49.0441
          ],
          [
            9.8299,
            49.093
          ],
          [
            9.7869,
            49.1436
          ],
          [
            9.7446,
            49.1936
          ],
          [
            9.7008,
            49.245
          ],
          [
            9.6585,
            49.2948
          ],
          [
            9.6152,
            49.3453
          ],
          [
            9.5732,
            49.3943
          ],
          [
            9.5317,
            49.4426
          ],
          [
            9.4888,
            49.4922
          ],
          [
            9.4453,
            49.5431
          ],
          [
            9.4026,
            49.5921
          ],
          [
            9.3598,
            49.6414
          ],
          [
            9.3185,
            49.6891
          ],
          [
            9.2756,
            49.7383
          ],
          [
            9.2313,
            49.7888
          ],
          [
            9.1894,
            49.8369
          ],
          [
            9.1446,
            49.8878
          ],
          [
            9.1016,
            49.9368
          ],
          [
            9.0568,
            49.9876
          ],
          [
            9.0123,
            50.0379
          ],
          [
            8.9687,
            50.0872
          ],
          [
            8.9237,
            50.138
          ],
          [
            8.8772,
            50.19
          ],
          [
            8.8139,
            50.2611
          ],
          [
            8.7687,
            50.3114
          ],
          [
            8.7252,
            50.3599
          ],
          [
            8.6797,
            50.4107
          ],
          [
            8.6343,
            50.4607
          ],
          [
            8.5993,
            50.4994
          ],
          [
            8.5482,
            50.556
          ],
          [
            8.503,
            50.6054
          ],
          [
            8.4587,
            50.6544
          ],
          [
            8.3703,
            50.7511
          ],
          [
            8.326,
            50.7991
          ],
          [
            8.2972,
            50.8305
          ],
          [
            8.253,
            50.8785
          ],
          [
            8.2078,
            50.9274
          ],
          [
            8.164,
            50.9746
          ],
          [
            8.1188,
            51.0237
          ],
          [
            8.0717,
            51.0743
          ],
          [
            8.0264,
            51.1224
          ],
          [
            7.9799,
            51.1726
          ],
          [
            7.9339,
            51.2217
          ],
          [
            7.8866,
            51.2719
          ],
          [
            7.8399,
            51.3215
          ],
          [
            7.793,
            51.3711
          ],
          [
            7.746,
            51.4208
          ],
          [
            7.718,
            51.4488
          ],
          [
            7.6409,
            51.4982
          ],
          [
            7.5602,
            51.5386
          ],
          [
            7.4698,
            51.583
          ],
          [
            7.4079,
            51.6143
          ],
          [
            7.3691,
            51.6337
          ],
          [
            7.2836,
            51.6767
          ],
          [
            7.2328,
            51.7021
          ],
          [
            7.1381,
            51.7495
          ],
          [
            7.0681,
            51.7846
          ],
          [
            7.0048,
            51.816
          ],
          [
            6.9411,
            51.8478
          ],
          [
            6.9088,
            51.8638
          ],
          [
            6.8179,
            51.9088
          ],
          [
            6.7771,
            51.929
          ],
          [
            6.7279,
            51.9532
          ],
          [
            6.6831,
            51.9753
          ],
          [
            6.6165,
            52.0081
          ],
          [
            6.5506,
            52.0402
          ],
          [
            6.4867,
            52.0715
          ],
          [
            6.4028,
            52.1125
          ],
          [
            6.3407,
            52.1424
          ],
          [
            6.2532,
            52.185
          ],
          [
            6.2005,
            52.2105
          ],
          [
            6.144,
            52.2376
          ],
          [
            6.0885,
            52.2644
          ],
          [
            6.0352,
            52.2901
          ],
          [
            5.9842,
            52.3144
          ],
          [
            5.9359,
            52.3374
          ],
          [
            5.8848,
            52.3619
          ],
          [
            5.8327,
            52.3867
          ],
          [
            5.7812,
            52.4111
          ],
          [
            5.7316,
            52.4348
          ],
          [
            5.6822,
            52.458
          ],
          [
            5.6376,
            52.479
          ],
          [
            5.6122,
            52.491
          ],
          [
            5.5799,
            52.4983
          ],
          [
            5.5482,
            52.4924
          ],
          [
            5.5151,
            52.4703
          ],
          [
            5.4889,
            52.4488
          ],
          [
            5.4574,
            52.4214
          ],
          [
            5.4252,
            52.3935
          ],
          [
            5.3945,
            52.3669
          ],
          [
            5.3772,
            52.3519
          ],
          [
            5.3567,
            52.3391
          ],
          [
            5.3347,
            52.3357
          ],
          [
            5.3126,
            52.3341
          ],
          [
            5.2728,
            52.3322
          ],
          [
            5.1983,
            52.3314
          ],
          [
            5.1691,
            52.3306
          ],
          [
            5.1272,
            52.3293
          ],
          [
            5.0872,
            52.328
          ],
          [
            5.0499,
            52.3267
          ],
          [
            5.0164,
            52.3257
          ],
          [
            4.9945,
            52.325
          ],
          [
            4.9612,
            52.3239
          ],
          [
            4.9397,
            52.3232
          ],
          [
            4.9081,
            52.3222
          ],
          [
            4.8802,
            52.3211
          ],
          [
            4.8686,
            52.3209
          ],
          [
            4.8545,
            52.3204
          ],
          [
            4.8413,
            52.32
          ],
          [
            4.8282,
            52.3195
          ],
          [
            4.8133,
            52.3189
          ],
          [
            4.8006,
            52.3123
          ]
        ]
      },
      "properties": {
        "time_europe_berlin": [
          "27.10.2025 12:50:07",
          "27.10.2025 12:50:07",
          "27.10.2025 12:50:26",
          "27.10.2025 12:50:43",
          "27.10.2025 12:51:02",
          "27.10.2025 12:51:26",
          "27.10.2025 12:51:56",
          "27.10.2025 12:52:28",
          "27.10.2025 12:53:13",
          "27.10.2025 12:53:47",
          "27.10.2025 12:54:17",
          "27.10.2025 12:54:53",
          "27.10.2025 12:55:12",
          "27.10.2025 12:55:58",
          "27.10.2025 12:56:42",
          "27.10.2025 12:57:12",
          "27.10.2025 12:57:42",
          "27.10.2025 12:58:12",
          "27.10.2025 12:58:44",
          "27.10.2025 12:59:17",
          "27.10.2025 12:59:47",
          "27.10.2025 13:00:18",
          "27.10.2025 13:00:48",
          "27.10.2025 13:01:18",
          "27.10.2025 13:01:48",
          "27.10.2025 13:02:18",
          "27.10.2025 13:02:48",
          "27.10.2025 13:03:18",
          "27.10.2025 13:03:49",
          "27.10.2025 13:04:20",
          "27.10.2025 13:04:50",
          "27.10.2025 13:05:20",
          "27.10.2025 13:05:50",
          "27.10.2025 13:06:20",
          "27.10.2025 13:06:50",
          "27.10.2025 13:07:20",
          "27.10.2025 13:07:51",
          "27.10.2025 13:08:21",
          "27.10.2025 13:08:51",
          "27.10.2025 13:09:32",
          "27.10.2025 13:10:04",
          "27.10.2025 13:10:34",
          "27.10.2025 13:11:06",
          "27.10.2025 13:11:36",
          "27.10.2025 13:12:06",
          "27.10.2025 13:12:36",
          "27.10.2025 13:13:06",
          "27.10.2025 13:13:36",
          "27.10.2025 13:14:06",
          "27.10.2025 13:14:36",
          "27.10.2025 13:15:06",
          "27.10.2025 13:15:36",
          "27.10.2025 13:16:06",
          "27.10.2025 13:16:36",
          "27.10.2025 13:17:07",
          "27.10.2025 13:17:37",
          "27.10.2025 13:18:07",
          "27.10.2025 13:18:37",
          "27.10.2025 13:19:07",
          "27.10.2025 13:19:37",
          "27.10.2025 13:20:07",
          "27.10.2025 13:20:37",
          "27.10.2025 13:21:07",
          "27.10.2025 13:21:37",
          "27.10.2025 13:22:07",
          "27.10.2025 13:22:37",
          "27.10.2025 13:23:07",
          "27.10.2025 13:23:37",
          "27.10.2025 13:24:07",
          "27.10.2025 13:24:37",
          "27.10.2025 13:25:07",
          "27.10.2025 13:25:37",
          "27.10.2025 13:26:07",
          "27.10.2025 13:26:37",
          "27.10.2025 13:27:07",
          "27.10.2025 13:27:37",
          "27.10.2025 13:28:07",
          "27.10.2025 13:28:38",
          "27.10.2025 13:29:09",
          "27.10.2025 13:29:39",
          "27.10.2025 13:30:09",
          "27.10.2025 13:30:39",
          "27.10.2025 13:31:09",
          "27.10.2025 13:31:39",
          "27.10.2025 13:32:09",
          "27.10.2025 13:32:39",
          "27.10.2025 13:33:09",
          "27.10.2025 13:33:39",
          "27.10.2025 13:34:09",
          "27.10.2025 13:34:39",
          "27.10.2025 13:35:09",
          "27.10.2025 13:35:40",
          "27.10.2025 13:36:10",
          "27.10.2025 13:36:40",
          "27.10.2025 13:37:10",
          "27.10.2025 13:37:46",
          "27.10.2025 13:38:16",
          "27.10.2025 13:38:47",
          "27.10.2025 13:39:17",
          "27.10.2025 13:39:47",
          "27.10.2025 13:40:17",
          "27.10.2025 13:40:47",
          "27.10.2025 13:41:17",
          "27.10.2025 13:41:47",
          "27.10.2025 13:42:17",
          "27.10.2025 13:42:47",
          "27.10.2025 13:43:17",
          "27.10.2025 13:43:48",
          "27.10.2025 13:44:18",
          "27.10.2025 13:44:48",
          "27.10.2025 13:45:18",
          "27.10.2025 13:45:49",
          "27.10.2025 13:46:19",
          "27.10.2025 13:46:49",
          "27.10.2025 13:47:19",
          "27.10.2025 13:47:50",
          "27.10.2025 13:48:20",
          "27.10.2025 13:48:50",
          "27.10.2025 13:49:23",
          "27.10.2025 13:49:55",
          "27.10.2025 13:50:26",
          "27.10.2025 13:50:56",
          "27.10.2025 13:51:27",
          "27.10.2025 13:51:58",
          "27.10.2025 13:52:29",
          "27.10.2025 13:53:01",
          "27.10.2025 13:53:31",
          "27.10.2025 13:54:01",
          "27.10.2025 13:54:33",
          "27.10.2025 13:55:03",
          "27.10.2025 13:55:34",
          "27.10.2025 13:56:04",
          "27.10.2025 13:56:34",
          "27.10.2025 13:57:04",
          "27.10.2025 13:57:34",
          "27.10.2025 13:58:04",
          "27.10.2025 13:58:34",
          "27.10.2025 13:59:04",
          "27.10.2025 13:59:34",
          "27.10.2025 14:00:04",
          "27.10.2025 14:00:34",
          "27.10.2025 14:01:04",
          "27.10.2025 14:01:34",
          "27.10.2025 14:02:04",
          "27.10.2025 14:02:34",
          "27.10.2025 14:03:05",
          "27.10.2025 14:03:29",
          "27.10.2025 14:03:59",
          "27.10.2025 14:04:29",
          "27.10.2025 14:04:59",
          "27.10.2025 14:05:29",
          "27.10.2025 14:05:59",
          "27.10.2025 14:06:29",
          "27.10.2025 14:06:59",
          "27.10.2025 14:07:29",
          "27.10.2025 14:07:59",
          "27.10.2025 14:08:28",
          "27.10.2025 14:08:44",
          "27.10.2025 14:09:04",
          "27.10.2025 14:09:33",
          "27.10.2025 14:10:01",
          "27.10.2025 14:10:19",
          "27.10.2025 14:10:43",
          "27.10.2025 14:10:59",
          "27.10.2025 14:11:26",
          "27.10.2025 14:11:56",
          "27.10.2025 14:12:26",
          "27.10.2025 14:12:56",
          "27.10.2025 14:13:26",
          "27.10.2025 14:13:56",
          "27.10.2025 14:14:26",
          "27.10.2025 14:14:56",
          "27.10.2025 14:15:39",
          "27.10.2025 14:16:09",
          "27.10.2025 14:16:51",
          "27.10.2025 14:17:21",
          "27.10.2025 14:17:59",
          "27.10.2025 14:18:29",
          "27.10.2025 14:18:59",
          "27.10.2025 14:19:29",
          "27.10.2025 14:19:57",
          "27.10.2025 14:20:41",
          "27.10.2025 14:21:11",
          "27.10.2025 14:21:41",
          "27.10.2025 14:22:03",
          "27.10.2025 14:22:33",
          "27.10.2025 14:23:03",
          "27.10.2025 14:23:47",
          "27.10.2025 14:24:17",
          "27.10.2025 14:24:47",
          "27.10.2025 14:25:17",
          "27.10.2025 14:25:47",
          "27.10.2025 14:26:17",
          "27.10.2025 14:26:47",
          "27.10.2025 14:27:17",
          "27.10.2025 14:27:37",
          "27.10.2025 14:28:22",
          "27.10.2025 14:28:50",
          "27.10.2025 14:29:20",
          "27.10.2025 14:29:50",
          "27.10.2025 14:30:20",
          "27.10.2025 14:30:50",
          "27.10.2025 14:31:20",
          "27.10.2025 14:31:50",
          "27.10.2025 14:32:20",
          "27.10.2025 14:32:50",
          "27.10.2025 14:33:20",
          "27.10.2025 14:33:50",
          "27.10.2025 14:34:20",
          "27.10.2025 14:34:50",
          "27.10.2025 14:35:20",
          "27.10.2025 14:35:50",
          "27.10.2025 14:36:20",
          "27.10.2025 14:36:50",
          "27.10.2025 14:37:20",
          "27.10.2025 14:37:50",
          "27.10.2025 14:38:20",
          "27.10.2025 14:38:50",
          "27.10.2025 14:39:20",
          "27.10.2025 14:39:50",
          "27.10.2025 14:40:20",
          "27.10.2025 14:41:02",
          "27.10.2025 14:41:32",
          "27.10.2025 14:42:02",
          "27.10.2025 14:42:32",
          "27.10.2025 14:43:02",
          "27.10.2025 14:43:24",
          "27.10.2025 14:44:00",
          "27.10.2025 14:44:30",
          "27.10.2025 14:45:00",
          "27.10.2025 14:45:58",
          "27.10.2025 14:46:28",
          "27.10.2025 14:46:46",
          "27.10.2025 14:47:16",
          "27.10.2025 14:47:46",
          "27.10.2025 14:48:16",
          "27.10.2025 14:48:46",
          "27.10.2025 14:49:16",
          "27.10.2025 14:49:46",
          "27.10.2025 14:50:16",
          "27.10.2025 14:50:46",
          "27.10.2025 14:51:16",
          "27.10.2025 14:51:46",
          "27.10.2025 14:52:16",
          "27.10.2025 14:52:46",
          "27.10.2025 14:53:03",
          "27.10.2025 14:53:40",
          "27.10.2025 14:54:15",
          "27.10.2025 14:54:51",
          "27.10.2025 14:55:18",
          "27.10.2025 14:55:34",
          "27.10.2025 14:56:11",
          "27.10.2025 14:56:34",
          "27.10.2025 14:57:16",
          "27.10.2025 14:57:46",
          "27.10.2025 14:58:16",
          "27.10.2025 14:58:46",
          "27.10.2025 14:59:05",
          "27.10.2025 14:59:43",
          "27.10.2025 15:00:02",
          "27.10.2025 15:00:26",
          "27.10.2025 15:00:47",
          "27.10.2025 15:01:17",
          "27.10.2025 15:01:47",
          "27.10.2025 15:02:17",
          "27.10.2025 15:02:56",
          "27.10.2025 15:03:26",
          "27.10.2025 15:04:11",
          "27.10.2025 15:04:37",
          "27.10.2025 15:05:07",
          "27.10.2025 15:05:37",
          "27.10.2025 15:06:06",
          "27.10.2025 15:06:34",
          "27.10.2025 15:07:01",
          "27.10.2025 15:07:31",
          "27.10.2025 15:08:01",
          "27.10.2025 15:08:31",
          "27.10.2025 15:09:01",
          "27.10.2025 15:09:32",
          "27.10.2025 15:10:01",
          "27.10.2025 15:10:19",
          "27.10.2025 15:10:37",
          "27.10.2025 15:10:54",
          "27.10.2025 15:11:17",
          "27.10.2025 15:11:39",
          "27.10.2025 15:12:09",
          "27.10.2025 15:12:39",
          "27.10.2025 15:13:08",
          "27.10.2025 15:13:26",
          "27.10.2025 15:13:44",
          "27.10.2025 15:14:00",
          "27.10.2025 15:14:17",
          "27.10.2025 15:14:46",
          "27.10.2025 15:15:39",
          "27.10.2025 15:16:01",
          "27.10.2025 15:16:31",
          "27.10.2025 15:17:01",
          "27.10.2025 15:17:31",
          "27.10.2025 15:18:01",
          "27.10.2025 15:18:21",
          "27.10.2025 15:18:51",
          "27.10.2025 15:19:10",
          "27.10.2025 15:19:40",
          "27.10.2025 15:20:11",
          "27.10.2025 15:20:25",
          "27.10.2025 15:20:41",
          "27.10.2025 15:20:57",
          "27.10.2025 15:21:13",
          "27.10.2025 15:21:29",
          "27.10.2025 15:21:48"
        ],
        "course_deg_clockwise_from_north": [
          250,
          250,
          248,
          249,
          302,
          317,
          309,
          306,
          308,
          306,
          306,
          311,
          344,
          356,
          4,
          3,
          3,
          3,
          359,
          357,
          356,
          356,
          357,
          357,
          357,
          357,
          357,
          357,
          357,
          357,
          357,
          357,
          357,
          357,
          357,
          357,
          357,
          357,
          357,
          357,
          357,
          357,
          357,
          357,
          357,
          357,
          357,
          357,
          357,
          357,
          357,
          357,
          357,
          357,
          357,
          357,
          357,
          357,
          357,
          357,
          357,
          357,
          357,
          357,
          357,
          357,
          357,
          357,
          357,
          357,
          357,
          357,
          357,
          357,
          357,
          357,
          357,
          357,
          357,
          357,
          357,
          357,
          357,
          357,
          357,
          357,
          357,
          357,
          357,
          357,
          357,
          357,
          357,
          357,
          355,
          349,
          348,
          349,
          349,
          349,
          349,
          349,
          349,
          349,
          349,
          349,
          349,
          349,
          349,
          349,
          349,
          349,
          349,
          349,
          349,
          349,
          349,
          349,
          349,
          349,
          349,
          349,
          349,
          349,
          349,
          349,
          349,
          349,
          349,
          349,
          349,
          349,
          349,
          349,
          348,
          349,
          349,
          348,
          349,
          349,
          349,
          349,
          348,
          349,
          349,
          348,
          350,
          349,
          349,
          348,
          349,
          348,
          348,
          348,
          348,
          348,
          351,
          357,
          360,
          360,
          358,
          346,
          335,
          332,
          330,
          331,
          332,
          332,
          332,
          332,
          332,
          332,
          333,
          332,
          332,
          332,
          332,
          332,
          333,
          331,
          332,
          331,
          331,
          332,
          332,
          331,
          331,
          331,
          331,
          331,
          331,
          332,
          331,
          331,
          331,
          331,
          331,
          331,
          331,
          331,
          331,
          331,
          331,
          331,
          331,
          331,
          331,
          331,
          330,
          331,
          331,
          331,
          330,
          331,
          330,
          330,
          331,
          330,
          330,
          330,
          330,
          330,
          330,
          330,
          330,
          330,
          330,
          330,
          330,
          330,
          330,
          330,
          330,
          330,
          329,
          330,
          330,
          329,
          329,
          330,
          329,
          330,
          329,
          330,
          329,
          325,
          311,
          308,
          309,
          309,
          309,
          309,
          309,
          309,
          309,
          309,
          309,
          310,
          309,
          309,
          308,
          309,
          308,
          308,
          308,
          308,
          308,
          308,
          308,
          308,
          308,
          308,
          307,
          308,
          308,
          308,
          308,
          308,
          308,
          308,
          307,
          273,
          237,
          218,
          216,
          215,
          215,
          216,
          215,
          243,
          261,
          265,
          267,
          268,
          267,
          267,
          267,
          267,
          268,
          268,
          266,
          268,
          267,
          266,
          269,
          266,
          267,
          268,
          264,
          222
        ],
        "speed_kts": [
          158,
          158,
          162,
          168,
          193,
          211,
          211,
          230,
          261,
          303,
          337,
          364,
          379,
          392,
          413,
          425,
          429,
          432,
          431,
          427,
          426,
          428,
          427,
          424,
          421,
          419,
          424,
          435,
          431,
          429,
          427,
          429,
          433,
          438,
          441,
          431,
          433,
          435,
          440,
          445,
          445,
          445,
          441,
          440,
          435,
          433,
          432,
          435,
          437,
          439,
          439,
          441,
          441,
          441,
          444,
          447,
          450,
          453,
          453,
          454,
          453,
          453,
          451,
          450,
          451,
          450,
          450,
          449,
          448,
          447,
          446,
          445,
          443,
          443,
          441,
          440,
          440,
          438,
          438,
          439,
          440,
          442,
          442,
          440,
          439,
          440,
          441,
          440,
          438,
          437,
          434,
          433,
          430,
          424,
          418,
          411,
          408,
          409,
          410,
          409,
          408,
          407,
          408,
          413,
          418,
          422,
          425,
          428,
          429,
          433,
          435,
          439,
          442,
          442,
          442,
          439,
          436,
          433,
          432,
          431,
          426,
          423,
          419,
          420,
          420,
          417,
          415,
          414,
          412,
          412,
          408,
          405,
          402,
          401,
          397,
          398,
          397,
          393,
          394,
          393,
          392,
          392,
          394,
          397,
          403,
          407,
          409,
          414,
          415,
          417,
          418,
          419,
          421,
          419,
          418,
          417,
          420,
          426,
          430,
          436,
          442,
          438,
          434,
          432,
          430,
          426,
          421,
          421,
          415,
          412,
          411,
          412,
          408,
          404,
          402,
          401,
          398,
          398,
          398,
          397,
          396,
          393,
          393,
          397,
          398,
          400,
          405,
          411,
          414,
          418,
          422,
          423,
          425,
          428,
          427,
          421,
          417,
          415,
          415,
          415,
          415,
          414,
          414,
          412,
          411,
          411,
          408,
          410,
          409,
          409,
          409,
          408,
          409,
          411,
          414,
          417,
          417,
          418,
          419,
          421,
          421,
          420,
          421,
          420,
          416,
          414,
          414,
          413,
          412,
          410,
          410,
          410,
          410,
          409,
          409,
          409,
          410,
          410,
          414,
          415,
          415,
          416,
          416,
          417,
          417,
          415,
          413,
          414,
          411,
          406,
          403,
          395,
          389,
          385,
          380,
          372,
          366,
          364,
          367,
          367,
          365,
          365,
          372,
          377,
          380,
          348,
          338,
          335,
          327,
          321,
          314,
          306,
          298,
          294,
          289,
          287,
          286,
          277,
          255,
          251,
          247,
          253,
          269,
          279,
          261,
          243,
          240,
          229,
          221,
          200,
          190,
          185,
          176,
          184,
          182,
          185,
          171,
          159,
          143,
          149,
          147,
          143,
          132,
          109,
          105,
          115,
          114,
          117,
          119,
          122
        ],
        "speed_mph": [
          182.0,
          182.0,
          186.0,
          193.0,
          222.0,
          243.0,
          243.0,
          265.0,
          300.0,
          349.0,
          388.0,
          419.0,
          436.0,
          451.0,
          475.0,
          489.0,
          494.0,
          497.0,
          496.0,
          491.0,
          490.0,
          493.0,
          491.0,
          488.0,
          484.0,
          482.0,
          488.0,
          501.0,
          496.0,
          494.0,
          491.0,
          494.0,
          498.0,
          504.0,
          507.0,
          496.0,
          498.0,
          501.0,
          506.0,
          512.0,
          512.0,
          512.0,
          507.0,
          506.0,
          501.0,
          498.0,
          497.0,
          501.0,
          503.0,
          505.0,
          505.0,
          507.0,
          507.0,
          507.0,
          511.0,
          514.0,
          518.0,
          521.0,
          521.0,
          522.0,
          521.0,
          521.0,
          519.0,
          518.0,
          519.0,
          518.0,
          518.0,
          517.0,
          516.0,
          514.0,
          513.0,
          512.0,
          510.0,
          510.0,
          507.0,
          506.0,
          506.0,
          504.0,
          504.0,
          505.0,
          506.0,
          509.0,
          509.0,
          506.0,
          505.0,
          506.0,
          507.0,
          506.0,
          504.0,
          503.0,
          499.0,
          498.0,
          495.0,
          488.0,
          481.0,
          473.0,
          470.0,
          471.0,
          472.0,
          471.0,
          470.0,
          468.0,
          470.0,
          475.0,
          481.0,
          486.0,
          489.0,
          493.0,
          494.0,
          498.0,
          501.0,
          505.0,
          509.0,
          509.0,
          509.0,
          505.0,
          502.0,
          498.0,
          497.0,
          496.0,
          490.0,
          487.0,
          482.0,
          483.0,
          483.0,
          480.0,
          478.0,
          476.0,
          474.0,
          474.0,
          470.0,
          466.0,
          463.0,
          461.0,
          457.0,
          458.0,
          457.0,
          452.0,
          453.0,
          452.0,
          451.0,
          451.0,
          453.0,
          457.0,
          464.0,
          468.0,
          471.0,
          476.0,
          478.0,
          480.0,
          481.0,
          482.0,
          484.0,
          482.0,
          481.0,
          480.0,
          483.0,
          490.0,
          495.0,
          502.0,
          509.0,
          504.0,
          499.0,
          497.0,
          495.0,
          490.0,
          484.0,
          484.0,
          478.0,
          474.0,
          473.0,
          474.0,
          470.0,
          465.0,
          463.0,
          461.0,
          458.0,
          458.0,
          458.0,
          457.0,
          456.0,
          452.0,
          452.0,
          457.0,
          458.0,
          460.0,
          466.0,
          473.0,
          476.0,
          481.0,
          486.0,
          487.0,
          489.0,
          493.0,
          491.0,
          484.0,
          480.0,
          478.0,
          478.0,
          478.0,
          478.0,
          476.0,
          476.0,
          474.0,
          473.0,
          473.0,
          470.0,
          472.0,
          471.0,
          471.0,
          471.0,
          470.0,
          471.0,
          473.0,
          476.0,
          480.0,
          480.0,
          481.0,
          482.0,
          484.0,
          484.0,
          483.0,
          484.0,
          483.0,
          479.0,
          476.0,
          476.0,
          475.0,
          474.0,
          472.0,
          472.0,
          472.0,
          472.0,
          471.0,
          471.0,
          471.0,
          472.0,
          472.0,
          476.0,
          478.0,
          478.0,
          479.0,
          479.0,
          480.0,
          480.0,
          478.0,
          475.0,
          476.0,
          473.0,
          467.0,
          464.0,
          455.0,
          448.0,
          443.0,
          437.0,
          428.0,
          421.0,
          419.0,
          422.0,
          422.0,
          420.0,
          420.0,
          428.0,
          434.0,
          437.0,
          400.0,
          389.0,
          386.0,
          376.0,
          369.0,
          361.0,
          352.0,
          343.0,
          338.0,
          333.0,
          330.0,
          329.0,
          319.0,
          293.0,
          289.0,
          284.0,
          291.0,
          310.0,
          321.0,
          300.0,
          280.0,
          276.0,
          264.0,
          254.0,
          230.0,
          219.0,
          213.0,
          203.0,
          212.0,
          209.0,
          213.0,
          197.0,
          183.0,
          165.0,
          171.0,
          169.0,
          165.0,
          152.0,
          125.0,
          121.0,
          132.0,
          131.0,
          135.0,
          137.0,
          140.0
        ],
        "altitude_ft": [
          2200,
          2200,
          3175,
          3875,
          4475,
          5400,
          6875,
          8575,
          10850,
          12300,
          13575,
          15350,
          16300,
          19025,
          21025,
          22075,
          23425,
          24625,
          25975,
          27375,
          28450,
          29525,
          30525,
          31525,
          32525,
          33450,
          33950,
          34000,
          34775,
          35550,
          36350,
          36875,
          37325,
          37700,
          38075,
          38975,
          39450,
          39800,
          40000,
          40000,
          40000,
          40000,
          40000,
          40000,
          40425,
          40800,
          41175,
          41400,
          41650,
          41900,
          42125,
          42375,
          42600,
          42850,
          43000,
          43000,
          43000,
          43000,
          43000,
          43000,
          43000,
          43000,
          43000,
          43000,
          43000,
          43000,
          43000,
          43000,
          43000,
          43000,
          43000,
          43000,
          43000,
          43000,
          43000,
          43000,
          43000,
          43000,
          43000,
          43000,
          43000,
          43000,
          43000,
          43000,
          43000,
          43000,
          43000,
          43000,
          43000,
          43000,
          43000,
          43000,
          43000,
          43000,
          43000,
          43000,
          43000,
          43000,
          43000,
          43025,
          43000,
          43000,
          43000,
          43000,
          43000,
          43000,
          43000,
          43000,
          43000,
          43000,
          43000,
          43000,
          43000,
          43000,
          43000,
          43000,
          43000,
          43000,
          43000,
          43000,
          43000,
          43000,
          43000,
          43000,
          43000,
          43000,
          43000,
          43000,
          43000,
          43000,
          43000,
          43000,
          43000,
          43000,
          43000,
          43000,
          43000,
          43000,
          43000,
          43000,
          43000,
          43000,
          43000,
          43000,
          43000,
          43000,
          43000,
          43000,
          43000,
          43000,
          43000,
          43025,
          43000,
          43000,
          43000,
          43000,
          43000,
          43000,
          43000,
          43000,
          43000,
          43000,
          43000,
          43000,
          43000,
          43000,
          43000,
          43000,
          43000,
          43000,
          43000,
          43000,
          43000,
          43000,
          43000,
          43000,
          43000,
          43000,
          43000,
          43000,
          43000,
          43000,
          43000,
          43000,
          43000,
          43000,
          43000,
          43000,
          43000,
          43000,
          43000,
          43000,
          43000,
          43000,
          43000,
          43000,
          43000,
          43000,
          43000,
          43000,
          43000,
          43000,
          43000,
          43000,
          43000,
          42975,
          43000,
          43000,
          43000,
          43000,
          43000,
          43000,
          43000,
          43000,
          43000,
          43000,
          43000,
          43000,
          43000,
          43000,
          43000,
          43000,
          43000,
          43000,
          43000,
          43000,
          43000,
          43000,
          43000,
          43000,
          43000,
          43000,
          43000,
          43000,
          43000,
          43000,
          43000,
          43000,
          43000,
          43000,
          43000,
          43000,
          43000,
          43000,
          43000,
          43000,
          43000,
          43000,
          42575,
          41750,
          41100,
          39625,
          38750,
          37150,
          36000,
          35050,
          34050,
          33475,
          32125,
          31500,
          30750,
          30050,
          29050,
          28025,
          26925,
          25350,
          24225,
          22625,
          21625,
          20425,
          19200,
          18000,
          16700,
          15425,
          14075,
          13200,
          12450,
          11700,
          10925,
          10200,
          9775,
          9325,
          9000,
          8625,
          8300,
          7825,
          7225,
          6750,
          6525,
          6275,
          6075,
          5850,
          5625,
          5175,
          5000,
          4400,
          3875,
          3425,
          3025,
          2750,
          2325,
          2075,
          1700,
          1350,
          1225,
          1050,
          875,
          700,
          475,
          275
        ],
        "vertical_rate_fpm": [
          0.0,
          3079.0,
          2792.0,
          2167.0,
          2128.0,
          2667.0,
          3073.0,
          3097.0,
          2829.0,
          2555.0,
          2773.0,
          2973.0,
          3392.0,
          3150.0,
          2473.0,
          2400.0,
          2550.0,
          2468.0,
          2538.0,
          2357.0,
          2115.0,
          2041.0,
          2000.0,
          2000.0,
          1925.0,
          1425.0,
          550.0,
          811.0,
          1500.0,
          1549.0,
          1325.0,
          975.0,
          825.0,
          750.0,
          1275.0,
          1352.0,
          811.0,
          550.0,
          169.0,
          0.0,
          0.0,
          0.0,
          0.0,
          425.0,
          800.0,
          750.0,
          600.0,
          475.0,
          500.0,
          475.0,
          475.0,
          475.0,
          475.0,
          393.0,
          148.0,
          0.0,
          0.0,
          0.0,
          0.0,
          0.0,
          0.0,
          0.0,
          0.0,
          0.0,
          0.0,
          0.0,
          0.0,
          0.0,
          0.0,
          0.0,
          0.0,
          0.0,
          0.0,
          0.0,
          0.0,
          0.0,
          0.0,
          0.0,
          0.0,
          0.0,
          0.0,
          0.0,
          0.0,
          0.0,
          0.0,
          0.0,
          0.0,
          0.0,
          0.0,
          0.0,
          0.0,
          0.0,
          0.0,
          0.0,
          0.0,
          0.0,
          0.0,
          0.0,
          25.0,
          0.0,
          -25.0,
          0.0,
          0.0,
          0.0,
          0.0,
          0.0,
          0.0,
          0.0,
          0.0,
          0.0,
          0.0,
          0.0,
          0.0,
          0.0,
          0.0,
          0.0,
          0.0,
          0.0,
          0.0,
          0.0,
          0.0,
          0.0,
          0.0,
          0.0,
          0.0,
          0.0,
          0.0,
          0.0,
          0.0,
          0.0,
          0.0,
          0.0,
          0.0,
          0.0,
          0.0,
          0.0,
          0.0,
          0.0,
          0.0,
          0.0,
          0.0,
          0.0,
          0.0,
          0.0,
          0.0,
          0.0,
          0.0,
          0.0,
          0.0,
          0.0,
          25.0,
          0.0,
          -25.0,
          0.0,
          0.0,
          0.0,
          0.0,
          0.0,
          0.0,
          0.0,
          0.0,
          0.0,
          0.0,
          0.0,
          0.0,
          0.0,
          0.0,
          0.0,
          0.0,
          0.0,
          0.0,
          0.0,
          0.0,
          0.0,
          0.0,
          0.0,
          0.0,
          0.0,
          0.0,
          0.0,
          0.0,
          0.0,
          0.0,
          0.0,
          0.0,
          0.0,
          0.0,
          0.0,
          0.0,
          0.0,
          0.0,
          0.0,
          0.0,
          0.0,
          0.0,
          0.0,
          0.0,
          0.0,
          0.0,
          0.0,
          0.0,
          0.0,
          0.0,
          0.0,
          -25.0,
          0.0,
          25.0,
          0.0,
          0.0,
          0.0,
          0.0,
          0.0,
          0.0,
          0.0,
          0.0,
          0.0,
          0.0,
          0.0,
          0.0,
          0.0,
          0.0,
          0.0,
          0.0,
          0.0,
          0.0,
          0.0,
          0.0,
          0.0,
          0.0,
          0.0,
          0.0,
          0.0,
          0.0,
          0.0,
          0.0,
          0.0,
          0.0,
          0.0,
          0.0,
          0.0,
          0.0,
          0.0,
          0.0,
          0.0,
          0.0,
          0.0,
          0.0,
          -359.0,
          -1190.0,
          -2058.0,
          -2406.0,
          -2350.0,
          -2285.0,
          -2292.0,
          -2100.0,
          -1950.0,
          -1929.0,
          -2026.0,
          -2079.0,
          -1919.0,
          -1933.0,
          -2000.0,
          -2025.0,
          -2125.0,
          -2326.0,
          -2348.0,
          -2180.0,
          -2197.0,
          -2357.0,
          -2425.0,
          -2466.0,
          -2632.0,
          -2809.0,
          -2763.0,
          -2225.0,
          -1625.0,
          -1500.0,
          -1500.0,
          -1500.0,
          -1468.0,
          -1458.0,
          -1329.0,
          -1050.0,
          -933.0,
          -923.0,
          -1075.0,
          -1093.0,
          -894.0,
          -792.0,
          -794.0,
          -773.0,
          -587.0,
          -494.0,
          -500.0,
          -894.0,
          -1125.0,
          -975.0,
          -850.0,
          -810.0,
          -840.0,
          -827.0,
          -765.0,
          -713.0,
          -633.0,
          -600.0,
          -656.0,
          -656.0,
          -750.0,
          -729.0,
          -632.0
        ]
      }
    }
  ]
}