{
  "type": "FeatureCollection",
  "features": [
    {
      "type": "Feature",
      "geometry": {
        "type": "LineString",
        "coordinates": [
          [
            55.5171,
            25.3312
          ],
          [
            55.5171,
            25.3312
          ],
          [
            55.505,
            25.3378
          ],
          [
            55.4928,
            25.3447
          ],
          [
            55.4794,
            25.3526
          ],
          [
            55.4646,
            25.3617
          ],
          [
            55.4348,
            25.3789
          ],
          [
            55.4186,
            25.3949
          ],
          [
            55.4129,
            25.4183
          ],
          [
            55.4198,
            25.4404
          ],
          [
            55.4378,
            25.4677
          ],
          [
            55.455,
            25.4897
          ],
          [
            55.4689,
            25.5062
          ],
          [
            55.4951,
            25.5196
          ],
          [
            55.5226,
            25.5199
          ],
          [
            55.5685,
            25.5015
          ],
          [
            55.6084,
            25.4791
          ],
          [
            55.6402,
            25.4674
          ],
          [
            55.6745,
            25.4583
          ],
          [
            55.734,
            25.4434
          ],
          [
            55.8143,
            25.4212
          ],
          [
            55.8733,
            25.4052
          ],
          [
            55.9322,
            25.3892
          ],
          [
            55.9979,
            25.3709
          ],
          [
            56.0635,
            25.3527
          ],
          [
            56.1258,
            25.3355
          ],
          [
            56.1886,
            25.3172
          ],
          [
            56.2523,
            25.2957
          ],
          [
            56.3205,
            25.2729
          ],
          [
            56.3871,
            25.2508
          ],
          [
            56.464,
            25.2258
          ],
          [
            56.5273,
            25.2045
          ],
          [
            56.5983,
            25.181
          ],
          [
            56.6705,
            25.1543
          ],
          [
            56.7425,
            25.1258
          ],
          [
            56.8112,
            25.0997
          ],
          [
            56.8886,
            25.0706
          ],
          [
            56.9587,
            25.0443
          ],
          [
            57.0283,
            25.0173
          ],
          [
            57.0981,
            24.9911
          ],
          [
            57.1685,
            24.9646
          ],
          [
            57.2416,
            24.9365
          ],
          [
            57.3097,
            24.9105
          ],
          [
            57.3798,
            24.8838
          ],
          [
            57.4479,
            24.8574
          ],
          [
            57.5173,
            24.8309
          ],
          [
            57.5888,
            24.8037
          ],
          [
            57.6586,
            24.7761
          ],
          [
            57.7287,
            24.7494
          ],
          [
            57.8006,
            24.7229
          ],
          [
            57.8753,
            24.7
          ],
          [
            57.9478,
            24.6778
          ],
          [
            58.0198,
            24.6546
          ],
          [
            58.0915,
            24.6324
          ],
          [
            58.1626,
            24.6102
          ],
          [
            58.2336,
            24.5876
          ],
          [
            58.306,
            24.565
          ],
          [
            58.3768,
            24.5427
          ],
          [
            58.4477,
            24.5199
          ],
          [
            58.5165,
            24.4983
          ],
          [
            58.5864,
            24.4761
          ],
          [
            58.6532,
            24.4548
          ],
          [
            58.7201,
            24.4336
          ],
          [
            58.7652,
            24.4182
          ],
          [
            58.8304,
            24.3905
          ],
          [
            58.9062,
            24.355
          ],
          [
            58.9705,
            24.3266
          ],
          [
            59.0347,
            24.2979
          ],
          [
            59.1056,
            24.2664
          ],
          [
            59.1835,
            24.2316
          ],
          [
            59.2507,
            24.2016
          ],
          [
            59.3231,
            24.169
          ],
          [
            59.3932,
            24.1378
          ],
          [
            59.4614,
            24.107
          ],
          [
            59.5268,
            24.0775
          ],
          [
            59.5918,
            24.0481
          ],
          [
            59.6593,
            24.0176
          ],
          [
            59.7257,
            23.9872
          ],
          [
            59.7987,
            23.9544
          ],
          [
            59.8626,
            23.9253
          ],
          [
            59.9364,
            23.8917
          ],
          [
            60.0031,
            23.8614
          ],
          [
            60.0722,
            23.8298
          ],
          [
            60.1406,
            23.7984
          ],
          [
            60.2059,
            23.7688
          ],
          [
            60.2734,
            23.7377
          ],
          [
            60.3361,
            23.7089
          ],
          [
            60.4061,
            23.6769
          ],
          [
            60.4702,
            23.6473
          ],
          [
            60.5358,
            23.6171
          ],
          [
            60.5976,
            23.5886
          ],
          [
            60.6665,
            23.5569
          ],
          [
            60.7348,
            23.5251
          ],
          [
            60.8093,
            23.4907
          ],
          [
            60.8816,
            23.4572
          ],
          [
            60.9481,
            23.426
          ],
          [
            61.0138,
            23.3955
          ],
          [
            61.0923,
            23.3594
          ],
          [
            61.1446,
            23.3353
          ],
          [
            61.1934,
            23.3203
          ],
          [
            61.2854,
            23.3071
          ],
          [
            61.3755,
            23.2998
          ],
          [
            61.4556,
            23.2927
          ],
          [
            61.5307,
            23.2857
          ],
          [
            61.6029,
            23.2794
          ],
          [
            61.6796,
            23.2723
          ],
          [
            61.754,
            23.2656
          ],
          [
            61.8284,
            23.2588
          ],
          [
            61.9028,
            23.2519
          ],
          [
            62.0328,
            23.24
          ],
          [
            62.1281,
            23.2307
          ],
          [
            62.2022,
            23.2243
          ],
          [
            62.2776,
            23.2169
          ],
          [
            62.3517,
            23.2098
          ],
          [
            62.4258,
            23.203
          ],
          [
            62.5094,
            23.1946
          ],
          [
            62.5837,
            23.1875
          ],
          [
            62.6596,
            23.1804
          ],
          [
            62.7349,
            23.1728
          ],
          [
            62.8093,
            23.1657
          ],
          [
            62.8851,
            23.1582
          ],
          [
            62.958,
            23.151
          ],
          [
            63.0418,
            23.1426
          ],
          [
            63.1185,
            23.1351
          ],
          [
            63.1938,
            23.1274
          ],
          [
            63.2694,
            23.1197
          ],
          [
            63.3437,
            23.1124
          ],
          [
            63.4903,
            23.0974
          ],
          [
            63.6395,
            23.0819
          ],
          [
            63.7936,
            23.0659
          ],
          [
            63.8702,
            23.0538
          ],
          [
            63.9722,
            23.0194
          ],
          [
            64.0559,
            22.9865
          ],
          [
            64.1313,
            22.9583
          ],
          [
            64.2006,
            22.9322
          ],
          [
            64.2681,
            22.9064
          ],
          [
            64.337,
            22.8806
          ],
          [
            64.4072,
            22.8541
          ],
          [
            64.4754,
            22.828
          ],
          [
            64.6121,
            22.7762
          ],
          [
            64.7479,
            22.724
          ],
          [
            64.8741,
            22.6754
          ],
          [
            64.9516,
            22.6459
          ],
          [
            65.019,
            22.6201
          ],
          [
            65.0891,
            22.5928
          ],
          [
            65.2253,
            22.5404
          ],
          [
            65.324,
            22.502
          ],
          [
            65.4789,
            22.442
          ],
          [
            65.5524,
            22.4133
          ],
          [
            65.6301,
            22.383
          ],
          [
            65.8766,
            22.2866
          ],
          [
            65.9427,
            22.2605
          ],
          [
            66.0539,
            22.2168
          ],
          [
            66.1349,
            22.1848
          ],
          [
            66.1979,
            22.1599
          ],
          [
            66.2709,
            22.1311
          ],
          [
            66.358,
            22.0968
          ],
          [
            66.424,
            22.0704
          ],
          [
            66.4896,
            22.0445
          ],
          [
            66.5843,
            22.0066
          ],
          [
            66.649,
            21.9809
          ],
          [
            66.7154,
            21.9545
          ],
          [
            66.7836,
            21.9273
          ],
          [
            66.8477,
            21.9016
          ],
          [
            66.9137,
            21.875
          ],
          [
            66.9788,
            21.8491
          ],
          [
            67.0457,
            21.8223
          ],
          [
            67.1313,
            21.7876
          ],
          [
            67.2005,
            21.7597
          ],
          [
            67.2655,
            21.7337
          ],
          [
            67.332,
            21.7066
          ],
          [
            67.3966,
            21.6806
          ],
          [
            67.5068,
            21.6357
          ],
          [
            67.6395,
            21.5819
          ],
          [
            67.7048,
            21.5553
          ],
          [
            67.7712,
            21.5283
          ],
          [
            67.8374,
            21.5011
          ],
          [
            67.9039,
            21.4742
          ],
          [
            67.9692,
            21.4473
          ],
          [
            68.0347,
            21.4206
          ],
          [
            68.1017,
            21.3928
          ],
          [
            68.1672,
            21.3661
          ],
          [
            68.2325,
            21.3392
          ],
          [
            68.2964,
            21.3128
          ],
          [
            68.3655,
            21.2842
          ],
          [
            68.494,
            21.2313
          ],
          [
            68.5588,
            21.2046
          ],
          [
            68.6898,
            21.1498
          ],
          [
            68.7537,
            21.1233
          ],
          [
            68.818,
            21.0966
          ],
          [
            68.9483,
            21.0421
          ],
          [
            69.0117,
            21.016
          ],
          [
            69.0991,
            20.9792
          ],
          [
            69.2131,
            20.9429
          ],
          [
            69.3514,
            20.9018
          ],
          [
            69.4206,
            20.881
          ],
          [
            69.488,
            20.8606
          ],
          [
            69.5692,
            20.8343
          ],
          [
            69.6343,
            20.8032
          ],
          [
            69.6972,
            20.7696
          ],
          [
            69.7594,
            20.7374
          ],
          [
            69.8209,
            20.7056
          ],
          [
            69.8832,
            20.6732
          ],
          [
            69.9448,
            20.6414
          ],
          [
            70.0389,
            20.5926
          ],
          [
            70.1084,
            20.5567
          ],
          [
            70.1926,
            20.5128
          ],
          [
            70.2869,
            20.4639
          ],
          [
            70.3473,
            20.4321
          ],
          [
            70.4395,
            20.3844
          ],
          [
            70.5012,
            20.3522
          ],
          [
            70.5643,
            20.3189
          ],
          [
            70.6261,
            20.2868
          ],
          [
            70.6869,
            20.2547
          ],
          [
            70.8115,
            20.1893
          ],
          [
            70.8738,
            20.1566
          ],
          [
            70.9352,
            20.1243
          ],
          [
            70.9969,
            20.0918
          ],
          [
            71.0586,
            20.0592
          ],
          [
            71.1224,
            20.0256
          ],
          [
            71.1824,
            19.9936
          ],
          [
            71.2455,
            19.9604
          ],
          [
            71.3045,
            19.9292
          ],
          [
            71.3645,
            19.8973
          ],
          [
            71.4252,
            19.8651
          ],
          [
            71.4848,
            19.8335
          ],
          [
            71.545,
            19.8014
          ],
          [
            71.6051,
            19.7694
          ],
          [
            71.6635,
            19.7382
          ],
          [
            71.7243,
            19.706
          ],
          [
            71.7947,
            19.6682
          ],
          [
            71.8547,
            19.6362
          ],
          [
            71.9203,
            19.601
          ],
          [
            71.9858,
            19.5659
          ],
          [
            72.0767,
            19.5171
          ],
          [
            72.1424,
            19.4818
          ],
          [
            72.2047,
            19.4482
          ],
          [
            72.2843,
            19.4057
          ],
          [
            72.3429,
            19.3738
          ],
          [
            72.4023,
            19.3419
          ],
          [
            72.4685,
            19.306
          ],
          [
            72.5275,
            19.2741
          ],
          [
            72.5878,
            19.2416
          ],
          [
            72.645,
            19.2104
          ],
          [
            72.7054,
            19.1776
          ],
          [
            72.762,
            19.1471
          ],
          [
            72.8218,
            19.1146
          ],
          [
            72.8799,
            19.0827
          ],
          [
            72.9433,
            19.0508
          ],
          [
            73.0147,
            19.0149
          ],
          [
            73.076,
            18.9836
          ],
          [
            73.1356,
            18.9531
          ],
          [
            73.1947,
            18.9228
          ],
          [
            73.2537,
            18.8928
          ],
          [
            73.3124,
            18.8625
          ],
          [
            73.3749,
            18.8305
          ],
          [
            73.4325,
            18.8014
          ],
          [
            73.492,
            18.7748
          ],
          [
            73.5541,
            18.7472
          ],
          [
            73.6151,
            18.7195
          ],
          [
            73.6755,
            18.6923
          ],
          [
            73.7368,
            18.6641
          ],
          [
            73.798,
            18.6366
          ],
          [
            73.8591,
            18.609
          ],
          [
            73.9178,
            18.5818
          ],
          [
            73.9836,
            18.5535
          ],
          [
            74.0468,
            18.5269
          ],
          [
            74.1072,
            18.4998
          ],
          [
            74.1694,
            18.4731
          ],
          [
            74.2307,
            18.4467
          ],
          [
            74.2915,
            18.4201
          ],
          [
            74.3508,
            18.3943
          ],
          [
            74.4154,
            18.3664
          ],
          [
            74.4774,
            18.3392
          ],
          [
            74.5388,
            18.3125
          ],
          [
            74.5996,
            18.2859
          ],
          [
            74.6596,
            18.2596
          ],
          [
            74.7231,
            18.2319
          ],
          [
            74.7857,
            18.205
          ],
          [
            74.8473,
            18.1781
          ],
          [
            74.907,
            18.1522
          ],
          [
            74.9675,
            18.1261
          ],
          [
            75.0312,
            18.0983
          ],
          [
            75.0928,
            18.0715
          ],
          [
            75.1524,
            18.0456
          ],
          [
            75.2155,
            18.0181
          ],
          [
            75.2768,
            17.9914
          ],
          [
            75.3376,
            17.9648
          ],
          [
            75.4005,
            17.9372
          ],
          [
            75.4628,
            17.9102
          ],
          [
            75.5246,
            17.8828
          ],
          [
            75.5925,
            17.8532
          ],
          [
            75.6529,
            17.8268
          ],
          [
            75.7144,
            17.7996
          ],
          [
            75.7753,
            17.773
          ],
          [
            75.8367,
            17.7459
          ],
          [
            75.8965,
            17.7196
          ],
          [
            75.9575,
            17.6924
          ],
          [
            76.0174,
            17.666
          ],
          [
            76.0802,
            17.638
          ],
          [
            76.1418,
            17.6106
          ],
          [
            76.204,
            17.5827
          ],
          [
            76.2635,
            17.5561
          ],
          [
            76.3276,
            17.5273
          ],
          [
            76.3892,
            17.4999
          ],
          [
            76.4488,
            17.4731
          ],
          [
            76.5107,
            17.4451
          ],
          [
            76.5712,
            17.418
          ],
          [
            76.6351,
            17.3894
          ],
          [
            76.6952,
            17.3621
          ],
          [
            76.756,
            17.3347
          ],
          [
            76.8012,
            17.3206
          ],
          [
            76.8821,
            17.3101
          ],
          [
            76.9583,
            17.3059
          ],
          [
            77.0294,
            17.3028
          ],
          [
            77.097,
            17.2985
          ],
          [
            77.1707,
            17.2945
          ],
          [
            77.2412,
            17.2914
          ],
          [
            77.3264,
            17.2868
          ],
          [
            77.396,
            17.2833
          ],
          [
            77.4621,
            17.2797
          ],
          [
            77.528,
            17.2763
          ],
          [
            77.595,
            17.2728
          ],
          [
            77.6353,
            17.2739
          ],
          [
            77.6994,
            17.2953
          ],
          [
            77.7575,
            17.3173
          ],
          [
            77.8137,
            17.3382
          ],
          [
            77.8696,
            17.3582
          ],
          [
            77.9267,
            17.3801
          ],
          [
            77.9583,
            17.3927
          ],
          [
            77.9822,
            17.4025
          ],
          [
            78.0218,
            17.4166
          ],
          [
            78.0477,
            17.4161
          ],
          [
            78.0753,
            17.4023
          ],
          [
            78.1027,
            17.3812
          ],
          [
            78.1393,
            17.3521
          ],
          [
            78.1633,
            17.3319
          ],
          [
            78.1898,
            17.2938
          ],
          [
            78.2094,
            17.2612
          ],
          [
            78.2408,
            17.2379
          ],
          [
            78.2615,
            17.2268
          ],
          [
            78.2803,
            17.2258
          ],
          [
            78.3009,
            17.2267
          ],
          [
            78.3181,
            17.227
          ],
          [
            78.3411,
            17.2275
          ],
          [
            78.3588,
            17.2278
          ],
          [
            78.3632,
            17.2278
          ],
          [
            78.3714,
            17.228
          ],
          [
            78.3822,
            17.2281
          ],
          [
            78.3948,
            17.2283
          ],
          [
            78.4043,
            17.2285
          ],
          [
            78.4137,
            17.2286
          ]
        ]
      },
      "properties": {
        "time_europe_berlin": [
          "24.11.2025 05:57:26",
          "24.11.2025 05:57:26",
          "24.11.2025 05:57:42",
          "24.11.2025 05:57:58",
          "24.11.2025 05:58:16",
          "24.11.2025 05:58:32",
          "24.11.2025 05:58:59",
          "24.11.2025 05:59:15",
          "24.11.2025 05:59:31",
          "24.11.2025 05:59:49",
          "24.11.2025 06:00:11",
          "24.11.2025 06:00:30",
          "24.11.2025 06:00:46",
          "24.11.2025 06:01:04",
          "24.11.2025 06:01:20",
          "24.11.2025 06:01:48",
          "24.11.2025 06:02:13",
          "24.11.2025 06:02:32",
          "24.11.2025 06:02:51",
          "24.11.2025 06:03:24",
          "24.11.2025 06:04:08",
          "24.11.2025 06:04:41",
          "24.11.2025 06:05:11",
          "24.11.2025 06:05:44",
          "24.11.2025 06:06:16",
          "24.11.2025 06:06:46",
          "24.11.2025 06:07:16",
          "24.11.2025 06:07:46",
          "24.11.2025 06:08:17",
          "24.11.2025 06:08:47",
          "24.11.2025 06:09:19",
          "24.11.2025 06:09:49",
          "24.11.2025 06:10:19",
          "24.11.2025 06:10:49",
          "24.11.2025 06:11:19",
          "24.11.2025 06:11:49",
          "24.11.2025 06:12:19",
          "24.11.2025 06:12:50",
          "24.11.2025 06:13:20",
          "24.11.2025 06:13:50",
          "24.11.2025 06:14:20",
          "24.11.2025 06:14:52",
          "24.11.2025 06:15:22",
          "24.11.2025 06:15:53",
          "24.11.2025 06:16:23",
          "24.11.2025 06:16:53",
          "24.11.2025 06:17:23",
          "24.11.2025 06:17:54",
          "24.11.2025 06:18:24",
          "24.11.2025 06:18:54",
          "24.11.2025 06:19:24",
          "24.11.2025 06:19:54",
          "24.11.2025 06:20:24",
          "24.11.2025 06:20:54",
          "24.11.2025 06:21:24",
          "24.11.2025 06:21:54",
          "24.11.2025 06:22:24",
          "24.11.2025 06:22:54",
          "24.11.2025 06:23:24",
          "24.11.2025 06:23:54",
          "24.11.2025 06:24:25",
          "24.11.2025 06:24:55",
          "24.11.2025 06:25:25",
          "24.11.2025 06:25:45",
          "24.11.2025 06:26:15",
          "24.11.2025 06:26:50",
          "24.11.2025 06:27:20",
          "24.11.2025 06:27:51",
          "24.11.2025 06:28:22",
          "24.11.2025 06:28:58",
          "24.11.2025 06:29:28",
          "24.11.2025 06:30:00",
          "24.11.2025 06:30:31",
          "24.11.2025 06:31:01",
          "24.11.2025 06:31:31",
          "24.11.2025 06:32:01",
          "24.11.2025 06:32:31",
          "24.11.2025 06:33:02",
          "24.11.2025 06:33:33",
          "24.11.2025 06:34:03",
          "24.11.2025 06:34:37",
          "24.11.2025 06:35:08",
          "24.11.2025 06:35:38",
          "24.11.2025 06:36:09",
          "24.11.2025 06:36:40",
          "24.11.2025 06:37:11",
          "24.11.2025 06:37:41",
          "24.11.2025 06:38:12",
          "24.11.2025 06:38:42",
          "24.11.2025 06:39:12",
          "24.11.2025 06:39:42",
          "24.11.2025 06:40:13",
          "24.11.2025 06:40:44",
          "24.11.2025 06:41:18",
          "24.11.2025 06:41:52",
          "24.11.2025 06:42:22",
          "24.11.2025 06:42:52",
          "24.11.2025 06:43:29",
          "24.11.2025 06:43:53",
          "24.11.2025 06:44:14",
          "24.11.2025 06:44:51",
          "24.11.2025 06:45:27",
          "24.11.2025 06:46:00",
          "24.11.2025 06:46:30",
          "24.11.2025 06:47:00",
          "24.11.2025 06:47:30",
          "24.11.2025 06:48:00",
          "24.11.2025 06:48:30",
          "24.11.2025 06:49:01",
          "24.11.2025 06:49:53",
          "24.11.2025 06:50:31",
          "24.11.2025 06:51:01",
          "24.11.2025 06:51:31",
          "24.11.2025 06:52:01",
          "24.11.2025 06:52:31",
          "24.11.2025 06:53:04",
          "24.11.2025 06:53:34",
          "24.11.2025 06:54:05",
          "24.11.2025 06:54:35",
          "24.11.2025 06:55:05",
          "24.11.2025 06:55:35",
          "24.11.2025 06:56:05",
          "24.11.2025 06:56:39",
          "24.11.2025 06:57:09",
          "24.11.2025 06:57:39",
          "24.11.2025 06:58:09",
          "24.11.2025 06:58:39",
          "24.11.2025 06:59:39",
          "24.11.2025 07:00:39",
          "24.11.2025 07:01:40",
          "24.11.2025 07:02:11",
          "24.11.2025 07:02:55",
          "24.11.2025 07:03:32",
          "24.11.2025 07:04:06",
          "24.11.2025 07:04:36",
          "24.11.2025 07:05:06",
          "24.11.2025 07:05:36",
          "24.11.2025 07:06:06",
          "24.11.2025 07:06:36",
          "24.11.2025 07:07:37",
          "24.11.2025 07:08:37",
          "24.11.2025 07:09:33",
          "24.11.2025 07:10:06",
          "24.11.2025 07:10:37",
          "24.11.2025 07:11:08",
          "24.11.2025 07:12:08",
          "24.11.2025 07:12:52",
          "24.11.2025 07:14:00",
          "24.11.2025 07:14:34",
          "24.11.2025 07:15:08",
          "24.11.2025 07:17:00",
          "24.11.2025 07:17:30",
          "24.11.2025 07:18:21",
          "24.11.2025 07:18:57",
          "24.11.2025 07:19:27",
          "24.11.2025 07:19:58",
          "24.11.2025 07:20:39",
          "24.11.2025 07:21:10",
          "24.11.2025 07:21:40",
          "24.11.2025 07:22:23",
          "24.11.2025 07:22:53",
          "24.11.2025 07:23:24",
          "24.11.2025 07:23:54",
          "24.11.2025 07:24:24",
          "24.11.2025 07:24:54",
          "24.11.2025 07:25:24",
          "24.11.2025 07:25:54",
          "24.11.2025 07:26:34",
          "24.11.2025 07:27:05",
          "24.11.2025 07:27:35",
          "24.11.2025 07:28:05",
          "24.11.2025 07:28:35",
          "24.11.2025 07:29:25",
          "24.11.2025 07:30:24",
          "24.11.2025 07:30:54",
          "24.11.2025 07:31:25",
          "24.11.2025 07:31:55",
          "24.11.2025 07:32:25",
          "24.11.2025 07:32:55",
          "24.11.2025 07:33:25",
          "24.11.2025 07:33:55",
          "24.11.2025 07:34:25",
          "24.11.2025 07:34:55",
          "24.11.2025 07:35:25",
          "24.11.2025 07:35:57",
          "24.11.2025 07:36:55",
          "24.11.2025 07:37:26",
          "24.11.2025 07:38:27",
          "24.11.2025 07:38:57",
          "24.11.2025 07:39:27",
          "24.11.2025 07:40:27",
          "24.11.2025 07:40:58",
          "24.11.2025 07:41:39",
          "24.11.2025 07:42:30",
          "24.11.2025 07:43:31",
          "24.11.2025 07:44:01",
          "24.11.2025 07:44:31",
          "24.11.2025 07:45:07",
          "24.11.2025 07:45:38",
          "24.11.2025 07:46:09",
          "24.11.2025 07:46:40",
          "24.11.2025 07:47:10",
          "24.11.2025 07:47:40",
          "24.11.2025 07:48:10",
          "24.11.2025 07:48:56",
          "24.11.2025 07:49:29",
          "24.11.2025 07:50:10",
          "24.11.2025 07:50:57",
          "24.11.2025 07:51:27",
          "24.11.2025 07:52:10",
          "24.11.2025 07:52:40",
          "24.11.2025 07:53:10",
          "24.11.2025 07:53:41",
          "24.11.2025 07:54:11",
          "24.11.2025 07:55:11",
          "24.11.2025 07:55:41",
          "24.11.2025 07:56:11",
          "24.11.2025 07:56:41",
          "24.11.2025 07:57:11",
          "24.11.2025 07:57:42",
          "24.11.2025 07:58:12",
          "24.11.2025 07:58:42",
          "24.11.2025 07:59:12",
          "24.11.2025 07:59:42",
          "24.11.2025 08:00:12",
          "24.11.2025 08:00:42",
          "24.11.2025 08:01:12",
          "24.11.2025 08:01:42",
          "24.11.2025 08:02:12",
          "24.11.2025 08:02:42",
          "24.11.2025 08:03:17",
          "24.11.2025 08:03:47",
          "24.11.2025 08:04:20",
          "24.11.2025 08:04:52",
          "24.11.2025 08:05:38",
          "24.11.2025 08:06:09",
          "24.11.2025 08:06:41",
          "24.11.2025 08:07:22",
          "24.11.2025 08:07:52",
          "24.11.2025 08:08:22",
          "24.11.2025 08:08:54",
          "24.11.2025 08:09:25",
          "24.11.2025 08:09:56",
          "24.11.2025 08:10:26",
          "24.11.2025 08:10:56",
          "24.11.2025 08:11:26",
          "24.11.2025 08:11:56",
          "24.11.2025 08:12:26",
          "24.11.2025 08:13:00",
          "24.11.2025 08:13:35",
          "24.11.2025 08:14:06",
          "24.11.2025 08:14:36",
          "24.11.2025 08:15:06",
          "24.11.2025 08:15:36",
          "24.11.2025 08:16:06",
          "24.11.2025 08:16:36",
          "24.11.2025 08:17:07",
          "24.11.2025 08:17:37",
          "24.11.2025 08:18:07",
          "24.11.2025 08:18:37",
          "24.11.2025 08:19:07",
          "24.11.2025 08:19:37",
          "24.11.2025 08:20:07",
          "24.11.2025 08:20:37",
          "24.11.2025 08:21:07",
          "24.11.2025 08:21:39",
          "24.11.2025 08:22:09",
          "24.11.2025 08:22:39",
          "24.11.2025 08:23:09",
          "24.11.2025 08:23:39",
          "24.11.2025 08:24:09",
          "24.11.2025 08:24:39",
          "24.11.2025 08:25:10",
          "24.11.2025 08:25:40",
          "24.11.2025 08:26:10",
          "24.11.2025 08:26:40",
          "24.11.2025 08:27:10",
          "24.11.2025 08:27:40",
          "24.11.2025 08:28:10",
          "24.11.2025 08:28:41",
          "24.11.2025 08:29:11",
          "24.11.2025 08:29:41",
          "24.11.2025 08:30:11",
          "24.11.2025 08:30:41",
          "24.11.2025 08:31:11",
          "24.11.2025 08:31:41",
          "24.11.2025 08:32:11",
          "24.11.2025 08:32:41",
          "24.11.2025 08:33:12",
          "24.11.2025 08:33:42",
          "24.11.2025 08:34:13",
          "24.11.2025 08:34:47",
          "24.11.2025 08:35:17",
          "24.11.2025 08:35:47",
          "24.11.2025 08:36:17",
          "24.11.2025 08:36:47",
          "24.11.2025 08:37:17",
          "24.11.2025 08:37:47",
          "24.11.2025 08:38:17",
          "24.11.2025 08:38:47",
          "24.11.2025 08:39:17",
          "24.11.2025 08:39:47",
          "24.11.2025 08:40:17",
          "24.11.2025 08:40:48",
          "24.11.2025 08:41:18",
          "24.11.2025 08:41:48",
          "24.11.2025 08:42:18",
          "24.11.2025 08:42:48",
          "24.11.2025 08:43:21",
          "24.11.2025 08:43:51",
          "24.11.2025 08:44:21",
          "24.11.2025 08:44:41",
          "24.11.2025 08:45:16",
          "24.11.2025 08:45:47",
          "24.11.2025 08:46:17",
          "24.11.2025 08:46:47",
          "24.11.2025 08:47:17",
          "24.11.2025 08:47:47",
          "24.11.2025 08:48:23",
          "24.11.2025 08:48:53",
          "24.11.2025 08:49:23",
          "24.11.2025 08:49:53",
          "24.11.2025 08:50:23",
          "24.11.2025 08:50:44",
          "24.11.2025 08:51:15",
          "24.11.2025 08:51:45",
          "24.11.2025 08:52:15",
          "24.11.2025 08:52:45",
          "24.11.2025 08:53:17",
          "24.11.2025 08:53:35",
          "24.11.2025 08:53:51",
          "24.11.2025 08:54:16",
          "24.11.2025 08:54:33",
          "24.11.2025 08:54:50",
          "24.11.2025 08:55:12",
          "24.11.2025 08:55:42",
          "24.11.2025 08:56:02",
          "24.11.2025 08:56:33",
          "24.11.2025 08:56:57",
          "24.11.2025 08:57:28",
          "24.11.2025 08:57:48",
          "24.11.2025 08:58:07",
          "24.11.2025 08:58:29",
          "24.11.2025 08:58:49",
          "24.11.2025 08:59:19",
          "24.11.2025 08:59:44",
          "24.11.2025 08:59:49",
          "24.11.2025 09:00:00",
          "24.11.2025 09:00:17",
          "24.11.2025 09:00:34",
          "24.11.2025 09:00:50",
          "24.11.2025 09:01:07"
        ],
        "course_deg_clockwise_from_north": [
          301,
          301,
          301,
          302,
          304,
          304,
          303,
          333,
          359,
          27,
          35,
          35,
          44,
          74,
          102,
          120,
          118,
          108,
          105,
          106,
          106,
          108,
          106,
          106,
          107,
          107,
          109,
          111,
          110,
          109,
          109,
          111,
          111,
          113,
          113,
          112,
          112,
          113,
          113,
          113,
          112,
          112,
          113,
          113,
          113,
          112,
          113,
          113,
          113,
          110,
          108,
          109,
          110,
          108,
          109,
          109,
          109,
          109,
          109,
          109,
          109,
          109,
          109,
          113,
          116,
          117,
          116,
          116,
          116,
          116,
          117,
          116,
          116,
          116,
          116,
          116,
          116,
          116,
          116,
          116,
          116,
          116,
          117,
          117,
          116,
          117,
          117,
          117,
          117,
          116,
          117,
          117,
          117,
          117,
          117,
          117,
          117,
          117,
          114,
          103,
          96,
          95,
          96,
          95,
          96,
          95,
          96,
          96,
          96,
          96,
          96,
          96,
          96,
          96,
          96,
          96,
          96,
          96,
          96,
          96,
          96,
          96,
          96,
          96,
          97,
          96,
          96,
          96,
          96,
          97,
          105,
          112,
          113,
          112,
          112,
          112,
          112,
          112,
          112,
          112,
          112,
          113,
          112,
          113,
          113,
          113,
          113,
          113,
          113,
          113,
          113,
          113,
          113,
          113,
          113,
          113,
          113,
          113,
          113,
          113,
          113,
          113,
          113,
          113,
          113,
          113,
          114,
          114,
          113,
          113,
          114,
          113,
          114,
          114,
          113,
          114,
          114,
          113,
          113,
          114,
          114,
          113,
          114,
          114,
          114,
          114,
          114,
          114,
          114,
          114,
          114,
          114,
          113,
          107,
          108,
          108,
          108,
          114,
          119,
          120,
          119,
          119,
          119,
          118,
          119,
          119,
          119,
          119,
          119,
          119,
          119,
          119,
          119,
          119,
          120,
          119,
          119,
          119,
          119,
          119,
          119,
          119,
          119,
          119,
          119,
          119,
          119,
          119,
          119,
          119,
          120,
          119,
          120,
          120,
          120,
          120,
          120,
          120,
          120,
          120,
          120,
          120,
          120,
          120,
          119,
          120,
          120,
          120,
          117,
          118,
          118,
          118,
          118,
          118,
          119,
          118,
          117,
          115,
          115,
          115,
          115,
          116,
          115,
          116,
          116,
          114,
          114,
          115,
          114,
          115,
          114,
          115,
          115,
          114,
          115,
          115,
          115,
          114,
          114,
          115,
          114,
          114,
          114,
          114,
          115,
          114,
          114,
          115,
          115,
          115,
          115,
          114,
          115,
          115,
          115,
          115,
          115,
          115,
          115,
          115,
          115,
          115,
          115,
          115,
          115,
          115,
          115,
          115,
          115,
          115,
          115,
          103,
          96,
          93,
          93,
          94,
          92,
          92,
          93,
          93,
          93,
          94,
          93,
          78,
          69,
          69,
          70,
          69,
          68,
          67,
          68,
          76,
          102,
          128,
          130,
          130,
          137,
          149,
          148,
          120,
          114,
          84,
          89,
          89,
          89,
          90,
          90,
          88,
          90,
          89,
          90,
          89
        ],
        "speed_kts": [
          162,
          162,
          170,
          181,
          196,
          227,
          285,
          306,
          309,
          305,
          301,
          297,
          303,
          324,
          343,
          363,
          363,
          367,
          371,
          364,
          374,
          390,
          399,
          411,
          420,
          426,
          437,
          450,
          461,
          472,
          480,
          486,
          494,
          501,
          510,
          509,
          506,
          500,
          495,
          493,
          492,
          489,
          487,
          484,
          489,
          497,
          500,
          505,
          505,
          506,
          504,
          500,
          499,
          500,
          498,
          497,
          495,
          492,
          485,
          478,
          471,
          467,
          471,
          469,
          468,
          473,
          479,
          482,
          485,
          489,
          489,
          491,
          491,
          492,
          492,
          491,
          490,
          490,
          488,
          487,
          487,
          485,
          483,
          483,
          482,
          480,
          479,
          480,
          482,
          483,
          484,
          485,
          484,
          485,
          484,
          485,
          486,
          485,
          487,
          491,
          495,
          495,
          494,
          495,
          496,
          496,
          496,
          497,
          498,
          497,
          497,
          497,
          498,
          498,
          499,
          500,
          501,
          501,
          501,
          501,
          501,
          501,
          500,
          500,
          500,
          500,
          499,
          499,
          499,
          499,
          495,
          492,
          491,
          492,
          493,
          493,
          492,
          492,
          491,
          491,
          491,
          491,
          490,
          491,
          490,
          490,
          490,
          486,
          484,
          483,
          481,
          480,
          478,
          477,
          478,
          478,
          478,
          478,
          477,
          477,
          478,
          478,
          478,
          478,
          479,
          479,
          479,
          480,
          482,
          481,
          482,
          481,
          481,
          482,
          483,
          483,
          484,
          484,
          484,
          484,
          484,
          484,
          484,
          484,
          483,
          479,
          476,
          474,
          474,
          474,
          474,
          474,
          474,
          481,
          481,
          481,
          482,
          478,
          474,
          473,
          474,
          475,
          476,
          476,
          477,
          476,
          477,
          477,
          478,
          478,
          477,
          478,
          479,
          479,
          480,
          481,
          480,
          480,
          479,
          481,
          480,
          477,
          473,
          471,
          468,
          467,
          466,
          465,
          467,
          468,
          469,
          469,
          471,
          471,
          471,
          470,
          469,
          465,
          463,
          462,
          461,
          460,
          460,
          460,
          460,
          459,
          458,
          459,
          461,
          460,
          460,
          459,
          459,
          459,
          458,
          458,
          459,
          460,
          459,
          460,
          460,
          460,
          460,
          460,
          459,
          461,
          461,
          461,
          462,
          461,
          462,
          463,
          462,
          462,
          463,
          463,
          463,
          463,
          462,
          462,
          462,
          462,
          463,
          464,
          464,
          464,
          463,
          463,
          464,
          463,
          461,
          461,
          460,
          461,
          461,
          462,
          463,
          463,
          464,
          464,
          465,
          465,
          465,
          468,
          461,
          459,
          455,
          454,
          452,
          466,
          478,
          485,
          494,
          500,
          488,
          485,
          497,
          493,
          481,
          477,
          454,
          446,
          440,
          435,
          441,
          422,
          413,
          404,
          382,
          362,
          344,
          346,
          346,
          341,
          331,
          329,
          333,
          331,
          296,
          250,
          230,
          202,
          186,
          166,
          150,
          156,
          157,
          153,
          144,
          132,
          127,
          121
        ],
        "speed_mph": [
          186.0,
          186.0,
          196.0,
          208.0,
          226.0,
          261.0,
          328.0,
          352.0,
          356.0,
          351.0,
          346.0,
          342.0,
          349.0,
          373.0,
          395.0,
          418.0,
          418.0,
          422.0,
          427.0,
          419.0,
          430.0,
          449.0,
          459.0,
          473.0,
          483.0,
          490.0,
          503.0,
          518.0,
          531.0,
          543.0,
          552.0,
          559.0,
          568.0,
          577.0,
          587.0,
          586.0,
          582.0,
          575.0,
          570.0,
          567.0,
          566.0,
          563.0,
          560.0,
          557.0,
          563.0,
          572.0,
          575.0,
          581.0,
          581.0,
          582.0,
          580.0,
          575.0,
          574.0,
          575.0,
          573.0,
          572.0,
          570.0,
          566.0,
          558.0,
          550.0,
          542.0,
          537.0,
          542.0,
          540.0,
          539.0,
          544.0,
          551.0,
          555.0,
          558.0,
          563.0,
          563.0,
          565.0,
          565.0,
          566.0,
          566.0,
          565.0,
          564.0,
          564.0,
          562.0,
          560.0,
          560.0,
          558.0,
          556.0,
          556.0,
          555.0,
          552.0,
          551.0,
          552.0,
          555.0,
          556.0,
          557.0,
          558.0,
          557.0,
          558.0,
          557.0,
          558.0,
          559.0,
          558.0,
          560.0,
          565.0,
          570.0,
          570.0,
          568.0,
          570.0,
          571.0,
          571.0,
          571.0,
          572.0,
          573.0,
          572.0,
          572.0,
          572.0,
          573.0,
          573.0,
          574.0,
          575.0,
          577.0,
          577.0,
          577.0,
          577.0,
          577.0,
          577.0,
          575.0,
          575.0,
          575.0,
          575.0,
          574.0,
          574.0,
          574.0,
          574.0,
          570.0,
          566.0,
          565.0,
          566.0,
          567.0,
          567.0,
          566.0,
          566.0,
          565.0,
          565.0,
          565.0,
          565.0,
          564.0,
          565.0,
          564.0,
          564.0,
          564.0,
          559.0,
          557.0,
          556.0,
          554.0,
          552.0,
          550.0,
          549.0,
          550.0,
          550.0,
          550.0,
          550.0,
          549.0,
          549.0,
          550.0,
          550.0,
          550.0,
          550.0,
          551.0,
          551.0,
          551.0,
          552.0,
          555.0,
          554.0,
          555.0,
          554.0,
          554.0,
          555.0,
          556.0,
          556.0,
          557.0,
          557.0,
          557.0,
          557.0,
          557.0,
          557.0,
          557.0,
          557.0,
          556.0,
          551.0,
          548.0,
          545.0,
          545.0,
          545.0,
          545.0,
          545.0,
          545.0,
          554.0,
          554.0,
          554.0,
          555.0,
          550.0,
          545.0,
          544.0,
          545.0,
          547.0,
          548.0,
          548.0,
          549.0,
          548.0,
          549.0,
          549.0,
          550.0,
          550.0,
          549.0,
          550.0,
          551.0,
          551.0,
          552.0,
          554.0,
          552.0,
          552.0,
          551.0,
          554.0,
          552.0,
          549.0,
          544.0,
          542.0,
          539.0,
          537.0,
          536.0,
          535.0,
          537.0,
          539.0,
          540.0,
          540.0,
          542.0,
          542.0,
          542.0,
          541.0,
          540.0,
          535.0,
          533.0,
          532.0,
          531.0,
          529.0,
          529.0,
          529.0,
          529.0,
          528.0,
          527.0,
          528.0,
          531.0,
          529.0,
          529.0,
          528.0,
          528.0,
          528.0,
          527.0,
          527.0,
          528.0,
          529.0,
          528.0,
          529.0,
          529.0,
          529.0,
          529.0,
          529.0,
          528.0,
          531.0,
          531.0,
          531.0,
          532.0,
          531.0,
          532.0,
          533.0,
          532.0,
          532.0,
          533.0,
          533.0,
          533.0,
          533.0,
          532.0,
          532.0,
          532.0,
          532.0,
          533.0,
          534.0,
          534.0,
          534.0,
          533.0,
          533.0,
          534.0,
          533.0,
          531.0,
          531.0,
          529.0,
          531.0,
          531.0,
          532.0,
          533.0,
          533.0,
          534.0,
          534.0,
          535.0,
          535.0,
          535.0,
          539.0,
          531.0,
          528.0,
          524.0,
          522.0,
          520.0,
          536.0,
          550.0,
          558.0,
          568.0,
          575.0,
          562.0,
          558.0,
          572.0,
          567.0,
          554.0,
          549.0,
          522.0,
          513.0,
          506.0,
          501.0,
          507.0,
          486.0,
          475.0,
          465.0,
          440.0,
          417.0,
          396.0,
          398.0,
          398.0,
          392.0,
          381.0,
          379.0,
          383.0,
          381.0,
          341.0,
          288.0,
          265.0,
          232.0,
          214.0,
          191.0,
          173.0,
          180.0,
          181.0,
          176.0,
          166.0,
          152.0,
          146.0,
          139.0
        ],
        "altitude_ft": [
          200,
          318,
          950,
          1700,
          2300,
          2625,
          2875,
          2875,
          2850,
          3075,
          3675,
          4400,
          5000,
          5425,
          5700,
          6350,
          7125,
          7450,
          7775,
          8975,
          10950,
          12250,
          13700,
          15450,
          17175,
          18750,
          20100,
          21075,
          22100,
          23025,
          24000,
          24800,
          25525,
          26250,
          26725,
          27500,
          28550,
          29500,
          30475,
          31325,
          32125,
          32925,
          33700,
          34500,
          34950,
          35200,
          35475,
          35750,
          36050,
          36425,
          36900,
          37375,
          37800,
          38175,
          38525,
          38900,
          39300,
          39650,
          40225,
          40775,
          41350,
          41825,
          42050,
          42175,
          42400,
          42475,
          42575,
          42650,
          42725,
          42800,
          42900,
          43025,
          43175,
          43300,
          43425,
          43550,
          43675,
          43800,
          43950,
          44050,
          44200,
          44325,
          44450,
          44575,
          44700,
          44825,
          44950,
          45000,
          45000,
          45000,
          45000,
          45000,
          45000,
          45000,
          45000,
          45000,
          45000,
          45000,
          45000,
          45000,
          45000,
          45000,
          45000,
          45000,
          45000,
          45000,
          45000,
          45000,
          45000,
          45000,
          45000,
          45000,
          45000,
          45000,
          45000,
          45000,
          45000,
          45000,
          45000,
          45000,
          45000,
          45000,
          45000,
          45000,
          45000,
          45000,
          45000,
          45000,
          45000,
          45000,
          45000,
          45000,
          45000,
          45000,
          45000,
          45000,
          45000,
          45000,
          45000,
          45000,
          45000,
          45000,
          45000,
          45000,
          45000,
          45000,
          45000,
          45000,
          45000,
          45000,
          45000,
          45000,
          45000,
          45000,
          45000,
          45000,
          45000,
          45000,
          45000,
          45000,
          45000,
          45000,
          45000,
          45000,
          45000,
          45000,
          45000,
          45000,
          45000,
          45000,
          45000,
          45000,
          45000,
          45000,
          45000,
          45000,
          45000,
          45000,
          45000,
          45000,
          45000,
          45000,
          45000,
          45000,
          45000,
          45000,
          45000,
          45000,
          45000,
          45000,
          45000,
          45000,
          45000,
          45000,
          45000,
          45000,
          45000,
          45000,
          45000,
          45000,
          45000,
          45000,
          45000,
          45000,
          45000,
          45000,
          45000,
          45000,
          45000,
          45000,
          45000,
          45000,
          45000,
          45000,
          45000,
          45000,
          45000,
          45000,
          45000,
          45000,
          45000,
          45000,
          45000,
          45000,
          45000,
          45000,
          45000,
          45000,
          45000,
          45000,
          45000,
          45000,
          45000,
          45000,
          45000,
          45000,
          45000,
          45000,
          45000,
          45000,
          45000,
          45000,
          45000,
          45000,
          45000,
          45000,
          45000,
          45000,
          45000,
          45000,
          45000,
          45000,
          45000,
          45000,
          45000,
          45000,
          45000,
          45000,
          45000,
          45000,
          45000,
          45000,
          45000,
          45000,
          45000,
          45000,
          45000,
          45000,
          45000,
          45000,
          45000,
          45000,
          45000,
          45000,
          45000,
          45000,
          45000,
          45000,
          45000,
          45000,
          45000,
          45000,
          45000,
          45000,
          45000,
          45000,
          45000,
          45000,
          45000,
          45000,
          45000,
          45000,
          45000,
          45000,
          45000,
          45000,
          45000,
          45000,
          45000,
          45000,
          45000,
          45000,
          44950,
          44350,
          43350,
          42175,
          40800,
          39275,
          37925,
          36475,
          35000,
          34225,
          33300,
          31775,
          30250,
          28850,
          27975,
          27325,
          26975,
          25575,
          23975,
          22025,
          20975,
          21000,
          20150,
          18125,
          15625,
          13100,
          10875,
          9975,
          9450,
          8475,
          7850,
          7300,
          6875,
          5975,
          5225,
          4200,
          3675,
          3500,
          3525,
          3525,
          3500,
          3500,
          3200,
          2900,
          2825,
          2700,
          2475,
          2275,
          2100,
          1950
        ],
        "vertical_rate_fpm": [
          0.0,
          2813.0,
          2591.0,
          2382.0,
          1632.0,
          802.0,
          349.0,
          -47.0,
          353.0,
          1238.0,
          1939.0,
          2271.0,
          1809.0,
          1235.0,
          1261.0,
          1613.0,
          1500.0,
          1026.0,
          1760.0,
          2474.0,
          2552.0,
          2619.0,
          3048.0,
          3208.0,
          3194.0,
          2925.0,
          2325.0,
          1967.0,
          1918.0,
          1839.0,
          1718.0,
          1525.0,
          1450.0,
          1200.0,
          1250.0,
          1825.0,
          1967.0,
          1893.0,
          1825.0,
          1650.0,
          1548.0,
          1524.0,
          1549.0,
          1230.0,
          700.0,
          525.0,
          541.0,
          566.0,
          675.0,
          850.0,
          950.0,
          900.0,
          800.0,
          725.0,
          725.0,
          775.0,
          750.0,
          925.0,
          1125.0,
          1107.0,
          1033.0,
          700.0,
          420.0,
          420.0,
          277.0,
          162.0,
          172.0,
          145.0,
          134.0,
          159.0,
          218.0,
          262.0,
          270.0,
          250.0,
          250.0,
          250.0,
          246.0,
          266.0,
          246.0,
          234.0,
          254.0,
          246.0,
          246.0,
          242.0,
          242.0,
          246.0,
          172.0,
          49.0,
          0.0,
          0.0,
          0.0,
          0.0,
          0.0,
          0.0,
          0.0,
          0.0,
          0.0,
          0.0,
          0.0,
          0.0,
          0.0,
          0.0,
          0.0,
          0.0,
          0.0,
          0.0,
          0.0,
          0.0,
          0.0,
          0.0,
          0.0,
          0.0,
          0.0,
          0.0,
          0.0,
          0.0,
          0.0,
          0.0,
          0.0,
          0.0,
          0.0,
          0.0,
          0.0,
          0.0,
          0.0,
          0.0,
          0.0,
          0.0,
          0.0,
          0.0,
          0.0,
          0.0,
          0.0,
          0.0,
          0.0,
          0.0,
          0.0,
          0.0,
          0.0,
          0.0,
          0.0,
          0.0,
          0.0,
          0.0,
          0.0,
          0.0,
          0.0,
          0.0,
          0.0,
          0.0,
          0.0,
          0.0,
          0.0,
          0.0,
          0.0,
          0.0,
          0.0,
          0.0,
          0.0,
          0.0,
          0.0,
          0.0,
          0.0,
          0.0,
          0.0,
          0.0,
          0.0,
          0.0,
          0.0,
          0.0,
          0.0,
          0.0,
          0.0,
          0.0,
          0.0,
          0.0,
          0.0,
          0.0,
          0.0,
          0.0,
          0.0,
          0.0,
          0.0,
          0.0,
          0.0,
          0.0,
          0.0,
          0.0,
          0.0,
          0.0,
          0.0,
          0.0,
          0.0,
          0.0,
          0.0,
          0.0,
          0.0,
          0.0,
          0.0,
          0.0,
          0.0,
          0.0,
          0.0,
          0.0,
          0.0,
          0.0,
          0.0,
          0.0,
          0.0,
          0.0,
          0.0,
          0.0,
          0.0,
          0.0,
          0.0,
          0.0,
          0.0,
          0.0,
          0.0,
          0.0,
          0.0,
          0.0,
          0.0,
          0.0,
          0.0,
          0.0,
          0.0,
          0.0,
          0.0,
          0.0,
          0.0,
          0.0,
          0.0,
          0.0,
          0.0,
          0.0,
          0.0,
          0.0,
          0.0,
          0.0,
          0.0,
          0.0,
          0.0,
          0.0,
          0.0,
          0.0,
          0.0,
          0.0,
          0.0,
          0.0,
          0.0,
          0.0,
          0.0,
          0.0,
          0.0,
          0.0,
          0.0,
          0.0,
          0.0,
          0.0,
          0.0,
          0.0,
          0.0,
          0.0,
          0.0,
          0.0,
          0.0,
          0.0,
          0.0,
          0.0,
          0.0,
          0.0,
          0.0,
          0.0,
          0.0,
          0.0,
          0.0,
          0.0,
          0.0,
          0.0,
          0.0,
          0.0,
          0.0,
          0.0,
          0.0,
          0.0,
          0.0,
          0.0,
          0.0,
          0.0,
          0.0,
          0.0,
          0.0,
          0.0,
          0.0,
          0.0,
          0.0,
          0.0,
          0.0,
          0.0,
          0.0,
          -50.0,
          -639.0,
          -1574.0,
          -2175.0,
          -2550.0,
          -2900.0,
          -2738.0,
          -2667.0,
          -2925.0,
          -2700.0,
          -1855.0,
          -2227.0,
          -3000.0,
          -2925.0,
          -2275.0,
          -1525.0,
          -909.0,
          -1591.0,
          -3000.0,
          -3550.0,
          -3000.0,
          -1206.0,
          -952.0,
          -2828.0,
          -4525.0,
          -5025.0,
          -4597.0,
          -3750.0,
          -2515.0,
          -2195.0,
          -2286.0,
          -2074.0,
          -1500.0,
          -1529.0,
          -1980.0,
          -2088.0,
          -1691.0,
          -764.0,
          -176.0,
          38.0,
          -37.0,
          -36.0,
          -360.0,
          -655.0,
          -750.0,
          -750.0,
          -750.0,
          -750.0,
          -682.0,
          -591.0,
          -529.0
        ]
      }
    }
  ]
}