{
  "type": "FeatureCollection",
  "features": [
    {
      "type": "Feature",
      "geometry": {
        "type": "LineString",
        "coordinates": [
          [
            -16.3326,
            28.4799
          ],
          [
            -16.32,
            28.4746
          ],
          [
            -16.3051,
            28.4662
          ],
          [
            -16.2926,
            28.459
          ],
          [
            -16.2776,
            28.4513
          ],
          [
            -16.2608,
            28.444
          ],
          [
            -16.2333,
            28.434
          ],
          [
            -16.2122,
            28.4332
          ],
          [
            -16.195,
            28.4456
          ],
          [
            -16.1848,
            28.4679
          ],
          [
            -16.1763,
            28.5045
          ],
          [
            -16.1668,
            28.5452
          ],
          [
            -16.154,
            28.5908
          ],
          [
            -16.1409,
            28.6405
          ],
          [
            -16.1274,
            28.6906
          ],
          [
            -16.1127,
            28.7441
          ],
          [
            -16.0978,
            28.799
          ],
          [
            -16.0909,
            28.8295
          ],
          [
            -16.0882,
            28.8804
          ],
          [
            -16.0733,
            28.9221
          ],
          [
            -16.0405,
            28.9537
          ],
          [
            -15.9824,
            28.9864
          ],
          [
            -15.9412,
            29.0163
          ],
          [
            -15.9157,
            29.0581
          ],
          [
            -15.9008,
            29.1019
          ],
          [
            -15.8836,
            29.1696
          ],
          [
            -15.8656,
            29.2403
          ],
          [
            -15.8483,
            29.304
          ],
          [
            -15.831,
            29.369
          ],
          [
            -15.8141,
            29.4323
          ],
          [
            -15.7974,
            29.4942
          ],
          [
            -15.7809,
            29.5556
          ],
          [
            -15.7643,
            29.6171
          ],
          [
            -15.7476,
            29.6787
          ],
          [
            -15.7314,
            29.7389
          ],
          [
            -15.7151,
            29.799
          ],
          [
            -15.6989,
            29.8586
          ],
          [
            -15.6824,
            29.9194
          ],
          [
            -15.6663,
            29.9788
          ],
          [
            -15.6488,
            30.0431
          ],
          [
            -15.6327,
            30.1021
          ],
          [
            -15.6167,
            30.1608
          ],
          [
            -15.5998,
            30.2231
          ],
          [
            -15.5834,
            30.2825
          ],
          [
            -15.5671,
            30.3421
          ],
          [
            -15.551,
            30.4011
          ],
          [
            -15.5348,
            30.4604
          ],
          [
            -15.5186,
            30.5192
          ],
          [
            -15.5018,
            30.5801
          ],
          [
            -15.4851,
            30.6406
          ],
          [
            -15.4684,
            30.7011
          ],
          [
            -15.4515,
            30.7623
          ],
          [
            -15.4359,
            30.8188
          ],
          [
            -15.4176,
            30.8843
          ],
          [
            -15.4006,
            30.946
          ],
          [
            -15.3837,
            31.0069
          ],
          [
            -15.3677,
            31.0644
          ],
          [
            -15.3508,
            31.1251
          ],
          [
            -15.333,
            31.1892
          ],
          [
            -15.3162,
            31.2496
          ],
          [
            -15.2757,
            31.3337
          ],
          [
            -15.2328,
            31.392
          ],
          [
            -15.1816,
            31.4559
          ],
          [
            -15.1211,
            31.5336
          ],
          [
            -15.075,
            31.5928
          ],
          [
            -15.0318,
            31.648
          ],
          [
            -14.9911,
            31.7003
          ],
          [
            -14.947,
            31.7565
          ],
          [
            -14.9022,
            31.8137
          ],
          [
            -14.8596,
            31.8681
          ],
          [
            -14.8105,
            31.9306
          ],
          [
            -14.7652,
            31.988
          ],
          [
            -14.7235,
            32.0411
          ],
          [
            -14.6816,
            32.0941
          ],
          [
            -14.6383,
            32.1488
          ],
          [
            -14.5813,
            32.2208
          ],
          [
            -14.5381,
            32.2755
          ],
          [
            -14.4956,
            32.3289
          ],
          [
            -14.4525,
            32.3831
          ],
          [
            -14.4062,
            32.4412
          ],
          [
            -14.3607,
            32.4982
          ],
          [
            -14.3123,
            32.5589
          ],
          [
            -14.2685,
            32.6135
          ],
          [
            -14.2041,
            32.6938
          ],
          [
            -14.1585,
            32.7507
          ],
          [
            -14.07,
            32.8605
          ],
          [
            -14.0089,
            32.9362
          ],
          [
            -13.9652,
            32.9902
          ],
          [
            -13.8532,
            33.1284
          ],
          [
            -13.792,
            33.2037
          ],
          [
            -13.73,
            33.2796
          ],
          [
            -13.68675,
            33.33246363636364
          ],
          [
            -13.6435,
            33.385327272727274
          ],
          [
            -13.60025,
            33.438190909090906
          ],
          [
            -13.557,
            33.491054545454546
          ],
          [
            -13.5397,
            33.5122
          ],
          [
            -13.4561,
            33.6137
          ],
          [
            -13.411306722689075,
            33.6672462184874
          ],
          [
            -13.36651344537815,
            33.72079243697479
          ],
          [
            -13.321720168067227,
            33.77433865546219
          ],
          [
            -13.276926890756302,
            33.82788487394958
          ],
          [
            -13.232133613445377,
            33.881431092436976
          ],
          [
            -13.187340336134453,
            33.93497731092437
          ],
          [
            -13.14254705882353,
            33.988523529411765
          ],
          [
            -13.097753781512605,
            34.04206974789916
          ],
          [
            -13.05296050420168,
            34.09561596638655
          ],
          [
            -13.008167226890755,
            34.14916218487395
          ],
          [
            -12.963373949579832,
            34.20270840336134
          ],
          [
            -12.918580672268908,
            34.25625462184874
          ],
          [
            -12.873787394957983,
            34.30980084033614
          ],
          [
            -12.828994117647058,
            34.36334705882353
          ],
          [
            -12.784200840336135,
            34.416893277310926
          ],
          [
            -12.73940756302521,
            34.47043949579832
          ],
          [
            -12.694614285714286,
            34.523985714285715
          ],
          [
            -12.64982100840336,
            34.577531932773105
          ],
          [
            -12.605027731092438,
            34.6310781512605
          ],
          [
            -12.5677,
            34.6757
          ],
          [
            -12.5027,
            34.7522
          ],
          [
            -12.3632,
            34.9154
          ],
          [
            -12.3078,
            34.9802
          ],
          [
            -12.2614,
            35.0341
          ],
          [
            -12.2144,
            35.0889
          ],
          [
            -12.1248,
            35.1928
          ],
          [
            -12.0743,
            35.2512
          ],
          [
            -12.0275,
            35.3053
          ],
          [
            -11.9807,
            35.3595
          ],
          [
            -11.932,
            35.4155
          ],
          [
            -11.885,
            35.4694
          ],
          [
            -11.8384,
            35.5229
          ],
          [
            -11.7926,
            35.5754
          ],
          [
            -11.7446,
            35.6304
          ],
          [
            -11.6979,
            35.6836
          ],
          [
            -11.6493,
            35.739
          ],
          [
            -11.6033,
            35.7912
          ],
          [
            -11.5549,
            35.8464
          ],
          [
            -11.4986,
            35.9074
          ],
          [
            -11.4507,
            35.9581
          ],
          [
            -11.3704,
            36.0443
          ],
          [
            -11.3157,
            36.1022
          ],
          [
            -11.2622,
            36.1591
          ],
          [
            -11.2118,
            36.2124
          ],
          [
            -11.1614,
            36.2656
          ],
          [
            -11.1117,
            36.3182
          ],
          [
            -11.0608,
            36.3718
          ],
          [
            -11.0112,
            36.424
          ],
          [
            -10.9598,
            36.478
          ],
          [
            -10.9093,
            36.5308
          ],
          [
            -10.8581,
            36.5844
          ],
          [
            -10.8068,
            36.638
          ],
          [
            -10.7578,
            36.6891
          ],
          [
            -10.7043,
            36.7447
          ],
          [
            -10.6543,
            36.7966
          ],
          [
            -10.6029,
            36.8499
          ],
          [
            -10.5518,
            36.9028
          ],
          [
            -10.501,
            36.9553
          ],
          [
            -10.4481,
            37.0099
          ],
          [
            -10.3972,
            37.0622
          ],
          [
            -10.3466,
            37.1142
          ],
          [
            -10.2942,
            37.168
          ],
          [
            -10.242,
            37.2214
          ],
          [
            -10.1912,
            37.2732
          ],
          [
            -10.1403,
            37.3251
          ],
          [
            -10.0877,
            37.3787
          ],
          [
            -10.0366,
            37.4306
          ],
          [
            -9.9862,
            37.4818
          ],
          [
            -9.9329,
            37.5358
          ],
          [
            -9.8816,
            37.5876
          ],
          [
            -9.8243,
            37.6453
          ],
          [
            -9.7705,
            37.6996
          ],
          [
            -9.7192,
            37.7511
          ],
          [
            -9.6683,
            37.8021
          ],
          [
            -9.6158,
            37.8547
          ],
          [
            -9.5638,
            37.9066
          ],
          [
            -9.5112,
            37.959
          ],
          [
            -9.4593,
            38.0108
          ],
          [
            -9.4074,
            38.0624
          ],
          [
            -9.3564,
            38.113
          ],
          [
            -9.3018,
            38.167
          ],
          [
            -9.2492,
            38.2189
          ],
          [
            -9.1967,
            38.2708
          ],
          [
            -9.1444,
            38.3224
          ],
          [
            -9.0913,
            38.3745
          ],
          [
            -9.0391,
            38.4256
          ],
          [
            -8.9851,
            38.4785
          ],
          [
            -8.9325,
            38.53
          ],
          [
            -8.8768,
            38.5842
          ],
          [
            -8.8204,
            38.6391
          ],
          [
            -8.7682,
            38.6898
          ],
          [
            -8.7136,
            38.7426
          ],
          [
            -8.6581,
            38.7964
          ],
          [
            -8.6067,
            38.8461
          ],
          [
            -8.5508,
            38.8998
          ],
          [
            -8.4971,
            38.9515
          ],
          [
            -8.4434,
            39.0032
          ],
          [
            -8.3902,
            39.0541
          ],
          [
            -8.3369,
            39.1051
          ],
          [
            -8.2825,
            39.1569
          ],
          [
            -8.2249,
            39.2119
          ],
          [
            -8.1711,
            39.263
          ],
          [
            -8.1161,
            39.315
          ],
          [
            -8.0626,
            39.3657
          ],
          [
            -8.0087,
            39.4168
          ],
          [
            -7.9525,
            39.4698
          ],
          [
            -7.8976,
            39.5215
          ],
          [
            -7.8426,
            39.5732
          ],
          [
            -7.7874,
            39.6249
          ],
          [
            -7.7319,
            39.6768
          ],
          [
            -7.6793,
            39.7258
          ],
          [
            -7.6243,
            39.7772
          ],
          [
            -7.5694,
            39.8282
          ],
          [
            -7.5138,
            39.8799
          ],
          [
            -7.4585,
            39.9311
          ],
          [
            -7.4059,
            39.9796
          ],
          [
            -7.3482,
            40.0329
          ],
          [
            -7.2941,
            40.0828
          ],
          [
            -7.2395,
            40.133
          ],
          [
            -7.1852,
            40.1828
          ],
          [
            -7.1272,
            40.2359
          ],
          [
            -7.071,
            40.2872
          ],
          [
            -7.0141,
            40.3391
          ],
          [
            -6.9587,
            40.3894
          ],
          [
            -6.9019,
            40.4412
          ],
          [
            -6.8457,
            40.492
          ],
          [
            -6.7892,
            40.5431
          ],
          [
            -6.7277,
            40.5985
          ],
          [
            -6.6718,
            40.6489
          ],
          [
            -6.6152,
            40.6997
          ],
          [
            -6.5604,
            40.7489
          ],
          [
            -6.5042,
            40.7991
          ],
          [
            -6.4487,
            40.8487
          ],
          [
            -6.3893,
            40.9016
          ],
          [
            -6.3328,
            40.9519
          ],
          [
            -6.2725,
            41.0051
          ],
          [
            -6.2106,
            41.0566
          ],
          [
            -6.15,
            41.1067
          ],
          [
            -6.0919,
            41.1557
          ],
          [
            -6.0283,
            41.2089
          ],
          [
            -5.9655,
            41.261
          ],
          [
            -5.9017,
            41.314
          ],
          [
            -5.8421,
            41.3634
          ],
          [
            -5.7835,
            41.4118
          ],
          [
            -5.721,
            41.4635
          ],
          [
            -5.6647,
            41.5097
          ],
          [
            -5.6103,
            41.5387
          ],
          [
            -5.5007,
            41.5722
          ],
          [
            -5.4286,
            41.5908
          ],
          [
            -5.3593,
            41.6098
          ],
          [
            -5.2928,
            41.6287
          ],
          [
            -5.2386,
            41.6439
          ],
          [
            -5.1823,
            41.6596
          ],
          [
            -5.1343,
            41.6732
          ],
          [
            -5.0852,
            41.6872
          ],
          [
            -5.0136,
            41.7151
          ],
          [
            -4.9587,
            41.7367
          ],
          [
            -4.9173,
            41.7513
          ],
          [
            -4.8763,
            41.7782
          ],
          [
            -4.8396,
            41.8109
          ],
          [
            -4.8217,
            41.8272
          ],
          [
            -4.8053,
            41.8419
          ],
          [
            -4.7788,
            41.8597
          ],
          [
            -4.7504,
            41.8633
          ],
          [
            -4.7269,
            41.8556
          ],
          [
            -4.7166,
            41.8426
          ],
          [
            -4.7221,
            41.8209
          ],
          [
            -4.7269,
            41.8093
          ],
          [
            -4.7318,
            41.7987
          ],
          [
            -4.7498,
            41.7825
          ],
          [
            -4.7606,
            41.7743
          ],
          [
            -4.7805,
            41.7595
          ],
          [
            -4.7895,
            41.7526
          ],
          [
            -4.8064,
            41.74
          ],
          [
            -4.8141,
            41.7344
          ],
          [
            -4.8302,
            41.7225
          ],
          [
            -4.8383,
            41.7164
          ]
        ]
      },
      "properties": {
        "time_europe_berlin": [
          "09.12.2025 13:05:28",
          "09.12.2025 13:05:44",
          "09.12.2025 13:06:01",
          "09.12.2025 13:06:17",
          "09.12.2025 13:06:33",
          "09.12.2025 13:06:51",
          "09.12.2025 13:07:17",
          "09.12.2025 13:07:35",
          "09.12.2025 13:07:53",
          "09.12.2025 13:08:16",
          "09.12.2025 13:08:46",
          "09.12.2025 13:09:16",
          "09.12.2025 13:09:46",
          "09.12.2025 13:10:16",
          "09.12.2025 13:10:46",
          "09.12.2025 13:11:16",
          "09.12.2025 13:11:46",
          "09.12.2025 13:12:02",
          "09.12.2025 13:12:29",
          "09.12.2025 13:12:49",
          "09.12.2025 13:13:09",
          "09.12.2025 13:13:39",
          "09.12.2025 13:14:00",
          "09.12.2025 13:14:21",
          "09.12.2025 13:14:44",
          "09.12.2025 13:15:16",
          "09.12.2025 13:15:48",
          "09.12.2025 13:16:18",
          "09.12.2025 13:16:48",
          "09.12.2025 13:17:18",
          "09.12.2025 13:17:48",
          "09.12.2025 13:18:18",
          "09.12.2025 13:18:48",
          "09.12.2025 13:19:18",
          "09.12.2025 13:19:49",
          "09.12.2025 13:20:19",
          "09.12.2025 13:20:49",
          "09.12.2025 13:21:19",
          "09.12.2025 13:21:49",
          "09.12.2025 13:22:20",
          "09.12.2025 13:22:50",
          "09.12.2025 13:23:20",
          "09.12.2025 13:23:50",
          "09.12.2025 13:24:20",
          "09.12.2025 13:24:51",
          "09.12.2025 13:25:21",
          "09.12.2025 13:25:51",
          "09.12.2025 13:26:21",
          "09.12.2025 13:26:51",
          "09.12.2025 13:27:21",
          "09.12.2025 13:27:51",
          "09.12.2025 13:28:21",
          "09.12.2025 13:28:51",
          "09.12.2025 13:29:21",
          "09.12.2025 13:29:51",
          "09.12.2025 13:30:21",
          "09.12.2025 13:30:51",
          "09.12.2025 13:31:21",
          "09.12.2025 13:31:52",
          "09.12.2025 13:32:23",
          "09.12.2025 13:33:08",
          "09.12.2025 13:33:40",
          "09.12.2025 13:34:16",
          "09.12.2025 13:35:00",
          "09.12.2025 13:35:32",
          "09.12.2025 13:36:03",
          "09.12.2025 13:36:33",
          "09.12.2025 13:37:04",
          "09.12.2025 13:37:36",
          "09.12.2025 13:38:06",
          "09.12.2025 13:38:41",
          "09.12.2025 13:39:13",
          "09.12.2025 13:39:43",
          "09.12.2025 13:40:13",
          "09.12.2025 13:40:44",
          "09.12.2025 13:41:24",
          "09.12.2025 13:41:54",
          "09.12.2025 13:42:25",
          "09.12.2025 13:42:56",
          "09.12.2025 13:43:28",
          "09.12.2025 13:44:01",
          "09.12.2025 13:44:36",
          "09.12.2025 13:45:06",
          "09.12.2025 13:45:51",
          "09.12.2025 13:46:24",
          "09.12.2025 13:47:25",
          "09.12.2025 13:48:08",
          "09.12.2025 13:48:38",
          "09.12.2025 13:49:56",
          "09.12.2025 13:50:38",
          "09.12.2025 13:51:21",
          "09.12.2025 13:51:51",
          "09.12.2025 13:52:21",
          "09.12.2025 13:52:51",
          "09.12.2025 13:53:21",
          "09.12.2025 13:53:33",
          "09.12.2025 13:54:30",
          "09.12.2025 13:55:00",
          "09.12.2025 13:55:30",
          "09.12.2025 13:56:00",
          "09.12.2025 13:56:30",
          "09.12.2025 13:57:00",
          "09.12.2025 13:57:30",
          "09.12.2025 13:58:00",
          "09.12.2025 13:58:30",
          "09.12.2025 13:59:00",
          "09.12.2025 13:59:30",
          "09.12.2025 14:00:00",
          "09.12.2025 14:00:30",
          "09.12.2025 14:01:00",
          "09.12.2025 14:01:30",
          "09.12.2025 14:02:00",
          "09.12.2025 14:02:30",
          "09.12.2025 14:03:00",
          "09.12.2025 14:03:30",
          "09.12.2025 14:04:00",
          "09.12.2025 14:04:25",
          "09.12.2025 14:05:08",
          "09.12.2025 14:06:40",
          "09.12.2025 14:07:16",
          "09.12.2025 14:07:46",
          "09.12.2025 14:08:16",
          "09.12.2025 14:09:15",
          "09.12.2025 14:09:48",
          "09.12.2025 14:10:18",
          "09.12.2025 14:10:48",
          "09.12.2025 14:11:20",
          "09.12.2025 14:11:50",
          "09.12.2025 14:12:20",
          "09.12.2025 14:12:50",
          "09.12.2025 14:13:20",
          "09.12.2025 14:13:50",
          "09.12.2025 14:14:21",
          "09.12.2025 14:14:51",
          "09.12.2025 14:15:21",
          "09.12.2025 14:15:55",
          "09.12.2025 14:16:25",
          "09.12.2025 14:17:14",
          "09.12.2025 14:17:47",
          "09.12.2025 14:18:19",
          "09.12.2025 14:18:49",
          "09.12.2025 14:19:20",
          "09.12.2025 14:19:50",
          "09.12.2025 14:20:20",
          "09.12.2025 14:20:51",
          "09.12.2025 14:21:21",
          "09.12.2025 14:21:51",
          "09.12.2025 14:22:22",
          "09.12.2025 14:22:52",
          "09.12.2025 14:23:22",
          "09.12.2025 14:23:53",
          "09.12.2025 14:24:23",
          "09.12.2025 14:24:54",
          "09.12.2025 14:25:24",
          "09.12.2025 14:25:54",
          "09.12.2025 14:26:25",
          "09.12.2025 14:26:55",
          "09.12.2025 14:27:25",
          "09.12.2025 14:27:56",
          "09.12.2025 14:28:26",
          "09.12.2025 14:28:56",
          "09.12.2025 14:29:26",
          "09.12.2025 14:29:56",
          "09.12.2025 14:30:26",
          "09.12.2025 14:30:56",
          "09.12.2025 14:31:26",
          "09.12.2025 14:31:57",
          "09.12.2025 14:32:30",
          "09.12.2025 14:33:00",
          "09.12.2025 14:33:30",
          "09.12.2025 14:34:00",
          "09.12.2025 14:34:30",
          "09.12.2025 14:35:00",
          "09.12.2025 14:35:30",
          "09.12.2025 14:36:00",
          "09.12.2025 14:36:30",
          "09.12.2025 14:37:00",
          "09.12.2025 14:37:30",
          "09.12.2025 14:38:00",
          "09.12.2025 14:38:30",
          "09.12.2025 14:39:00",
          "09.12.2025 14:39:30",
          "09.12.2025 14:40:00",
          "09.12.2025 14:40:30",
          "09.12.2025 14:41:01",
          "09.12.2025 14:41:32",
          "09.12.2025 14:42:03",
          "09.12.2025 14:42:33",
          "09.12.2025 14:43:03",
          "09.12.2025 14:43:34",
          "09.12.2025 14:44:04",
          "09.12.2025 14:44:34",
          "09.12.2025 14:45:04",
          "09.12.2025 14:45:34",
          "09.12.2025 14:46:04",
          "09.12.2025 14:46:34",
          "09.12.2025 14:47:04",
          "09.12.2025 14:47:35",
          "09.12.2025 14:48:06",
          "09.12.2025 14:48:36",
          "09.12.2025 14:49:06",
          "09.12.2025 14:49:36",
          "09.12.2025 14:50:06",
          "09.12.2025 14:50:37",
          "09.12.2025 14:51:07",
          "09.12.2025 14:51:37",
          "09.12.2025 14:52:07",
          "09.12.2025 14:52:37",
          "09.12.2025 14:53:07",
          "09.12.2025 14:53:37",
          "09.12.2025 14:54:07",
          "09.12.2025 14:54:37",
          "09.12.2025 14:55:07",
          "09.12.2025 14:55:37",
          "09.12.2025 14:56:07",
          "09.12.2025 14:56:37",
          "09.12.2025 14:57:07",
          "09.12.2025 14:57:37",
          "09.12.2025 14:58:07",
          "09.12.2025 14:58:37",
          "09.12.2025 14:59:07",
          "09.12.2025 14:59:38",
          "09.12.2025 15:00:08",
          "09.12.2025 15:00:39",
          "09.12.2025 15:01:11",
          "09.12.2025 15:01:41",
          "09.12.2025 15:02:11",
          "09.12.2025 15:02:42",
          "09.12.2025 15:03:12",
          "09.12.2025 15:03:42",
          "09.12.2025 15:04:13",
          "09.12.2025 15:04:43",
          "09.12.2025 15:05:14",
          "09.12.2025 15:05:44",
          "09.12.2025 15:06:14",
          "09.12.2025 15:06:44",
          "09.12.2025 15:07:14",
          "09.12.2025 15:07:44",
          "09.12.2025 15:08:14",
          "09.12.2025 15:08:44",
          "09.12.2025 15:09:14",
          "09.12.2025 15:09:44",
          "09.12.2025 15:10:14",
          "09.12.2025 15:10:38",
          "09.12.2025 15:11:24",
          "09.12.2025 15:11:54",
          "09.12.2025 15:12:24",
          "09.12.2025 15:12:54",
          "09.12.2025 15:13:25",
          "09.12.2025 15:14:01",
          "09.12.2025 15:14:33",
          "09.12.2025 15:15:04",
          "09.12.2025 15:15:45",
          "09.12.2025 15:16:15",
          "09.12.2025 15:16:39",
          "09.12.2025 15:17:09",
          "09.12.2025 15:17:40",
          "09.12.2025 15:17:56",
          "09.12.2025 15:18:12",
          "09.12.2025 15:18:32",
          "09.12.2025 15:18:49",
          "09.12.2025 15:19:05",
          "09.12.2025 15:19:21",
          "09.12.2025 15:19:46",
          "09.12.2025 15:20:02",
          "09.12.2025 15:20:18",
          "09.12.2025 15:20:46",
          "09.12.2025 15:21:02",
          "09.12.2025 15:21:32",
          "09.12.2025 15:21:48",
          "09.12.2025 15:22:18",
          "09.12.2025 15:22:34",
          "09.12.2025 15:23:05",
          "09.12.2025 15:23:21"
        ],
        "course_deg_clockwise_from_north": [
          110,
          120,
          123,
          123,
          117,
          115,
          109,
          73,
          33,
          15,
          10,
          13,
          14,
          13,
          14,
          14,
          14,
          7,
          3,
          30,
          52,
          59,
          38,
          20,
          14,
          12,
          13,
          13,
          13,
          13,
          13,
          13,
          13,
          13,
          13,
          13,
          13,
          13,
          13,
          13,
          13,
          13,
          13,
          14,
          13,
          13,
          13,
          13,
          13,
          13,
          13,
          13,
          14,
          13,
          13,
          14,
          14,
          13,
          13,
          14,
          30,
          34,
          34,
          33,
          34,
          34,
          34,
          34,
          34,
          34,
          34,
          34,
          34,
          34,
          34,
          34,
          34,
          34,
          34,
          34,
          34,
          34,
          34,
          34,
          34,
          34,
          34,
          34,
          34,
          34,
          34,
          34,
          34,
          35,
          35,
          35,
          35,
          35,
          35,
          35,
          35,
          35,
          35,
          35,
          35,
          35,
          34,
          34,
          34,
          34,
          34,
          34,
          34,
          34,
          34,
          34,
          34,
          35,
          35,
          35,
          35,
          35,
          35,
          35,
          35,
          35,
          36,
          36,
          36,
          36,
          36,
          36,
          36,
          36,
          36,
          38,
          37,
          37,
          37,
          37,
          37,
          37,
          37,
          38,
          38,
          38,
          38,
          38,
          38,
          38,
          38,
          38,
          38,
          38,
          38,
          38,
          38,
          38,
          38,
          38,
          38,
          38,
          38,
          38,
          38,
          38,
          38,
          38,
          38,
          38,
          39,
          38,
          38,
          39,
          38,
          39,
          39,
          39,
          39,
          39,
          39,
          39,
          39,
          39,
          39,
          39,
          39,
          39,
          39,
          39,
          39,
          39,
          39,
          39,
          39,
          39,
          39,
          39,
          39,
          39,
          39,
          40,
          40,
          39,
          40,
          40,
          40,
          40,
          40,
          40,
          40,
          40,
          40,
          40,
          40,
          40,
          40,
          40,
          40,
          40,
          40,
          40,
          40,
          40,
          40,
          40,
          40,
          40,
          40,
          40,
          40,
          41,
          41,
          43,
          42,
          42,
          42,
          42,
          42,
          42,
          42,
          42,
          43,
          62,
          71,
          71,
          69,
          69,
          70,
          69,
          69,
          70,
          60,
          64,
          63,
          42,
          39,
          39,
          40,
          63,
          100,
          131,
          171,
          197,
          198,
          205,
          225,
          224,
          225,
          225,
          226,
          226,
          225,
          226
        ],
        "speed_kts": [
          160,
          177,
          190,
          191,
          196,
          206,
          224,
          231,
          233,
          248,
          283,
          320,
          352,
          372,
          386,
          394,
          401,
          409,
          438,
          461,
          467,
          469,
          464,
          463,
          467,
          471,
          471,
          471,
          469,
          466,
          461,
          457,
          452,
          447,
          444,
          444,
          444,
          443,
          441,
          442,
          443,
          443,
          442,
          441,
          438,
          435,
          437,
          440,
          443,
          446,
          449,
          450,
          451,
          451,
          450,
          449,
          449,
          447,
          445,
          444,
          454,
          460,
          464,
          466,
          465,
          465,
          465,
          465,
          464,
          464,
          464,
          464,
          464,
          463,
          462,
          462,
          462,
          461,
          462,
          462,
          462,
          462,
          463,
          464,
          458,
          465,
          465,
          465,
          465,
          465,
          464,
          464,
          464,
          465,
          465,
          465,
          465,
          466,
          467,
          468,
          469,
          470,
          471,
          472,
          473,
          474,
          475,
          476,
          477,
          478,
          479,
          480,
          481,
          482,
          483,
          484,
          485,
          472,
          472,
          473,
          474,
          473,
          472,
          471,
          472,
          473,
          473,
          474,
          474,
          474,
          475,
          475,
          475,
          476,
          476,
          477,
          477,
          477,
          477,
          477,
          477,
          477,
          477,
          478,
          478,
          478,
          478,
          478,
          478,
          478,
          479,
          480,
          479,
          479,
          479,
          479,
          479,
          478,
          478,
          479,
          479,
          478,
          478,
          478,
          479,
          479,
          478,
          479,
          479,
          478,
          479,
          480,
          478,
          479,
          478,
          479,
          479,
          479,
          478,
          478,
          479,
          478,
          479,
          479,
          480,
          479,
          480,
          480,
          480,
          479,
          480,
          480,
          480,
          480,
          481,
          480,
          480,
          480,
          479,
          479,
          479,
          480,
          478,
          479,
          480,
          480,
          479,
          478,
          477,
          477,
          477,
          477,
          477,
          478,
          477,
          479,
          478,
          478,
          478,
          478,
          478,
          477,
          476,
          476,
          474,
          478,
          475,
          473,
          472,
          474,
          478,
          489,
          494,
          487,
          491,
          501,
          504,
          505,
          500,
          496,
          486,
          465,
          446,
          439,
          418,
          406,
          398,
          344,
          281,
          261,
          267,
          297,
          332,
          325,
          307,
          286,
          286,
          286,
          288,
          287,
          268,
          237,
          203,
          174,
          159,
          161,
          156,
          152,
          139,
          132,
          117,
          116,
          120,
          119
        ],
        "speed_mph": [
          184.0,
          204.0,
          219.0,
          220.0,
          226.0,
          237.0,
          258.0,
          266.0,
          268.0,
          285.0,
          326.0,
          368.0,
          405.0,
          428.0,
          444.0,
          453.0,
          461.0,
          471.0,
          504.0,
          531.0,
          537.0,
          540.0,
          534.0,
          533.0,
          537.0,
          542.0,
          542.0,
          542.0,
          540.0,
          536.0,
          531.0,
          526.0,
          520.0,
          514.0,
          511.0,
          511.0,
          511.0,
          510.0,
          507.0,
          509.0,
          510.0,
          510.0,
          509.0,
          507.0,
          504.0,
          501.0,
          503.0,
          506.0,
          510.0,
          513.0,
          517.0,
          518.0,
          519.0,
          519.0,
          518.0,
          517.0,
          517.0,
          514.0,
          512.0,
          511.0,
          522.0,
          529.0,
          534.0,
          536.0,
          535.0,
          535.0,
          535.0,
          535.0,
          534.0,
          534.0,
          534.0,
          534.0,
          534.0,
          533.0,
          532.0,
          532.0,
          532.0,
          531.0,
          532.0,
          532.0,
          532.0,
          532.0,
          533.0,
          534.0,
          527.0,
          535.0,
          535.0,
          535.0,
          535.0,
          535.0,
          534.0,
          534.0,
          534.0,
          535.0,
          535.0,
          535.0,
          535.0,
          536.0,
          537.0,
          538.0,
          540.0,
          541.0,
          542.0,
          543.0,
          544.0,
          545.0,
          547.0,
          548.0,
          549.0,
          550.0,
          551.0,
          552.0,
          554.0,
          555.0,
          556.0,
          557.0,
          558.0,
          543.0,
          543.0,
          544.0,
          545.0,
          544.0,
          543.0,
          542.0,
          543.0,
          544.0,
          544.0,
          545.0,
          545.0,
          545.0,
          547.0,
          547.0,
          547.0,
          548.0,
          548.0,
          549.0,
          549.0,
          549.0,
          549.0,
          549.0,
          549.0,
          549.0,
          549.0,
          550.0,
          550.0,
          550.0,
          550.0,
          550.0,
          550.0,
          550.0,
          551.0,
          552.0,
          551.0,
          551.0,
          551.0,
          551.0,
          551.0,
          550.0,
          550.0,
          551.0,
          551.0,
          550.0,
          550.0,
          550.0,
          551.0,
          551.0,
          550.0,
          551.0,
          551.0,
          550.0,
          551.0,
          552.0,
          550.0,
          551.0,
          550.0,
          551.0,
          551.0,
          551.0,
          550.0,
          550.0,
          551.0,
          550.0,
          551.0,
          551.0,
          552.0,
          551.0,
          552.0,
          552.0,
          552.0,
          551.0,
          552.0,
          552.0,
          552.0,
          552.0,
          554.0,
          552.0,
          552.0,
          552.0,
          551.0,
          551.0,
          551.0,
          552.0,
          550.0,
          551.0,
          552.0,
          552.0,
          551.0,
          550.0,
          549.0,
          549.0,
          549.0,
          549.0,
          549.0,
          550.0,
          549.0,
          551.0,
          550.0,
          550.0,
          550.0,
          550.0,
          550.0,
          549.0,
          548.0,
          548.0,
          545.0,
          550.0,
          547.0,
          544.0,
          543.0,
          545.0,
          550.0,
          563.0,
          568.0,
          560.0,
          565.0,
          577.0,
          580.0,
          581.0,
          575.0,
          571.0,
          559.0,
          535.0,
          513.0,
          505.0,
          481.0,
          467.0,
          458.0,
          396.0,
          323.0,
          300.0,
          307.0,
          342.0,
          382.0,
          374.0,
          353.0,
          329.0,
          329.0,
          329.0,
          331.0,
          330.0,
          308.0,
          273.0,
          234.0,
          200.0,
          183.0,
          185.0,
          180.0,
          175.0,
          160.0,
          152.0,
          135.0,
          133.0,
          138.0,
          137.0
        ],
        "altitude_ft": [
          2400,
          2925,
          3650,
          4425,
          5275,
          6100,
          7300,
          8275,
          9275,
          10400,
          11725,
          13000,
          14300,
          15700,
          17225,
          18725,
          20250,
          20800,
          21000,
          21150,
          21375,
          21875,
          22350,
          22850,
          23350,
          24250,
          25450,
          26450,
          27425,
          28400,
          29350,
          30325,
          31300,
          32275,
          33175,
          33975,
          34625,
          35350,
          36075,
          36675,
          37175,
          37625,
          38100,
          38575,
          39075,
          39525,
          39825,
          40050,
          40275,
          40500,
          40700,
          40925,
          41150,
          41375,
          41600,
          41825,
          42050,
          42275,
          42500,
          42725,
          43000,
          43000,
          43000,
          43000,
          43000,
          43000,
          43000,
          43000,
          43000,
          43000,
          43000,
          43000,
          43000,
          43000,
          43000,
          43000,
          43000,
          43000,
          43000,
          43000,
          43000,
          43000,
          43000,
          43000,
          43000,
          43000,
          43000,
          43000,
          43000,
          43000,
          43000,
          43000,
          43000,
          43000,
          43000,
          43000,
          43000,
          43000,
          43000,
          43000,
          43000,
          43000,
          43000,
          43000,
          43000,
          43000,
          43000,
          43000,
          43000,
          43000,
          43000,
          43000,
          43000,
          43000,
          43000,
          43000,
          43000,
          43000,
          43000,
          43000,
          43000,
          43000,
          43000,
          43000,
          43000,
          43000,
          43000,
          43000,
          43000,
          43000,
          43000,
          43000,
          43000,
          43000,
          43000,
          43000,
          43000,
          43000,
          43000,
          43000,
          43000,
          43000,
          43000,
          43000,
          43000,
          43000,
          43000,
          43000,
          43000,
          43000,
          43000,
          43000,
          43000,
          43000,
          43000,
          43000,
          43000,
          43000,
          43000,
          43000,
          43000,
          43000,
          43000,
          43000,
          43000,
          43000,
          43000,
          43000,
          43000,
          43000,
          43000,
          43000,
          43000,
          43000,
          43000,
          43000,
          43000,
          43000,
          43000,
          43000,
          43000,
          43000,
          43000,
          43000,
          43000,
          43000,
          43000,
          43000,
          43000,
          43000,
          43000,
          43000,
          43000,
          43000,
          43000,
          43000,
          43000,
          43000,
          43000,
          43000,
          43000,
          43000,
          43000,
          43000,
          43000,
          43000,
          43000,
          43000,
          43000,
          43000,
          43000,
          43000,
          43000,
          43000,
          43000,
          43000,
          43000,
          43000,
          43000,
          43000,
          43000,
          43000,
          43000,
          43000,
          42950,
          42125,
          40775,
          39425,
          38050,
          36700,
          35250,
          33875,
          32525,
          31400,
          30100,
          28650,
          27175,
          25675,
          24225,
          22750,
          21375,
          19775,
          18275,
          17050,
          14775,
          13250,
          11750,
          11000,
          11000,
          11000,
          11000,
          11000,
          10975,
          10275,
          9450,
          8425,
          7425,
          6950,
          6550,
          5975,
          5450,
          4950,
          4575,
          4450,
          4450,
          4450,
          4475,
          4325,
          3900,
          3725,
          3375,
          3225,
          2900,
          2725
        ],
        "vertical_rate_fpm": [
          0.0,
          2273.0,
          2727.0,
          3047.0,
          2956.0,
          2761.0,
          2966.0,
          3292.0,
          3110.0,
          2774.0,
          2600.0,
          2575.0,
          2700.0,
          2925.0,
          3025.0,
          3025.0,
          2707.0,
          1047.0,
          447.0,
          563.0,
          870.0,
          1147.0,
          1393.0,
          1364.0,
          1527.0,
          1969.0,
          2129.0,
          1975.0,
          1950.0,
          1925.0,
          1925.0,
          1950.0,
          1950.0,
          1844.0,
          1672.0,
          1450.0,
          1375.0,
          1450.0,
          1303.0,
          1082.0,
          950.0,
          925.0,
          950.0,
          959.0,
          934.0,
          750.0,
          525.0,
          450.0,
          450.0,
          425.0,
          425.0,
          450.0,
          450.0,
          450.0,
          450.0,
          450.0,
          450.0,
          443.0,
          435.0,
          395.0,
          214.0,
          0.0,
          0.0,
          0.0,
          0.0,
          0.0,
          0.0,
          0.0,
          0.0,
          0.0,
          0.0,
          0.0,
          0.0,
          0.0,
          0.0,
          0.0,
          0.0,
          0.0,
          0.0,
          0.0,
          0.0,
          0.0,
          0.0,
          0.0,
          0.0,
          0.0,
          0.0,
          0.0,
          0.0,
          0.0,
          0.0,
          0.0,
          0.0,
          0.0,
          0.0,
          0.0,
          0.0,
          0.0,
          0.0,
          0.0,
          0.0,
          0.0,
          0.0,
          0.0,
          0.0,
          0.0,
          0.0,
          0.0,
          0.0,
          0.0,
          0.0,
          0.0,
          0.0,
          0.0,
          0.0,
          0.0,
          0.0,
          0.0,
          0.0,
          0.0,
          0.0,
          0.0,
          0.0,
          0.0,
          0.0,
          0.0,
          0.0,
          0.0,
          0.0,
          0.0,
          0.0,
          0.0,
          0.0,
          0.0,
          0.0,
          0.0,
          0.0,
          0.0,
          0.0,
          0.0,
          0.0,
          0.0,
          0.0,
          0.0,
          0.0,
          0.0,
          0.0,
          0.0,
          0.0,
          0.0,
          0.0,
          0.0,
          0.0,
          0.0,
          0.0,
          0.0,
          0.0,
          0.0,
          0.0,
          0.0,
          0.0,
          0.0,
          0.0,
          0.0,
          0.0,
          0.0,
          0.0,
          0.0,
          0.0,
          0.0,
          0.0,
          0.0,
          0.0,
          0.0,
          0.0,
          0.0,
          0.0,
          0.0,
          0.0,
          0.0,
          0.0,
          0.0,
          0.0,
          0.0,
          0.0,
          0.0,
          0.0,
          0.0,
          0.0,
          0.0,
          0.0,
          0.0,
          0.0,
          0.0,
          0.0,
          0.0,
          0.0,
          0.0,
          0.0,
          0.0,
          0.0,
          0.0,
          0.0,
          0.0,
          0.0,
          0.0,
          0.0,
          0.0,
          0.0,
          0.0,
          0.0,
          0.0,
          0.0,
          0.0,
          0.0,
          0.0,
          0.0,
          0.0,
          0.0,
          0.0,
          0.0,
          0.0,
          0.0,
          -48.0,
          -847.0,
          -2175.0,
          -2656.0,
          -2680.0,
          -2725.0,
          -2754.0,
          -2779.0,
          -2680.0,
          -2434.0,
          -2425.0,
          -2750.0,
          -2925.0,
          -2975.0,
          -2950.0,
          -2925.0,
          -2850.0,
          -2975.0,
          -3100.0,
          -3028.0,
          -3000.0,
          -3000.0,
          -3025.0,
          -2250.0,
          -738.0,
          0.0,
          0.0,
          0.0,
          -21.0,
          -613.0,
          -1694.0,
          -2056.0,
          -1992.0,
          -1883.0,
          -1641.0,
          -1625.0,
          -1784.0,
          -1864.0,
          -1641.0,
          -732.0,
          -183.0,
          0.0,
          34.0,
          -170.0,
          -750.0,
          -783.0,
          -685.0,
          -652.0,
          -606.0,
          -638.0,
          -656.0
        ]
      }
    }
  ]
}