{
  "type": "FeatureCollection",
  "features": [
    {
      "type": "Feature",
      "geometry": {
        "type": "LineString",
        "coordinates": [
          [
            18.1965,
            42.5898
          ],
          [
            18.1659,
            42.602
          ],
          [
            18.1335,
            42.6103
          ],
          [
            18.0978,
            42.6181
          ],
          [
            18.0563,
            42.6265
          ],
          [
            18.0151,
            42.6346
          ],
          [
            17.9467,
            42.6563
          ],
          [
            17.8988,
            42.673
          ],
          [
            17.8472,
            42.6897
          ],
          [
            17.7936,
            42.7075
          ],
          [
            17.7355,
            42.7268
          ],
          [
            17.677,
            42.7459
          ],
          [
            17.6135,
            42.7667
          ],
          [
            17.5447,
            42.7893
          ],
          [
            17.4791,
            42.8107
          ],
          [
            17.4147,
            42.8319
          ],
          [
            17.3471,
            42.8534
          ],
          [
            17.2811,
            42.8751
          ],
          [
            17.2112,
            42.8979
          ],
          [
            17.1413,
            42.9199
          ],
          [
            17.0684,
            42.9436
          ],
          [
            17.001,
            42.9654
          ],
          [
            16.9315,
            42.9875
          ],
          [
            16.8611,
            43.0099
          ],
          [
            16.7892,
            43.0333
          ],
          [
            16.717,
            43.0556
          ],
          [
            16.6417,
            43.0794
          ],
          [
            16.571,
            43.1024
          ],
          [
            16.528,
            43.1206
          ],
          [
            16.4922,
            43.1402
          ],
          [
            16.4345,
            43.176
          ],
          [
            16.3708,
            43.2163
          ],
          [
            16.3093,
            43.2543
          ],
          [
            16.2486,
            43.2914
          ],
          [
            16.1863,
            43.329
          ],
          [
            16.1233,
            43.3676
          ],
          [
            16.0593,
            43.4059
          ],
          [
            15.9944,
            43.445
          ],
          [
            15.9307,
            43.4835
          ],
          [
            15.8682,
            43.5215
          ],
          [
            15.8039,
            43.5601
          ],
          [
            15.7403,
            43.598
          ],
          [
            15.6776,
            43.6359
          ],
          [
            15.6157,
            43.6726
          ],
          [
            15.5548,
            43.7089
          ],
          [
            15.4958,
            43.7447
          ],
          [
            15.4337,
            43.7813
          ],
          [
            15.3773,
            43.8143
          ],
          [
            15.3178,
            43.8497
          ],
          [
            15.2568,
            43.8857
          ],
          [
            15.2001,
            43.9194
          ],
          [
            15.1389,
            43.9535
          ],
          [
            15.0435,
            44.0003
          ],
          [
            14.9781,
            44.0332
          ],
          [
            14.914,
            44.0654
          ],
          [
            14.8499,
            44.0971
          ],
          [
            14.7863,
            44.1289
          ],
          [
            14.7221,
            44.1609
          ],
          [
            14.6605,
            44.1917
          ],
          [
            14.5915,
            44.2253
          ],
          [
            14.5344,
            44.2538
          ],
          [
            14.469,
            44.2859
          ],
          [
            14.4085,
            44.3158
          ],
          [
            14.3455,
            44.3464
          ],
          [
            14.2836,
            44.3772
          ],
          [
            14.2007,
            44.4209
          ],
          [
            14.1419,
            44.4509
          ],
          [
            14.0824,
            44.4815
          ],
          [
            14.0256,
            44.5112
          ],
          [
            13.9664,
            44.542
          ],
          [
            13.9069,
            44.5723
          ],
          [
            13.8479,
            44.6027
          ],
          [
            13.788,
            44.6334
          ],
          [
            13.7302,
            44.6632
          ],
          [
            13.6712,
            44.6931
          ],
          [
            13.6087,
            44.7249
          ],
          [
            13.5463,
            44.7566
          ],
          [
            13.4856,
            44.7876
          ],
          [
            13.4237,
            44.819
          ],
          [
            13.3636,
            44.8491
          ],
          [
            13.3019,
            44.8804
          ],
          [
            13.237,
            44.9132
          ],
          [
            13.1752,
            44.9437
          ],
          [
            13.1125,
            44.9757
          ],
          [
            13.0513,
            45.008
          ],
          [
            12.9875,
            45.0406
          ],
          [
            12.939,
            45.0652
          ],
          [
            12.8652,
            45.1033
          ],
          [
            12.8159,
            45.1286
          ],
          [
            12.7512,
            45.1613
          ],
          [
            12.6878,
            45.1937
          ],
          [
            12.6241,
            45.2264
          ],
          [
            12.5623,
            45.2575
          ],
          [
            12.4995,
            45.2893
          ],
          [
            12.4346,
            45.322
          ],
          [
            12.3399,
            45.3697
          ],
          [
            12.2743,
            45.4027
          ],
          [
            12.2097,
            45.4348
          ],
          [
            12.1455,
            45.4674
          ],
          [
            12.0842,
            45.4978
          ],
          [
            12.0186,
            45.5304
          ],
          [
            11.952,
            45.5633
          ],
          [
            11.8696,
            45.6041
          ],
          [
            11.8076,
            45.6351
          ],
          [
            11.743,
            45.6667
          ],
          [
            11.6781,
            45.6986
          ],
          [
            11.6138,
            45.7303
          ],
          [
            11.5496,
            45.7614
          ],
          [
            11.4848,
            45.7932
          ],
          [
            11.4213,
            45.824
          ],
          [
            11.357,
            45.8556
          ],
          [
            11.3193,
            45.8737
          ],
          [
            11.2569,
            45.9038
          ],
          [
            11.1848,
            45.9388
          ],
          [
            11.1235,
            45.9683
          ],
          [
            11.0685,
            45.995
          ],
          [
            11.0249,
            46.0155
          ],
          [
            10.9612,
            46.0462
          ],
          [
            10.8943,
            46.0784
          ],
          [
            10.8299,
            46.1088
          ],
          [
            10.7635,
            46.1405
          ],
          [
            10.6973,
            46.1721
          ],
          [
            10.6294,
            46.2041
          ],
          [
            10.5609,
            46.2364
          ],
          [
            10.4631,
            46.2826
          ],
          [
            10.3961,
            46.3141
          ],
          [
            10.3315,
            46.3445
          ],
          [
            10.2651,
            46.3746
          ],
          [
            10.1678,
            46.4101
          ],
          [
            10.0947,
            46.4353
          ],
          [
            10.0253,
            46.4596
          ],
          [
            9.9515,
            46.4855
          ],
          [
            9.8831,
            46.5098
          ],
          [
            9.8122,
            46.5343
          ],
          [
            9.7421,
            46.5595
          ],
          [
            9.6439,
            46.5934
          ],
          [
            9.5723,
            46.6183
          ],
          [
            9.4843,
            46.649
          ],
          [
            9.4129,
            46.6735
          ],
          [
            9.3437,
            46.6975
          ],
          [
            9.2751,
            46.7213
          ],
          [
            9.2051,
            46.7451
          ],
          [
            9.1348,
            46.769
          ],
          [
            9.0663,
            46.7931
          ],
          [
            8.9967,
            46.8163
          ],
          [
            8.9288,
            46.8392
          ],
          [
            8.8591,
            46.863
          ],
          [
            8.7889,
            46.8869
          ],
          [
            8.7198,
            46.91
          ],
          [
            8.6463,
            46.9345
          ],
          [
            8.5793,
            46.9573
          ],
          [
            8.5054,
            46.9818
          ],
          [
            8.4324,
            47.006
          ],
          [
            8.3391,
            47.0371
          ],
          [
            8.2645,
            47.0618
          ],
          [
            8.192,
            47.0859
          ],
          [
            8.1235,
            47.1086
          ],
          [
            8.0494,
            47.1325
          ],
          [
            7.9801,
            47.1554
          ],
          [
            7.9082,
            47.179
          ],
          [
            7.8378,
            47.2019
          ],
          [
            7.7927,
            47.2215
          ],
          [
            7.7037,
            47.2681
          ],
          [
            7.6376,
            47.3029
          ],
          [
            7.574,
            47.3359
          ],
          [
            7.5049,
            47.3717
          ],
          [
            7.4428,
            47.4034
          ],
          [
            7.3771,
            47.4372
          ],
          [
            7.3114,
            47.471
          ],
          [
            7.2494,
            47.5024
          ],
          [
            7.1831,
            47.5362
          ],
          [
            7.1177,
            47.5696
          ],
          [
            7.0546,
            47.6017
          ],
          [
            6.9849,
            47.6399
          ],
          [
            6.9254,
            47.6722
          ],
          [
            6.8628,
            47.7058
          ],
          [
            6.7961,
            47.742
          ],
          [
            6.7321,
            47.7759
          ],
          [
            6.6686,
            47.8102
          ],
          [
            6.604,
            47.8446
          ],
          [
            6.5405,
            47.8783
          ],
          [
            6.4738,
            47.9138
          ],
          [
            6.4096,
            47.9482
          ],
          [
            6.347,
            47.9809
          ],
          [
            6.2859,
            48.0131
          ],
          [
            6.2315,
            48.0423
          ],
          [
            6.1677,
            48.0754
          ],
          [
            6.1022,
            48.1099
          ],
          [
            6.0421,
            48.1414
          ],
          [
            5.9752,
            48.1763
          ],
          [
            5.9094,
            48.2107
          ],
          [
            5.8427,
            48.245
          ],
          [
            5.7796,
            48.2779
          ],
          [
            5.7125,
            48.3123
          ],
          [
            5.6459,
            48.3473
          ],
          [
            5.5992,
            48.3709
          ],
          [
            5.5525,
            48.3947
          ],
          [
            5.4898,
            48.4269
          ],
          [
            5.4249,
            48.4604
          ],
          [
            5.3583,
            48.4942
          ],
          [
            5.2908,
            48.5286
          ],
          [
            5.2256,
            48.5614
          ],
          [
            5.158,
            48.5963
          ],
          [
            5.0925,
            48.6289
          ],
          [
            5.0267,
            48.6622
          ],
          [
            4.9601,
            48.6956
          ],
          [
            4.8941,
            48.7286
          ],
          [
            4.8299,
            48.761
          ],
          [
            4.76,
            48.7955
          ],
          [
            4.6954,
            48.8282
          ],
          [
            4.6271,
            48.8618
          ],
          [
            4.5593,
            48.8954
          ],
          [
            4.4935,
            48.9279
          ],
          [
            4.4291,
            48.9599
          ],
          [
            4.361,
            48.993
          ],
          [
            4.2945,
            49.0256
          ],
          [
            4.2254,
            49.0599
          ],
          [
            4.1552,
            49.0938
          ],
          [
            4.0876,
            49.1266
          ],
          [
            4.0211,
            49.159
          ],
          [
            3.9527,
            49.1923
          ],
          [
            3.8829,
            49.2259
          ],
          [
            3.8141,
            49.2587
          ],
          [
            3.7473,
            49.2912
          ],
          [
            3.6731,
            49.3266
          ],
          [
            3.6309,
            49.347
          ],
          [
            3.5608,
            49.3803
          ],
          [
            3.4926,
            49.4127
          ],
          [
            3.4203,
            49.447
          ],
          [
            3.3511,
            49.4798
          ],
          [
            3.2791,
            49.5138
          ],
          [
            3.2098,
            49.5464
          ],
          [
            3.1398,
            49.5796
          ],
          [
            3.0691,
            49.6123
          ],
          [
            2.9981,
            49.6456
          ],
          [
            2.9292,
            49.6779
          ],
          [
            2.8582,
            49.7107
          ],
          [
            2.7851,
            49.7448
          ],
          [
            2.7158,
            49.7765
          ],
          [
            2.6428,
            49.8105
          ],
          [
            2.5678,
            49.8472
          ],
          [
            2.4974,
            49.8814
          ],
          [
            2.4256,
            49.9156
          ],
          [
            2.3561,
            49.9491
          ],
          [
            2.2796,
            49.9854
          ],
          [
            2.208,
            50.02
          ],
          [
            2.1531,
            50.0461
          ],
          [
            2.0787,
            50.0811
          ],
          [
            2.0049,
            50.1163
          ],
          [
            1.9318,
            50.1509
          ],
          [
            1.8544,
            50.187
          ],
          [
            1.7811,
            50.2216
          ],
          [
            1.7076,
            50.2558
          ],
          [
            1.6341,
            50.2905
          ],
          [
            1.5577,
            50.3258
          ],
          [
            1.3339,
            50.4298
          ],
          [
            1.2603,
            50.4632
          ],
          [
            1.1824,
            50.4989
          ],
          [
            1.1035,
            50.5354
          ],
          [
            1.045,
            50.562
          ],
          [
            0.9749,
            50.5938
          ],
          [
            0.9205,
            50.6187
          ],
          [
            0.8449,
            50.6527
          ],
          [
            0.7651,
            50.6889
          ],
          [
            0.6856,
            50.7245
          ],
          [
            0.6088,
            50.7593
          ],
          [
            0.5314,
            50.7938
          ],
          [
            0.4508,
            50.8297
          ],
          [
            0.3703,
            50.8657
          ],
          [
            0.2953,
            50.8988
          ],
          [
            0.2163,
            50.9335
          ],
          [
            0.1609,
            50.9582
          ],
          [
            0.0782,
            50.9945
          ],
          [
            0.0217,
            51.019
          ],
          [
            -0.0812,
            51.0647
          ],
          [
            -0.1258,
            51.084
          ],
          [
            -0.2385,
            51.1329
          ],
          [
            -0.3198,
            51.1682
          ],
          [
            -0.4005,
            51.203
          ],
          [
            -0.5019,
            51.2466
          ],
          [
            -0.5742,
            51.2778
          ],
          [
            -0.6774,
            51.3219
          ],
          [
            -0.7526,
            51.354
          ],
          [
            -0.827,
            51.3855
          ],
          [
            -0.9255,
            51.4269
          ],
          [
            -1.0035,
            51.4596
          ],
          [
            -1.0652,
            51.486
          ],
          [
            -1.1363,
            51.5156
          ],
          [
            -1.1786,
            51.5277
          ],
          [
            -1.2351,
            51.5371
          ],
          [
            -1.2909,
            51.5437
          ],
          [
            -1.3791,
            51.5521
          ],
          [
            -1.4539,
            51.5611
          ],
          [
            -1.5347,
            51.5709
          ],
          [
            -1.64,
            51.5837
          ],
          [
            -1.7241,
            51.5939
          ],
          [
            -1.8,
            51.6029
          ],
          [
            -1.8709,
            51.6113
          ],
          [
            -1.9057,
            51.6148
          ],
          [
            -1.9444,
            51.6082
          ],
          [
            -1.9787,
            51.5971
          ],
          [
            -2.0271,
            51.5815
          ],
          [
            -2.0752,
            51.566
          ],
          [
            -2.1174,
            51.5457
          ],
          [
            -2.1582,
            51.5244
          ],
          [
            -2.184,
            51.5113
          ],
          [
            -2.217,
            51.4944
          ],
          [
            -2.2565,
            51.4736
          ],
          [
            -2.2799,
            51.4609
          ],
          [
            -2.3031,
            51.448
          ],
          [
            -2.3203,
            51.4384
          ],
          [
            -2.3381,
            51.4286
          ],
          [
            -2.3549,
            51.4195
          ],
          [
            -2.3727,
            51.4096
          ],
          [
            -2.3852,
            51.4027
          ],
          [
            -2.4044,
            51.3922
          ],
          [
            -2.4287,
            51.3897
          ],
          [
            -2.4455,
            51.3912
          ],
          [
            -2.4732,
            51.3923
          ],
          [
            -2.5007,
            51.3915
          ],
          [
            -2.5325,
            51.3899
          ],
          [
            -2.5635,
            51.3886
          ],
          [
            -2.5923,
            51.3875
          ],
          [
            -2.6038,
            51.3871
          ],
          [
            -2.6063,
            51.387
          ],
          [
            -2.6202,
            51.3865
          ],
          [
            -2.6332,
            51.386
          ],
          [
            -2.6466,
            51.3854
          ],
          [
            -2.6596,
            51.385
          ],
          [
            -2.6732,
            51.3845
          ],
          [
            -2.687,
            51.3839
          ],
          [
            -2.7011,
            51.3833
          ]
        ]
      },
      "properties": {
        "time_europe_berlin": [
          "01.11.2025 19:03:40",
          "01.11.2025 19:04:09",
          "01.11.2025 19:04:35",
          "01.11.2025 19:05:05",
          "01.11.2025 19:05:35",
          "01.11.2025 19:06:04",
          "01.11.2025 19:06:52",
          "01.11.2025 19:07:22",
          "01.11.2025 19:07:53",
          "01.11.2025 19:08:23",
          "01.11.2025 19:08:53",
          "01.11.2025 19:09:23",
          "01.11.2025 19:09:53",
          "01.11.2025 19:10:24",
          "01.11.2025 19:10:54",
          "01.11.2025 19:11:25",
          "01.11.2025 19:11:55",
          "01.11.2025 19:12:25",
          "01.11.2025 19:12:55",
          "01.11.2025 19:13:25",
          "01.11.2025 19:13:56",
          "01.11.2025 19:14:26",
          "01.11.2025 19:14:56",
          "01.11.2025 19:15:26",
          "01.11.2025 19:15:56",
          "01.11.2025 19:16:26",
          "01.11.2025 19:16:57",
          "01.11.2025 19:17:27",
          "01.11.2025 19:17:46",
          "01.11.2025 19:18:03",
          "01.11.2025 19:18:33",
          "01.11.2025 19:19:04",
          "01.11.2025 19:19:34",
          "01.11.2025 19:20:04",
          "01.11.2025 19:20:34",
          "01.11.2025 19:21:04",
          "01.11.2025 19:21:34",
          "01.11.2025 19:22:05",
          "01.11.2025 19:22:35",
          "01.11.2025 19:23:05",
          "01.11.2025 19:23:35",
          "01.11.2025 19:24:05",
          "01.11.2025 19:24:35",
          "01.11.2025 19:25:05",
          "01.11.2025 19:25:35",
          "01.11.2025 19:26:06",
          "01.11.2025 19:26:36",
          "01.11.2025 19:27:06",
          "01.11.2025 19:27:37",
          "01.11.2025 19:28:08",
          "01.11.2025 19:28:39",
          "01.11.2025 19:29:09",
          "01.11.2025 19:29:53",
          "01.11.2025 19:30:25",
          "01.11.2025 19:30:55",
          "01.11.2025 19:31:26",
          "01.11.2025 19:31:56",
          "01.11.2025 19:32:26",
          "01.11.2025 19:32:57",
          "01.11.2025 19:33:28",
          "01.11.2025 19:33:58",
          "01.11.2025 19:34:29",
          "01.11.2025 19:34:59",
          "01.11.2025 19:35:30",
          "01.11.2025 19:36:01",
          "01.11.2025 19:36:43",
          "01.11.2025 19:37:14",
          "01.11.2025 19:37:44",
          "01.11.2025 19:38:14",
          "01.11.2025 19:38:45",
          "01.11.2025 19:39:15",
          "01.11.2025 19:39:45",
          "01.11.2025 19:40:15",
          "01.11.2025 19:40:45",
          "01.11.2025 19:41:15",
          "01.11.2025 19:41:46",
          "01.11.2025 19:42:17",
          "01.11.2025 19:42:47",
          "01.11.2025 19:43:17",
          "01.11.2025 19:43:47",
          "01.11.2025 19:44:17",
          "01.11.2025 19:44:48",
          "01.11.2025 19:45:18",
          "01.11.2025 19:45:48",
          "01.11.2025 19:46:18",
          "01.11.2025 19:46:48",
          "01.11.2025 19:47:13",
          "01.11.2025 19:47:47",
          "01.11.2025 19:48:11",
          "01.11.2025 19:48:41",
          "01.11.2025 19:49:11",
          "01.11.2025 19:49:42",
          "01.11.2025 19:50:12",
          "01.11.2025 19:50:42",
          "01.11.2025 19:51:12",
          "01.11.2025 19:51:57",
          "01.11.2025 19:52:27",
          "01.11.2025 19:52:57",
          "01.11.2025 19:53:27",
          "01.11.2025 19:53:57",
          "01.11.2025 19:54:27",
          "01.11.2025 19:54:57",
          "01.11.2025 19:55:36",
          "01.11.2025 19:56:06",
          "01.11.2025 19:56:36",
          "01.11.2025 19:57:06",
          "01.11.2025 19:57:36",
          "01.11.2025 19:58:06",
          "01.11.2025 19:58:36",
          "01.11.2025 19:59:06",
          "01.11.2025 19:59:36",
          "01.11.2025 19:59:53",
          "01.11.2025 20:00:23",
          "01.11.2025 20:00:55",
          "01.11.2025 20:01:25",
          "01.11.2025 20:01:51",
          "01.11.2025 20:02:10",
          "01.11.2025 20:02:40",
          "01.11.2025 20:03:10",
          "01.11.2025 20:03:40",
          "01.11.2025 20:04:10",
          "01.11.2025 20:04:40",
          "01.11.2025 20:05:10",
          "01.11.2025 20:05:40",
          "01.11.2025 20:06:25",
          "01.11.2025 20:06:55",
          "01.11.2025 20:07:25",
          "01.11.2025 20:07:54",
          "01.11.2025 20:08:36",
          "01.11.2025 20:09:06",
          "01.11.2025 20:09:37",
          "01.11.2025 20:10:07",
          "01.11.2025 20:10:37",
          "01.11.2025 20:11:07",
          "01.11.2025 20:11:37",
          "01.11.2025 20:12:18",
          "01.11.2025 20:12:49",
          "01.11.2025 20:13:26",
          "01.11.2025 20:13:56",
          "01.11.2025 20:14:26",
          "01.11.2025 20:14:56",
          "01.11.2025 20:15:26",
          "01.11.2025 20:15:56",
          "01.11.2025 20:16:26",
          "01.11.2025 20:16:56",
          "01.11.2025 20:17:26",
          "01.11.2025 20:17:56",
          "01.11.2025 20:18:26",
          "01.11.2025 20:18:56",
          "01.11.2025 20:19:26",
          "01.11.2025 20:19:56",
          "01.11.2025 20:20:26",
          "01.11.2025 20:20:56",
          "01.11.2025 20:21:38",
          "01.11.2025 20:22:08",
          "01.11.2025 20:22:38",
          "01.11.2025 20:23:08",
          "01.11.2025 20:23:38",
          "01.11.2025 20:24:08",
          "01.11.2025 20:24:38",
          "01.11.2025 20:25:07",
          "01.11.2025 20:25:27",
          "01.11.2025 20:26:08",
          "01.11.2025 20:26:38",
          "01.11.2025 20:27:08",
          "01.11.2025 20:27:38",
          "01.11.2025 20:28:08",
          "01.11.2025 20:28:38",
          "01.11.2025 20:29:08",
          "01.11.2025 20:29:38",
          "01.11.2025 20:30:08",
          "01.11.2025 20:30:38",
          "01.11.2025 20:31:08",
          "01.11.2025 20:31:38",
          "01.11.2025 20:32:08",
          "01.11.2025 20:32:38",
          "01.11.2025 20:33:08",
          "01.11.2025 20:33:38",
          "01.11.2025 20:34:08",
          "01.11.2025 20:34:38",
          "01.11.2025 20:35:08",
          "01.11.2025 20:35:38",
          "01.11.2025 20:36:08",
          "01.11.2025 20:36:38",
          "01.11.2025 20:37:08",
          "01.11.2025 20:37:33",
          "01.11.2025 20:38:03",
          "01.11.2025 20:38:33",
          "01.11.2025 20:39:03",
          "01.11.2025 20:39:34",
          "01.11.2025 20:40:04",
          "01.11.2025 20:40:34",
          "01.11.2025 20:41:04",
          "01.11.2025 20:41:35",
          "01.11.2025 20:42:05",
          "01.11.2025 20:42:26",
          "01.11.2025 20:42:47",
          "01.11.2025 20:43:17",
          "01.11.2025 20:43:47",
          "01.11.2025 20:44:17",
          "01.11.2025 20:44:47",
          "01.11.2025 20:45:17",
          "01.11.2025 20:45:47",
          "01.11.2025 20:46:17",
          "01.11.2025 20:46:47",
          "01.11.2025 20:47:17",
          "01.11.2025 20:47:47",
          "01.11.2025 20:48:17",
          "01.11.2025 20:48:47",
          "01.11.2025 20:49:17",
          "01.11.2025 20:49:47",
          "01.11.2025 20:50:17",
          "01.11.2025 20:50:47",
          "01.11.2025 20:51:17",
          "01.11.2025 20:51:47",
          "01.11.2025 20:52:17",
          "01.11.2025 20:52:47",
          "01.11.2025 20:53:17",
          "01.11.2025 20:53:47",
          "01.11.2025 20:54:17",
          "01.11.2025 20:54:47",
          "01.11.2025 20:55:17",
          "01.11.2025 20:55:47",
          "01.11.2025 20:56:17",
          "01.11.2025 20:56:47",
          "01.11.2025 20:57:07",
          "01.11.2025 20:57:37",
          "01.11.2025 20:58:07",
          "01.11.2025 20:58:37",
          "01.11.2025 20:59:07",
          "01.11.2025 20:59:37",
          "01.11.2025 21:00:07",
          "01.11.2025 21:00:37",
          "01.11.2025 21:01:07",
          "01.11.2025 21:01:37",
          "01.11.2025 21:02:07",
          "01.11.2025 21:02:37",
          "01.11.2025 21:03:07",
          "01.11.2025 21:03:37",
          "01.11.2025 21:04:07",
          "01.11.2025 21:04:37",
          "01.11.2025 21:05:07",
          "01.11.2025 21:05:37",
          "01.11.2025 21:06:07",
          "01.11.2025 21:06:37",
          "01.11.2025 21:07:07",
          "01.11.2025 21:07:29",
          "01.11.2025 21:07:59",
          "01.11.2025 21:08:29",
          "01.11.2025 21:08:59",
          "01.11.2025 21:09:29",
          "01.11.2025 21:09:59",
          "01.11.2025 21:10:29",
          "01.11.2025 21:10:59",
          "01.11.2025 21:11:29",
          "01.11.2025 21:12:59",
          "01.11.2025 21:13:29",
          "01.11.2025 21:13:59",
          "01.11.2025 21:14:29",
          "01.11.2025 21:14:53",
          "01.11.2025 21:15:19",
          "01.11.2025 21:15:41",
          "01.11.2025 21:16:11",
          "01.11.2025 21:16:41",
          "01.11.2025 21:17:11",
          "01.11.2025 21:17:41",
          "01.11.2025 21:18:11",
          "01.11.2025 21:18:41",
          "01.11.2025 21:19:11",
          "01.11.2025 21:19:41",
          "01.11.2025 21:20:11",
          "01.11.2025 21:20:32",
          "01.11.2025 21:21:02",
          "01.11.2025 21:21:24",
          "01.11.2025 21:22:03",
          "01.11.2025 21:22:21",
          "01.11.2025 21:23:04",
          "01.11.2025 21:23:34",
          "01.11.2025 21:24:04",
          "01.11.2025 21:24:42",
          "01.11.2025 21:25:12",
          "01.11.2025 21:25:52",
          "01.11.2025 21:26:22",
          "01.11.2025 21:26:52",
          "01.11.2025 21:27:32",
          "01.11.2025 21:28:02",
          "01.11.2025 21:28:26",
          "01.11.2025 21:28:54",
          "01.11.2025 21:29:10",
          "01.11.2025 21:29:30",
          "01.11.2025 21:29:50",
          "01.11.2025 21:30:20",
          "01.11.2025 21:30:46",
          "01.11.2025 21:31:16",
          "01.11.2025 21:31:54",
          "01.11.2025 21:32:24",
          "01.11.2025 21:32:54",
          "01.11.2025 21:33:24",
          "01.11.2025 21:33:41",
          "01.11.2025 21:33:59",
          "01.11.2025 21:34:19",
          "01.11.2025 21:34:46",
          "01.11.2025 21:35:15",
          "01.11.2025 21:35:44",
          "01.11.2025 21:36:14",
          "01.11.2025 21:36:33",
          "01.11.2025 21:36:59",
          "01.11.2025 21:37:29",
          "01.11.2025 21:37:47",
          "01.11.2025 21:38:06",
          "01.11.2025 21:38:19",
          "01.11.2025 21:38:35",
          "01.11.2025 21:38:51",
          "01.11.2025 21:39:07",
          "01.11.2025 21:39:23",
          "01.11.2025 21:39:42",
          "01.11.2025 21:40:04",
          "01.11.2025 21:40:20",
          "01.11.2025 21:40:42",
          "01.11.2025 21:41:07",
          "01.11.2025 21:41:37",
          "01.11.2025 21:42:07",
          "01.11.2025 21:42:37",
          "01.11.2025 21:42:49",
          "01.11.2025 21:42:53",
          "01.11.2025 21:43:09",
          "01.11.2025 21:43:25",
          "01.11.2025 21:43:41",
          "01.11.2025 21:43:57",
          "01.11.2025 21:44:13",
          "01.11.2025 21:44:29",
          "01.11.2025 21:44:45"
        ],
        "course_deg_clockwise_from_north": [
          "299",
          "295",
          "287",
          "286",
          "285",
          "287",
          "295",
          "295",
          "293",
          "295",
          "294",
          "294",
          "294",
          "293",
          "294",
          "295",
          "293",
          "294",
          "293",
          "294",
          "293",
          "295",
          "294",
          "293",
          "293",
          "294",
          "293",
          "294",
          "305",
          "308",
          "311",
          "310",
          "311",
          "309",
          "310",
          "310",
          "310",
          "309",
          "310",
          "310",
          "310",
          "310",
          "309",
          "310",
          "309",
          "310",
          "309",
          "310",
          "309",
          "310",
          "309",
          "306",
          "304",
          "305",
          "305",
          "305",
          "305",
          "305",
          "305",
          "304",
          "305",
          "304",
          "304",
          "304",
          "305",
          "307",
          "305",
          "306",
          "306",
          "305",
          "305",
          "307",
          "305",
          "306",
          "306",
          "306",
          "305",
          "307",
          "305",
          "305",
          "306",
          "306",
          "305",
          "307",
          "306",
          "305",
          "307",
          "305",
          "307",
          "306",
          "306",
          "306",
          "306",
          "306",
          "306",
          "306",
          "306",
          "305",
          "306",
          "304",
          "305",
          "306",
          "305",
          "305",
          "305",
          "305",
          "305",
          "305",
          "305",
          "305",
          "305",
          "304",
          "305",
          "304",
          "305",
          "304",
          "305",
          "305",
          "305",
          "304",
          "304",
          "305",
          "303",
          "305",
          "304",
          "303",
          "304",
          "301",
          "297",
          "297",
          "297",
          "298",
          "297",
          "297",
          "297",
          "297",
          "297",
          "296",
          "297",
          "297",
          "296",
          "297",
          "297",
          "297",
          "297",
          "296",
          "296",
          "297",
          "296",
          "296",
          "296",
          "296",
          "295",
          "295",
          "295",
          "296",
          "296",
          "296",
          "296",
          "295",
          "299",
          "305",
          "308",
          "307",
          "308",
          "307",
          "307",
          "307",
          "307",
          "307",
          "307",
          "306",
          "309",
          "309",
          "309",
          "309",
          "309",
          "308",
          "309",
          "308",
          "309",
          "308",
          "308",
          "309",
          "309",
          "308",
          "308",
          "309",
          "307",
          "308",
          "308",
          "308",
          "308",
          "308",
          "308",
          "307",
          "308",
          "307",
          "308",
          "308",
          "307",
          "307",
          "308",
          "307",
          "307",
          "307",
          "307",
          "307",
          "307",
          "307",
          "307",
          "307",
          "306",
          "307",
          "307",
          "306",
          "307",
          "307",
          "306",
          "307",
          "306",
          "307",
          "306",
          "306",
          "307",
          "306",
          "307",
          "306",
          "306",
          "306",
          "306",
          "306",
          "305",
          "306",
          "305",
          "306",
          "306",
          "305",
          "306",
          "307",
          "307",
          "307",
          "306",
          "307",
          "306",
          "307",
          "306",
          "306",
          "306",
          "307",
          "306",
          "306",
          "306",
          "306",
          "306",
          "306",
          "305",
          "305",
          "306",
          "306",
          "305",
          "306",
          "306",
          "305",
          "305",
          "306",
          "304",
          "306",
          "305",
          "305",
          "304",
          "306",
          "303",
          "306",
          "305",
          "304",
          "304",
          "305",
          "304",
          "304",
          "304",
          "305",
          "304",
          "305",
          "305",
          "303",
          "305",
          "301",
          "288",
          "283",
          "280",
          "280",
          "281",
          "281",
          "281",
          "281",
          "281",
          "281",
          "272",
          "244",
          "242",
          "243",
          "240",
          "231",
          "230",
          "231",
          "231",
          "229",
          "229",
          "229",
          "229",
          "229",
          "229",
          "229",
          "229",
          "230",
          "278",
          "277",
          "270",
          "266",
          "266",
          "268",
          "266",
          "267",
          "267",
          "266",
          "266",
          "267",
          "268",
          "266",
          "266",
          "266"
        ],
        "speed_kts": [
          "189",
          "199",
          "205",
          "212",
          "228",
          "240",
          "266",
          "284",
          "307",
          "326",
          "342",
          "355",
          "366",
          "375",
          "381",
          "385",
          "390",
          "392",
          "395",
          "400",
          "402",
          "405",
          "407",
          "409",
          "410",
          "412",
          "415",
          "417",
          "416",
          "416",
          "417",
          "421",
          "424",
          "427",
          "429",
          "431",
          "433",
          "434",
          "434",
          "434",
          "431",
          "425",
          "418",
          "413",
          "408",
          "403",
          "397",
          "392",
          "387",
          "384",
          "388",
          "397",
          "405",
          "402",
          "400",
          "398",
          "396",
          "395",
          "394",
          "393",
          "392",
          "386",
          "381",
          "379",
          "375",
          "372",
          "370",
          "369",
          "370",
          "372",
          "372",
          "372",
          "374",
          "375",
          "378",
          "380",
          "383",
          "385",
          "386",
          "389",
          "390",
          "391",
          "392",
          "394",
          "393",
          "394",
          "396",
          "395",
          "396",
          "396",
          "394",
          "395",
          "395",
          "398",
          "398",
          "399",
          "400",
          "398",
          "400",
          "399",
          "399",
          "400",
          "399",
          "399",
          "398",
          "398",
          "398",
          "398",
          "396",
          "395",
          "393",
          "393",
          "392",
          "392",
          "395",
          "395",
          "397",
          "400",
          "401",
          "403",
          "404",
          "407",
          "405",
          "405",
          "402",
          "401",
          "401",
          "397",
          "393",
          "393",
          "394",
          "396",
          "397",
          "395",
          "396",
          "394",
          "394",
          "395",
          "392",
          "389",
          "384",
          "385",
          "384",
          "384",
          "385",
          "385",
          "385",
          "387",
          "386",
          "386",
          "389",
          "388",
          "387",
          "387",
          "388",
          "391",
          "391",
          "392",
          "393",
          "392",
          "395",
          "402",
          "407",
          "407",
          "404",
          "401",
          "398",
          "398",
          "397",
          "395",
          "396",
          "396",
          "400",
          "400",
          "397",
          "399",
          "400",
          "400",
          "402",
          "403",
          "400",
          "396",
          "394",
          "394",
          "393",
          "389",
          "391",
          "394",
          "392",
          "394",
          "396",
          "397",
          "398",
          "396",
          "398",
          "394",
          "397",
          "396",
          "397",
          "399",
          "399",
          "401",
          "402",
          "400",
          "398",
          "396",
          "396",
          "395",
          "397",
          "398",
          "399",
          "399",
          "399",
          "400",
          "400",
          "399",
          "400",
          "400",
          "401",
          "403",
          "404",
          "406",
          "405",
          "404",
          "406",
          "405",
          "407",
          "407",
          "408",
          "409",
          "408",
          "408",
          "406",
          "408",
          "409",
          "411",
          "411",
          "411",
          "414",
          "416",
          "419",
          "420",
          "421",
          "422",
          "423",
          "427",
          "424",
          "426",
          "427",
          "427",
          "428",
          "427",
          "426",
          "424",
          "426",
          "429",
          "428",
          "432",
          "436",
          "435",
          "438",
          "441",
          "441",
          "440",
          "440",
          "440",
          "437",
          "440",
          "439",
          "440",
          "440",
          "443",
          "441",
          "441",
          "428",
          "428",
          "436",
          "440",
          "440",
          "426",
          "418",
          "414",
          "410",
          "414",
          "416",
          "414",
          "415",
          "410",
          "398",
          "392",
          "389",
          "389",
          "390",
          "381",
          "370",
          "366",
          "339",
          "308",
          "294",
          "278",
          "271",
          "260",
          "250",
          "246",
          "234",
          "227",
          "228",
          "228",
          "228",
          "228",
          "222",
          "205",
          "187",
          "177",
          "167",
          "160",
          "159",
          "159",
          "155",
          "149",
          "141",
          "139",
          "128",
          "118",
          "115",
          "111",
          "112",
          "113",
          "113",
          "113",
          "117",
          "118"
        ],
        "speed_mph": [
          "217",
          "229",
          "236",
          "244",
          "262",
          "276",
          "306",
          "327",
          "353",
          "375",
          "394",
          "409",
          "421",
          "432",
          "438",
          "443",
          "449",
          "451",
          "455",
          "460",
          "463",
          "466",
          "468",
          "471",
          "472",
          "474",
          "478",
          "480",
          "479",
          "479",
          "480",
          "484",
          "488",
          "491",
          "494",
          "496",
          "498",
          "499",
          "499",
          "499",
          "496",
          "489",
          "481",
          "475",
          "470",
          "464",
          "457",
          "451",
          "445",
          "442",
          "447",
          "457",
          "466",
          "463",
          "460",
          "458",
          "456",
          "455",
          "453",
          "452",
          "451",
          "444",
          "438",
          "436",
          "432",
          "428",
          "426",
          "425",
          "426",
          "428",
          "428",
          "428",
          "430",
          "432",
          "435",
          "437",
          "441",
          "443",
          "444",
          "448",
          "449",
          "450",
          "451",
          "453",
          "452",
          "453",
          "456",
          "455",
          "456",
          "456",
          "453",
          "455",
          "455",
          "458",
          "458",
          "459",
          "460",
          "458",
          "460",
          "459",
          "459",
          "460",
          "459",
          "459",
          "458",
          "458",
          "458",
          "458",
          "456",
          "455",
          "452",
          "452",
          "451",
          "451",
          "455",
          "455",
          "457",
          "460",
          "461",
          "464",
          "465",
          "468",
          "466",
          "466",
          "463",
          "461",
          "461",
          "457",
          "452",
          "452",
          "453",
          "456",
          "457",
          "455",
          "456",
          "453",
          "453",
          "455",
          "451",
          "448",
          "442",
          "443",
          "442",
          "442",
          "443",
          "443",
          "443",
          "445",
          "444",
          "444",
          "448",
          "447",
          "445",
          "445",
          "447",
          "450",
          "450",
          "451",
          "452",
          "451",
          "455",
          "463",
          "468",
          "468",
          "465",
          "461",
          "458",
          "458",
          "457",
          "455",
          "456",
          "456",
          "460",
          "460",
          "457",
          "459",
          "460",
          "460",
          "463",
          "464",
          "460",
          "456",
          "453",
          "453",
          "452",
          "448",
          "450",
          "453",
          "451",
          "453",
          "456",
          "457",
          "458",
          "456",
          "458",
          "453",
          "457",
          "456",
          "457",
          "459",
          "459",
          "461",
          "463",
          "460",
          "458",
          "456",
          "456",
          "455",
          "457",
          "458",
          "459",
          "459",
          "459",
          "460",
          "460",
          "459",
          "460",
          "460",
          "461",
          "464",
          "465",
          "467",
          "466",
          "465",
          "467",
          "466",
          "468",
          "468",
          "470",
          "471",
          "470",
          "470",
          "467",
          "470",
          "471",
          "473",
          "473",
          "473",
          "476",
          "479",
          "482",
          "483",
          "484",
          "486",
          "487",
          "491",
          "488",
          "490",
          "491",
          "491",
          "493",
          "491",
          "490",
          "488",
          "490",
          "494",
          "493",
          "497",
          "502",
          "501",
          "504",
          "507",
          "507",
          "506",
          "506",
          "506",
          "503",
          "506",
          "505",
          "506",
          "506",
          "510",
          "507",
          "507",
          "493",
          "493",
          "502",
          "506",
          "506",
          "490",
          "481",
          "476",
          "472",
          "476",
          "479",
          "476",
          "478",
          "472",
          "458",
          "451",
          "448",
          "448",
          "449",
          "438",
          "426",
          "421",
          "390",
          "354",
          "338",
          "320",
          "312",
          "299",
          "288",
          "283",
          "269",
          "261",
          "262",
          "262",
          "262",
          "262",
          "255",
          "236",
          "215",
          "204",
          "192",
          "184",
          "183",
          "183",
          "178",
          "171",
          "162",
          "160",
          "147",
          "136",
          "132",
          "128",
          "129",
          "130",
          "130",
          "130",
          "135",
          "136"
        ],
        "altitude_ft": [
          "3500",
          "4825",
          "6125",
          "7550",
          "8875",
          "10100",
          "11875",
          "12900",
          "13725",
          "14475",
          "15275",
          "16025",
          "16775",
          "17600",
          "18350",
          "19100",
          "19850",
          "20600",
          "21350",
          "22025",
          "22700",
          "23350",
          "23975",
          "24625",
          "25300",
          "25950",
          "26625",
          "27275",
          "27675",
          "28050",
          "28675",
          "29250",
          "29750",
          "30250",
          "30750",
          "31225",
          "31750",
          "32250",
          "32775",
          "33275",
          "33900",
          "34600",
          "35275",
          "35975",
          "36625",
          "37275",
          "37950",
          "38575",
          "39225",
          "39775",
          "40000",
          "40000",
          "40000",
          "40000",
          "40000",
          "40000",
          "40000",
          "40000",
          "40000",
          "40000",
          "40000",
          "40000",
          "40000",
          "40000",
          "40000",
          "40000",
          "40000",
          "40000",
          "40000",
          "40000",
          "40000",
          "40000",
          "40000",
          "40000",
          "40000",
          "40000",
          "40000",
          "40000",
          "40000",
          "40000",
          "40000",
          "40000",
          "40000",
          "40000",
          "40000",
          "40000",
          "40000",
          "40000",
          "40000",
          "40000",
          "40000",
          "40000",
          "40000",
          "40000",
          "40000",
          "40000",
          "40000",
          "40000",
          "40000",
          "40000",
          "40000",
          "40000",
          "40000",
          "40000",
          "40000",
          "40000",
          "40000",
          "40000",
          "40000",
          "40000",
          "40000",
          "40000",
          "40000",
          "40000",
          "40000",
          "40000",
          "40000",
          "40000",
          "40000",
          "40000",
          "40000",
          "40000",
          "40000",
          "40000",
          "40000",
          "40000",
          "40000",
          "40000",
          "40000",
          "40000",
          "40000",
          "40000",
          "40000",
          "40000",
          "40000",
          "40000",
          "40000",
          "40000",
          "40000",
          "40000",
          "40000",
          "40000",
          "40000",
          "40000",
          "40000",
          "40000",
          "40000",
          "40000",
          "40000",
          "40000",
          "40000",
          "40000",
          "40000",
          "40000",
          "40000",
          "40000",
          "40000",
          "40000",
          "40000",
          "40000",
          "40000",
          "40000",
          "40000",
          "40000",
          "40000",
          "40000",
          "40000",
          "40000",
          "40000",
          "40000",
          "40000",
          "40000",
          "40000",
          "40000",
          "40000",
          "40000",
          "40000",
          "40000",
          "40000",
          "40000",
          "40000",
          "40000",
          "40000",
          "40000",
          "40000",
          "40000",
          "40000",
          "40000",
          "40000",
          "40000",
          "40000",
          "40000",
          "40000",
          "40000",
          "40000",
          "40000",
          "40000",
          "40000",
          "40000",
          "40000",
          "40000",
          "40000",
          "40000",
          "40000",
          "40000",
          "40000",
          "40000",
          "40000",
          "40000",
          "40000",
          "40000",
          "40000",
          "40000",
          "40000",
          "40000",
          "40000",
          "40000",
          "40000",
          "40000",
          "40000",
          "40000",
          "40000",
          "40000",
          "40000",
          "40000",
          "40000",
          "40000",
          "40000",
          "40000",
          "40000",
          "40000",
          "40000",
          "40000",
          "40000",
          "40000",
          "40000",
          "40000",
          "40000",
          "40000",
          "40000",
          "40000",
          "40000",
          "40000",
          "40000",
          "40000",
          "40000",
          "40000",
          "40000",
          "40000",
          "40000",
          "40000",
          "40000",
          "40000",
          "40000",
          "39850",
          "38375",
          "37900",
          "37400",
          "36875",
          "36500",
          "36050",
          "35700",
          "35225",
          "34725",
          "34225",
          "33750",
          "33275",
          "32775",
          "32250",
          "31750",
          "31300",
          "30950",
          "30450",
          "30125",
          "29975",
          "29675",
          "29000",
          "28500",
          "28000",
          "27100",
          "26400",
          "25400",
          "24650",
          "24150",
          "23475",
          "23050",
          "22650",
          "22175",
          "21925",
          "21600",
          "21300",
          "20650",
          "19975",
          "19025",
          "17775",
          "16750",
          "15775",
          "14800",
          "14225",
          "13675",
          "13025",
          "12100",
          "11175",
          "10250",
          "9200",
          "8600",
          "7800",
          "6750",
          "6225",
          "5575",
          "5075",
          "4650",
          "4325",
          "4250",
          "4225",
          "4225",
          "4050",
          "3775",
          "3375",
          "3150",
          "2850",
          "2650",
          "2275",
          "2125",
          "2100",
          "1925",
          "1775",
          "1600",
          "1450",
          "1300",
          "1125",
          "950"
        ],
        "vertical_rate_fpm": [
          "",
          "2864",
          "2920",
          "2750",
          "2593",
          "2338",
          "2154",
          "1820",
          "1549",
          "1550",
          "1550",
          "1500",
          "1549",
          "1549",
          "1475",
          "1475",
          "1500",
          "1500",
          "1425",
          "1328",
          "1303",
          "1275",
          "1275",
          "1325",
          "1325",
          "1303",
          "1303",
          "1286",
          "1292",
          "1277",
          "1180",
          "1057",
          "1000",
          "1000",
          "975",
          "1000",
          "1008",
          "1008",
          "1025",
          "1125",
          "1325",
          "1375",
          "1375",
          "1350",
          "1279",
          "1303",
          "1300",
          "1254",
          "1161",
          "750",
          "221",
          "",
          "",
          "",
          "",
          "",
          "",
          "",
          "",
          "",
          "",
          "",
          "",
          "",
          "",
          "",
          "",
          "",
          "",
          "",
          "",
          "",
          "",
          "",
          "",
          "",
          "",
          "",
          "",
          "",
          "",
          "",
          "",
          "",
          "",
          "",
          "",
          "",
          "",
          "",
          "",
          "",
          "",
          "",
          "",
          "",
          "",
          "",
          "",
          "",
          "",
          "",
          "",
          "",
          "",
          "",
          "",
          "",
          "",
          "",
          "",
          "",
          "",
          "",
          "",
          "",
          "",
          "",
          "",
          "",
          "",
          "",
          "",
          "",
          "",
          "",
          "",
          "",
          "",
          "",
          "",
          "",
          "",
          "",
          "",
          "",
          "",
          "",
          "",
          "",
          "",
          "",
          "",
          "",
          "",
          "",
          "",
          "",
          "",
          "",
          "",
          "",
          "",
          "",
          "",
          "",
          "",
          "",
          "",
          "",
          "",
          "",
          "",
          "",
          "",
          "",
          "",
          "",
          "",
          "",
          "",
          "",
          "",
          "",
          "",
          "",
          "",
          "",
          "",
          "",
          "",
          "",
          "",
          "",
          "",
          "",
          "",
          "",
          "",
          "",
          "",
          "",
          "",
          "",
          "",
          "",
          "",
          "",
          "",
          "",
          "",
          "",
          "",
          "",
          "",
          "",
          "",
          "",
          "",
          "",
          "",
          "",
          "",
          "",
          "",
          "",
          "",
          "",
          "",
          "",
          "",
          "",
          "",
          "",
          "",
          "",
          "",
          "",
          "",
          "",
          "",
          "",
          "",
          "",
          "",
          "",
          "",
          "",
          "",
          "",
          "",
          "",
          "",
          "",
          "",
          "",
          "",
          "",
          "",
          "",
          "",
          "",
          "",
          "-150",
          "-813",
          "-975",
          "-975",
          "-1025",
          "-1000",
          "-990",
          "-1000",
          "-952",
          "-975",
          "-1000",
          "-975",
          "-950",
          "-975",
          "-1025",
          "-1025",
          "-950",
          "-941",
          "-1000",
          "-952",
          "-467",
          "-474",
          "-959",
          "-966",
          "-1000",
          "-1235",
          "-1412",
          "-1457",
          "-1500",
          "-1250",
          "-1007",
          "-943",
          "-917",
          "-1010",
          "-989",
          "-958",
          "-938",
          "-1140",
          "-1420",
          "-1741",
          "-1941",
          "-2007",
          "-2000",
          "-1950",
          "-1979",
          "-1929",
          "-1895",
          "-2011",
          "-1982",
          "-1914",
          "-2008",
          "-2020",
          "-1867",
          "-1982",
          "-1969",
          "-1905",
          "-2156",
          "-1914",
          "-1406",
          "-750",
          "-188",
          "-43",
          "-256",
          "-711",
          "-1066",
          "-798",
          "-573",
          "-500",
          "-575",
          "-750",
          "-656",
          "-600",
          "-609",
          "-609",
          "-609",
          "-563",
          "-609",
          "-656",
          "-656"
        ],
        "reporting_facility": [
          "FlightAware ADS-B(BDS / LIBR)",
          "FlightAware ADS-B(LIBX)",
          "FlightAware ADS-B(BRI / LIBD)",
          "FlightAware ADS-B(BRI / LIBD)",
          "FlightAware ADS-B(BRI / LIBD)",
          "FlightAware ADS-B(BRI / LIBD)",
          "FlightAware ADS-B(SPU / LDSP)",
          "FlightAware ADS-B(SPU / LDSP)",
          "FlightAware ADS-B(LIBX)",
          "FlightAware ADS-B(SPU / LDSP)",
          "FlightAware ADS-B(SPU / LDSP)",
          "FlightAware ADS-B(SPU / LDSP)",
          "FlightAware ADS-B(BDS / LIBR)",
          "FlightAware ADS-B(BWK / LDSB)",
          "FlightAware ADS-B(BWK / LDSB)",
          "FlightAware ADS-B(FOG / LIBF)",
          "FlightAware ADS-B(BRI / LIBD)",
          "FlightAware ADS-B(PSR / LIBP)",
          "FlightAware ADS-B(BRI / LIBD)",
          "FlightAware ADS-B(BRI / LIBD)",
          "FlightAware ADS-B(FOG / LIBF)",
          "FlightAware ADS-B(SPU / LDSP)",
          "FlightAware ADS-B(SPU / LDSP)",
          "FlightAware ADS-B(BRI / LIBD)",
          "FlightAware ADS-B(BRI / LIBD)",
          "FlightAware ADS-B(BRI / LIBD)",
          "FlightAware ADS-B(PSR / LIBP)",
          "FlightAware ADS-B(BRI / LIBD)",
          "FlightAware ADS-B(FOG / LIBF)",
          "FlightAware ADS-B(LCC / LIBN)",
          "FlightAware ADS-B(PSR / LIBP)",
          "FlightAware ADS-B(BDS / LIBR)",
          "FlightAware ADS-B(PSR / LIBP)",
          "FlightAware ADS-B(SPU / LDSP)",
          "FlightAware ADS-B(PSR / LIBP)",
          "FlightAware ADS-B(SPU / LDSP)",
          "FlightAware ADS-B(SPU / LDSP)",
          "FlightAware ADS-B(SPU / LDSP)",
          "FlightAware ADS-B(SPU / LDSP)",
          "FlightAware ADS-B(PSR / LIBP)",
          "FlightAware ADS-B(LOGF)",
          "FlightAware ADS-B(AOI / LIPY)",
          "FlightAware ADS-B(AOI / LIPY)",
          "FlightAware ADS-B(QRT / LIQN)",
          "FlightAware ADS-B(QRT / LIQN)",
          "FlightAware ADS-B(QRT / LIQN)",
          "FlightAware ADS-B(AOI / LIPY)",
          "FlightAware ADS-B(LJAJ)",
          "FlightAware ADS-B(PSR / LIBP)",
          "FlightAware ADS-B(AOI / LIPY)",
          "FlightAware ADS-B(LINA)",
          "FlightAware ADS-B(UDN / LIPD)",
          "FlightAware ADS-B(LCC / LIBN)",
          "FlightAware ADS-B(RMI / LIPR)",
          "FlightAware ADS-B(LJU / LJLJ)",
          "FlightAware ADS-B(LJU / LJLJ)",
          "FlightAware ADS-B(LJU / LJLJ)",
          "FlightAware ADS-B(CIA / LIRA)",
          "FlightAware ADS-B(LJU / LJLJ)",
          "FlightAware ADS-B(LIDU)",
          "FlightAware ADS-B(LIAO)",
          "FlightAware ADS-B(PEG / LIRZ)",
          "FlightAware ADS-B(PEG / LIRZ)",
          "FlightAware ADS-B(LOGH)",
          "FlightAware ADS-B(VCE / LIPZ)",
          "FlightAware ADS-B(BLQ / LIPE)",
          "FlightAware ADS-B(PUY / LDPL)",
          "FlightAware ADS-B(PEG / LIRZ)",
          "FlightAware ADS-B(PSR / LIBP)",
          "FlightAware ADS-B(LIDG)",
          "FlightAware ADS-B(LIDG)",
          "FlightAware ADS-B(LIDU)",
          "FlightAware ADS-B(TRS / LIPQ)",
          "FlightAware ADS-B(BLQ / LIPE)",
          "FlightAware ADS-B(FCO / LIRF)",
          "FlightAware ADS-B(LIDG)",
          "FlightAware ADS-B(PEG / LIRZ)",
          "FlightAware ADS-B(LOGF)",
          "FlightAware ADS-B(LOGF)",
          "FlightAware ADS-B(ZAD / LDZD)",
          "FlightAware ADS-B(LIDG)",
          "FlightAware ADS-B(LIPG)",
          "FlightAware ADS-B(FCO / LIRF)",
          "FlightAware ADS-B(TRS / LIPQ)",
          "FlightAware ADS-B(AOI / LIPY)",
          "FlightAware ADS-B(AOI / LIPY)",
          "FlightAware ADS-B(VCE / LIPZ)",
          "FlightAware ADS-B(LIPM)",
          "FlightAware ADS-B(LIPM)",
          "FlightAware ADS-B(PSR / LIBP)",
          "FlightAware ADS-B(AVB / LIPA)",
          "FlightAware ADS-B(RMI / LIPR)",
          "FlightAware ADS-B(LIN / LIML)",
          "FlightAware ADS-B(PSR / LIBP)",
          "FlightAware ADS-B(LIAO)",
          "FlightAware ADS-B(LIPU)",
          "FlightAware ADS-B(LIPU)",
          "FlightAware ADS-B(LIDA)",
          "FlightAware ADS-B(GOA / LIMJ)",
          "FlightAware ADS-B(BLQ / LIPE)",
          "FlightAware ADS-B(LJAJ)",
          "FlightAware ADS-B(LIQQ)",
          "FlightAware ADS-B(RMI / LIPR)",
          "FlightAware ADS-B(LIPI)",
          "FlightAware ADS-B(VCE / LIPZ)",
          "FlightAware ADS-B(LOGF)",
          "FlightAware ADS-B(VCE / LIPZ)",
          "FlightAware ADS-B(LIPG)",
          "FlightAware ADS-B(BZO / LIPB)",
          "FlightAware ADS-B(BZO / LIPB)",
          "FlightAware ADS-B(BZO / LIPB)",
          "FlightAware ADS-B(LIN / LIML)",
          "FlightAware ADS-B(LSZO)",
          "FlightAware ADS-B(MUC / EDDM)",
          "FlightAware ADS-B(EDNL)",
          "FlightAware ADS-B(TRS / LIPQ)",
          "FlightAware ADS-B(ETHA)",
          "FlightAware ADS-B(LIPI)",
          "FlightAware ADS-B(LIPI)",
          "FlightAware ADS-B(PUY / LDPL)",
          "FlightAware ADS-B(LIMB)",
          "FlightAware ADS-B(OBF / EDMO)",
          "FlightAware ADS-B(LIMB)",
          "FlightAware ADS-B(GOA / LIMJ)",
          "FlightAware ADS-B(EDSR)",
          "FlightAware ADS-B(BGY / LIME)",
          "FlightAware ADS-B(LIMA)",
          "FlightAware ADS-B(BZO / LIPB)",
          "FlightAware ADS-B(EDMR)",
          "FlightAware ADS-B(MUC / EDDM)",
          "FlightAware ADS-B(ETHA)",
          "FlightAware ADS-B(MUC / EDDM)",
          "FlightAware ADS-B(ETHA)",
          "FlightAware ADS-B(LOIK)",
          "FlightAware ADS-B(ZRH / LSZH)",
          "FlightAware ADS-B(EAP / LFSB)",
          "FlightAware ADS-B(LSPO)",
          "FlightAware ADS-B(LIKE)",
          "FlightAware ADS-B(VIP / LSMP)",
          "FlightAware ADS-B(VCE / LIPZ)",
          "FlightAware ADS-B(EDMJ)",
          "FlightAware ADS-B(LSPH)",
          "FlightAware ADS-B(BGY / LIME)",
          "FlightAware ADS-B(LSZF)",
          "FlightAware ADS-B(SXB / LFST)",
          "FlightAware ADS-B(LSZG)",
          "FlightAware ADS-B(STR / EDDS)",
          "FlightAware ADS-B(EDMJ)",
          "FlightAware ADS-B(LSZF)",
          "FlightAware ADS-B(LSZF)",
          "FlightAware ADS-B(ETHA)",
          "FlightAware ADS-B(LSZF)",
          "FlightAware ADS-B(FKB / EDSB)",
          "FlightAware ADS-B(LFGB)",
          "FlightAware ADS-B(HOH / LOIH)",
          "FlightAware ADS-B(LSPN)",
          "FlightAware ADS-B(CMR / LFGA)",
          "FlightAware ADS-B(LSZU)",
          "FlightAware ADS-B(FKB / EDSB)",
          "FlightAware ADS-B(LSZI)",
          "FlightAware ADS-B(BRN / LSZB)",
          "FlightAware ADS-B(LFGC)",
          "FlightAware ADS-B(EDMU)",
          "FlightAware ADS-B(ZRH / LSZH)",
          "FlightAware ADS-B(LSPK)",
          "FlightAware ADS-B(FMM / EDJA)",
          "FlightAware ADS-B(EDSZ)",
          "FlightAware ADS-B(EDTD)",
          "FlightAware ADS-B(STR / EDDS)",
          "FlightAware ADS-B(STR / EDDS)",
          "FlightAware ADS-B(STR / EDDS)",
          "FlightAware ADS-B(STR / EDDS)",
          "FlightAware ADS-B(ACH / LSZR)",
          "FlightAware ADS-B(LFEK)",
          "FlightAware ADS-B(LSZF)",
          "FlightAware ADS-B(LSZK)",
          "FlightAware ADS-B(EAP / LFSB)",
          "FlightAware ADS-B(LYN / LFLY)",
          "FlightAware ADS-B(EDSR)",
          "FlightAware ADS-B(MST / EHBK)",
          "FlightAware ADS-B(ZRH / LSZH)",
          "FlightAware ADS-B(LSPH)",
          "FlightAware ADS-B(GKE / ETNG)",
          "FlightAware ADS-B(GVA / LSGG)",
          "FlightAware ADS-B(STR / EDDS)",
          "FlightAware ADS-B(EAP / LFSB)",
          "FlightAware ADS-B(EBBL)",
          "FlightAware ADS-B(EBU / LFMH)",
          "FlightAware ADS-B(LFEZ)",
          "FlightAware ADS-B(EBBL)",
          "FlightAware ADS-B(LFPK)",
          "FlightAware ADS-B(EBBL)",
          "FlightAware ADS-B(GLZ / EHGR)",
          "FlightAware ADS-B(EBU / LFMH)",
          "FlightAware ADS-B(EDNQ)",
          "FlightAware ADS-B(LGG / EBLG)",
          "FlightAware ADS-B(ETOU)",
          "FlightAware ADS-B(EDRY)",
          "FlightAware ADS-B(EDSZ)",
          "FlightAware ADS-B(EDSZ)",
          "FlightAware ADS-B(EDSZ)",
          "FlightAware ADS-B(EDFC)",
          "FlightAware ADS-B(FMO / EDDG)",
          "FlightAware ADS-B(ELUS)",
          "FlightAware ADS-B(SCN / EDDR)",
          "FlightAware ADS-B(EBGB)",
          "FlightAware ADS-B(QEF / EDFE)",
          "FlightAware ADS-B(UDE / EHVK)",
          "FlightAware ADS-B(LFEK)",
          "FlightAware ADS-B(EHMZ)",
          "FlightAware ADS-B(EHDL)",
          "FlightAware ADS-B(EHDL)",
          "FlightAware ADS-B(EBCF)",
          "FlightAware ADS-B(MZM / LFSF)",
          "FlightAware ADS-B(EIN / EHEH)",
          "FlightAware ADS-B(BRU / EBBR)",
          "FlightAware ADS-B(LFPY)",
          "FlightAware ADS-B(LEH / LFOH)",
          "FlightAware ADS-B(TNF / LFPN)",
          "FlightAware ADS-B(EBGB)",
          "FlightAware ADS-B(MST / EHBK)",
          "FlightAware ADS-B(EHTE)",
          "FlightAware ADS-B(EGML)",
          "FlightAware ADS-B(EDRT)",
          "FlightAware ADS-B(SCN / EDDR)",
          "FlightAware ADS-B(GRQ / EHGG)",
          "FlightAware ADS-B(GRQ / EHGG)",
          "FlightAware ADS-B(LBG / LFPB)",
          "FlightAware ADS-B(BRU / EBBR)",
          "FlightAware ADS-B(MSE / EGMH)",
          "FlightAware ADS-B(BRU / EBBR)",
          "FlightAware ADS-B(EBBL)",
          "FlightAware ADS-B(KJK / EBKT)",
          "FlightAware ADS-B(LBG / LFPB)",
          "FlightAware ADS-B(LYX / EGMD)",
          "FlightAware ADS-B(ORY / LFPO)",
          "FlightAware ADS-B(EBFS)",
          "FlightAware ADS-B(AMS / EHAM)",
          "FlightAware ADS-B(ANR / EBAW)",
          "FlightAware ADS-B(EHDB)",
          "FlightAware ADS-B(EBAM)",
          "FlightAware ADS-B(BEX / EGUB)",
          "FlightAware ADS-B(AMS / EHAM)",
          "FlightAware ADS-B(BOH / EGHH)",
          "FlightAware ADS-B(LFPP)",
          "FlightAware ADS-B(BRU / EBBR)",
          "FlightAware ADS-B(ESH / EGKA)",
          "FlightAware ADS-B(EGKL)",
          "FlightAware ADS-B(EGKH)",
          "FlightAware ADS-B(LBG / LFPB)",
          "FlightAware ADS-B(OST / EBOS)",
          "FlightAware ADS-B(LFOI)",
          "FlightAware ADS-B(EGKE)",
          "FlightAware ADS-B(EGWN)",
          "FlightAware ADS-B(EGKL)",
          "FlightAware ADS-B(LHR / EGLL)",
          "FlightAware ADS-B(LTN / EGGW)",
          "FlightAware ADS-B(LGW / EGKK)",
          "FlightAware ADS-B(BZZ / EGVN)",
          "FlightAware ADS-B(EGTC)",
          "FlightAware ADS-B(EGVP)",
          "FlightAware ADS-B(LFAM)",
          "FlightAware ADS-B(EBGB)",
          "FlightAware ADS-B(BQH / EGKB)",
          "FlightAware ADS-B(BHX / EGBB)",
          "FlightAware ADS-B(BEX / EGUB)",
          "FlightAware ADS-B(EGTF)",
          "FlightAware ADS-B(LGW / EGKK)",
          "FlightAware ADS-B(OST / EBOS)",
          "FlightAware ADS-B(KNF / EGYM)",
          "FlightAware ADS-B(EGSQ)",
          "FlightAware ADS-B(EGHP)",
          "FlightAware ADS-B",
          "FlightAware ADS-B(SEN / EGMC)",
          "FlightAware ADS-B(KJK / EBKT)",
          "FlightAware ADS-B(GLO / EGBJ)",
          "FlightAware ADS-B(EGUV)",
          "FlightAware ADS-B(GLO / EGBJ)",
          "FlightAware ADS-B(EGBT)",
          "FlightAware ADS-B(EGUD)",
          "FlightAware ADS-B(NWI / EGSH)",
          "FlightAware ADS-B(EGTC)",
          "FlightAware ADS-B(LHR / EGLL)",
          "FlightAware ADS-B(EMA / EGNX)",
          "FlightAware ADS-B(BOH / EGHH)",
          "FlightAware ADS-B(EGBS)",
          "FlightAware ADS-B(BRS / EGGD)",
          "FlightAware ADS-B(LTN / EGGW)",
          "FlightAware ADS-B(EGTC)",
          "FlightAware ADS-B(EGTH)",
          "FlightAware ADS-B(ORM / EGBK)",
          "FlightAware ADS-B(LHR / EGLL)",
          "FlightAware ADS-B(EGLM)",
          "FlightAware ADS-B(EGSX)",
          "FlightAware ADS-B(SOU / EGHI)",
          "FlightAware ADS-B(BHX / EGBB)",
          "FlightAware ADS-B(LPL / EGGP)",
          "FlightAware ADS-B(BHX / EGBB)",
          "FlightAware ADS-B(CVT / EGBE)",
          "FlightAware ADS-B(SEN / EGMC)",
          "FlightAware ADS-B(EGHR)",
          "FlightAware ADS-B(EGFC)",
          "FlightAware ADS-B(EGSY)",
          "FlightAware ADS-B(EGFC)",
          "FlightAware ADS-B(LHR / EGLL)",
          "FlightAware ADS-B(EXT / EGTE)",
          "FlightAware ADS-B(GLO / EGBJ)",
          "FlightAware ADS-B(BHX / EGBB)",
          "FlightAware ADS-B(EGHO)",
          "Surface and Near-Surface",
          "FlightAware ADS-B(GLO / EGBJ)",
          "FlightAware ADS-B(CWL / EGFF)",
          "FlightAware ADS-B(EDLY)",
          "FlightAware ADS-B(FZO / EGTG)",
          "FlightAware ADS-B(EGFC)",
          "FlightAware ADS-B(YEO / EGDY)",
          "FlightAware ADS-B(EGTW)",
          "FlightAware ADS-B(BRS / EGGD)",
          "FlightAware ADS-B(FZO / EGTG)",
          "FlightAware ADS-B(BRS / EGGD)",
          "FlightAware ADS-B(GLO / EGBJ)",
          "FlightAware ADS-B(EGTU)",
          "FlightAware ADS-B(GLO / EGBJ)",
          "Surface and Near-Surface",
          "FlightAware ADS-B(BRS / EGGD)",
          "FlightAware ADS-B(FZO / EGTG)",
          "FlightAware ADS-B(FZO / EGTG)",
          "FlightAware ADS-B(FZO / EGTG)",
          "FlightAware ADS-B(BRS / EGGD)",
          "FlightAware ADS-B(FZO / EGTG)",
          "FlightAware ADS-B(BRS / EGGD)",
          "FlightAware ADS-B(CWL / EGFF)"
        ]
      }
    }
  ]
}