{
  "type": "FeatureCollection",
  "features": [
    {
      "type": "Feature",
      "geometry": {
        "type": "LineString",
        "coordinates": [
          [
            0.0225,
            51.3175
          ],
          [
            0.0136,
            51.3091
          ],
          [
            -0.004,
            51.3079
          ],
          [
            -0.0174,
            51.3167
          ],
          [
            -0.0154,
            51.3309
          ],
          [
            0.0013,
            51.3402
          ],
          [
            0.0253,
            51.3402
          ],
          [
            0.0507,
            51.3359
          ],
          [
            0.0771,
            51.3329
          ],
          [
            0.1002,
            51.3314
          ],
          [
            0.1268,
            51.3297
          ],
          [
            0.1741,
            51.3266
          ],
          [
            0.2225,
            51.3239
          ],
          [
            0.2722,
            51.3209
          ],
          [
            0.3076,
            51.3186
          ],
          [
            0.3561,
            51.3116
          ],
          [
            0.4227,
            51.3002
          ],
          [
            0.4834,
            51.2892
          ],
          [
            0.523,
            51.2822
          ],
          [
            0.5593,
            51.2758
          ],
          [
            0.6151,
            51.2655
          ],
          [
            0.7322,
            51.2426
          ],
          [
            0.8163,
            51.2266
          ],
          [
            0.8958,
            51.2112
          ],
          [
            0.9961,
            51.1919
          ],
          [
            1.1337,
            51.1672
          ],
          [
            1.2334,
            51.1523
          ],
          [
            1.3361,
            51.1368
          ],
          [
            1.4338,
            51.1225
          ],
          [
            1.4901,
            51.1143
          ],
          [
            1.6765,
            51.0871
          ],
          [
            1.779,
            51.072
          ],
          [
            1.8813,
            51.0563
          ],
          [
            1.9865,
            51.0401
          ],
          [
            2.0933,
            51.0239
          ],
          [
            2.2054,
            51.0073
          ],
          [
            2.3101,
            50.9823
          ],
          [
            2.4114,
            50.9535
          ],
          [
            2.4798,
            50.9343
          ],
          [
            2.6101,
            50.8878
          ],
          [
            2.7036,
            50.8533
          ],
          [
            2.7985,
            50.8194
          ],
          [
            2.892,
            50.7853
          ],
          [
            2.9832,
            50.752
          ],
          [
            3.063,
            50.7229
          ],
          [
            3.2191,
            50.6655
          ],
          [
            3.3072,
            50.6329
          ],
          [
            3.3917,
            50.6017
          ],
          [
            3.4765,
            50.57
          ],
          [
            3.564,
            50.5374
          ],
          [
            3.6248,
            50.5148
          ],
          [
            3.7122,
            50.4818
          ],
          [
            3.8019,
            50.4481
          ],
          [
            3.89,
            50.4149
          ],
          [
            3.9792,
            50.3809
          ],
          [
            4.0459,
            50.3555
          ],
          [
            4.148,
            50.3169
          ],
          [
            4.2407,
            50.2812
          ],
          [
            4.3291,
            50.2471
          ],
          [
            4.4192,
            50.2126
          ],
          [
            4.5117,
            50.1766
          ],
          [
            4.6001,
            50.1424
          ],
          [
            4.6956,
            50.1052
          ],
          [
            4.7853,
            50.07
          ],
          [
            4.8762,
            50.0344
          ],
          [
            4.9891,
            49.9899
          ],
          [
            5.0758,
            49.9556
          ],
          [
            5.1305,
            49.9339
          ],
          [
            5.2203,
            49.8982
          ],
          [
            5.2699,
            49.8783
          ],
          [
            5.378,
            49.8353
          ],
          [
            5.4663,
            49.7997
          ],
          [
            5.5525,
            49.765
          ],
          [
            5.643,
            49.7285
          ],
          [
            5.7149,
            49.6992
          ],
          [
            5.8036,
            49.6633
          ],
          [
            5.8892,
            49.6285
          ],
          [
            5.9725,
            49.5942
          ],
          [
            6.0666,
            49.5556
          ],
          [
            6.1531,
            49.5201
          ],
          [
            6.2396,
            49.4842
          ],
          [
            6.3289,
            49.4473
          ],
          [
            6.4128,
            49.4123
          ],
          [
            6.5035,
            49.3743
          ],
          [
            6.5898,
            49.3384
          ],
          [
            6.6769,
            49.3017
          ],
          [
            6.7641,
            49.2652
          ],
          [
            6.8493,
            49.2288
          ],
          [
            6.9372,
            49.1915
          ],
          [
            7.0258,
            49.1539
          ],
          [
            7.111,
            49.1175
          ],
          [
            7.1939,
            49.082
          ],
          [
            7.2829,
            49.0438
          ],
          [
            7.3689,
            49.0065
          ],
          [
            7.4143,
            48.9834
          ],
          [
            7.4675,
            48.9431
          ],
          [
            7.5318,
            48.8779
          ],
          [
            7.5826,
            48.8223
          ],
          [
            7.6242,
            48.7783
          ],
          [
            7.6577,
            48.7429
          ],
          [
            7.6898,
            48.7086
          ],
          [
            7.7264,
            48.6689
          ],
          [
            7.7933,
            48.5973
          ],
          [
            7.8462,
            48.5402
          ],
          [
            7.9082,
            48.4727
          ],
          [
            7.9618,
            48.4148
          ],
          [
            8.0385,
            48.3313
          ],
          [
            8.0925,
            48.2724
          ],
          [
            8.1427,
            48.2172
          ],
          [
            8.194,
            48.1609
          ],
          [
            8.2463,
            48.1034
          ],
          [
            8.299,
            48.0452
          ],
          [
            8.3495,
            47.9892
          ],
          [
            8.4007,
            47.9324
          ],
          [
            8.4726,
            47.8524
          ],
          [
            8.5235,
            47.7956
          ],
          [
            8.5757,
            47.737
          ],
          [
            8.6269,
            47.6795
          ],
          [
            8.6769,
            47.6233
          ],
          [
            8.727,
            47.5667
          ],
          [
            8.7766,
            47.5108
          ],
          [
            8.826,
            47.4546
          ],
          [
            8.8764,
            47.3972
          ],
          [
            8.9272,
            47.3393
          ],
          [
            8.9793,
            47.2799
          ],
          [
            9.0288,
            47.2231
          ],
          [
            9.0792,
            47.1652
          ],
          [
            9.1289,
            47.1082
          ],
          [
            9.1785,
            47.0505
          ],
          [
            9.2275,
            46.9943
          ],
          [
            9.2986,
            46.911
          ],
          [
            9.3478,
            46.8546
          ],
          [
            9.3961,
            46.7977
          ],
          [
            9.4457,
            46.7395
          ],
          [
            9.496,
            46.6807
          ],
          [
            9.5462,
            46.6218
          ],
          [
            9.5945,
            46.5647
          ],
          [
            9.6578,
            46.4849
          ],
          [
            9.6846,
            46.4435
          ],
          [
            9.7052,
            46.4112
          ],
          [
            9.7431,
            46.3537
          ],
          [
            9.7825,
            46.2948
          ],
          [
            9.8224,
            46.234
          ],
          [
            9.8627,
            46.1728
          ],
          [
            9.885,
            46.1343
          ],
          [
            9.9071,
            46.0896
          ],
          [
            9.9366,
            46.0284
          ],
          [
            9.9683,
            45.9663
          ],
          [
            10.0195,
            45.8646
          ],
          [
            10.0491,
            45.805
          ],
          [
            10.081,
            45.7412
          ],
          [
            10.1122,
            45.6791
          ],
          [
            10.1428,
            45.6172
          ],
          [
            10.1751,
            45.5525
          ],
          [
            10.2045,
            45.4929
          ],
          [
            10.2355,
            45.4297
          ],
          [
            10.2655,
            45.3694
          ],
          [
            10.2969,
            45.3051
          ],
          [
            10.3281,
            45.2417
          ],
          [
            10.3588,
            45.1788
          ],
          [
            10.3892,
            45.1166
          ],
          [
            10.4197,
            45.054
          ],
          [
            10.4513,
            44.9887
          ],
          [
            10.4815,
            44.9266
          ],
          [
            10.5117,
            44.8639
          ],
          [
            10.5412,
            44.8029
          ],
          [
            10.5733,
            44.7361
          ],
          [
            10.6047,
            44.6706
          ],
          [
            10.6351,
            44.6072
          ],
          [
            10.6638,
            44.5468
          ],
          [
            10.6962,
            44.4797
          ],
          [
            10.7238,
            44.4208
          ],
          [
            10.7552,
            44.3562
          ],
          [
            10.7843,
            44.295
          ],
          [
            10.8141,
            44.2325
          ],
          [
            10.8443,
            44.1692
          ],
          [
            10.8735,
            44.1085
          ],
          [
            10.9034,
            44.0453
          ],
          [
            10.9334,
            43.9818
          ],
          [
            10.9629,
            43.9195
          ],
          [
            10.9923,
            43.8576
          ],
          [
            11.0212,
            43.7957
          ],
          [
            11.0509,
            43.7328
          ],
          [
            11.0797,
            43.6714
          ],
          [
            11.1083,
            43.6106
          ],
          [
            11.1278,
            43.5662
          ],
          [
            11.1465,
            43.5053
          ],
          [
            11.1649,
            43.4388
          ],
          [
            11.1984,
            43.35
          ],
          [
            11.2265,
            43.2867
          ],
          [
            11.2529,
            43.2276
          ],
          [
            11.2815,
            43.1624
          ],
          [
            11.3087,
            43.099
          ],
          [
            11.3352,
            43.0377
          ],
          [
            11.3622,
            42.9751
          ],
          [
            11.3893,
            42.9117
          ],
          [
            11.4169,
            42.8479
          ],
          [
            11.4424,
            42.7872
          ],
          [
            11.4695,
            42.724
          ],
          [
            11.4957,
            42.6625
          ],
          [
            11.5213,
            42.6021
          ],
          [
            11.5478,
            42.5397
          ],
          [
            11.5731,
            42.4792
          ],
          [
            11.5997,
            42.4162
          ],
          [
            11.6253,
            42.3556
          ],
          [
            11.6519,
            42.2924
          ],
          [
            11.6778,
            42.2302
          ],
          [
            11.7038,
            42.1679
          ],
          [
            11.7306,
            42.1041
          ],
          [
            11.7565,
            42.0415
          ],
          [
            11.7819,
            41.9806
          ],
          [
            11.8077,
            41.9182
          ],
          [
            11.8334,
            41.8562
          ],
          [
            11.8598,
            41.7922
          ],
          [
            11.8847,
            41.7318
          ],
          [
            11.9112,
            41.6674
          ],
          [
            11.936,
            41.607
          ],
          [
            11.9626,
            41.5423
          ],
          [
            11.988,
            41.4796
          ],
          [
            12.0138,
            41.4166
          ],
          [
            12.0402,
            41.3518
          ],
          [
            12.0652,
            41.2901
          ],
          [
            12.0897,
            41.2296
          ],
          [
            12.1162,
            41.1638
          ],
          [
            12.1416,
            41.1017
          ],
          [
            12.1669,
            41.0385
          ],
          [
            12.1928,
            40.9739
          ],
          [
            12.2197,
            40.9073
          ],
          [
            12.2451,
            40.8435
          ],
          [
            12.2705,
            40.78
          ],
          [
            12.2947,
            40.7191
          ],
          [
            12.3202,
            40.6553
          ],
          [
            12.3454,
            40.592
          ],
          [
            12.3709,
            40.5274
          ],
          [
            12.3968,
            40.462
          ],
          [
            12.422,
            40.3979
          ],
          [
            12.4464,
            40.3369
          ],
          [
            12.473,
            40.2689
          ],
          [
            12.4965,
            40.2084
          ],
          [
            12.5214,
            40.1452
          ],
          [
            12.5483,
            40.0764
          ],
          [
            12.5732,
            40.0131
          ],
          [
            12.5977,
            39.9497
          ],
          [
            12.6237,
            39.8829
          ],
          [
            12.6485,
            39.819
          ],
          [
            12.6731,
            39.7555
          ],
          [
            12.6979,
            39.6911
          ],
          [
            12.7228,
            39.6269
          ],
          [
            12.7476,
            39.5621
          ],
          [
            12.7724,
            39.4979
          ],
          [
            12.7965,
            39.4348
          ],
          [
            12.8213,
            39.37
          ],
          [
            12.8467,
            39.3038
          ],
          [
            12.8748,
            39.2298
          ],
          [
            12.8995,
            39.1651
          ],
          [
            12.9243,
            39.0999
          ],
          [
            12.9486,
            39.0355
          ],
          [
            12.9728,
            38.971
          ],
          [
            12.9974,
            38.9064
          ],
          [
            13.0223,
            38.8407
          ],
          [
            13.046,
            38.7776
          ],
          [
            13.0704,
            38.7122
          ],
          [
            13.0941,
            38.6487
          ],
          [
            13.1187,
            38.5835
          ],
          [
            13.1425,
            38.5195
          ],
          [
            13.1662,
            38.4552
          ],
          [
            13.1913,
            38.3881
          ],
          [
            13.2136,
            38.328
          ],
          [
            13.2374,
            38.2639
          ],
          [
            13.2617,
            38.1985
          ],
          [
            13.2845,
            38.1366
          ],
          [
            13.3086,
            38.0714
          ],
          [
            13.3311,
            38.01
          ],
          [
            13.3551,
            37.9447
          ],
          [
            13.3785,
            37.8809
          ],
          [
            13.403,
            37.8153
          ],
          [
            13.4243,
            37.7761
          ],
          [
            13.4887,
            37.6837
          ],
          [
            13.532,
            37.6256
          ],
          [
            13.5724,
            37.5693
          ],
          [
            13.6158,
            37.5084
          ],
          [
            13.6582,
            37.4488
          ],
          [
            13.6983,
            37.3924
          ],
          [
            13.7403,
            37.3325
          ],
          [
            13.781,
            37.275
          ],
          [
            13.8235,
            37.2149
          ],
          [
            13.8634,
            37.1577
          ],
          [
            13.9067,
            37.0963
          ],
          [
            13.9468,
            37.0384
          ],
          [
            13.9868,
            36.9818
          ],
          [
            14.0278,
            36.9226
          ],
          [
            14.0704,
            36.8613
          ],
          [
            14.1111,
            36.8029
          ],
          [
            14.1517,
            36.7442
          ],
          [
            14.1927,
            36.685
          ],
          [
            14.2312,
            36.6292
          ],
          [
            14.2691,
            36.5738
          ],
          [
            14.3068,
            36.5191
          ],
          [
            14.3445,
            36.4646
          ],
          [
            14.3768,
            36.4095
          ],
          [
            14.407,
            36.3576
          ],
          [
            14.439,
            36.304
          ],
          [
            14.4705,
            36.2513
          ],
          [
            14.4997,
            36.2024
          ],
          [
            14.5288,
            36.1527
          ],
          [
            14.5474,
            36.1211
          ],
          [
            14.5732,
            36.0777
          ],
          [
            14.5969,
            36.0375
          ],
          [
            14.6178,
            36.002
          ],
          [
            14.6398,
            35.9647
          ],
          [
            14.6601,
            35.9296
          ],
          [
            14.6812,
            35.8939
          ],
          [
            14.702,
            35.8583
          ],
          [
            14.7227,
            35.8229
          ],
          [
            14.7423,
            35.7894
          ],
          [
            14.7604,
            35.7581
          ],
          [
            14.7611,
            35.736
          ],
          [
            14.7499,
            35.7184
          ],
          [
            14.7381,
            35.7065
          ],
          [
            14.7203,
            35.6919
          ],
          [
            14.703,
            35.6876
          ],
          [
            14.6868,
            35.6921
          ],
          [
            14.6679,
            35.7053
          ],
          [
            14.6554,
            35.7146
          ],
          [
            14.632,
            35.7328
          ],
          [
            14.6099,
            35.7504
          ],
          [
            14.5882,
            35.768
          ],
          [
            14.5685,
            35.7839
          ],
          [
            14.5504,
            35.7986
          ],
          [
            14.5401,
            35.8069
          ],
          [
            14.5319,
            35.8135
          ],
          [
            14.5232,
            35.8205
          ],
          [
            14.5145,
            35.8276
          ],
          [
            14.5061,
            35.8344
          ],
          [
            14.4975,
            35.8415
          ]
        ]
      },
      "properties": {
        "time_europe_berlin": [
          "21.10.2025 11:44:25",
          "21.10.2025 11:44:41",
          "21.10.2025 11:44:57",
          "21.10.2025 11:45:13",
          "21.10.2025 11:45:29",
          "21.10.2025 11:45:45",
          "21.10.2025 11:46:01",
          "21.10.2025 11:46:17",
          "21.10.2025 11:46:33",
          "21.10.2025 11:46:49",
          "21.10.2025 11:47:05",
          "21.10.2025 11:47:33",
          "21.10.2025 11:48:03",
          "21.10.2025 11:48:33",
          "21.10.2025 11:48:55",
          "21.10.2025 11:49:18",
          "21.10.2025 11:49:48",
          "21.10.2025 11:50:18",
          "21.10.2025 11:50:36",
          "21.10.2025 11:50:52",
          "21.10.2025 11:51:17",
          "21.10.2025 11:52:02",
          "21.10.2025 11:52:32",
          "21.10.2025 11:53:02",
          "21.10.2025 11:53:32",
          "21.10.2025 11:54:15",
          "21.10.2025 11:54:45",
          "21.10.2025 11:55:15",
          "21.10.2025 11:55:45",
          "21.10.2025 11:56:01",
          "21.10.2025 11:56:59",
          "21.10.2025 11:57:29",
          "21.10.2025 11:57:59",
          "21.10.2025 11:58:29",
          "21.10.2025 11:58:59",
          "21.10.2025 11:59:31",
          "21.10.2025 12:00:02",
          "21.10.2025 12:00:32",
          "21.10.2025 12:00:52",
          "21.10.2025 12:01:34",
          "21.10.2025 12:02:04",
          "21.10.2025 12:02:34",
          "21.10.2025 12:03:04",
          "21.10.2025 12:03:34",
          "21.10.2025 12:04:00",
          "21.10.2025 12:04:53",
          "21.10.2025 12:05:23",
          "21.10.2025 12:05:53",
          "21.10.2025 12:06:23",
          "21.10.2025 12:06:53",
          "21.10.2025 12:07:14",
          "21.10.2025 12:07:44",
          "21.10.2025 12:08:15",
          "21.10.2025 12:08:45",
          "21.10.2025 12:09:15",
          "21.10.2025 12:09:38",
          "21.10.2025 12:10:12",
          "21.10.2025 12:10:42",
          "21.10.2025 12:11:12",
          "21.10.2025 12:11:42",
          "21.10.2025 12:12:12",
          "21.10.2025 12:12:42",
          "21.10.2025 12:13:12",
          "21.10.2025 12:13:42",
          "21.10.2025 12:14:12",
          "21.10.2025 12:14:49",
          "21.10.2025 12:15:19",
          "21.10.2025 12:15:36",
          "21.10.2025 12:16:06",
          "21.10.2025 12:16:22",
          "21.10.2025 12:16:59",
          "21.10.2025 12:17:29",
          "21.10.2025 12:17:59",
          "21.10.2025 12:18:29",
          "21.10.2025 12:18:54",
          "21.10.2025 12:19:24",
          "21.10.2025 12:19:54",
          "21.10.2025 12:20:24",
          "21.10.2025 12:20:54",
          "21.10.2025 12:21:24",
          "21.10.2025 12:21:54",
          "21.10.2025 12:22:24",
          "21.10.2025 12:22:54",
          "21.10.2025 12:23:24",
          "21.10.2025 12:23:54",
          "21.10.2025 12:24:24",
          "21.10.2025 12:24:54",
          "21.10.2025 12:25:24",
          "21.10.2025 12:25:54",
          "21.10.2025 12:26:24",
          "21.10.2025 12:26:54",
          "21.10.2025 12:27:24",
          "21.10.2025 12:27:54",
          "21.10.2025 12:28:24",
          "21.10.2025 12:28:42",
          "21.10.2025 12:29:06",
          "21.10.2025 12:29:40",
          "21.10.2025 12:30:10",
          "21.10.2025 12:30:33",
          "21.10.2025 12:30:51",
          "21.10.2025 12:31:10",
          "21.10.2025 12:31:31",
          "21.10.2025 12:32:09",
          "21.10.2025 12:32:39",
          "21.10.2025 12:33:15",
          "21.10.2025 12:33:46",
          "21.10.2025 12:34:30",
          "21.10.2025 12:35:00",
          "21.10.2025 12:35:30",
          "21.10.2025 12:36:00",
          "21.10.2025 12:36:30",
          "21.10.2025 12:37:00",
          "21.10.2025 12:37:30",
          "21.10.2025 12:38:00",
          "21.10.2025 12:38:41",
          "21.10.2025 12:39:11",
          "21.10.2025 12:39:41",
          "21.10.2025 12:40:11",
          "21.10.2025 12:40:41",
          "21.10.2025 12:41:11",
          "21.10.2025 12:41:41",
          "21.10.2025 12:42:11",
          "21.10.2025 12:42:41",
          "21.10.2025 12:43:11",
          "21.10.2025 12:43:41",
          "21.10.2025 12:44:11",
          "21.10.2025 12:44:41",
          "21.10.2025 12:45:11",
          "21.10.2025 12:45:41",
          "21.10.2025 12:46:11",
          "21.10.2025 12:46:55",
          "21.10.2025 12:47:25",
          "21.10.2025 12:47:55",
          "21.10.2025 12:48:25",
          "21.10.2025 12:48:56",
          "21.10.2025 12:49:27",
          "21.10.2025 12:49:57",
          "21.10.2025 12:50:39",
          "21.10.2025 12:51:00",
          "21.10.2025 12:51:16",
          "21.10.2025 12:51:46",
          "21.10.2025 12:52:16",
          "21.10.2025 12:52:46",
          "21.10.2025 12:53:16",
          "21.10.2025 12:53:36",
          "21.10.2025 12:53:57",
          "21.10.2025 12:54:27",
          "21.10.2025 12:54:57",
          "21.10.2025 12:55:47",
          "21.10.2025 12:56:17",
          "21.10.2025 12:56:47",
          "21.10.2025 12:57:17",
          "21.10.2025 12:57:47",
          "21.10.2025 12:58:17",
          "21.10.2025 12:58:47",
          "21.10.2025 12:59:17",
          "21.10.2025 12:59:47",
          "21.10.2025 13:00:17",
          "21.10.2025 13:00:47",
          "21.10.2025 13:01:17",
          "21.10.2025 13:01:47",
          "21.10.2025 13:02:17",
          "21.10.2025 13:02:47",
          "21.10.2025 13:03:17",
          "21.10.2025 13:03:47",
          "21.10.2025 13:04:17",
          "21.10.2025 13:04:48",
          "21.10.2025 13:05:18",
          "21.10.2025 13:05:48",
          "21.10.2025 13:06:18",
          "21.10.2025 13:06:49",
          "21.10.2025 13:07:19",
          "21.10.2025 13:07:49",
          "21.10.2025 13:08:19",
          "21.10.2025 13:08:49",
          "21.10.2025 13:09:19",
          "21.10.2025 13:09:49",
          "21.10.2025 13:10:19",
          "21.10.2025 13:10:49",
          "21.10.2025 13:11:19",
          "21.10.2025 13:11:49",
          "21.10.2025 13:12:19",
          "21.10.2025 13:12:49",
          "21.10.2025 13:13:19",
          "21.10.2025 13:13:49",
          "21.10.2025 13:14:10",
          "21.10.2025 13:14:40",
          "21.10.2025 13:15:12",
          "21.10.2025 13:15:55",
          "21.10.2025 13:16:25",
          "21.10.2025 13:16:55",
          "21.10.2025 13:17:26",
          "21.10.2025 13:17:57",
          "21.10.2025 13:18:27",
          "21.10.2025 13:18:58",
          "21.10.2025 13:19:29",
          "21.10.2025 13:20:00",
          "21.10.2025 13:20:30",
          "21.10.2025 13:21:00",
          "21.10.2025 13:21:30",
          "21.10.2025 13:22:00",
          "21.10.2025 13:22:30",
          "21.10.2025 13:23:00",
          "21.10.2025 13:23:30",
          "21.10.2025 13:24:00",
          "21.10.2025 13:24:30",
          "21.10.2025 13:25:00",
          "21.10.2025 13:25:30",
          "21.10.2025 13:26:00",
          "21.10.2025 13:26:31",
          "21.10.2025 13:27:01",
          "21.10.2025 13:27:31",
          "21.10.2025 13:28:01",
          "21.10.2025 13:28:31",
          "21.10.2025 13:29:01",
          "21.10.2025 13:29:31",
          "21.10.2025 13:30:01",
          "21.10.2025 13:30:31",
          "21.10.2025 13:31:01",
          "21.10.2025 13:31:32",
          "21.10.2025 13:32:02",
          "21.10.2025 13:32:32",
          "21.10.2025 13:33:02",
          "21.10.2025 13:33:32",
          "21.10.2025 13:34:02",
          "21.10.2025 13:34:33",
          "21.10.2025 13:35:03",
          "21.10.2025 13:35:34",
          "21.10.2025 13:36:04",
          "21.10.2025 13:36:34",
          "21.10.2025 13:37:04",
          "21.10.2025 13:37:34",
          "21.10.2025 13:38:04",
          "21.10.2025 13:38:34",
          "21.10.2025 13:39:04",
          "21.10.2025 13:39:35",
          "21.10.2025 13:40:05",
          "21.10.2025 13:40:35",
          "21.10.2025 13:41:05",
          "21.10.2025 13:41:35",
          "21.10.2025 13:42:07",
          "21.10.2025 13:42:37",
          "21.10.2025 13:43:07",
          "21.10.2025 13:43:37",
          "21.10.2025 13:44:07",
          "21.10.2025 13:44:38",
          "21.10.2025 13:45:08",
          "21.10.2025 13:45:38",
          "21.10.2025 13:46:08",
          "21.10.2025 13:46:38",
          "21.10.2025 13:47:08",
          "21.10.2025 13:47:38",
          "21.10.2025 13:48:10",
          "21.10.2025 13:48:45",
          "21.10.2025 13:49:15",
          "21.10.2025 13:49:45",
          "21.10.2025 13:50:16",
          "21.10.2025 13:50:46",
          "21.10.2025 13:51:16",
          "21.10.2025 13:51:46",
          "21.10.2025 13:52:16",
          "21.10.2025 13:52:46",
          "21.10.2025 13:53:16",
          "21.10.2025 13:53:46",
          "21.10.2025 13:54:16",
          "21.10.2025 13:54:47",
          "21.10.2025 13:55:17",
          "21.10.2025 13:55:47",
          "21.10.2025 13:56:17",
          "21.10.2025 13:56:48",
          "21.10.2025 13:57:18",
          "21.10.2025 13:57:48",
          "21.10.2025 13:58:18",
          "21.10.2025 13:58:48",
          "21.10.2025 13:59:18",
          "21.10.2025 13:59:48",
          "21.10.2025 14:00:09",
          "21.10.2025 14:00:54",
          "21.10.2025 14:01:25",
          "21.10.2025 14:01:55",
          "21.10.2025 14:02:26",
          "21.10.2025 14:02:56",
          "21.10.2025 14:03:26",
          "21.10.2025 14:03:56",
          "21.10.2025 14:04:27",
          "21.10.2025 14:04:57",
          "21.10.2025 14:05:27",
          "21.10.2025 14:05:58",
          "21.10.2025 14:06:28",
          "21.10.2025 14:06:58",
          "21.10.2025 14:07:28",
          "21.10.2025 14:07:58",
          "21.10.2025 14:08:29",
          "21.10.2025 14:08:59",
          "21.10.2025 14:09:30",
          "21.10.2025 14:10:00",
          "21.10.2025 14:10:30",
          "21.10.2025 14:11:00",
          "21.10.2025 14:11:30",
          "21.10.2025 14:12:00",
          "21.10.2025 14:12:30",
          "21.10.2025 14:13:00",
          "21.10.2025 14:13:30",
          "21.10.2025 14:14:00",
          "21.10.2025 14:14:30",
          "21.10.2025 14:14:50",
          "21.10.2025 14:15:20",
          "21.10.2025 14:15:50",
          "21.10.2025 14:16:20",
          "21.10.2025 14:16:50",
          "21.10.2025 14:17:20",
          "21.10.2025 14:17:50",
          "21.10.2025 14:18:20",
          "21.10.2025 14:18:50",
          "21.10.2025 14:19:20",
          "21.10.2025 14:19:48",
          "21.10.2025 14:20:08",
          "21.10.2025 14:20:27",
          "21.10.2025 14:20:43",
          "21.10.2025 14:21:05",
          "21.10.2025 14:21:24",
          "21.10.2025 14:21:40",
          "21.10.2025 14:22:05",
          "21.10.2025 14:22:22",
          "21.10.2025 14:22:52",
          "21.10.2025 14:23:22",
          "21.10.2025 14:23:52",
          "21.10.2025 14:24:22",
          "21.10.2025 14:24:52",
          "21.10.2025 14:25:10",
          "21.10.2025 14:25:26",
          "21.10.2025 14:25:42",
          "21.10.2025 14:25:58",
          "21.10.2025 14:26:14",
          "21.10.2025 14:26:31"
        ],
        "course_deg_clockwise_from_north": [
          "204",
          "235",
          "286",
          "340",
          "23",
          "69",
          "103",
          "104",
          "97",
          "96",
          "96",
          "96",
          "95",
          "96",
          "97",
          "105",
          "106",
          "106",
          "106",
          "106",
          "107",
          "107",
          "107",
          "107",
          "107",
          "104",
          "103",
          "103",
          "103",
          "103",
          "103",
          "104",
          "104",
          "104",
          "104",
          "104",
          "113",
          "114",
          "116",
          "121",
          "120",
          "120",
          "120",
          "120",
          "120",
          "120",
          "120",
          "120",
          "120",
          "120",
          "121",
          "121",
          "121",
          "121",
          "121",
          "121",
          "121",
          "121",
          "121",
          "121",
          "121",
          "121",
          "121",
          "121",
          "121",
          "121",
          "122",
          "122",
          "122",
          "122",
          "122",
          "122",
          "122",
          "122",
          "122",
          "122",
          "122",
          "122",
          "122",
          "123",
          "122",
          "122",
          "123",
          "123",
          "123",
          "123",
          "123",
          "123",
          "123",
          "123",
          "123",
          "123",
          "123",
          "123",
          "133",
          "144",
          "149",
          "149",
          "148",
          "148",
          "148",
          "149",
          "148",
          "149",
          "149",
          "149",
          "149",
          "149",
          "149",
          "149",
          "149",
          "149",
          "149",
          "149",
          "149",
          "149",
          "149",
          "149",
          "149",
          "149",
          "149",
          "149",
          "149",
          "149",
          "149",
          "149",
          "149",
          "149",
          "150",
          "149",
          "149",
          "149",
          "150",
          "150",
          "150",
          "150",
          "150",
          "155",
          "156",
          "156",
          "155",
          "155",
          "156",
          "155",
          "160",
          "162",
          "161",
          "160",
          "161",
          "160",
          "161",
          "161",
          "161",
          "160",
          "161",
          "161",
          "161",
          "161",
          "161",
          "161",
          "161",
          "161",
          "161",
          "161",
          "161",
          "161",
          "161",
          "161",
          "161",
          "161",
          "161",
          "161",
          "161",
          "161",
          "162",
          "161",
          "161",
          "161",
          "161",
          "161",
          "161",
          "161",
          "161",
          "161",
          "161",
          "165",
          "169",
          "168",
          "163",
          "162",
          "162",
          "162",
          "162",
          "162",
          "163",
          "163",
          "162",
          "163",
          "162",
          "163",
          "163",
          "163",
          "163",
          "163",
          "163",
          "163",
          "163",
          "163",
          "163",
          "163",
          "163",
          "163",
          "163",
          "163",
          "163",
          "163",
          "163",
          "163",
          "163",
          "163",
          "163",
          "163",
          "163",
          "163",
          "163",
          "163",
          "163",
          "163",
          "163",
          "163",
          "163",
          "163",
          "163",
          "163",
          "163",
          "163",
          "163",
          "163",
          "164",
          "163",
          "164",
          "163",
          "164",
          "163",
          "163",
          "164",
          "163",
          "164",
          "163",
          "164",
          "163",
          "163",
          "164",
          "164",
          "164",
          "163",
          "164",
          "164",
          "164",
          "164",
          "164",
          "164",
          "164",
          "163",
          "164",
          "164",
          "164",
          "164",
          "164",
          "164",
          "164",
          "164",
          "164",
          "164",
          "164",
          "161",
          "154",
          "150",
          "150",
          "151",
          "150",
          "150",
          "151",
          "150",
          "151",
          "151",
          "151",
          "151",
          "151",
          "150",
          "151",
          "151",
          "151",
          "151",
          "151",
          "151",
          "151",
          "151",
          "152",
          "155",
          "154",
          "154",
          "154",
          "154",
          "154",
          "154",
          "154",
          "155",
          "154",
          "155",
          "155",
          "154",
          "155",
          "155",
          "154",
          "158",
          "195",
          "215",
          "222",
          "228",
          "276",
          "302",
          "313",
          "313",
          "314",
          "314",
          "315",
          "315",
          "315",
          "315",
          "315",
          "315",
          "316",
          "315",
          "315"
        ],
        "speed_kts": [
          "143",
          "155",
          "160",
          "176",
          "199",
          "208",
          "209",
          "217",
          "219",
          "219",
          "221",
          "221",
          "224",
          "243",
          "260",
          "283",
          "296",
          "307",
          "311",
          "315",
          "333",
          "385",
          "407",
          "431",
          "448",
          "464",
          "466",
          "466",
          "464",
          "462",
          "466",
          "478",
          "487",
          "491",
          "492",
          "497",
          "499",
          "501",
          "502",
          "498",
          "497",
          "492",
          "488",
          "482",
          "477",
          "463",
          "455",
          "456",
          "459",
          "462",
          "464",
          "466",
          "469",
          "473",
          "479",
          "482",
          "486",
          "489",
          "492",
          "494",
          "495",
          "495",
          "496",
          "495",
          "495",
          "494",
          "493",
          "493",
          "491",
          "492",
          "490",
          "489",
          "487",
          "485",
          "484",
          "482",
          "483",
          "485",
          "486",
          "486",
          "487",
          "489",
          "488",
          "489",
          "489",
          "489",
          "489",
          "488",
          "487",
          "488",
          "489",
          "488",
          "489",
          "489",
          "485",
          "480",
          "479",
          "479",
          "481",
          "481",
          "480",
          "480",
          "480",
          "481",
          "481",
          "482",
          "482",
          "482",
          "483",
          "482",
          "482",
          "482",
          "482",
          "482",
          "483",
          "482",
          "481",
          "480",
          "480",
          "480",
          "481",
          "482",
          "483",
          "484",
          "484",
          "483",
          "482",
          "481",
          "479",
          "478",
          "478",
          "477",
          "475",
          "473",
          "474",
          "474",
          "474",
          "473",
          "472",
          "472",
          "471",
          "472",
          "472",
          "474",
          "470",
          "469",
          "469",
          "521",
          "471",
          "471",
          "474",
          "475",
          "475",
          "478",
          "477",
          "477",
          "478",
          "478",
          "479",
          "481",
          "481",
          "481",
          "481",
          "480",
          "482",
          "481",
          "481",
          "480",
          "480",
          "481",
          "480",
          "479",
          "477",
          "476",
          "477",
          "476",
          "476",
          "474",
          "475",
          "475",
          "475",
          "474",
          "473",
          "471",
          "468",
          "465",
          "462",
          "462",
          "464",
          "464",
          "464",
          "464",
          "464",
          "464",
          "464",
          "464",
          "465",
          "465",
          "465",
          "465",
          "465",
          "466",
          "466",
          "467",
          "468",
          "469",
          "470",
          "471",
          "470",
          "469",
          "469",
          "471",
          "472",
          "471",
          "470",
          "471",
          "472",
          "473",
          "473",
          "473",
          "474",
          "473",
          "473",
          "474",
          "477",
          "476",
          "477",
          "476",
          "478",
          "478",
          "477",
          "477",
          "477",
          "477",
          "476",
          "476",
          "476",
          "477",
          "478",
          "480",
          "480",
          "479",
          "480",
          "481",
          "482",
          "481",
          "480",
          "481",
          "481",
          "481",
          "481",
          "482",
          "482",
          "483",
          "484",
          "484",
          "485",
          "485",
          "485",
          "484",
          "482",
          "481",
          "481",
          "481",
          "480",
          "480",
          "477",
          "477",
          "477",
          "476",
          "474",
          "473",
          "473",
          "477",
          "481",
          "487",
          "493",
          "482",
          "477",
          "483",
          "487",
          "482",
          "477",
          "477",
          "481",
          "482",
          "482",
          "482",
          "479",
          "477",
          "481",
          "484",
          "484",
          "476",
          "468",
          "462",
          "456",
          "449",
          "438",
          "430",
          "424",
          "416",
          "407",
          "396",
          "386",
          "367",
          "331",
          "305",
          "291",
          "290",
          "286",
          "285",
          "282",
          "274",
          "267",
          "254",
          "232",
          "216",
          "207",
          "188",
          "179",
          "174",
          "183",
          "188",
          "190",
          "180",
          "168",
          "155",
          "143",
          "136",
          "133",
          "132",
          "132",
          "135",
          "110"
        ],
        "speed_mph": [
          "165",
          "178",
          "184",
          "203",
          "229",
          "239",
          "241",
          "250",
          "252",
          "252",
          "254",
          "254",
          "258",
          "280",
          "299",
          "326",
          "341",
          "353",
          "358",
          "362",
          "383",
          "443",
          "468",
          "496",
          "516",
          "534",
          "536",
          "536",
          "534",
          "532",
          "536",
          "550",
          "560",
          "565",
          "566",
          "572",
          "574",
          "577",
          "578",
          "573",
          "572",
          "566",
          "562",
          "555",
          "549",
          "533",
          "524",
          "525",
          "528",
          "532",
          "534",
          "536",
          "540",
          "544",
          "551",
          "555",
          "559",
          "563",
          "566",
          "568",
          "570",
          "570",
          "571",
          "570",
          "570",
          "568",
          "567",
          "567",
          "565",
          "566",
          "564",
          "563",
          "560",
          "558",
          "557",
          "555",
          "556",
          "558",
          "559",
          "559",
          "560",
          "563",
          "562",
          "563",
          "563",
          "563",
          "563",
          "562",
          "560",
          "562",
          "563",
          "562",
          "563",
          "563",
          "558",
          "552",
          "551",
          "551",
          "554",
          "554",
          "552",
          "552",
          "552",
          "554",
          "554",
          "555",
          "555",
          "555",
          "556",
          "555",
          "555",
          "555",
          "555",
          "555",
          "556",
          "555",
          "554",
          "552",
          "552",
          "552",
          "554",
          "555",
          "556",
          "557",
          "557",
          "556",
          "555",
          "554",
          "551",
          "550",
          "550",
          "549",
          "547",
          "544",
          "545",
          "545",
          "545",
          "544",
          "543",
          "543",
          "542",
          "543",
          "543",
          "545",
          "541",
          "540",
          "540",
          "600",
          "542",
          "542",
          "545",
          "547",
          "547",
          "550",
          "549",
          "549",
          "550",
          "550",
          "551",
          "554",
          "554",
          "554",
          "554",
          "552",
          "555",
          "554",
          "554",
          "552",
          "552",
          "554",
          "552",
          "551",
          "549",
          "548",
          "549",
          "548",
          "548",
          "545",
          "547",
          "547",
          "547",
          "545",
          "544",
          "542",
          "539",
          "535",
          "532",
          "532",
          "534",
          "534",
          "534",
          "534",
          "534",
          "534",
          "534",
          "534",
          "535",
          "535",
          "535",
          "535",
          "535",
          "536",
          "536",
          "537",
          "539",
          "540",
          "541",
          "542",
          "541",
          "540",
          "540",
          "542",
          "543",
          "542",
          "541",
          "542",
          "543",
          "544",
          "544",
          "544",
          "545",
          "544",
          "544",
          "545",
          "549",
          "548",
          "549",
          "548",
          "550",
          "550",
          "549",
          "549",
          "549",
          "549",
          "548",
          "548",
          "548",
          "549",
          "550",
          "552",
          "552",
          "551",
          "552",
          "554",
          "555",
          "554",
          "552",
          "554",
          "554",
          "554",
          "554",
          "555",
          "555",
          "556",
          "557",
          "557",
          "558",
          "558",
          "558",
          "557",
          "555",
          "554",
          "554",
          "554",
          "552",
          "552",
          "549",
          "549",
          "549",
          "548",
          "545",
          "544",
          "544",
          "549",
          "554",
          "560",
          "567",
          "555",
          "549",
          "556",
          "560",
          "555",
          "549",
          "549",
          "554",
          "555",
          "555",
          "555",
          "551",
          "549",
          "554",
          "557",
          "557",
          "548",
          "539",
          "532",
          "525",
          "517",
          "504",
          "495",
          "488",
          "479",
          "468",
          "456",
          "444",
          "422",
          "381",
          "351",
          "335",
          "334",
          "329",
          "328",
          "325",
          "315",
          "307",
          "292",
          "267",
          "249",
          "238",
          "216",
          "206",
          "200",
          "211",
          "216",
          "219",
          "207",
          "193",
          "178",
          "165",
          "157",
          "153",
          "152",
          "152",
          "155",
          "127"
        ],
        "altitude_ft": [
          "1276",
          "1926",
          "2301",
          "2576",
          "2751",
          "2926",
          "3026",
          "2976",
          "3001",
          "3001",
          "3001",
          "3026",
          "3551",
          "4201",
          "4726",
          "5051",
          "6851",
          "8376",
          "9376",
          "10526",
          "11876",
          "13851",
          "15452",
          "16577",
          "18300",
          "20325",
          "21800",
          "23350",
          "24825",
          "25675",
          "28075",
          "28800",
          "29600",
          "30475",
          "31525",
          "32300",
          "33075",
          "33800",
          "34325",
          "35325",
          "36050",
          "36800",
          "37525",
          "38250",
          "38900",
          "40150",
          "40900",
          "41250",
          "41475",
          "41725",
          "41900",
          "42125",
          "42275",
          "42375",
          "42475",
          "42525",
          "42625",
          "42725",
          "42800",
          "42900",
          "43025",
          "43150",
          "43300",
          "43425",
          "43550",
          "43725",
          "43850",
          "43950",
          "44075",
          "44150",
          "44300",
          "44450",
          "44575",
          "44725",
          "44825",
          "44975",
          "45000",
          "45000",
          "45000",
          "45000",
          "45000",
          "45000",
          "45000",
          "45000",
          "45000",
          "44975",
          "44975",
          "44975",
          "45000",
          "45000",
          "45000",
          "45000",
          "45000",
          "45000",
          "45000",
          "45000",
          "45000",
          "45000",
          "45000",
          "44975",
          "45000",
          "45000",
          "45000",
          "45000",
          "45000",
          "44975",
          "45000",
          "44975",
          "45000",
          "45000",
          "44975",
          "45000",
          "44975",
          "44975",
          "45000",
          "45000",
          "45000",
          "45000",
          "44975",
          "45000",
          "45000",
          "45000",
          "45000",
          "45000",
          "45000",
          "45000",
          "45000",
          "45000",
          "45000",
          "45000",
          "45000",
          "45000",
          "45000",
          "45000",
          "45000",
          "45000",
          "45000",
          "45000",
          "45000",
          "45000",
          "45000",
          "45000",
          "45000",
          "45000",
          "45000",
          "45000",
          "45000",
          "45000",
          "45000",
          "45000",
          "45000",
          "45000",
          "45000",
          "45000",
          "45000",
          "45000",
          "45000",
          "45000",
          "45000",
          "45000",
          "45000",
          "45000",
          "45000",
          "45000",
          "45000",
          "45000",
          "45000",
          "45000",
          "45000",
          "45000",
          "45000",
          "45000",
          "45000",
          "45000",
          "45000",
          "45000",
          "45000",
          "45000",
          "45000",
          "45000",
          "45000",
          "45000",
          "45000",
          "45000",
          "45000",
          "45000",
          "45000",
          "45000",
          "45000",
          "45000",
          "45000",
          "45000",
          "45000",
          "45000",
          "45000",
          "45000",
          "45000",
          "45000",
          "45000",
          "45000",
          "45000",
          "45000",
          "45000",
          "45000",
          "45000",
          "45000",
          "45000",
          "45000",
          "45000",
          "45000",
          "45000",
          "45000",
          "45000",
          "45000",
          "45000",
          "45000",
          "45000",
          "45000",
          "45000",
          "45000",
          "45000",
          "45000",
          "45000",
          "45000",
          "45000",
          "45000",
          "45000",
          "45000",
          "45000",
          "45000",
          "45000",
          "45000",
          "45000",
          "45000",
          "45000",
          "45000",
          "45000",
          "45000",
          "45000",
          "45000",
          "45000",
          "45000",
          "45000",
          "45000",
          "45000",
          "45000",
          "45000",
          "45000",
          "45000",
          "45000",
          "45000",
          "45000",
          "45000",
          "45000",
          "45000",
          "45000",
          "45000",
          "45000",
          "45000",
          "45000",
          "45000",
          "45000",
          "45000",
          "45000",
          "45000",
          "45000",
          "45000",
          "45000",
          "45000",
          "45000",
          "45000",
          "45000",
          "44950",
          "44450",
          "43975",
          "43475",
          "43125",
          "41425",
          "40275",
          "39200",
          "38000",
          "36850",
          "35750",
          "34575",
          "33450",
          "32275",
          "31200",
          "30000",
          "28875",
          "27775",
          "26650",
          "25475",
          "24300",
          "23150",
          "22000",
          "20875",
          "19725",
          "18625",
          "17475",
          "16325",
          "15225",
          "14075",
          "12900",
          "11800",
          "10650",
          "10000",
          "9200",
          "8500",
          "7850",
          "7150",
          "6625",
          "6100",
          "5550",
          "5000",
          "4500",
          "4075",
          "3800",
          "3525",
          "3250",
          "3050",
          "3000",
          "3000",
          "3000",
          "3000",
          "3000",
          "2550",
          "2075",
          "1650",
          "1275",
          "1050",
          "875",
          "675",
          "500",
          "325",
          "250"
        ],
        "vertical_rate_fpm": [
          "",
          "1922",
          "1219",
          "844",
          "656",
          "516",
          "94",
          "-47",
          "47",
          "",
          "34",
          "569",
          "1175",
          "1356",
          "1133",
          "2406",
          "3325",
          "3156",
          "3794",
          "3659",
          "2850",
          "2861",
          "2726",
          "2848",
          "3081",
          "2877",
          "3025",
          "3025",
          "3033",
          "2635",
          "2131",
          "1525",
          "1675",
          "1925",
          "1766",
          "1476",
          "1475",
          "1500",
          "1476",
          "1438",
          "1475",
          "1475",
          "1450",
          "1473",
          "1443",
          "1446",
          "1100",
          "575",
          "475",
          "500",
          "471",
          "369",
          "246",
          "200",
          "170",
          "158",
          "188",
          "175",
          "175",
          "225",
          "250",
          "275",
          "275",
          "250",
          "269",
          "269",
          "287",
          "287",
          "261",
          "255",
          "269",
          "275",
          "275",
          "273",
          "273",
          "175",
          "25",
          "",
          "",
          "",
          "",
          "",
          "",
          "",
          "-25",
          "-25",
          "",
          "25",
          "25",
          "",
          "",
          "",
          "",
          "",
          "",
          "",
          "",
          "",
          "-37",
          "",
          "38",
          "",
          "",
          "",
          "-22",
          "",
          "",
          "",
          "25",
          "-25",
          "",
          "",
          "-25",
          "21",
          "21",
          "",
          "",
          "-25",
          "",
          "25",
          "",
          "",
          "",
          "",
          "",
          "",
          "",
          "",
          "",
          "",
          "",
          "",
          "",
          "",
          "",
          "",
          "",
          "",
          "",
          "",
          "",
          "",
          "",
          "",
          "",
          "",
          "",
          "",
          "",
          "",
          "",
          "",
          "",
          "",
          "",
          "",
          "",
          "",
          "",
          "",
          "",
          "",
          "",
          "",
          "",
          "",
          "",
          "",
          "",
          "",
          "",
          "",
          "",
          "",
          "",
          "",
          "",
          "",
          "",
          "",
          "",
          "",
          "",
          "",
          "",
          "",
          "",
          "",
          "",
          "",
          "",
          "",
          "",
          "",
          "",
          "",
          "",
          "",
          "",
          "",
          "",
          "",
          "",
          "",
          "",
          "",
          "",
          "",
          "",
          "",
          "",
          "",
          "",
          "",
          "",
          "",
          "",
          "",
          "",
          "",
          "",
          "",
          "",
          "",
          "",
          "",
          "",
          "",
          "",
          "",
          "",
          "",
          "",
          "",
          "",
          "",
          "",
          "",
          "",
          "",
          "",
          "",
          "",
          "",
          "",
          "",
          "",
          "",
          "",
          "",
          "",
          "",
          "",
          "",
          "",
          "",
          "",
          "",
          "",
          "",
          "",
          "",
          "",
          "",
          "",
          "",
          "",
          "",
          "",
          "",
          "",
          "-50",
          "-550",
          "-975",
          "-975",
          "-1000",
          "-1864",
          "-2250",
          "-2189",
          "-2238",
          "-2311",
          "-2250",
          "-2275",
          "-2262",
          "-2262",
          "-2250",
          "-2238",
          "-2287",
          "-2225",
          "-2225",
          "-2300",
          "-2311",
          "-2287",
          "-2262",
          "-2238",
          "-2275",
          "-2250",
          "-2250",
          "-2300",
          "-2250",
          "-2250",
          "-2325",
          "-2275",
          "-2250",
          "-2160",
          "-1740",
          "-1500",
          "-1350",
          "-1350",
          "-1225",
          "-1050",
          "-1075",
          "-1100",
          "-1050",
          "-957",
          "-875",
          "-846",
          "-943",
          "-750",
          "-366",
          "-86",
          "",
          "",
          "",
          "-450",
          "-925",
          "-900",
          "-800",
          "-750",
          "-706",
          "-703",
          "-703",
          "-656",
          "-455",
          "-265"
        ],
        "reporting_facility": [
          "FlightAware ADS-B(BQH / EGKB)",
          "FlightAware ADS-B(BQH / EGKB)",
          "FlightAware ADS-B(EGKR)",
          "FlightAware ADS-B(LCY / EGLC)",
          "FlightAware ADS-B(EGTF)",
          "FlightAware ADS-B(LHR / EGLL)",
          "FlightAware ADS-B(LHR / EGLL)",
          "FlightAware ADS-B(BQH / EGKB)",
          "FlightAware ADS-B(LGW / EGKK)",
          "FlightAware ADS-B(ESH / EGKA)",
          "FlightAware ADS-B(LHR / EGLL)",
          "FlightAware ADS-B(RCS / EGTO)",
          "FlightAware ADS-B(LCY / EGLC)",
          "FlightAware ADS-B(RCS / EGTO)",
          "FlightAware ADS-B(EGSG)",
          "FlightAware ADS-B(OXF / EGTK)",
          "FlightAware ADS-B(EGSQ)",
          "FlightAware ADS-B(EGLW)",
          "FlightAware ADS-B(EGSQ)",
          "FlightAware ADS-B(RCS / EGTO)",
          "FlightAware ADS-B(RCS / EGTO)",
          "FlightAware ADS-B(EGMA)",
          "FlightAware ADS-B(SEN / EGMC)",
          "FlightAware ADS-B(EGSG)",
          "FlightAware ADS-B(LHR / EGLL)",
          "FlightAware ADS-B(EGMT)",
          "FlightAware ADS-B(EGKH)",
          "FlightAware ADS-B(BRU / EBBR)",
          "FlightAware ADS-B(EGUV)",
          "FlightAware ADS-B(EGSQ)",
          "FlightAware ADS-B(LHR / EGLL)",
          "FlightAware ADS-B(EGWN)",
          "FlightAware ADS-B(AMS / EHAM)",
          "FlightAware ADS-B(EGTR)",
          "FlightAware ADS-B(EGTR)",
          "FlightAware ADS-B(EGHR)",
          "FlightAware ADS-B(ESH / EGKA)",
          "FlightAware ADS-B(SEN / EGMC)",
          "FlightAware ADS-B(EGBG)",
          "FlightAware ADS-B(OST / EBOS)",
          "FlightAware ADS-B(BRU / EBBR)",
          "FlightAware ADS-B(EGCL)",
          "FlightAware ADS-B(EGLM)",
          "FlightAware ADS-B(EGKH)",
          "FlightAware ADS-B(HUY / EGNJ)",
          "FlightAware ADS-B(GLZ / EHGR)",
          "FlightAware ADS-B(KJK / EBKT)",
          "FlightAware ADS-B(EGVP)",
          "FlightAware ADS-B(LGG / EBLG)",
          "FlightAware ADS-B(ANR / EBAW)",
          "FlightAware ADS-B(LYX / EGMD)",
          "FlightAware ADS-B(WOE / EHWO)",
          "FlightAware ADS-B(RCS / EGTO)",
          "FlightAware ADS-B(CGN / EDDK)",
          "FlightAware ADS-B(LFPV)",
          "FlightAware ADS-B(ORY / LFPO)",
          "FlightAware ADS-B(LGG / EBLG)",
          "FlightAware ADS-B(EBGG)",
          "FlightAware ADS-B(MST / EHBK)",
          "FlightAware ADS-B(CRL / EBCI)",
          "FlightAware ADS-B(EIN / EHEH)",
          "FlightAware ADS-B(EGUV)",
          "FlightAware ADS-B(EDXE)",
          "FlightAware ADS-B(MZM / LFSF)",
          "FlightAware ADS-B(MST / EHBK)",
          "FlightAware ADS-B(CSF / LFPC)",
          "FlightAware ADS-B(ANR / EBAW)",
          "FlightAware ADS-B(MGL / EDLN)",
          "FlightAware ADS-B(EBDT)",
          "FlightAware ADS-B(SCN / EDDR)",
          "FlightAware ADS-B(STR / EDDS)",
          "FlightAware ADS-B(ENS / EHTW)",
          "FlightAware ADS-B(DTM / EDLW)",
          "FlightAware ADS-B(LUX / ELLX)",
          "FlightAware ADS-B(EDLS)",
          "FlightAware ADS-B(ETNN)",
          "FlightAware ADS-B(ENS / EHTW)",
          "FlightAware ADS-B(MST / EHBK)",
          "FlightAware ADS-B(EBAV)",
          "FlightAware ADS-B(LGG / EBLG)",
          "FlightAware ADS-B(EBTY)",
          "FlightAware ADS-B(LUX / ELLX)",
          "FlightAware ADS-B(EBBY)",
          "FlightAware ADS-B(QEF / EDFE)",
          "FlightAware ADS-B(EDGB)",
          "FlightAware ADS-B(LUX / ELLX)",
          "FlightAware ADS-B(LUX / ELLX)",
          "FlightAware ADS-B(RMS / ETAR)",
          "FlightAware ADS-B(LUX / ELLX)",
          "FlightAware ADS-B(EDKV)",
          "FlightAware ADS-B(DUS / EDDL)",
          "FlightAware ADS-B(FKB / EDSB)",
          "FlightAware ADS-B(AGB / EDMA)",
          "FlightAware ADS-B(LFGC)",
          "FlightAware ADS-B(EDNE)",
          "FlightAware ADS-B(EDFZ)",
          "FlightAware ADS-B(UTC / EHSB)",
          "FlightAware ADS-B(SCN / EDDR)",
          "FlightAware ADS-B(LFSH)",
          "FlightAware ADS-B(RMS / ETAR)",
          "FlightAware ADS-B(EDTY)",
          "FlightAware ADS-B(EDTF)",
          "FlightAware ADS-B(EDSA)",
          "FlightAware ADS-B(ZQW / EDRZ)",
          "FlightAware ADS-B(FRA / EDDF)",
          "FlightAware ADS-B(FMM / EDJA)",
          "FlightAware ADS-B(EDEP)",
          "FlightAware ADS-B(FKB / EDSB)",
          "FlightAware ADS-B(FKB / EDSB)",
          "FlightAware ADS-B(LIKH)",
          "FlightAware ADS-B(EDMI)",
          "FlightAware ADS-B(LSZI)",
          "FlightAware ADS-B(QEF / EDFE)",
          "FlightAware ADS-B(LSME)",
          "FlightAware ADS-B(LSPH)",
          "FlightAware ADS-B(SXB / LFST)",
          "FlightAware ADS-B(EDPR)",
          "FlightAware ADS-B(ZRH / LSZH)",
          "FlightAware ADS-B(FDH / EDNY)",
          "FlightAware ADS-B(LSZP)",
          "FlightAware ADS-B(LSZI)",
          "FlightAware ADS-B(DIJ / LFSD)",
          "FlightAware ADS-B(ELNT)",
          "FlightAware ADS-B(EDSH)",
          "FlightAware ADS-B(STR / EDDS)",
          "FlightAware ADS-B(LSXB)",
          "FlightAware ADS-B(BXO / LSZC)",
          "FlightAware ADS-B(LIMB)",
          "FlightAware ADS-B(LSXB)",
          "FlightAware ADS-B(ZRH / LSZH)",
          "FlightAware ADS-B(ZRH / LSZH)",
          "FlightAware ADS-B(ZRH / LSZH)",
          "FlightAware ADS-B(LOIZ)",
          "FlightAware ADS-B(LSXB)",
          "FlightAware ADS-B(ZRH / LSZH)",
          "FlightAware ADS-B(ZRH / LSZH)",
          "FlightAware ADS-B(ZRH / LSZH)",
          "FlightAware ADS-B(ACH / LSZR)",
          "FlightAware ADS-B(LUG / LSZA)",
          "FlightAware ADS-B(EDMK)",
          "FlightAware ADS-B(LILE)",
          "FlightAware ADS-B(MXP / LIMC)",
          "FlightAware ADS-B(LSZP)",
          "FlightAware ADS-B(LSZP)",
          "FlightAware ADS-B(LSXB)",
          "FlightAware ADS-B(EDSR)",
          "FlightAware ADS-B(EDSR)",
          "FlightAware ADS-B(LSPA)",
          "FlightAware ADS-B(BGY / LIME)",
          "FlightAware ADS-B(EDMG)",
          "FlightAware ADS-B(LIN / LIML)",
          "FlightAware ADS-B(LIDT)",
          "FlightAware ADS-B(BZO / LIPB)",
          "FlightAware ADS-B(LIPC)",
          "FlightAware ADS-B(BLQ / LIPE)",
          "FlightAware ADS-B(BGY / LIME)",
          "FlightAware ADS-B(MXP / LIMC)",
          "FlightAware ADS-B(CEQ / LFMD)",
          "FlightAware ADS-B(BGY / LIME)",
          "FlightAware ADS-B(BGY / LIME)",
          "FlightAware ADS-B(LIKO)",
          "FlightAware ADS-B(BLX / LIDB)",
          "FlightAware ADS-B(VRN / LIPX)",
          "FlightAware ADS-B(LIDT)",
          "FlightAware ADS-B(BLX / LIDB)",
          "FlightAware ADS-B(BLQ / LIPE)",
          "FlightAware ADS-B(LIMB)",
          "FlightAware ADS-B(LIMA)",
          "FlightAware ADS-B(LIMA)",
          "FlightAware ADS-B(LILN)",
          "FlightAware ADS-B(LIMA)",
          "FlightAware ADS-B(LILN)",
          "FlightAware ADS-B(GOA / LIMJ)",
          "FlightAware ADS-B(AVB / LIPA)",
          "FlightAware ADS-B(LILE)",
          "FlightAware ADS-B(BGY / LIME)",
          "FlightAware ADS-B(LIRG)",
          "FlightAware ADS-B(CEQ / LFMD)",
          "FlightAware ADS-B(MCM / LNMC)",
          "FlightAware ADS-B(FLR / LIRQ)",
          "FlightAware ADS-B(GOA / LIMJ)",
          "FlightAware ADS-B(FNU / LIER)",
          "FlightAware ADS-B(FLR / LIRQ)",
          "FlightAware ADS-B(BLQ / LIPE)",
          "FlightAware ADS-B(PMF / LIMP)",
          "FlightAware ADS-B(FLR / LIRQ)",
          "FlightAware ADS-B(BLQ / LIPE)",
          "FlightAware ADS-B(PSA / LIRP)",
          "FlightAware ADS-B(GOA / LIMJ)",
          "FlightAware ADS-B(NCE / LFMN)",
          "FlightAware ADS-B(PSR / LIBP)",
          "FlightAware ADS-B(PSR / LIBP)",
          "FlightAware ADS-B(LIRV)",
          "FlightAware ADS-B(PSR / LIBP)",
          "FlightAware ADS-B(PSR / LIBP)",
          "FlightAware ADS-B(ZAD / LDZD)",
          "FlightAware ADS-B(LIDF)",
          "FlightAware ADS-B(LIDF)",
          "FlightAware ADS-B(LIDF)",
          "FlightAware ADS-B(LIDF)",
          "FlightAware ADS-B(LIRV)",
          "FlightAware ADS-B(LIRV)",
          "FlightAware ADS-B(LIRV)",
          "FlightAware ADS-B(LIRV)",
          "FlightAware ADS-B(LIRV)",
          "FlightAware ADS-B(LIRV)",
          "FlightAware ADS-B(LIRV)",
          "FlightAware ADS-B(LIRV)",
          "FlightAware ADS-B(LIAF)",
          "FlightAware ADS-B(LIAF)",
          "FlightAware ADS-B(LIRV)",
          "FlightAware ADS-B(LIRV)",
          "FlightAware ADS-B(LIRV)",
          "FlightAware ADS-B(LIRV)",
          "FlightAware ADS-B(FCO / LIRF)",
          "FlightAware ADS-B(FCO / LIRF)",
          "FlightAware ADS-B(PEG / LIRZ)",
          "FlightAware ADS-B(FSC / LFKF)",
          "FlightAware ADS-B(LIQQ)",
          "FlightAware ADS-B(FOG / LIBF)",
          "FlightAware ADS-B(FSC / LFKF)",
          "FlightAware ADS-B(LIQQ)",
          "FlightAware ADS-B(FCO / LIRF)",
          "FlightAware ADS-B(FCO / LIRF)",
          "FlightAware ADS-B(FCO / LIRF)",
          "FlightAware ADS-B(FCO / LIRF)",
          "FlightAware ADS-B(LIRG)",
          "FlightAware ADS-B(LIRV)",
          "FlightAware ADS-B(LIRV)",
          "FlightAware ADS-B(LIQQ)",
          "FlightAware ADS-B(FCO / LIRF)",
          "FlightAware ADS-B(FCO / LIRF)",
          "FlightAware ADS-B(PEG / LIRZ)",
          "FlightAware ADS-B(FCO / LIRF)",
          "FlightAware ADS-B(NAP / LIRN)",
          "FlightAware ADS-B(FCO / LIRF)",
          "FlightAware ADS-B(CAG / LIEE)",
          "FlightAware ADS-B(NAP / LIRN)",
          "FlightAware ADS-B(QFR / LIRH)",
          "FlightAware ADS-B(FCO / LIRF)",
          "FlightAware ADS-B(MLA / LMML)",
          "FlightAware ADS-B(FCO / LIRF)",
          "FlightAware ADS-B(FCO / LIRF)",
          "FlightAware ADS-B(MLA / LMML)",
          "FlightAware ADS-B(MLA / LMML)",
          "FlightAware ADS-B(MLA / LMML)",
          "FlightAware ADS-B(MLA / LMML)",
          "FlightAware ADS-B(MLA / LMML)",
          "FlightAware ADS-B(MLA / LMML)",
          "FlightAware ADS-B(MLA / LMML)",
          "FlightAware ADS-B(MLA / LMML)",
          "FlightAware ADS-B(MLA / LMML)",
          "FlightAware ADS-B(LICP)",
          "FlightAware ADS-B(LICP)",
          "FlightAware ADS-B(DCI / LIED)",
          "FlightAware ADS-B(LICP)",
          "FlightAware ADS-B(LICP)",
          "FlightAware ADS-B(LICP)",
          "FlightAware ADS-B(LICP)",
          "FlightAware ADS-B(LICP)",
          "FlightAware ADS-B(LICP)",
          "FlightAware ADS-B(LICP)",
          "FlightAware ADS-B(LICP)",
          "FlightAware ADS-B(CTA / LICC)",
          "FlightAware ADS-B(LICP)",
          "FlightAware ADS-B(LICP)",
          "FlightAware ADS-B(LICP)",
          "FlightAware ADS-B(CTA / LICC)",
          "FlightAware ADS-B(LICP)",
          "FlightAware ADS-B(LICP)",
          "FlightAware ADS-B(LICP)",
          "FlightAware ADS-B(LICP)",
          "FlightAware ADS-B(CTA / LICC)",
          "FlightAware ADS-B(MLA / LMML)",
          "FlightAware ADS-B(MLA / LMML)",
          "FlightAware ADS-B(MLA / LMML)",
          "FlightAware ADS-B(LICP)",
          "FlightAware ADS-B(LICP)",
          "FlightAware ADS-B(CIY / LICB)",
          "FlightAware ADS-B(CAG / LIEE)",
          "FlightAware ADS-B(LICP)",
          "FlightAware ADS-B(LICP)",
          "FlightAware ADS-B(CTA / LICC)",
          "FlightAware ADS-B(LICP)",
          "FlightAware ADS-B(CTA / LICC)",
          "FlightAware ADS-B(LICP)",
          "FlightAware ADS-B(LICP)",
          "FlightAware ADS-B(CTA / LICC)",
          "FlightAware ADS-B(MLA / LMML)",
          "FlightAware ADS-B(MLA / LMML)",
          "FlightAware ADS-B(MLA / LMML)",
          "FlightAware ADS-B(CTA / LICC)",
          "FlightAware ADS-B(MLA / LMML)",
          "FlightAware ADS-B(MLA / LMML)",
          "FlightAware ADS-B(PNL / LICG)",
          "FlightAware ADS-B(MLA / LMML)",
          "FlightAware ADS-B(MLA / LMML)",
          "FlightAware ADS-B(MLA / LMML)",
          "FlightAware ADS-B(MLA / LMML)",
          "FlightAware ADS-B(CTA / LICC)",
          "FlightAware ADS-B(MLA / LMML)",
          "FlightAware ADS-B(MLA / LMML)",
          "FlightAware ADS-B(MLA / LMML)",
          "FlightAware ADS-B(MLA / LMML)",
          "FlightAware ADS-B(CIY / LICB)",
          "FlightAware ADS-B(MLA / LMML)",
          "FlightAware ADS-B(MLA / LMML)",
          "FlightAware ADS-B(MLA / LMML)",
          "FlightAware ADS-B(MLA / LMML)",
          "FlightAware ADS-B(MLA / LMML)",
          "FlightAware ADS-B(MLA / LMML)",
          "FlightAware ADS-B(MLA / LMML)",
          "FlightAware ADS-B(MLA / LMML)",
          "FlightAware ADS-B(MLA / LMML)",
          "FlightAware ADS-B(MLA / LMML)",
          "FlightAware ADS-B(MLA / LMML)",
          "FlightAware ADS-B(MLA / LMML)",
          "FlightAware ADS-B(MLA / LMML)",
          "FlightAware ADS-B(MLA / LMML)",
          "FlightAware ADS-B(MLA / LMML)",
          "FlightAware ADS-B(MLA / LMML)",
          "FlightAware ADS-B(MLA / LMML)",
          "FlightAware ADS-B(MLA / LMML)",
          "FlightAware ADS-B(MLA / LMML)",
          "FlightAware ADS-B(MLA / LMML)",
          "FlightAware ADS-B(MLA / LMML)",
          "FlightAware ADS-B(MLA / LMML)",
          "FlightAware ADS-B(MLA / LMML)",
          "FlightAware ADS-B(MLA / LMML)",
          "Surface and Near-Surface",
          "FlightAware ADS-B(MLA / LMML)",
          "FlightAware ADS-B(MLA / LMML)",
          "FlightAware ADS-B(MLA / LMML)",
          "FlightAware ADS-B(MLA / LMML)",
          "FlightAware ADS-B(MLA / LMML)"
        ]
      }
    }
  ]
}