{
  "type": "FeatureCollection",
  "features": [
    {
      "type": "Feature",
      "geometry": {
        "type": "LineString",
        "coordinates": [
          [
            -0.4078,
            51.5553
          ],
          [
            -0.3929,
            51.56
          ],
          [
            -0.382,
            51.568
          ],
          [
            -0.374,
            51.5785
          ],
          [
            -0.3685,
            51.5909
          ],
          [
            -0.3651,
            51.6038
          ],
          [
            -0.3623,
            51.617
          ],
          [
            -0.3595,
            51.6314
          ],
          [
            -0.3565,
            51.6449
          ],
          [
            -0.3531,
            51.6588
          ],
          [
            -0.3566,
            51.6726
          ],
          [
            -0.3734,
            51.6835
          ],
          [
            -0.3981,
            51.6925
          ],
          [
            -0.4496,
            51.7056
          ],
          [
            -0.5073,
            51.7179
          ],
          [
            -0.5487,
            51.7268
          ],
          [
            -0.5797,
            51.7321
          ],
          [
            -0.6309,
            51.7393
          ],
          [
            -0.6541,
            51.742
          ],
          [
            -0.6624,
            51.743
          ],
          [
            -0.7075,
            51.7484
          ],
          [
            -0.7497,
            51.7541
          ],
          [
            -0.7877,
            51.7532
          ],
          [
            -0.8238,
            51.7409
          ],
          [
            -0.8549,
            51.7244
          ],
          [
            -0.8849,
            51.7056
          ],
          [
            -0.9297,
            51.6753
          ],
          [
            -0.9594,
            51.6556
          ],
          [
            -0.9831,
            51.6406
          ],
          [
            -1.0132,
            51.6216
          ],
          [
            -1.0885,
            51.5735
          ],
          [
            -1.1304,
            51.5473
          ],
          [
            -1.1651,
            51.5255
          ],
          [
            -1.1894,
            51.5065
          ],
          [
            -1.1957,
            51.4857
          ],
          [
            -1.1838,
            51.4631
          ],
          [
            -1.1449,
            51.4196
          ],
          [
            -1.1122,
            51.3852
          ],
          [
            -1.0911,
            51.3629
          ],
          [
            -1.0341,
            51.3034
          ],
          [
            -0.9914,
            51.2591
          ],
          [
            -0.9436,
            51.2087
          ],
          [
            -0.9033,
            51.1654
          ],
          [
            -0.8725,
            51.1311
          ],
          [
            -0.827,
            51.0785
          ],
          [
            -0.7935,
            51.0489
          ],
          [
            -0.705,
            50.9959
          ],
          [
            -0.6203,
            50.9479
          ],
          [
            -0.5452,
            50.906
          ],
          [
            -0.5044,
            50.8801
          ],
          [
            -0.4809,
            50.8478
          ],
          [
            -0.4446,
            50.7588
          ],
          [
            -0.4193,
            50.6954
          ],
          [
            -0.4049,
            50.659
          ],
          [
            -0.3824,
            50.603
          ],
          [
            -0.363,
            50.5646
          ],
          [
            -0.3365,
            50.5171
          ],
          [
            -0.2921,
            50.4228
          ],
          [
            -0.2621,
            50.3616
          ],
          [
            -0.2327,
            50.3012
          ],
          [
            -0.2132,
            50.2546
          ],
          [
            -0.1991,
            50.2098
          ],
          [
            -0.1754,
            50.1332
          ],
          [
            -0.1615,
            50.0924
          ],
          [
            -0.1439,
            50.0383
          ],
          [
            -0.1253,
            49.9802
          ],
          [
            -0.114,
            49.9457
          ],
          [
            -0.0941,
            49.8844
          ],
          [
            -0.0747,
            49.8233
          ],
          [
            -0.0549,
            49.7621
          ],
          [
            -0.0351,
            49.7001
          ],
          [
            -0.0152,
            49.638
          ],
          [
            0.0048,
            49.5754
          ],
          [
            0.0252,
            49.5109
          ],
          [
            0.0459,
            49.4458
          ],
          [
            0.0746,
            49.3548
          ],
          [
            0.0949,
            49.29
          ],
          [
            0.1151,
            49.2263
          ],
          [
            0.1347,
            49.1634
          ],
          [
            0.1542,
            49.1016
          ],
          [
            0.1742,
            49.0366
          ],
          [
            0.1884,
            48.9908
          ],
          [
            0.2223,
            48.8823
          ],
          [
            0.2412,
            48.8202
          ],
          [
            0.2613,
            48.7556
          ],
          [
            0.2812,
            48.6914
          ],
          [
            0.3013,
            48.6257
          ],
          [
            0.3191,
            48.5671
          ],
          [
            0.3386,
            48.5031
          ],
          [
            0.358,
            48.4399
          ],
          [
            0.3774,
            48.3748
          ],
          [
            0.3963,
            48.3135
          ],
          [
            0.4239,
            48.2211
          ],
          [
            0.4429,
            48.1583
          ],
          [
            0.4621,
            48.0947
          ],
          [
            0.4809,
            48.0318
          ],
          [
            0.4992,
            47.97
          ],
          [
            0.5188,
            47.9044
          ],
          [
            0.5378,
            47.8408
          ],
          [
            0.5564,
            47.7772
          ],
          [
            0.5753,
            47.7144
          ],
          [
            0.5935,
            47.6517
          ],
          [
            0.6133,
            47.5853
          ],
          [
            0.6316,
            47.5223
          ],
          [
            0.6507,
            47.4572
          ],
          [
            0.6682,
            47.3977
          ],
          [
            0.6872,
            47.3314
          ],
          [
            0.7048,
            47.2713
          ],
          [
            0.7233,
            47.2078
          ],
          [
            0.7423,
            47.1418
          ],
          [
            0.7616,
            47.0747
          ],
          [
            0.78,
            47.0114
          ],
          [
            0.7976,
            46.9491
          ],
          [
            0.8171,
            46.8813
          ],
          [
            0.8353,
            46.8179
          ],
          [
            0.8535,
            46.7541
          ],
          [
            0.8719,
            46.6889
          ],
          [
            0.8903,
            46.624
          ],
          [
            0.9079,
            46.5621
          ],
          [
            0.9267,
            46.4959
          ],
          [
            0.9448,
            46.431
          ],
          [
            0.9633,
            46.3651
          ],
          [
            0.9806,
            46.3035
          ],
          [
            0.9996,
            46.2358
          ],
          [
            1.0177,
            46.1701
          ],
          [
            1.0359,
            46.1049
          ],
          [
            1.054,
            46.0397
          ],
          [
            1.0718,
            45.9754
          ],
          [
            1.0901,
            45.9089
          ],
          [
            1.1073,
            45.8469
          ],
          [
            1.126,
            45.7793
          ],
          [
            1.1426,
            45.7178
          ],
          [
            1.1611,
            45.6503
          ],
          [
            1.1791,
            45.5847
          ],
          [
            1.1964,
            45.5207
          ],
          [
            1.2141,
            45.4557
          ],
          [
            1.2318,
            45.3907
          ],
          [
            1.2489,
            45.3267
          ],
          [
            1.2656,
            45.2649
          ],
          [
            1.2835,
            45.199
          ],
          [
            1.3006,
            45.1345
          ],
          [
            1.318,
            45.0703
          ],
          [
            1.335,
            45.0067
          ],
          [
            1.3518,
            44.9432
          ],
          [
            1.3691,
            44.8774
          ],
          [
            1.3862,
            44.8144
          ],
          [
            1.4036,
            44.7481
          ],
          [
            1.4199,
            44.6858
          ],
          [
            1.4367,
            44.6227
          ],
          [
            1.4531,
            44.5602
          ],
          [
            1.4698,
            44.4963
          ],
          [
            1.4867,
            44.4318
          ],
          [
            1.503,
            44.3695
          ],
          [
            1.5195,
            44.3063
          ],
          [
            1.5353,
            44.2452
          ],
          [
            1.552,
            44.181
          ],
          [
            1.5682,
            44.1186
          ],
          [
            1.5854,
            44.0521
          ],
          [
            1.6011,
            43.9915
          ],
          [
            1.6177,
            43.9273
          ],
          [
            1.6345,
            43.8606
          ],
          [
            1.6511,
            43.7968
          ],
          [
            1.6676,
            43.7319
          ],
          [
            1.6784,
            43.6871
          ],
          [
            1.6927,
            43.6063
          ],
          [
            1.7049,
            43.5396
          ],
          [
            1.7174,
            43.4732
          ],
          [
            1.729,
            43.4089
          ],
          [
            1.7413,
            43.3441
          ],
          [
            1.7535,
            43.2774
          ],
          [
            1.7652,
            43.213
          ],
          [
            1.7778,
            43.1465
          ],
          [
            1.7893,
            43.0797
          ],
          [
            1.8013,
            43.0168
          ],
          [
            1.8133,
            42.9496
          ],
          [
            1.8253,
            42.8824
          ],
          [
            1.8379,
            42.8174
          ],
          [
            1.8496,
            42.7498
          ],
          [
            1.861,
            42.6852
          ],
          [
            1.8704,
            42.6358
          ],
          [
            1.8819,
            42.5707
          ],
          [
            1.8956,
            42.492
          ],
          [
            1.9076,
            42.4276
          ],
          [
            1.9202,
            42.3549
          ],
          [
            1.9322,
            42.2874
          ],
          [
            1.9445,
            42.2205
          ],
          [
            1.956,
            42.1552
          ],
          [
            1.9671,
            42.092
          ],
          [
            1.9784,
            42.028
          ],
          [
            1.99,
            41.9619
          ],
          [
            2.0013,
            41.897
          ],
          [
            2.0139,
            41.8279
          ],
          [
            2.0247,
            41.7614
          ],
          [
            2.0359,
            41.698
          ],
          [
            2.0476,
            41.6332
          ],
          [
            2.0592,
            41.5657
          ],
          [
            2.0703,
            41.5002
          ],
          [
            2.0816,
            41.4372
          ],
          [
            2.0949,
            41.3593
          ],
          [
            2.1067,
            41.2926
          ],
          [
            2.1177,
            41.2277
          ],
          [
            2.129,
            41.162
          ],
          [
            2.1397,
            41.0977
          ],
          [
            2.1515,
            41.0291
          ],
          [
            2.1636,
            40.9601
          ],
          [
            2.1752,
            40.8921
          ],
          [
            2.1869,
            40.8242
          ],
          [
            2.1983,
            40.7543
          ],
          [
            2.2105,
            40.6867
          ],
          [
            2.221,
            40.6194
          ],
          [
            2.2388,
            40.5151
          ],
          [
            2.2491,
            40.4518
          ],
          [
            2.2578,
            40.4053
          ],
          [
            2.2789,
            40.324
          ],
          [
            2.296,
            40.2611
          ],
          [
            2.3117,
            40.1988
          ],
          [
            2.3282,
            40.1374
          ],
          [
            2.3431,
            40.0784
          ],
          [
            2.3406,
            40.0404
          ],
          [
            2.3218,
            40.004
          ],
          [
            2.2847,
            39.9544
          ],
          [
            2.2432,
            39.9032
          ],
          [
            2.2017,
            39.8485
          ],
          [
            2.1602,
            39.7927
          ],
          [
            2.1216,
            39.7416
          ],
          [
            2.0728,
            39.6767
          ],
          [
            2.0309,
            39.6205
          ],
          [
            1.9895,
            39.565
          ],
          [
            1.9498,
            39.5118
          ],
          [
            1.907,
            39.455
          ],
          [
            1.8638,
            39.3961
          ],
          [
            1.8249,
            39.3447
          ],
          [
            1.7875,
            39.2968
          ],
          [
            1.7148,
            39.2397
          ],
          [
            1.661,
            39.2015
          ],
          [
            1.6005,
            39.1562
          ],
          [
            1.5518,
            39.1193
          ],
          [
            1.5029,
            39.0831
          ],
          [
            1.4698,
            39.0584
          ],
          [
            1.4255,
            39.0291
          ],
          [
            1.3944,
            39.0117
          ],
          [
            1.3516,
            38.9873
          ],
          [
            1.3104,
            38.9633
          ],
          [
            1.2709,
            38.9399
          ],
          [
            1.2488,
            38.9271
          ],
          [
            1.211,
            38.9053
          ],
          [
            1.1938,
            38.8952
          ],
          [
            1.161,
            38.8785
          ],
          [
            1.1198,
            38.8624
          ],
          [
            1.1003,
            38.8546
          ],
          [
            1.0804,
            38.8462
          ],
          [
            1.0601,
            38.8374
          ],
          [
            1.0417,
            38.829
          ],
          [
            1.0286,
            38.8132
          ],
          [
            1.0313,
            38.7953
          ],
          [
            1.0454,
            38.7786
          ],
          [
            1.0839,
            38.7712
          ],
          [
            1.1103,
            38.7697
          ],
          [
            1.131,
            38.7734
          ],
          [
            1.1667,
            38.7866
          ],
          [
            1.1854,
            38.7947
          ],
          [
            1.2171,
            38.8083
          ],
          [
            1.2339,
            38.8153
          ],
          [
            1.2485,
            38.8214
          ],
          [
            1.2754,
            38.8325
          ],
          [
            1.292,
            38.8393
          ],
          [
            1.308,
            38.8459
          ],
          [
            1.3228,
            38.8521
          ],
          [
            1.3338,
            38.8566
          ],
          [
            1.3446,
            38.8611
          ],
          [
            1.3551,
            38.8654
          ]
        ]
      },
      "properties": {
        "time_europe_berlin": [
          "15.10.2025 10:05:38",
          "15.10.2025 10:05:54",
          "15.10.2025 10:06:10",
          "15.10.2025 10:06:26",
          "15.10.2025 10:06:42",
          "15.10.2025 10:06:58",
          "15.10.2025 10:07:14",
          "15.10.2025 10:07:30",
          "15.10.2025 10:07:46",
          "15.10.2025 10:08:02",
          "15.10.2025 10:08:18",
          "15.10.2025 10:08:34",
          "15.10.2025 10:08:50",
          "15.10.2025 10:09:18",
          "15.10.2025 10:09:48",
          "15.10.2025 10:10:08",
          "15.10.2025 10:10:25",
          "15.10.2025 10:10:50",
          "15.10.2025 10:11:01",
          "15.10.2025 10:11:06",
          "15.10.2025 10:11:28",
          "15.10.2025 10:11:49",
          "15.10.2025 10:12:07",
          "15.10.2025 10:12:26",
          "15.10.2025 10:12:44",
          "15.10.2025 10:13:03",
          "15.10.2025 10:13:33",
          "15.10.2025 10:13:53",
          "15.10.2025 10:14:09",
          "15.10.2025 10:14:27",
          "15.10.2025 10:15:18",
          "15.10.2025 10:15:45",
          "15.10.2025 10:16:08",
          "15.10.2025 10:16:24",
          "15.10.2025 10:16:42",
          "15.10.2025 10:16:59",
          "15.10.2025 10:17:34",
          "15.10.2025 10:18:03",
          "15.10.2025 10:18:21",
          "15.10.2025 10:19:03",
          "15.10.2025 10:19:31",
          "15.10.2025 10:20:01",
          "15.10.2025 10:20:27",
          "15.10.2025 10:20:47",
          "15.10.2025 10:21:17",
          "15.10.2025 10:21:35",
          "15.10.2025 10:22:13",
          "15.10.2025 10:22:48",
          "15.10.2025 10:23:18",
          "15.10.2025 10:23:35",
          "15.10.2025 10:23:52",
          "15.10.2025 10:24:34",
          "15.10.2025 10:25:04",
          "15.10.2025 10:25:21",
          "15.10.2025 10:25:47",
          "15.10.2025 10:26:06",
          "15.10.2025 10:26:29",
          "15.10.2025 10:27:14",
          "15.10.2025 10:27:44",
          "15.10.2025 10:28:14",
          "15.10.2025 10:28:37",
          "15.10.2025 10:28:59",
          "15.10.2025 10:29:37",
          "15.10.2025 10:29:57",
          "15.10.2025 10:30:22",
          "15.10.2025 10:30:52",
          "15.10.2025 10:31:09",
          "15.10.2025 10:31:39",
          "15.10.2025 10:32:09",
          "15.10.2025 10:32:39",
          "15.10.2025 10:33:09",
          "15.10.2025 10:33:39",
          "15.10.2025 10:34:09",
          "15.10.2025 10:34:40",
          "15.10.2025 10:35:10",
          "15.10.2025 10:35:54",
          "15.10.2025 10:36:24",
          "15.10.2025 10:36:54",
          "15.10.2025 10:37:24",
          "15.10.2025 10:37:54",
          "15.10.2025 10:38:24",
          "15.10.2025 10:38:48",
          "15.10.2025 10:39:39",
          "15.10.2025 10:40:09",
          "15.10.2025 10:40:40",
          "15.10.2025 10:41:10",
          "15.10.2025 10:41:41",
          "15.10.2025 10:42:11",
          "15.10.2025 10:42:41",
          "15.10.2025 10:43:11",
          "15.10.2025 10:43:41",
          "15.10.2025 10:44:11",
          "15.10.2025 10:44:55",
          "15.10.2025 10:45:25",
          "15.10.2025 10:45:55",
          "15.10.2025 10:46:25",
          "15.10.2025 10:46:55",
          "15.10.2025 10:47:25",
          "15.10.2025 10:47:55",
          "15.10.2025 10:48:25",
          "15.10.2025 10:48:55",
          "15.10.2025 10:49:25",
          "15.10.2025 10:49:55",
          "15.10.2025 10:50:25",
          "15.10.2025 10:50:55",
          "15.10.2025 10:51:25",
          "15.10.2025 10:51:55",
          "15.10.2025 10:52:25",
          "15.10.2025 10:52:55",
          "15.10.2025 10:53:26",
          "15.10.2025 10:53:57",
          "15.10.2025 10:54:28",
          "15.10.2025 10:54:58",
          "15.10.2025 10:55:28",
          "15.10.2025 10:55:58",
          "15.10.2025 10:56:29",
          "15.10.2025 10:56:59",
          "15.10.2025 10:57:29",
          "15.10.2025 10:58:00",
          "15.10.2025 10:58:30",
          "15.10.2025 10:59:01",
          "15.10.2025 10:59:31",
          "15.10.2025 11:00:01",
          "15.10.2025 11:00:32",
          "15.10.2025 11:01:02",
          "15.10.2025 11:01:32",
          "15.10.2025 11:02:02",
          "15.10.2025 11:02:33",
          "15.10.2025 11:03:03",
          "15.10.2025 11:03:34",
          "15.10.2025 11:04:04",
          "15.10.2025 11:04:34",
          "15.10.2025 11:05:05",
          "15.10.2025 11:05:35",
          "15.10.2025 11:06:05",
          "15.10.2025 11:06:36",
          "15.10.2025 11:07:06",
          "15.10.2025 11:07:37",
          "15.10.2025 11:08:07",
          "15.10.2025 11:08:37",
          "15.10.2025 11:09:07",
          "15.10.2025 11:09:37",
          "15.10.2025 11:10:07",
          "15.10.2025 11:10:37",
          "15.10.2025 11:11:07",
          "15.10.2025 11:11:37",
          "15.10.2025 11:12:07",
          "15.10.2025 11:12:37",
          "15.10.2025 11:13:07",
          "15.10.2025 11:13:37",
          "15.10.2025 11:14:07",
          "15.10.2025 11:14:37",
          "15.10.2025 11:15:07",
          "15.10.2025 11:15:37",
          "15.10.2025 11:16:07",
          "15.10.2025 11:16:37",
          "15.10.2025 11:17:07",
          "15.10.2025 11:17:37",
          "15.10.2025 11:18:07",
          "15.10.2025 11:18:38",
          "15.10.2025 11:19:08",
          "15.10.2025 11:19:38",
          "15.10.2025 11:20:08",
          "15.10.2025 11:20:29",
          "15.10.2025 11:21:07",
          "15.10.2025 11:21:37",
          "15.10.2025 11:22:07",
          "15.10.2025 11:22:37",
          "15.10.2025 11:23:07",
          "15.10.2025 11:23:37",
          "15.10.2025 11:24:07",
          "15.10.2025 11:24:38",
          "15.10.2025 11:25:08",
          "15.10.2025 11:25:38",
          "15.10.2025 11:26:09",
          "15.10.2025 11:26:39",
          "15.10.2025 11:27:09",
          "15.10.2025 11:27:40",
          "15.10.2025 11:28:10",
          "15.10.2025 11:28:33",
          "15.10.2025 11:29:03",
          "15.10.2025 11:29:38",
          "15.10.2025 11:30:09",
          "15.10.2025 11:30:42",
          "15.10.2025 11:31:13",
          "15.10.2025 11:31:43",
          "15.10.2025 11:32:13",
          "15.10.2025 11:32:43",
          "15.10.2025 11:33:13",
          "15.10.2025 11:33:43",
          "15.10.2025 11:34:13",
          "15.10.2025 11:34:44",
          "15.10.2025 11:35:15",
          "15.10.2025 11:35:45",
          "15.10.2025 11:36:15",
          "15.10.2025 11:36:45",
          "15.10.2025 11:37:15",
          "15.10.2025 11:37:45",
          "15.10.2025 11:38:18",
          "15.10.2025 11:38:49",
          "15.10.2025 11:39:21",
          "15.10.2025 11:39:51",
          "15.10.2025 11:40:22",
          "15.10.2025 11:40:53",
          "15.10.2025 11:41:23",
          "15.10.2025 11:41:53",
          "15.10.2025 11:42:23",
          "15.10.2025 11:42:54",
          "15.10.2025 11:43:24",
          "15.10.2025 11:43:54",
          "15.10.2025 11:44:39",
          "15.10.2025 11:45:09",
          "15.10.2025 11:45:29",
          "15.10.2025 11:46:06",
          "15.10.2025 11:46:36",
          "15.10.2025 11:47:06",
          "15.10.2025 11:47:37",
          "15.10.2025 11:48:07",
          "15.10.2025 11:48:26",
          "15.10.2025 11:48:46",
          "15.10.2025 11:49:13",
          "15.10.2025 11:49:44",
          "15.10.2025 11:50:14",
          "15.10.2025 11:50:44",
          "15.10.2025 11:51:14",
          "15.10.2025 11:51:51",
          "15.10.2025 11:52:22",
          "15.10.2025 11:52:52",
          "15.10.2025 11:53:23",
          "15.10.2025 11:53:55",
          "15.10.2025 11:54:26",
          "15.10.2025 11:54:57",
          "15.10.2025 11:55:24",
          "15.10.2025 11:56:07",
          "15.10.2025 11:56:37",
          "15.10.2025 11:57:11",
          "15.10.2025 11:57:41",
          "15.10.2025 11:58:12",
          "15.10.2025 11:58:34",
          "15.10.2025 11:59:02",
          "15.10.2025 11:59:22",
          "15.10.2025 11:59:53",
          "15.10.2025 12:00:23",
          "15.10.2025 12:00:53",
          "15.10.2025 12:01:09",
          "15.10.2025 12:01:39",
          "15.10.2025 12:01:55",
          "15.10.2025 12:02:23",
          "15.10.2025 12:02:55",
          "15.10.2025 12:03:12",
          "15.10.2025 12:03:28",
          "15.10.2025 12:03:46",
          "15.10.2025 12:04:02",
          "15.10.2025 12:04:19",
          "15.10.2025 12:04:36",
          "15.10.2025 12:04:56",
          "15.10.2025 12:05:26",
          "15.10.2025 12:05:47",
          "15.10.2025 12:06:03",
          "15.10.2025 12:06:36",
          "15.10.2025 12:06:52",
          "15.10.2025 12:07:23",
          "15.10.2025 12:07:39",
          "15.10.2025 12:07:55",
          "15.10.2025 12:08:25",
          "15.10.2025 12:08:45",
          "15.10.2025 12:09:05",
          "15.10.2025 12:09:25",
          "15.10.2025 12:09:41",
          "15.10.2025 12:09:57",
          "15.10.2025 12:10:13"
        ],
        "course_deg_clockwise_from_north": [
          "70",
          "53",
          "33",
          "20",
          "12",
          "8",
          "7",
          "7",
          "8",
          "8",
          "331",
          "307",
          "297",
          "290",
          "289",
          "287",
          "284",
          "282",
          "281",
          "280",
          "282",
          "282",
          "252",
          "234",
          "226",
          "224",
          "222",
          "224",
          "225",
          "224",
          "225",
          "225",
          "225",
          "210",
          "176",
          "154",
          "150",
          "149",
          "150",
          "149",
          "149",
          "149",
          "150",
          "151",
          "151",
          "138",
          "133",
          "132",
          "131",
          "144",
          "164",
          "166",
          "166",
          "166",
          "164",
          "161",
          "161",
          "164",
          "162",
          "163",
          "167",
          "169",
          "168",
          "168",
          "169",
          "168",
          "168",
          "168",
          "168",
          "168",
          "168",
          "168",
          "168",
          "169",
          "168",
          "168",
          "168",
          "169",
          "168",
          "168",
          "169",
          "168",
          "168",
          "169",
          "168",
          "168",
          "169",
          "169",
          "169",
          "169",
          "169",
          "169",
          "169",
          "169",
          "169",
          "169",
          "169",
          "169",
          "169",
          "169",
          "169",
          "169",
          "169",
          "169",
          "169",
          "169",
          "169",
          "169",
          "169",
          "169",
          "169",
          "169",
          "169",
          "169",
          "169",
          "169",
          "169",
          "169",
          "169",
          "169",
          "169",
          "169",
          "169",
          "169",
          "169",
          "169",
          "169",
          "169",
          "169",
          "169",
          "169",
          "169",
          "169",
          "169",
          "169",
          "169",
          "169",
          "169",
          "169",
          "169",
          "169",
          "170",
          "169",
          "169",
          "169",
          "169",
          "170",
          "169",
          "169",
          "169",
          "169",
          "170",
          "170",
          "170",
          "170",
          "169",
          "170",
          "170",
          "169",
          "169",
          "170",
          "169",
          "170",
          "172",
          "173",
          "172",
          "172",
          "173",
          "173",
          "173",
          "172",
          "173",
          "172",
          "172",
          "173",
          "173",
          "172",
          "173",
          "172",
          "173",
          "172",
          "173",
          "173",
          "173",
          "172",
          "172",
          "172",
          "172",
          "172",
          "173",
          "172",
          "172",
          "173",
          "173",
          "173",
          "172",
          "173",
          "173",
          "173",
          "172",
          "173",
          "173",
          "172",
          "173",
          "173",
          "173",
          "172",
          "173",
          "172",
          "173",
          "173",
          "173",
          "170",
          "168",
          "169",
          "169",
          "169",
          "170",
          "195",
          "207",
          "212",
          "211",
          "210",
          "209",
          "210",
          "210",
          "211",
          "211",
          "209",
          "211",
          "209",
          "211",
          "217",
          "228",
          "227",
          "226",
          "226",
          "227",
          "226",
          "234",
          "235",
          "233",
          "234",
          "233",
          "234",
          "233",
          "233",
          "241",
          "244",
          "242",
          "241",
          "241",
          "233",
          "193",
          "159",
          "130",
          "96",
          "87",
          "72",
          "61",
          "61",
          "62",
          "62",
          "62",
          "62",
          "63",
          "62",
          "63",
          "62",
          "62",
          "62"
        ],
        "speed_kts": [
          "135",
          "141",
          "148",
          "164",
          "181",
          "184",
          "184",
          "191",
          "187",
          "191",
          "197",
          "219",
          "251",
          "274",
          "277",
          "276",
          "277",
          "279",
          "280",
          "281",
          "282",
          "281",
          "285",
          "294",
          "297",
          "296",
          "295",
          "296",
          "294",
          "295",
          "294",
          "294",
          "296",
          "301",
          "297",
          "293",
          "300",
          "315",
          "321",
          "393",
          "412",
          "416",
          "422",
          "427",
          "439",
          "436",
          "442",
          "451",
          "454",
          "460",
          "468",
          "478",
          "479",
          "479",
          "477",
          "473",
          "470",
          "464",
          "463",
          "454",
          "452",
          "453",
          "449",
          "447",
          "448",
          "449",
          "451",
          "453",
          "453",
          "454",
          "459",
          "463",
          "466",
          "466",
          "468",
          "467",
          "464",
          "463",
          "462",
          "462",
          "460",
          "460",
          "461",
          "460",
          "461",
          "462",
          "463",
          "462",
          "462",
          "463",
          "464",
          "465",
          "466",
          "465",
          "466",
          "466",
          "467",
          "468",
          "468",
          "468",
          "468",
          "468",
          "466",
          "466",
          "466",
          "466",
          "465",
          "464",
          "464",
          "465",
          "466",
          "467",
          "467",
          "468",
          "470",
          "470",
          "471",
          "470",
          "471",
          "472",
          "472",
          "471",
          "472",
          "473",
          "473",
          "473",
          "473",
          "473",
          "472",
          "471",
          "471",
          "471",
          "471",
          "470",
          "469",
          "469",
          "468",
          "469",
          "470",
          "471",
          "472",
          "473",
          "472",
          "473",
          "474",
          "472",
          "470",
          "468",
          "466",
          "464",
          "462",
          "461",
          "461",
          "461",
          "461",
          "461",
          "462",
          "465",
          "467",
          "469",
          "471",
          "473",
          "474",
          "473",
          "475",
          "477",
          "477",
          "476",
          "475",
          "475",
          "475",
          "474",
          "473",
          "473",
          "473",
          "473",
          "473",
          "472",
          "474",
          "473",
          "474",
          "474",
          "476",
          "475",
          "474",
          "475",
          "475",
          "475",
          "475",
          "474",
          "475",
          "475",
          "473",
          "474",
          "475",
          "475",
          "477",
          "477",
          "478",
          "471",
          "465",
          "461",
          "473",
          "488",
          "490",
          "492",
          "493",
          "491",
          "492",
          "492",
          "493",
          "491",
          "486",
          "477",
          "467",
          "454",
          "436",
          "421",
          "422",
          "430",
          "449",
          "446",
          "443",
          "442",
          "447",
          "451",
          "448",
          "445",
          "445",
          "443",
          "442",
          "434",
          "429",
          "416",
          "400",
          "386",
          "376",
          "365",
          "358",
          "325",
          "298",
          "291",
          "287",
          "278",
          "271",
          "254",
          "246",
          "238",
          "231",
          "230",
          "230",
          "224",
          "228",
          "233",
          "231",
          "228",
          "218",
          "208",
          "214",
          "213",
          "207",
          "194",
          "188",
          "183",
          "161",
          "158",
          "149",
          "136",
          "130",
          "125",
          "124"
        ],
        "speed_mph": [
          "155",
          "162",
          "170",
          "189",
          "208",
          "212",
          "212",
          "220",
          "215",
          "220",
          "227",
          "252",
          "289",
          "315",
          "319",
          "318",
          "319",
          "321",
          "322",
          "323",
          "325",
          "323",
          "328",
          "338",
          "342",
          "341",
          "339",
          "341",
          "338",
          "339",
          "338",
          "338",
          "341",
          "346",
          "342",
          "337",
          "345",
          "362",
          "369",
          "452",
          "474",
          "479",
          "486",
          "491",
          "505",
          "502",
          "509",
          "519",
          "522",
          "529",
          "539",
          "550",
          "551",
          "551",
          "549",
          "544",
          "541",
          "534",
          "533",
          "522",
          "520",
          "521",
          "517",
          "514",
          "516",
          "517",
          "519",
          "521",
          "521",
          "522",
          "528",
          "533",
          "536",
          "536",
          "539",
          "537",
          "534",
          "533",
          "532",
          "532",
          "529",
          "529",
          "531",
          "529",
          "531",
          "532",
          "533",
          "532",
          "532",
          "533",
          "534",
          "535",
          "536",
          "535",
          "536",
          "536",
          "537",
          "539",
          "539",
          "539",
          "539",
          "539",
          "536",
          "536",
          "536",
          "536",
          "535",
          "534",
          "534",
          "535",
          "536",
          "537",
          "537",
          "539",
          "541",
          "541",
          "542",
          "541",
          "542",
          "543",
          "543",
          "542",
          "543",
          "544",
          "544",
          "544",
          "544",
          "544",
          "543",
          "542",
          "542",
          "542",
          "542",
          "541",
          "540",
          "540",
          "539",
          "540",
          "541",
          "542",
          "543",
          "544",
          "543",
          "544",
          "545",
          "543",
          "541",
          "539",
          "536",
          "534",
          "532",
          "531",
          "531",
          "531",
          "531",
          "531",
          "532",
          "535",
          "537",
          "540",
          "542",
          "544",
          "545",
          "544",
          "547",
          "549",
          "549",
          "548",
          "547",
          "547",
          "547",
          "545",
          "544",
          "544",
          "544",
          "544",
          "544",
          "543",
          "545",
          "544",
          "545",
          "545",
          "548",
          "547",
          "545",
          "547",
          "547",
          "547",
          "547",
          "545",
          "547",
          "547",
          "544",
          "545",
          "547",
          "547",
          "549",
          "549",
          "550",
          "542",
          "535",
          "531",
          "544",
          "562",
          "564",
          "566",
          "567",
          "565",
          "566",
          "566",
          "567",
          "565",
          "559",
          "549",
          "537",
          "522",
          "502",
          "484",
          "486",
          "495",
          "517",
          "513",
          "510",
          "509",
          "514",
          "519",
          "516",
          "512",
          "512",
          "510",
          "509",
          "499",
          "494",
          "479",
          "460",
          "444",
          "433",
          "420",
          "412",
          "374",
          "343",
          "335",
          "330",
          "320",
          "312",
          "292",
          "283",
          "274",
          "266",
          "265",
          "265",
          "258",
          "262",
          "268",
          "266",
          "262",
          "251",
          "239",
          "246",
          "245",
          "238",
          "223",
          "216",
          "211",
          "185",
          "182",
          "171",
          "157",
          "150",
          "144",
          "143"
        ],
        "altitude_ft": [
          "125",
          "925",
          "1700",
          "2350",
          "2525",
          "2550",
          "2700",
          "3075",
          "3450",
          "3850",
          "4250",
          "4500",
          "4550",
          "4550",
          "4525",
          "4525",
          "4550",
          "4600",
          "4875",
          "4975",
          "5525",
          "6050",
          "6500",
          "6900",
          "6975",
          "7000",
          "7000",
          "7000",
          "7000",
          "7000",
          "7000",
          "7000",
          "7350",
          "7700",
          "8400",
          "9475",
          "12125",
          "14225",
          "15525",
          "16825",
          "17000",
          "17475",
          "18200",
          "19300",
          "20775",
          "21650",
          "23350",
          "24725",
          "25975",
          "26700",
          "27425",
          "28700",
          "29700",
          "30275",
          "31150",
          "31775",
          "32550",
          "34100",
          "34900",
          "36025",
          "36700",
          "37225",
          "38125",
          "38550",
          "39050",
          "39525",
          "39750",
          "40175",
          "40600",
          "40950",
          "41000",
          "41000",
          "41000",
          "41000",
          "41000",
          "41000",
          "41000",
          "41000",
          "41000",
          "41000",
          "41000",
          "41000",
          "41000",
          "41000",
          "41000",
          "41000",
          "41000",
          "41000",
          "41000",
          "41000",
          "41000",
          "41000",
          "41000",
          "41000",
          "41000",
          "41000",
          "41000",
          "41000",
          "41000",
          "41000",
          "41000",
          "41000",
          "41000",
          "41000",
          "41000",
          "41000",
          "41000",
          "41000",
          "41000",
          "41000",
          "41000",
          "41000",
          "41000",
          "41000",
          "41000",
          "41000",
          "41000",
          "41000",
          "41000",
          "41000",
          "41000",
          "41000",
          "41000",
          "41000",
          "41000",
          "41000",
          "41000",
          "41000",
          "41000",
          "41000",
          "41000",
          "41000",
          "41000",
          "41000",
          "41000",
          "41000",
          "41000",
          "41000",
          "41000",
          "41000",
          "41000",
          "41000",
          "41000",
          "41000",
          "41000",
          "41000",
          "41000",
          "41000",
          "41000",
          "41000",
          "41000",
          "41000",
          "41000",
          "41000",
          "41000",
          "41000",
          "41000",
          "41000",
          "41000",
          "41000",
          "41000",
          "41000",
          "41000",
          "41000",
          "41000",
          "41000",
          "41000",
          "41000",
          "41000",
          "41000",
          "41000",
          "41000",
          "41000",
          "41000",
          "41025",
          "41000",
          "41000",
          "41000",
          "41000",
          "41000",
          "41000",
          "41000",
          "41000",
          "41000",
          "41000",
          "41000",
          "41000",
          "41000",
          "41025",
          "41025",
          "41000",
          "41000",
          "41000",
          "41000",
          "41000",
          "41000",
          "41000",
          "41000",
          "40975",
          "40450",
          "39925",
          "39200",
          "37875",
          "36450",
          "35025",
          "33650",
          "32275",
          "30875",
          "29500",
          "28125",
          "26000",
          "24800",
          "24100",
          "22925",
          "22025",
          "21275",
          "21000",
          "21000",
          "21000",
          "21000",
          "21000",
          "21000",
          "21000",
          "21000",
          "21000",
          "21000",
          "21000",
          "21000",
          "21000",
          "21000",
          "20925",
          "19850",
          "18800",
          "17175",
          "15775",
          "14050",
          "12550",
          "11025",
          "9975",
          "9125",
          "9000",
          "9000",
          "8975",
          "8050",
          "7625",
          "7025",
          "7000",
          "7000",
          "7000",
          "7000",
          "7000",
          "6975",
          "6275",
          "5475",
          "4725",
          "3850",
          "2925",
          "2850",
          "2875",
          "2850",
          "2850",
          "2300",
          "2025",
          "1775",
          "1350",
          "1050",
          "775",
          "525",
          "350",
          "150",
          ""
        ],
        "vertical_rate_fpm": [
          "",
          "2953",
          "2672",
          "1547",
          "375",
          "328",
          "984",
          "1406",
          "1453",
          "1500",
          "1219",
          "563",
          "68",
          "-26",
          "-30",
          "41",
          "107",
          "542",
          "1406",
          "1444",
          "1500",
          "1500",
          "1378",
          "770",
          "162",
          "31",
          "",
          "",
          "",
          "",
          "",
          "420",
          "1077",
          "1853",
          "3043",
          "4298",
          "4453",
          "4340",
          "2600",
          "1264",
          "672",
          "1286",
          "2380",
          "3090",
          "2938",
          "2759",
          "2527",
          "2423",
          "2521",
          "2559",
          "2034",
          "1896",
          "2011",
          "2023",
          "2000",
          "2000",
          "2051",
          "1880",
          "1925",
          "2038",
          "1600",
          "1425",
          "1371",
          "1233",
          "1064",
          "894",
          "830",
          "850",
          "775",
          "400",
          "50",
          "",
          "",
          "",
          "",
          "",
          "",
          "",
          "",
          "",
          "",
          "",
          "",
          "",
          "",
          "",
          "",
          "",
          "",
          "",
          "",
          "",
          "",
          "",
          "",
          "",
          "",
          "",
          "",
          "",
          "",
          "",
          "",
          "",
          "",
          "",
          "",
          "",
          "",
          "",
          "",
          "",
          "",
          "",
          "",
          "",
          "",
          "",
          "",
          "",
          "",
          "",
          "",
          "",
          "",
          "",
          "",
          "",
          "",
          "",
          "",
          "",
          "",
          "",
          "",
          "",
          "",
          "",
          "",
          "",
          "",
          "",
          "",
          "",
          "",
          "",
          "",
          "",
          "",
          "",
          "",
          "",
          "",
          "",
          "",
          "",
          "",
          "",
          "",
          "",
          "",
          "",
          "",
          "",
          "",
          "",
          "",
          "",
          "",
          "",
          "",
          "",
          "",
          "25",
          "",
          "-25",
          "",
          "",
          "",
          "",
          "",
          "",
          "",
          "",
          "",
          "",
          "",
          "25",
          "25",
          "-25",
          "-25",
          "",
          "",
          "",
          "",
          "",
          "",
          "-24",
          "-516",
          "-1000",
          "-1210",
          "-2016",
          "-2661",
          "-2803",
          "-2800",
          "-2750",
          "-2730",
          "-2730",
          "-2750",
          "-2800",
          "-2660",
          "-2280",
          "-1974",
          "-1858",
          "-1650",
          "-1008",
          "-270",
          "",
          "",
          "",
          "",
          "",
          "",
          "",
          "",
          "",
          "",
          "",
          "",
          "-71",
          "-1113",
          "-2198",
          "-2293",
          "-2486",
          "-2930",
          "-3023",
          "-2975",
          "-2915",
          "-2280",
          "-1219",
          "-147",
          "-25",
          "-950",
          "-1761",
          "-1337",
          "-815",
          "-34",
          "",
          "",
          "",
          "-44",
          "-1279",
          "-2727",
          "-2735",
          "-2635",
          "-2160",
          "-1176",
          "-81",
          "",
          "-31",
          "-702",
          "-1053",
          "-984",
          "-880",
          "-870",
          "-863",
          "-788",
          "-708",
          "-703",
          "-703",
          "-656"
        ],
        "reporting_facility": [
          "FlightAware ADS-B(LHR / EGLL)",
          "FlightAware ADS-B(LHR / EGLL)",
          "FlightAware ADS-B(BZZ / EGVN)",
          "FlightAware ADS-B(EGLD)",
          "FlightAware ADS-B(EGTF)",
          "FlightAware ADS-B(LGW / EGKK)",
          "FlightAware ADS-B(HYC / EGTB)",
          "FlightAware ADS-B(LHR / EGLL)",
          "FlightAware ADS-B(FAB / EGLF)",
          "FlightAware ADS-B(LHR / EGLL)",
          "FlightAware ADS-B(LTN / EGGW)",
          "FlightAware ADS-B(EGTF)",
          "FlightAware ADS-B(LHR / EGLL)",
          "FlightAware ADS-B(LHR / EGLL)",
          "FlightAware ADS-B(EGSX)",
          "FlightAware ADS-B(EGWN)",
          "FlightAware ADS-B(LTN / EGGW)",
          "FlightAware ADS-B(LHR / EGLL)",
          "Surface and Near-Surface",
          "FlightAware ADS-B(EGUD)",
          "FlightAware ADS-B(LYX / EGMD)",
          "FlightAware ADS-B(EGTC)",
          "FlightAware ADS-B(ODH / EGVO)",
          "FlightAware ADS-B(EGLJ)",
          "FlightAware ADS-B(EGTN)",
          "FlightAware ADS-B(EGBT)",
          "FlightAware ADS-B(EGBT)",
          "FlightAware ADS-B(LHR / EGLL)",
          "FlightAware ADS-B(OXF / EGTK)",
          "FlightAware ADS-B(EGWN)",
          "FlightAware ADS-B(LHR / EGLL)",
          "FlightAware ADS-B(EGDI)",
          "FlightAware ADS-B(LHR / EGLL)",
          "FlightAware ADS-B(EGLM)",
          "FlightAware ADS-B(EGTW)",
          "FlightAware ADS-B(EGDM)",
          "FlightAware ADS-B(BBS / EGLK)",
          "FlightAware ADS-B(BEX / EGUB)",
          "FlightAware ADS-B(NHT / EGWU)",
          "FlightAware ADS-B(EGSG)",
          "FlightAware ADS-B(EGSL)",
          "FlightAware ADS-B(EGTW)",
          "FlightAware ADS-B(SOU / EGHI)",
          "FlightAware ADS-B(BEX / EGUB)",
          "FlightAware ADS-B(FAB / EGLF)",
          "FlightAware ADS-B(EGUD)",
          "FlightAware ADS-B(EGKL)",
          "FlightAware ADS-B(BOH / EGHH)",
          "FlightAware ADS-B(EGKH)",
          "FlightAware ADS-B(FZO / EGTG)",
          "FlightAware ADS-B(ODH / EGVO)",
          "FlightAware ADS-B(EGTD)",
          "FlightAware ADS-B(EGLG)",
          "FlightAware ADS-B(BRS / EGGD)",
          "FlightAware ADS-B(CVT / EGBE)",
          "FlightAware ADS-B(BHX / EGBB)",
          "FlightAware ADS-B(EBCV)",
          "FlightAware ADS-B(ESH / EGKA)",
          "FlightAware ADS-B(ESH / EGKA)",
          "FlightAware ADS-B(SOU / EGHI)",
          "FlightAware ADS-B(EGSQ)",
          "FlightAware ADS-B(CWL / EGFF)",
          "FlightAware ADS-B(BBS / EGLK)",
          "FlightAware ADS-B(LHR / EGLL)",
          "FlightAware ADS-B(FAB / EGLF)",
          "FlightAware ADS-B(LCY / EGLC)",
          "FlightAware ADS-B(LFON)",
          "FlightAware ADS-B(EGDR)",
          "FlightAware ADS-B(EGHR)",
          "FlightAware ADS-B(EGSR)",
          "FlightAware ADS-B(EGBP)",
          "FlightAware ADS-B(STN / EGSS)",
          "FlightAware ADS-B(EGWE)",
          "FlightAware ADS-B(BVA / LFOB)",
          "FlightAware ADS-B(EGUO)",
          "FlightAware ADS-B(EGFC)",
          "FlightAware ADS-B(EGHR)",
          "FlightAware ADS-B(SEN / EGMC)",
          "FlightAware ADS-B(FAB / EGLF)",
          "FlightAware ADS-B(LHR / EGLL)",
          "FlightAware ADS-B(LHR / EGLL)",
          "FlightAware ADS-B(SWS / EGFH)",
          "FlightAware ADS-B(FZO / EGTG)",
          "FlightAware ADS-B(FZO / EGTG)",
          "FlightAware ADS-B(BOH / EGHH)",
          "FlightAware ADS-B(LFPZ)",
          "FlightAware ADS-B(LFPZ)",
          "FlightAware ADS-B(LFFO)",
          "FlightAware ADS-B(LFFO)",
          "FlightAware ADS-B(ESH / EGKA)",
          "FlightAware ADS-B(LFEB)",
          "FlightAware ADS-B(EGTD)",
          "FlightAware ADS-B(LME / LFRM)",
          "FlightAware ADS-B(ORY / LFPO)",
          "FlightAware ADS-B(LME / LFRM)",
          "FlightAware ADS-B(EVX / LFOE)",
          "FlightAware ADS-B(LFOG)",
          "FlightAware ADS-B(LFOG)",
          "FlightAware ADS-B(ORY / LFPO)",
          "FlightAware ADS-B(ORY / LFPO)",
          "FlightAware ADS-B(LME / LFRM)",
          "FlightAware ADS-B(LME / LFRM)",
          "FlightAware ADS-B(LME / LFRM)",
          "FlightAware ADS-B(LFSW)",
          "FlightAware ADS-B(LFCA)",
          "FlightAware ADS-B(LFPY)",
          "FlightAware ADS-B(DNR / LFRD)",
          "FlightAware ADS-B(LFPY)",
          "FlightAware ADS-B(BOD / LFBD)",
          "FlightAware ADS-B(LFON)",
          "FlightAware ADS-B(DNR / LFRD)",
          "FlightAware ADS-B(LFCA)",
          "FlightAware ADS-B(LFDY)",
          "FlightAware ADS-B(DNR / LFRD)",
          "FlightAware ADS-B(PGX / LFBX)",
          "FlightAware ADS-B(LFCA)",
          "FlightAware ADS-B(PGX / LFBX)",
          "FlightAware ADS-B(PGX / LFBX)",
          "FlightAware ADS-B(LFDY)",
          "FlightAware ADS-B(PGX / LFBX)",
          "FlightAware ADS-B(LFCA)",
          "FlightAware ADS-B(LFCA)",
          "FlightAware ADS-B(MRS / LFML)",
          "FlightAware ADS-B(LFCA)",
          "FlightAware ADS-B(LFCA)",
          "FlightAware ADS-B(PGX / LFBX)",
          "FlightAware ADS-B(PGX / LFBX)",
          "FlightAware ADS-B(LFCA)",
          "FlightAware ADS-B(PGX / LFBX)",
          "FlightAware ADS-B(LFCA)",
          "FlightAware ADS-B(PGX / LFBX)",
          "FlightAware ADS-B(LFCA)",
          "FlightAware ADS-B(PGX / LFBX)",
          "FlightAware ADS-B(PGX / LFBX)",
          "FlightAware ADS-B(PGX / LFBX)",
          "FlightAware ADS-B(PGX / LFBX)",
          "FlightAware ADS-B(PGX / LFBX)",
          "FlightAware ADS-B(PGX / LFBX)",
          "FlightAware ADS-B(LFIT)",
          "FlightAware ADS-B(LFIT)",
          "FlightAware ADS-B(LFIT)",
          "FlightAware ADS-B(EBU / LFMH)",
          "FlightAware ADS-B(LFOQ)",
          "FlightAware ADS-B(LBI / LFCI)",
          "FlightAware ADS-B(LBI / LFCI)",
          "FlightAware ADS-B(LBI / LFCI)",
          "FlightAware ADS-B(LBI / LFCI)",
          "FlightAware ADS-B(LFCQ)",
          "FlightAware ADS-B(LBI / LFCI)",
          "FlightAware ADS-B(BOD / LFBD)",
          "FlightAware ADS-B(LBI / LFCI)",
          "FlightAware ADS-B(BOD / LFBD)",
          "FlightAware ADS-B(LBI / LFCI)",
          "FlightAware ADS-B(LBI / LFCI)",
          "FlightAware ADS-B(LFCS)",
          "FlightAware ADS-B(DCM / LFCK)",
          "FlightAware ADS-B(MPL / LFMT)",
          "FlightAware ADS-B(MRS / LFML)",
          "FlightAware ADS-B(DCM / LFCK)",
          "FlightAware ADS-B(MRS / LFML)",
          "FlightAware ADS-B(LBI / LFCI)",
          "FlightAware ADS-B(MPL / LFMT)",
          "FlightAware ADS-B(LBI / LFCI)",
          "FlightAware ADS-B(LFCL)",
          "FlightAware ADS-B(LBI / LFCI)",
          "FlightAware ADS-B(LBI / LFCI)",
          "FlightAware ADS-B(KHOU)",
          "FlightAware ADS-B(LFCH)",
          "FlightAware ADS-B(BOD / LFBD)",
          "FlightAware ADS-B(BOD / LFBD)",
          "FlightAware ADS-B(TLS / LFBO)",
          "FlightAware ADS-B(LBI / LFCI)",
          "FlightAware ADS-B(TLS / LFBO)",
          "FlightAware ADS-B(LBI / LFCI)",
          "FlightAware ADS-B(TLS / LFBO)",
          "FlightAware ADS-B(TLS / LFBO)",
          "FlightAware ADS-B(MRS / LFML)",
          "FlightAware ADS-B(MRS / LFML)",
          "FlightAware ADS-B(TLS / LFBO)",
          "FlightAware ADS-B(TLS / LFBO)",
          "FlightAware ADS-B(TLS / LFBO)",
          "FlightAware ADS-B(LFDM)",
          "FlightAware ADS-B(OBS / LFHO)",
          "FlightAware ADS-B(LELL)",
          "FlightAware ADS-B(ZAZ / LEZG)",
          "FlightAware ADS-B(LEU / LESU)",
          "FlightAware ADS-B(LELL)",
          "FlightAware ADS-B(GRO / LEGE)",
          "FlightAware ADS-B(LFYS)",
          "FlightAware ADS-B(GRO / LEGE)",
          "FlightAware ADS-B(LFYS)",
          "FlightAware ADS-B(LEAP)",
          "FlightAware ADS-B(BCN / LEBL)",
          "FlightAware ADS-B(TLS / LFBO)",
          "FlightAware ADS-B(ZAZ / LEZG)",
          "FlightAware ADS-B(ZAZ / LEZG)",
          "FlightAware ADS-B(ZAZ / LEZG)",
          "FlightAware ADS-B(BCN / LEBL)",
          "FlightAware ADS-B(BZR / LFMU)",
          "FlightAware ADS-B(MRS / LFML)",
          "FlightAware ADS-B(LELL)",
          "FlightAware ADS-B(LFMI)",
          "FlightAware ADS-B(LFBF)",
          "FlightAware ADS-B(LELL)",
          "FlightAware ADS-B(BCN / LEBL)",
          "FlightAware ADS-B(LELL)",
          "FlightAware ADS-B(LELL)",
          "FlightAware ADS-B(BCN / LEBL)",
          "FlightAware ADS-B(BCN / LEBL)",
          "FlightAware ADS-B(BCN / LEBL)",
          "FlightAware ADS-B(VLC / LEVC)",
          "FlightAware ADS-B(LEMN)",
          "FlightAware ADS-B(PMI / LEPA)",
          "FlightAware ADS-B(BCN / LEBL)",
          "FlightAware ADS-B(LEPB)",
          "FlightAware ADS-B(LEPO)",
          "FlightAware ADS-B(LEPB)",
          "FlightAware ADS-B(LELL)",
          "FlightAware ADS-B(LESB)",
          "FlightAware ADS-B(LESB)",
          "FlightAware ADS-B(VLC / LEVC)",
          "FlightAware ADS-B(IBZ / LEIB)",
          "FlightAware ADS-B(IBZ / LEIB)",
          "FlightAware ADS-B(VLC / LEVC)",
          "FlightAware ADS-B(BCN / LEBL)",
          "FlightAware ADS-B(LELL)",
          "FlightAware ADS-B(MAH / LEMH)",
          "FlightAware ADS-B(LEMU)",
          "FlightAware ADS-B(LEMU)",
          "FlightAware ADS-B(MJV / LELC)",
          "FlightAware ADS-B(LESB)",
          "FlightAware ADS-B(PMI / LEPA)",
          "FlightAware ADS-B(LESB)",
          "FlightAware ADS-B(MAD / LEMD)",
          "FlightAware ADS-B(LEMU)",
          "FlightAware ADS-B(LESB)",
          "FlightAware ADS-B(VLC / LEVC)",
          "FlightAware ADS-B(VLC / LEVC)",
          "FlightAware ADS-B(REU / LERS)",
          "FlightAware ADS-B(VLC / LEVC)",
          "FlightAware ADS-B(VLC / LEVC)",
          "FlightAware ADS-B(VLC / LEVC)",
          "FlightAware ADS-B(VLC / LEVC)",
          "FlightAware ADS-B(VLC / LEVC)",
          "FlightAware ADS-B(VLC / LEVC)",
          "FlightAware ADS-B(VLC / LEVC)",
          "FlightAware ADS-B(IBZ / LEIB)",
          "FlightAware ADS-B(PMI / LEPA)",
          "FlightAware ADS-B(VLC / LEVC)",
          "FlightAware ADS-B(IBZ / LEIB)",
          "FlightAware ADS-B(PMI / LEPA)",
          "FlightAware ADS-B(IBZ / LEIB)",
          "FlightAware ADS-B(ALC / LEAL)",
          "FlightAware ADS-B(ALC / LEAL)",
          "FlightAware ADS-B(VLC / LEVC)",
          "FlightAware ADS-B(LEMU)",
          "FlightAware ADS-B(IBZ / LEIB)",
          "FlightAware ADS-B(VLC / LEVC)",
          "FlightAware ADS-B(VLC / LEVC)",
          "FlightAware ADS-B(LEMU)",
          "FlightAware ADS-B(LEMU)",
          "FlightAware ADS-B(IBZ / LEIB)",
          "FlightAware ADS-B(IBZ / LEIB)",
          "FlightAware ADS-B(IBZ / LEIB)",
          "FlightAware ADS-B(IBZ / LEIB)",
          "Surface and Near-Surface",
          "FlightAware ADS-B(IBZ / LEIB)",
          "FlightAware ADS-B(IBZ / LEIB)",
          "FlightAware ADS-B(IBZ / LEIB)",
          "FlightAware ADS-B(IBZ / LEIB)",
          "FlightAware ADS-B(IBZ / LEIB)"
        ]
      }
    }
  ]
}