{
  "type": "FeatureCollection",
  "features": [
    {
      "type": "Feature",
      "geometry": {
        "type": "LineString",
        "coordinates": [
          [
            23.9348,
            37.9385
          ],
          [
            23.9458,
            37.9501
          ],
          [
            23.9544,
            37.9596
          ],
          [
            23.964,
            37.9706
          ],
          [
            23.9738,
            37.9815
          ],
          [
            23.9848,
            37.9936
          ],
          [
            23.9968,
            38.0062
          ],
          [
            24.0046,
            38.0228
          ],
          [
            23.9965,
            38.0376
          ],
          [
            23.9815,
            38.0533
          ],
          [
            23.9647,
            38.0685
          ],
          [
            23.923,
            38.104
          ],
          [
            23.8949,
            38.1184
          ],
          [
            23.8587,
            38.1262
          ],
          [
            23.8045,
            38.1319
          ],
          [
            23.7526,
            38.1367
          ],
          [
            23.6926,
            38.1415
          ],
          [
            23.6322,
            38.1461
          ],
          [
            23.5716,
            38.1516
          ],
          [
            23.5111,
            38.1577
          ],
          [
            23.4504,
            38.1638
          ],
          [
            23.3872,
            38.1702
          ],
          [
            23.3487,
            38.174
          ],
          [
            23.307,
            38.184
          ],
          [
            23.221,
            38.2151
          ],
          [
            23.1592,
            38.2382
          ],
          [
            23.0904,
            38.2619
          ],
          [
            23.0321,
            38.2822
          ],
          [
            22.9689,
            38.3182
          ],
          [
            22.9129,
            38.3598
          ],
          [
            22.8545,
            38.4044
          ],
          [
            22.7936,
            38.4482
          ],
          [
            22.7336,
            38.4918
          ],
          [
            22.673,
            38.536
          ],
          [
            22.6114,
            38.5803
          ],
          [
            22.5529,
            38.6223
          ],
          [
            22.4889,
            38.6683
          ],
          [
            22.4289,
            38.7112
          ],
          [
            22.3696,
            38.7535
          ],
          [
            22.309,
            38.7969
          ],
          [
            22.2467,
            38.8409
          ],
          [
            22.1841,
            38.8861
          ],
          [
            22.1209,
            38.9308
          ],
          [
            22.058,
            38.9748
          ],
          [
            21.9953,
            39.0191
          ],
          [
            21.9338,
            39.0625
          ],
          [
            21.8732,
            39.1057
          ],
          [
            21.8149,
            39.1461
          ],
          [
            21.7535,
            39.1892
          ],
          [
            21.6921,
            39.232
          ],
          [
            21.6323,
            39.2745
          ],
          [
            21.5606,
            39.3237
          ],
          [
            21.494,
            39.3703
          ],
          [
            21.4352,
            39.4108
          ],
          [
            21.3614,
            39.4622
          ],
          [
            21.2956,
            39.5074
          ],
          [
            21.2341,
            39.55
          ],
          [
            21.1741,
            39.5907
          ],
          [
            21.1136,
            39.6328
          ],
          [
            21.0493,
            39.6767
          ],
          [
            20.9807,
            39.7239
          ],
          [
            20.9187,
            39.7654
          ],
          [
            20.8791,
            39.7929
          ],
          [
            20.8466,
            39.8209
          ],
          [
            20.7877,
            39.8788
          ],
          [
            20.7372,
            39.9283
          ],
          [
            20.6864,
            39.9774
          ],
          [
            20.6353,
            40.026
          ],
          [
            20.5843,
            40.0757
          ],
          [
            20.5347,
            40.123
          ],
          [
            20.484,
            40.1712
          ],
          [
            20.4288,
            40.2241
          ],
          [
            20.3783,
            40.2723
          ],
          [
            20.3196,
            40.3273
          ],
          [
            20.2701,
            40.3748
          ],
          [
            20.2184,
            40.424
          ],
          [
            20.1662,
            40.4723
          ],
          [
            20.1166,
            40.5198
          ],
          [
            20.0659,
            40.5671
          ],
          [
            20.0132,
            40.6169
          ],
          [
            19.962,
            40.6646
          ],
          [
            19.9111,
            40.7125
          ],
          [
            19.8577,
            40.7622
          ],
          [
            19.8055,
            40.8109
          ],
          [
            19.7561,
            40.8569
          ],
          [
            19.7031,
            40.9055
          ],
          [
            19.65,
            40.9553
          ],
          [
            19.6005,
            41.0009
          ],
          [
            19.5464,
            41.0506
          ],
          [
            19.5123,
            41.0821
          ],
          [
            19.4595,
            41.1309
          ],
          [
            19.4071,
            41.1788
          ],
          [
            19.3539,
            41.2279
          ],
          [
            19.2994,
            41.2766
          ],
          [
            19.2499,
            41.3228
          ],
          [
            19.1965,
            41.3717
          ],
          [
            19.1436,
            41.421
          ],
          [
            19.0933,
            41.4697
          ],
          [
            19.0446,
            41.517
          ],
          [
            18.995,
            41.5644
          ],
          [
            18.9418,
            41.6156
          ],
          [
            18.891,
            41.6632
          ],
          [
            18.8419,
            41.7109
          ],
          [
            18.7907,
            41.7589
          ],
          [
            18.7436,
            41.8041
          ],
          [
            18.6918,
            41.8522
          ],
          [
            18.6432,
            41.8986
          ],
          [
            18.5949,
            41.9447
          ],
          [
            18.5478,
            41.989
          ],
          [
            18.5003,
            42.0333
          ],
          [
            18.4537,
            42.0774
          ],
          [
            18.4095,
            42.1178
          ],
          [
            18.3678,
            42.1578
          ],
          [
            18.3262,
            42.196
          ],
          [
            18.2889,
            42.2312
          ],
          [
            18.2523,
            42.2648
          ],
          [
            18.2168,
            42.2979
          ],
          [
            18.1794,
            42.3328
          ],
          [
            18.1469,
            42.3627
          ],
          [
            18.1118,
            42.3954
          ],
          [
            18.0835,
            42.4216
          ],
          [
            18.0493,
            42.4529
          ],
          [
            18.0151,
            42.4843
          ],
          [
            17.9824,
            42.5148
          ],
          [
            17.9517,
            42.5429
          ],
          [
            17.9415,
            42.564
          ],
          [
            17.9473,
            42.5866
          ],
          [
            17.959,
            42.6066
          ],
          [
            17.9811,
            42.6359
          ],
          [
            17.9944,
            42.6484
          ],
          [
            18.0149,
            42.6536
          ],
          [
            18.0458,
            42.6495
          ],
          [
            18.0691,
            42.6399
          ],
          [
            18.1065,
            42.6252
          ],
          [
            18.1255,
            42.6179
          ],
          [
            18.1555,
            42.606
          ],
          [
            18.1821,
            42.5956
          ],
          [
            18.1964,
            42.5899
          ],
          [
            18.2066,
            42.5857
          ],
          [
            18.2204,
            42.5803
          ],
          [
            18.2344,
            42.5747
          ],
          [
            18.2461,
            42.5702
          ]
        ]
      },
      "properties": {
        "time_europe_berlin": [
          "01.11.2025 16:48:06",
          "01.11.2025 16:48:25",
          "01.11.2025 16:48:41",
          "01.11.2025 16:48:57",
          "01.11.2025 16:49:13",
          "01.11.2025 16:49:29",
          "01.11.2025 16:49:47",
          "01.11.2025 16:50:05",
          "01.11.2025 16:50:23",
          "01.11.2025 16:50:44",
          "01.11.2025 16:51:05",
          "01.11.2025 16:51:50",
          "01.11.2025 16:52:12",
          "01.11.2025 16:52:35",
          "01.11.2025 16:53:05",
          "01.11.2025 16:53:35",
          "01.11.2025 16:54:05",
          "01.11.2025 16:54:35",
          "01.11.2025 16:55:05",
          "01.11.2025 16:55:35",
          "01.11.2025 16:56:05",
          "01.11.2025 16:56:35",
          "01.11.2025 16:56:53",
          "01.11.2025 16:57:13",
          "01.11.2025 16:57:55",
          "01.11.2025 16:58:25",
          "01.11.2025 16:58:55",
          "01.11.2025 16:59:19",
          "01.11.2025 16:59:49",
          "01.11.2025 17:00:19",
          "01.11.2025 17:00:49",
          "01.11.2025 17:01:19",
          "01.11.2025 17:01:49",
          "01.11.2025 17:02:19",
          "01.11.2025 17:02:49",
          "01.11.2025 17:03:19",
          "01.11.2025 17:03:49",
          "01.11.2025 17:04:19",
          "01.11.2025 17:04:49",
          "01.11.2025 17:05:19",
          "01.11.2025 17:05:49",
          "01.11.2025 17:06:19",
          "01.11.2025 17:06:49",
          "01.11.2025 17:07:19",
          "01.11.2025 17:07:49",
          "01.11.2025 17:08:19",
          "01.11.2025 17:08:49",
          "01.11.2025 17:09:19",
          "01.11.2025 17:09:49",
          "01.11.2025 17:10:19",
          "01.11.2025 17:10:49",
          "01.11.2025 17:11:25",
          "01.11.2025 17:11:57",
          "01.11.2025 17:12:27",
          "01.11.2025 17:13:02",
          "01.11.2025 17:13:35",
          "01.11.2025 17:14:05",
          "01.11.2025 17:14:35",
          "01.11.2025 17:15:05",
          "01.11.2025 17:15:37",
          "01.11.2025 17:16:09",
          "01.11.2025 17:16:39",
          "01.11.2025 17:17:00",
          "01.11.2025 17:17:17",
          "01.11.2025 17:17:54",
          "01.11.2025 17:18:24",
          "01.11.2025 17:18:54",
          "01.11.2025 17:19:24",
          "01.11.2025 17:19:54",
          "01.11.2025 17:20:24",
          "01.11.2025 17:20:54",
          "01.11.2025 17:21:27",
          "01.11.2025 17:21:58",
          "01.11.2025 17:22:31",
          "01.11.2025 17:23:01",
          "01.11.2025 17:23:31",
          "01.11.2025 17:24:01",
          "01.11.2025 17:24:31",
          "01.11.2025 17:25:01",
          "01.11.2025 17:25:32",
          "01.11.2025 17:26:02",
          "01.11.2025 17:26:32",
          "01.11.2025 17:27:03",
          "01.11.2025 17:27:33",
          "01.11.2025 17:28:03",
          "01.11.2025 17:28:33",
          "01.11.2025 17:29:03",
          "01.11.2025 17:29:33",
          "01.11.2025 17:30:03",
          "01.11.2025 17:30:24",
          "01.11.2025 17:30:54",
          "01.11.2025 17:31:24",
          "01.11.2025 17:31:55",
          "01.11.2025 17:32:25",
          "01.11.2025 17:32:55",
          "01.11.2025 17:33:25",
          "01.11.2025 17:33:55",
          "01.11.2025 17:34:25",
          "01.11.2025 17:34:55",
          "01.11.2025 17:35:25",
          "01.11.2025 17:35:55",
          "01.11.2025 17:36:25",
          "01.11.2025 17:36:55",
          "01.11.2025 17:37:25",
          "01.11.2025 17:37:55",
          "01.11.2025 17:38:25",
          "01.11.2025 17:38:55",
          "01.11.2025 17:39:25",
          "01.11.2025 17:39:55",
          "01.11.2025 17:40:25",
          "01.11.2025 17:40:55",
          "01.11.2025 17:41:25",
          "01.11.2025 17:41:55",
          "01.11.2025 17:42:25",
          "01.11.2025 17:42:55",
          "01.11.2025 17:43:25",
          "01.11.2025 17:43:55",
          "01.11.2025 17:44:25",
          "01.11.2025 17:44:55",
          "01.11.2025 17:45:25",
          "01.11.2025 17:45:49",
          "01.11.2025 17:46:19",
          "01.11.2025 17:46:51",
          "01.11.2025 17:47:21",
          "01.11.2025 17:47:51",
          "01.11.2025 17:48:10",
          "01.11.2025 17:48:31",
          "01.11.2025 17:48:51",
          "01.11.2025 17:49:22",
          "01.11.2025 17:49:38",
          "01.11.2025 17:49:54",
          "01.11.2025 17:50:16",
          "01.11.2025 17:50:36",
          "01.11.2025 17:51:09",
          "01.11.2025 17:51:28",
          "01.11.2025 17:51:59",
          "01.11.2025 17:52:29",
          "01.11.2025 17:52:49",
          "01.11.2025 17:53:05",
          "01.11.2025 17:53:25",
          "01.11.2025 17:53:46",
          "01.11.2025 17:54:03"
        ],
        "course_deg_clockwise_from_north": [
          "36",
          "37",
          "35",
          "35",
          "36",
          "36",
          "37",
          "357",
          "325",
          "321",
          "318",
          "314",
          "297",
          "279",
          "277",
          "277",
          "275",
          "276",
          "278",
          "277",
          "278",
          "277",
          "280",
          "291",
          "297",
          "294",
          "294",
          "296",
          "312",
          "314",
          "313",
          "313",
          "313",
          "313",
          "313",
          "313",
          "312",
          "313",
          "313",
          "312",
          "312",
          "312",
          "312",
          "312",
          "312",
          "312",
          "313",
          "312",
          "312",
          "312",
          "312",
          "312",
          "312",
          "312",
          "311",
          "312",
          "311",
          "312",
          "312",
          "312",
          "312",
          "311",
          "315",
          "320",
          "322",
          "321",
          "322",
          "321",
          "321",
          "321",
          "322",
          "320",
          "322",
          "320",
          "321",
          "321",
          "320",
          "321",
          "321",
          "321",
          "320",
          "321",
          "321",
          "322",
          "320",
          "320",
          "322",
          "320",
          "320",
          "321",
          "320",
          "320",
          "321",
          "320",
          "321",
          "321",
          "322",
          "323",
          "323",
          "321",
          "322",
          "323",
          "321",
          "322",
          "322",
          "322",
          "321",
          "323",
          "321",
          "322",
          "322",
          "322",
          "322",
          "321",
          "322",
          "321",
          "321",
          "322",
          "321",
          "322",
          "320",
          "323",
          "321",
          "321",
          "322",
          "360",
          "20",
          "26",
          "30",
          "51",
          "87",
          "112",
          "120",
          "117",
          "118",
          "119",
          "118",
          "118",
          "118",
          "120",
          "118",
          "118"
        ],
        "speed_kts": [
          "151",
          "156",
          "172",
          "188",
          "192",
          "196",
          "200",
          "203",
          "195",
          "200",
          "216",
          "257",
          "274",
          "287",
          "307",
          "325",
          "338",
          "347",
          "347",
          "351",
          "352",
          "357",
          "363",
          "375",
          "398",
          "411",
          "421",
          "439",
          "453",
          "462",
          "466",
          "463",
          "462",
          "462",
          "464",
          "465",
          "466",
          "468",
          "469",
          "470",
          "471",
          "478",
          "476",
          "473",
          "467",
          "461",
          "457",
          "455",
          "455",
          "456",
          "458",
          "459",
          "458",
          "458",
          "456",
          "455",
          "454",
          "454",
          "454",
          "453",
          "454",
          "454",
          "453",
          "450",
          "448",
          "447",
          "447",
          "447",
          "447",
          "447",
          "446",
          "447",
          "446",
          "447",
          "448",
          "447",
          "447",
          "446",
          "447",
          "447",
          "448",
          "447",
          "447",
          "446",
          "443",
          "442",
          "440",
          "440",
          "442",
          "445",
          "448",
          "447",
          "448",
          "449",
          "449",
          "449",
          "448",
          "447",
          "445",
          "447",
          "441",
          "437",
          "436",
          "434",
          "433",
          "432",
          "428",
          "417",
          "408",
          "401",
          "395",
          "377",
          "356",
          "332",
          "323",
          "313",
          "305",
          "298",
          "294",
          "290",
          "290",
          "287",
          "284",
          "271",
          "252",
          "244",
          "240",
          "238",
          "230",
          "225",
          "218",
          "215",
          "212",
          "184",
          "177",
          "175",
          "143",
          "119",
          "124",
          "125",
          "124",
          "124"
        ],
        "speed_mph": [
          "174",
          "180",
          "198",
          "216",
          "221",
          "226",
          "230",
          "234",
          "224",
          "230",
          "249",
          "296",
          "315",
          "330",
          "353",
          "374",
          "389",
          "399",
          "399",
          "404",
          "405",
          "411",
          "418",
          "432",
          "458",
          "473",
          "484",
          "505",
          "521",
          "532",
          "536",
          "533",
          "532",
          "532",
          "534",
          "535",
          "536",
          "539",
          "540",
          "541",
          "542",
          "550",
          "548",
          "544",
          "537",
          "531",
          "526",
          "524",
          "524",
          "525",
          "527",
          "528",
          "527",
          "527",
          "525",
          "524",
          "522",
          "522",
          "522",
          "521",
          "522",
          "522",
          "521",
          "518",
          "516",
          "514",
          "514",
          "514",
          "514",
          "514",
          "513",
          "514",
          "513",
          "514",
          "516",
          "514",
          "514",
          "513",
          "514",
          "514",
          "516",
          "514",
          "514",
          "513",
          "510",
          "509",
          "506",
          "506",
          "509",
          "512",
          "516",
          "514",
          "516",
          "517",
          "517",
          "517",
          "516",
          "514",
          "512",
          "514",
          "507",
          "503",
          "502",
          "499",
          "498",
          "497",
          "493",
          "480",
          "470",
          "461",
          "455",
          "434",
          "410",
          "382",
          "372",
          "360",
          "351",
          "343",
          "338",
          "334",
          "334",
          "330",
          "327",
          "312",
          "290",
          "281",
          "276",
          "274",
          "265",
          "259",
          "251",
          "247",
          "244",
          "212",
          "204",
          "201",
          "165",
          "137",
          "143",
          "144",
          "143",
          "143"
        ],
        "altitude_ft": [
          "700",
          "1800",
          "2500",
          "3100",
          "3900",
          "4800",
          "5725",
          "6550",
          "7525",
          "8625",
          "9475",
          "11125",
          "11950",
          "12800",
          "13975",
          "15025",
          "16175",
          "17300",
          "18200",
          "18925",
          "19675",
          "20450",
          "20900",
          "21425",
          "22475",
          "23200",
          "23900",
          "24000",
          "24000",
          "24000",
          "24200",
          "24925",
          "25675",
          "26400",
          "27175",
          "27875",
          "28650",
          "29375",
          "30100",
          "30800",
          "31525",
          "31975",
          "32000",
          "32000",
          "32000",
          "32000",
          "32000",
          "32000",
          "32000",
          "32000",
          "32000",
          "32000",
          "32000",
          "32000",
          "32000",
          "32000",
          "32000",
          "32000",
          "32000",
          "32000",
          "32000",
          "32000",
          "32000",
          "32000",
          "32000",
          "32000",
          "32000",
          "32000",
          "32000",
          "32000",
          "32000",
          "32000",
          "32000",
          "32000",
          "32000",
          "32000",
          "32000",
          "32000",
          "32000",
          "32000",
          "32000",
          "32000",
          "32000",
          "32000",
          "31875",
          "31350",
          "30800",
          "30325",
          "29775",
          "29450",
          "28925",
          "28425",
          "27925",
          "27400",
          "26900",
          "26375",
          "25875",
          "25375",
          "24875",
          "24150",
          "23275",
          "22425",
          "21550",
          "20700",
          "19850",
          "18975",
          "18125",
          "17275",
          "16450",
          "15650",
          "14825",
          "14025",
          "13275",
          "12600",
          "12000",
          "11400",
          "10825",
          "10225",
          "9700",
          "9150",
          "8725",
          "8200",
          "7675",
          "7175",
          "6650",
          "6275",
          "5800",
          "5375",
          "4675",
          "4275",
          "3900",
          "3325",
          "2850",
          "2450",
          "2300",
          "1850",
          "1400",
          "1175",
          "1025",
          "825",
          "600",
          "425"
        ],
        "vertical_rate_fpm": [
          "",
          "3086",
          "2438",
          "2625",
          "3188",
          "3221",
          "2917",
          "3000",
          "3192",
          "2786",
          "2273",
          "2216",
          "2233",
          "2292",
          "2225",
          "2200",
          "2275",
          "2025",
          "1625",
          "1475",
          "1525",
          "1531",
          "1539",
          "1524",
          "1479",
          "1425",
          "889",
          "111",
          "",
          "200",
          "925",
          "1475",
          "1475",
          "1500",
          "1475",
          "1475",
          "1500",
          "1450",
          "1425",
          "1425",
          "1175",
          "475",
          "25",
          "",
          "",
          "",
          "",
          "",
          "",
          "",
          "",
          "",
          "",
          "",
          "",
          "",
          "",
          "",
          "",
          "",
          "",
          "",
          "",
          "",
          "",
          "",
          "",
          "",
          "",
          "",
          "",
          "",
          "",
          "",
          "",
          "",
          "",
          "",
          "",
          "",
          "",
          "",
          "",
          "-125",
          "-650",
          "-1075",
          "-1025",
          "-1025",
          "-1029",
          "-1000",
          "-1025",
          "-984",
          "-1008",
          "-1025",
          "-1025",
          "-1025",
          "-1000",
          "-1000",
          "-1225",
          "-1600",
          "-1725",
          "-1725",
          "-1725",
          "-1700",
          "-1725",
          "-1725",
          "-1700",
          "-1675",
          "-1625",
          "-1625",
          "-1625",
          "-1550",
          "-1425",
          "-1275",
          "-1200",
          "-1175",
          "-1175",
          "-1125",
          "-1075",
          "-1083",
          "-1056",
          "-1016",
          "-992",
          "-1025",
          "-1102",
          "-1275",
          "-1317",
          "-1324",
          "-1404",
          "-1453",
          "-1500",
          "-1500",
          "-991",
          "-635",
          "-720",
          "-885",
          "-810",
          "-625",
          "-583",
          "-622",
          "-632",
          "-618"
        ],
        "reporting_facility": [
          "FlightAware ADS-B(ATH / LGAV)",
          "FlightAware ADS-B(ATH / LGAV)",
          "FlightAware ADS-B(ATH / LGAV)",
          "FlightAware ADS-B(ATH / LGAV)",
          "FlightAware ADS-B(LGTT)",
          "FlightAware ADS-B(ATH / LGAV)",
          "FlightAware ADS-B(ATH / LGAV)",
          "FlightAware ADS-B(LGEL)",
          "FlightAware ADS-B(ATH / LGAV)",
          "FlightAware ADS-B(LGEL)",
          "FlightAware ADS-B(ATH / LGAV)",
          "FlightAware ADS-B(LGEL)",
          "FlightAware ADS-B(ATH / LGAV)",
          "FlightAware ADS-B(ATH / LGAV)",
          "FlightAware ADS-B(ATH / LGAV)",
          "FlightAware ADS-B(ATH / LGAV)",
          "FlightAware ADS-B(LGMG)",
          "FlightAware ADS-B(LGMG)",
          "FlightAware ADS-B(ATH / LGAV)",
          "FlightAware ADS-B(VOL / LGBL)",
          "FlightAware ADS-B(ATH / LGAV)",
          "FlightAware ADS-B(ATH / LGAV)",
          "FlightAware ADS-B(ATH / LGAV)",
          "FlightAware ADS-B(ATH / LGAV)",
          "FlightAware ADS-B(ATH / LGAV)",
          "FlightAware ADS-B(LGTT)",
          "FlightAware ADS-B(SKU / LGSY)",
          "FlightAware ADS-B(SKU / LGSY)",
          "FlightAware ADS-B(LGTP)",
          "FlightAware ADS-B(VOL / LGBL)",
          "FlightAware ADS-B(GPA / LGRX)",
          "FlightAware ADS-B(GPA / LGRX)",
          "FlightAware ADS-B(GPA / LGRX)",
          "FlightAware ADS-B(GPA / LGRX)",
          "FlightAware ADS-B(CFU / LGKR)",
          "FlightAware ADS-B(ATH / LGAV)",
          "FlightAware ADS-B(CFU / LGKR)",
          "FlightAware ADS-B(LGTP)",
          "FlightAware ADS-B(JSI / LGSK)",
          "FlightAware ADS-B(ATH / LGAV)",
          "FlightAware ADS-B(GPA / LGRX)",
          "FlightAware ADS-B(GPA / LGRX)",
          "FlightAware ADS-B(GPA / LGRX)",
          "FlightAware ADS-B(GPA / LGRX)",
          "FlightAware ADS-B(IOA / LGIO)",
          "FlightAware ADS-B(IOA / LGIO)",
          "FlightAware ADS-B(IOA / LGIO)",
          "FlightAware ADS-B(GPA / LGRX)",
          "FlightAware ADS-B(IOA / LGIO)",
          "FlightAware ADS-B(IOA / LGIO)",
          "FlightAware ADS-B(IOA / LGIO)",
          "FlightAware ADS-B(BDS / LIBR)",
          "FlightAware ADS-B(BDS / LIBR)",
          "FlightAware ADS-B(BDS / LIBR)",
          "FlightAware ADS-B(LCC / LIBN)",
          "FlightAware ADS-B(LCC / LIBN)",
          "FlightAware ADS-B(LCC / LIBN)",
          "FlightAware ADS-B(LCC / LIBN)",
          "FlightAware ADS-B(LCC / LIBN)",
          "FlightAware ADS-B(LCC / LIBN)",
          "FlightAware ADS-B(IOA / LGIO)",
          "FlightAware ADS-B(GPA / LGRX)",
          "FlightAware ADS-B(LINB)",
          "FlightAware ADS-B(CFU / LGKR)",
          "FlightAware ADS-B(LCC / LIBN)",
          "FlightAware ADS-B(LCC / LIBN)",
          "FlightAware ADS-B(LCC / LIBN)",
          "FlightAware ADS-B(LCC / LIBN)",
          "FlightAware ADS-B(LCC / LIBN)",
          "FlightAware ADS-B(LCC / LIBN)",
          "FlightAware ADS-B(LCC / LIBN)",
          "FlightAware ADS-B(TAR / LIBG)",
          "FlightAware ADS-B(CFU / LGKR)",
          "FlightAware ADS-B(CFU / LGKR)",
          "FlightAware ADS-B(CFU / LGKR)",
          "FlightAware ADS-B(CFU / LGKR)",
          "FlightAware ADS-B(CFU / LGKR)",
          "FlightAware ADS-B(IOA / LGIO)",
          "FlightAware ADS-B(FOG / LIBF)",
          "FlightAware ADS-B(IOA / LGIO)",
          "FlightAware ADS-B(IOA / LGIO)",
          "FlightAware ADS-B(IOA / LGIO)",
          "FlightAware ADS-B(FOG / LIBF)",
          "FlightAware ADS-B(FOG / LIBF)",
          "FlightAware ADS-B(LCC / LIBN)",
          "FlightAware ADS-B(GPA / LGRX)",
          "FlightAware ADS-B(LCC / LIBN)",
          "FlightAware ADS-B(TAR / LIBG)",
          "FlightAware ADS-B(LCC / LIBN)",
          "FlightAware ADS-B(LCC / LIBN)",
          "FlightAware ADS-B(LCC / LIBN)",
          "FlightAware ADS-B(LCC / LIBN)",
          "FlightAware ADS-B(LCC / LIBN)",
          "FlightAware ADS-B(LCC / LIBN)",
          "FlightAware ADS-B(DBV / LDDU)",
          "FlightAware ADS-B(DBV / LDDU)",
          "FlightAware ADS-B(LCC / LIBN)",
          "FlightAware ADS-B(LCC / LIBN)",
          "FlightAware ADS-B(LCC / LIBN)",
          "FlightAware ADS-B(FOG / LIBF)",
          "FlightAware ADS-B(LCC / LIBN)",
          "FlightAware ADS-B(DBV / LDDU)",
          "FlightAware ADS-B(LINA)",
          "FlightAware ADS-B(DBV / LDDU)",
          "FlightAware ADS-B(BRI / LIBD)",
          "FlightAware ADS-B(FOG / LIBF)",
          "FlightAware ADS-B(BDS / LIBR)",
          "FlightAware ADS-B(LIBX)",
          "FlightAware ADS-B(BRI / LIBD)",
          "FlightAware ADS-B(BDS / LIBR)",
          "FlightAware ADS-B(BDS / LIBR)",
          "FlightAware ADS-B(DBV / LDDU)",
          "FlightAware ADS-B(LCC / LIBN)",
          "FlightAware ADS-B(LCC / LIBN)",
          "FlightAware ADS-B(DBV / LDDU)",
          "FlightAware ADS-B(BRI / LIBD)",
          "FlightAware ADS-B(PSR / LIBP)",
          "FlightAware ADS-B(BRI / LIBD)",
          "FlightAware ADS-B(BDS / LIBR)",
          "FlightAware ADS-B(BRI / LIBD)",
          "FlightAware ADS-B(BRI / LIBD)",
          "FlightAware ADS-B(BRI / LIBD)",
          "FlightAware ADS-B(FOG / LIBF)",
          "FlightAware ADS-B(DBV / LDDU)",
          "FlightAware ADS-B(PSR / LIBP)",
          "FlightAware ADS-B(BRI / LIBD)",
          "FlightAware ADS-B(LIBX)",
          "FlightAware ADS-B(BRI / LIBD)",
          "FlightAware ADS-B(DBV / LDDU)",
          "FlightAware ADS-B(LIBX)",
          "FlightAware ADS-B(BRI / LIBD)",
          "FlightAware ADS-B(DBV / LDDU)",
          "FlightAware ADS-B(DBV / LDDU)",
          "FlightAware ADS-B(DBV / LDDU)",
          "FlightAware ADS-B(DBV / LDDU)",
          "FlightAware ADS-B(DBV / LDDU)",
          "Surface and Near-Surface",
          "FlightAware ADS-B(DBV / LDDU)",
          "FlightAware ADS-B(DBV / LDDU)",
          "FlightAware ADS-B(DBV / LDDU)",
          "FlightAware ADS-B(DBV / LDDU)",
          "FlightAware ADS-B(DBV / LDDU)"
        ]
      }
    }
  ]
}