{
  "type": "FeatureCollection",
  "features": [
    {
      "type": "Feature",
      "geometry": {
        "type": "LineString",
        "coordinates": [
          [
            9.410706,
            51.419693
          ],
          [
            9.4207,
            51.419182
          ],
          [
            9.428867,
            51.418762
          ],
          [
            9.431534,
            51.418808
          ],
          [
            9.433823,
            51.419041
          ],
          [
            9.43592,
            51.419312
          ],
          [
            9.438072,
            51.419861
          ],
          [
            9.440893,
            51.420868
          ],
          [
            9.442675,
            51.421783
          ],
          [
            9.444382,
            51.422882
          ],
          [
            9.446164,
            51.424301
          ],
          [
            9.447426,
            51.425629
          ],
          [
            9.4487,
            51.427467
          ],
          [
            9.449387,
            51.428959
          ],
          [
            9.449875,
            51.430664
          ],
          [
            9.450073,
            51.432076
          ],
          [
            9.449949,
            51.434097
          ],
          [
            9.449504,
            51.435654
          ],
          [
            9.448547,
            51.437614
          ],
          [
            9.447556,
            51.43906
          ],
          [
            9.445953,
            51.440643
          ],
          [
            9.444504,
            51.441944
          ],
          [
            9.442978,
            51.443203
          ],
          [
            9.441116,
            51.444534
          ],
          [
            9.439408,
            51.44577
          ],
          [
            9.43733,
            51.447235
          ],
          [
            9.43573,
            51.448277
          ],
          [
            9.433823,
            51.449348
          ],
          [
            9.431169,
            51.450623
          ],
          [
            9.428867,
            51.451401
          ],
          [
            9.426566,
            51.452042
          ],
          [
            9.423904,
            51.452606
          ],
          [
            9.421222,
            51.452957
          ],
          [
            9.418698,
            51.45314
          ],
          [
            9.416174,
            51.453278
          ],
          [
            9.412166,
            51.453506
          ],
          [
            9.409716,
            51.453598
          ],
          [
            9.407425,
            51.453724
          ],
          [
            9.404148,
            51.453873
          ],
          [
            9.40207,
            51.453918
          ],
          [
            9.398727,
            51.454048
          ],
          [
            9.39621,
            51.454144
          ],
          [
            9.393082,
            51.454281
          ],
          [
            9.390488,
            51.454327
          ],
          [
            9.387512,
            51.454422
          ],
          [
            9.384995,
            51.454514
          ],
          [
            9.382553,
            51.454559
          ],
          [
            9.374619,
            51.454746
          ],
          [
            9.364063,
            51.454971
          ],
          [
            9.355621,
            51.455212
          ],
          [
            9.34788,
            51.455612
          ],
          [
            9.342575,
            51.455631
          ],
          [
            9.340457,
            51.455475
          ],
          [
            9.337785,
            51.455063
          ],
          [
            9.335632,
            51.454605
          ],
          [
            9.333038,
            51.453724
          ],
          [
            9.331207,
            51.45293
          ],
          [
            9.329224,
            51.451862
          ],
          [
            9.327912,
            51.450943
          ],
          [
            9.326248,
            51.449486
          ],
          [
            9.325409,
            51.448555
          ],
          [
            9.324423,
            51.446869
          ],
          [
            9.323654,
            51.445156
          ],
          [
            9.323384,
            51.444168
          ],
          [
            9.323087,
            51.442566
          ],
          [
            9.323013,
            51.441193
          ],
          [
            9.323196,
            51.43948
          ],
          [
            9.323532,
            51.438309
          ],
          [
            9.324201,
            51.436752
          ],
          [
            9.324943,
            51.435562
          ],
          [
            9.325833,
            51.434372
          ],
          [
            9.327096,
            51.432999
          ],
          [
            9.328432,
            51.431671
          ],
          [
            9.329619,
            51.430618
          ],
          [
            9.33051,
            51.429749
          ],
          [
            9.332144,
            51.428329
          ],
          [
            9.333331,
            51.427368
          ],
          [
            9.334667,
            51.426498
          ],
          [
            9.336472,
            51.42551
          ],
          [
            9.337997,
            51.424862
          ],
          [
            9.340309,
            51.423981
          ],
          [
            9.341645,
            51.423615
          ],
          [
            9.343872,
            51.423183
          ],
          [
            9.345802,
            51.422928
          ],
          [
            9.349747,
            51.422718
          ],
          [
            9.353671,
            51.422699
          ],
          [
            9.356418,
            51.422699
          ],
          [
            9.360203,
            51.422607
          ],
          [
            9.361911,
            51.42247
          ],
          [
            9.392012,
            51.420811
          ]
        ]
      },
      "properties": {
        "time_europe_berlin": [
          "01.10.2025 10:02:40",
          "01.10.2025 10:02:48",
          "01.10.2025 10:02:55",
          "01.10.2025 10:02:57",
          "01.10.2025 10:02:59",
          "01.10.2025 10:03:01",
          "01.10.2025 10:03:03",
          "01.10.2025 10:03:06",
          "01.10.2025 10:03:08",
          "01.10.2025 10:03:10",
          "01.10.2025 10:03:12",
          "01.10.2025 10:03:14",
          "01.10.2025 10:03:17",
          "01.10.2025 10:03:19",
          "01.10.2025 10:03:21",
          "01.10.2025 10:03:23",
          "01.10.2025 10:03:25",
          "01.10.2025 10:03:27",
          "01.10.2025 10:03:30",
          "01.10.2025 10:03:32",
          "01.10.2025 10:03:34",
          "01.10.2025 10:03:36",
          "01.10.2025 10:03:39",
          "01.10.2025 10:03:41",
          "01.10.2025 10:03:43",
          "01.10.2025 10:03:45",
          "01.10.2025 10:03:47",
          "01.10.2025 10:03:49",
          "01.10.2025 10:03:51",
          "01.10.2025 10:03:53",
          "01.10.2025 10:03:56",
          "01.10.2025 10:03:58",
          "01.10.2025 10:04:00",
          "01.10.2025 10:04:02",
          "01.10.2025 10:04:04",
          "01.10.2025 10:04:07",
          "01.10.2025 10:04:09",
          "01.10.2025 10:04:11",
          "01.10.2025 10:04:13",
          "01.10.2025 10:04:15",
          "01.10.2025 10:04:17",
          "01.10.2025 10:04:20",
          "01.10.2025 10:04:22",
          "01.10.2025 10:04:24",
          "01.10.2025 10:04:26",
          "01.10.2025 10:04:28",
          "01.10.2025 10:04:31",
          "01.10.2025 10:04:37",
          "01.10.2025 10:04:46",
          "01.10.2025 10:04:52",
          "01.10.2025 10:04:59",
          "01.10.2025 10:05:03",
          "01.10.2025 10:05:06",
          "01.10.2025 10:05:08",
          "01.10.2025 10:05:10",
          "01.10.2025 10:05:12",
          "01.10.2025 10:05:14",
          "01.10.2025 10:05:17",
          "01.10.2025 10:05:19",
          "01.10.2025 10:05:21",
          "01.10.2025 10:05:23",
          "01.10.2025 10:05:26",
          "01.10.2025 10:05:28",
          "01.10.2025 10:05:30",
          "01.10.2025 10:05:32",
          "01.10.2025 10:05:34",
          "01.10.2025 10:05:36",
          "01.10.2025 10:05:38",
          "01.10.2025 10:05:40",
          "01.10.2025 10:05:43",
          "01.10.2025 10:05:45",
          "01.10.2025 10:05:47",
          "01.10.2025 10:05:49",
          "01.10.2025 10:05:51",
          "01.10.2025 10:05:53",
          "01.10.2025 10:05:56",
          "01.10.2025 10:05:58",
          "01.10.2025 10:06:00",
          "01.10.2025 10:06:02",
          "01.10.2025 10:06:04",
          "01.10.2025 10:06:07",
          "01.10.2025 10:06:09",
          "01.10.2025 10:06:13",
          "01.10.2025 10:06:15",
          "01.10.2025 10:06:18",
          "01.10.2025 10:06:25",
          "01.10.2025 10:06:28",
          "01.10.2025 10:06:30",
          "01.10.2025 10:06:32",
          "01.10.2025 10:07:17"
        ],
        "course_deg_clockwise_from_north": [
          94,
          94,
          93,
          89,
          79,
          72,
          65,
          58,
          50,
          44,
          34,
          28,
          22,
          15,
          7,
          1,
          358,
          348,
          341,
          333,
          330,
          324,
          321,
          319,
          318,
          318,
          315,
          310,
          304,
          297,
          292,
          287,
          278,
          275,
          274,
          274,
          274,
          274,
          273,
          273,
          273,
          273,
          272,
          272,
          272,
          272,
          272,
          271,
          272,
          273,
          274,
          267,
          261,
          255,
          246,
          240,
          234,
          227,
          221,
          211,
          204,
          199,
          194,
          188,
          186,
          179,
          173,
          169,
          163,
          157,
          151,
          149,
          147,
          146,
          145,
          143,
          140,
          135,
          131,
          125,
          120,
          112,
          112,
          100,
          96,
          90,
          91,
          91,
          95,
          95
        ],
        "speed_kts": [
          152,
          166,
          166,
          163,
          158,
          157,
          156,
          157,
          159,
          162,
          164,
          166,
          167,
          168,
          169,
          170,
          170,
          169,
          169,
          169,
          169,
          170,
          172,
          174,
          174,
          175,
          175,
          174,
          174,
          173,
          172,
          171,
          170,
          169,
          169,
          168,
          169,
          170,
          172,
          173,
          173,
          174,
          174,
          173,
          171,
          168,
          167,
          168,
          165,
          161,
          156,
          156,
          155,
          154,
          154,
          151,
          150,
          148,
          147,
          147,
          148,
          149,
          149,
          148,
          148,
          146,
          143,
          142,
          141,
          141,
          141,
          141,
          141,
          139,
          137,
          135,
          132,
          128,
          125,
          123,
          123,
          121,
          121,
          120,
          118,
          114,
          117,
          117,
          117,
          0
        ],
        "speed_mph": [
          175.0,
          191.0,
          191.0,
          188.0,
          182.0,
          181.0,
          180.0,
          181.0,
          183.0,
          186.0,
          189.0,
          191.0,
          192.0,
          193.0,
          194.0,
          196.0,
          196.0,
          194.0,
          194.0,
          194.0,
          194.0,
          196.0,
          198.0,
          200.0,
          200.0,
          201.0,
          201.0,
          200.0,
          200.0,
          199.0,
          198.0,
          197.0,
          196.0,
          194.0,
          194.0,
          193.0,
          194.0,
          196.0,
          198.0,
          199.0,
          199.0,
          200.0,
          200.0,
          199.0,
          197.0,
          193.0,
          192.0,
          193.0,
          190.0,
          185.0,
          180.0,
          180.0,
          178.0,
          177.0,
          177.0,
          174.0,
          173.0,
          170.0,
          169.0,
          169.0,
          170.0,
          171.0,
          171.0,
          170.0,
          170.0,
          168.0,
          165.0,
          163.0,
          162.0,
          162.0,
          162.0,
          162.0,
          162.0,
          160.0,
          158.0,
          155.0,
          152.0,
          147.0,
          144.0,
          142.0,
          142.0,
          139.0,
          139.0,
          138.0,
          136.0,
          131.0,
          135.0,
          135.0,
          135.0,
          0.0
        ],
        "altitude_ft": [
          1175,
          1275,
          1325,
          1350,
          1400,
          1400,
          1425,
          1400,
          1400,
          1375,
          1350,
          1350,
          1350,
          1325,
          1325,
          1350,
          1350,
          1350,
          1375,
          1400,
          1400,
          1400,
          1375,
          1375,
          1350,
          1350,
          1350,
          1350,
          1375,
          1375,
          1400,
          1400,
          1400,
          1400,
          1425,
          1425,
          1425,
          1425,
          1425,
          1425,
          1425,
          1425,
          1450,
          1450,
          1475,
          1525,
          1550,
          1500,
          1450,
          1425,
          1425,
          1425,
          1400,
          1425,
          1425,
          1425,
          1450,
          1475,
          1475,
          1450,
          1425,
          1375,
          1350,
          1350,
          1325,
          1325,
          1325,
          1300,
          1300,
          1275,
          1250,
          1225,
          1200,
          1175,
          1175,
          1125,
          1100,
          1075,
          1025,
          1000,
          950,
          900,
          850,
          825,
          750,
          700,
          650,
          600,
          575,
          0
        ],
        "vertical_rate_fpm": [
          0.0,
          0.0,
          0.0,
          0.0,
          0.0,
          0.0,
          0.0,
          0.0,
          0.0,
          0.0,
          0.0,
          0.0,
          0.0,
          0.0,
          0.0,
          0.0,
          0.0,
          0.0,
          0.0,
          0.0,
          0.0,
          0.0,
          0.0,
          0.0,
          0.0,
          0.0,
          0.0,
          0.0,
          0.0,
          0.0,
          0.0,
          0.0,
          0.0,
          0.0,
          0.0,
          0.0,
          0.0,
          0.0,
          0.0,
          0.0,
          0.0,
          0.0,
          0.0,
          0.0,
          0.0,
          0.0,
          0.0,
          0.0,
          0.0,
          0.0,
          0.0,
          0.0,
          0.0,
          0.0,
          0.0,
          0.0,
          0.0,
          0.0,
          0.0,
          0.0,
          0.0,
          0.0,
          0.0,
          0.0,
          0.0,
          0.0,
          0.0,
          0.0,
          0.0,
          0.0,
          0.0,
          0.0,
          0.0,
          0.0,
          0.0,
          0.0,
          0.0,
          0.0,
          0.0,
          0.0,
          0.0,
          0.0,
          0.0,
          0.0,
          0.0,
          0.0,
          0.0,
          0.0,
          0.0,
          0.0
        ]
      }
    }
  ]
}