{
  "type": "FeatureCollection",
  "features": [
    {
      "type": "Feature",
      "geometry": {
        "type": "LineString",
        "coordinates": [
          [
            0.0288,
            51.3266
          ],
          [
            0.0224,
            51.3186
          ],
          [
            0.0125,
            51.3115
          ],
          [
            -0.0058,
            51.3121
          ],
          [
            -0.0239,
            51.3237
          ],
          [
            -0.0262,
            51.342
          ],
          [
            -0.0108,
            51.3555
          ],
          [
            0.009,
            51.3595
          ],
          [
            0.0281,
            51.3548
          ],
          [
            0.0369,
            51.3442
          ],
          [
            0.0475,
            51.3337
          ],
          [
            0.0702,
            51.3298
          ],
          [
            0.0975,
            51.331
          ],
          [
            0.1253,
            51.333
          ],
          [
            0.1644,
            51.3355
          ],
          [
            0.2005,
            51.3348
          ],
          [
            0.2384,
            51.3325
          ],
          [
            0.3029,
            51.3273
          ],
          [
            0.3656,
            51.3226
          ],
          [
            0.4008,
            51.3201
          ],
          [
            0.4619,
            51.3154
          ],
          [
            0.5172,
            51.3111
          ],
          [
            0.5728,
            51.3065
          ],
          [
            0.6467,
            51.3003
          ],
          [
            0.7144,
            51.2937
          ],
          [
            0.7549,
            51.2895
          ],
          [
            0.8241,
            51.2814
          ],
          [
            0.8646,
            51.2764
          ],
          [
            0.9436,
            51.2663
          ],
          [
            1.0283,
            51.2558
          ],
          [
            1.1135,
            51.2448
          ],
          [
            1.1659,
            51.239
          ],
          [
            1.2574,
            51.2314
          ],
          [
            1.337,
            51.2253
          ],
          [
            1.3912,
            51.2211
          ],
          [
            1.4855,
            51.2136
          ],
          [
            1.5661,
            51.2077
          ],
          [
            1.6693,
            51.2035
          ],
          [
            1.7691,
            51.1985
          ],
          [
            1.875,
            51.1926
          ],
          [
            1.9775,
            51.1872
          ],
          [
            2.0796,
            51.1821
          ],
          [
            2.1824,
            51.1771
          ],
          [
            2.2836,
            51.1722
          ],
          [
            2.389,
            51.1674
          ],
          [
            2.493,
            51.1626
          ],
          [
            2.6273,
            51.1475
          ],
          [
            2.7292,
            51.1334
          ],
          [
            2.8314,
            51.1204
          ],
          [
            2.936,
            51.107
          ],
          [
            3.0383,
            51.0936
          ],
          [
            3.146,
            51.0797
          ],
          [
            3.2452,
            51.0665
          ],
          [
            3.3544,
            51.0522
          ],
          [
            3.459,
            51.0384
          ],
          [
            3.5626,
            51.0245
          ],
          [
            3.6253,
            51.016
          ],
          [
            3.7308,
            51.0017
          ],
          [
            3.8354,
            50.9875
          ],
          [
            3.9398,
            50.9732
          ],
          [
            4.0467,
            50.9583
          ],
          [
            4.1151,
            50.9489
          ],
          [
            4.2254,
            50.9334
          ],
          [
            4.3247,
            50.9195
          ],
          [
            4.4274,
            50.9049
          ],
          [
            4.5328,
            50.8898
          ],
          [
            4.6336,
            50.8754
          ],
          [
            4.7355,
            50.8606
          ],
          [
            4.8376,
            50.8457
          ],
          [
            4.9376,
            50.8311
          ],
          [
            5.0394,
            50.816
          ],
          [
            5.1394,
            50.8011
          ],
          [
            5.3123,
            50.7752
          ],
          [
            5.4505,
            50.7544
          ],
          [
            5.545,
            50.7399
          ],
          [
            5.6274,
            50.7274
          ],
          [
            5.6793,
            50.7261
          ],
          [
            5.798,
            50.7366
          ],
          [
            5.9256,
            50.7481
          ],
          [
            5.9988,
            50.7543
          ],
          [
            6.0928,
            50.7615
          ],
          [
            6.18,
            50.769
          ],
          [
            6.2672,
            50.7776
          ],
          [
            6.3611,
            50.7865
          ],
          [
            6.4397,
            50.7948
          ],
          [
            6.5192,
            50.8027
          ],
          [
            6.5664,
            50.8107
          ],
          [
            6.6044,
            50.8357
          ],
          [
            6.6271,
            50.8606
          ],
          [
            6.6467,
            50.8833
          ],
          [
            6.6743,
            50.9154
          ],
          [
            6.7034,
            50.9493
          ],
          [
            6.7337,
            50.9852
          ],
          [
            6.763,
            51.0187
          ],
          [
            6.7855,
            51.0376
          ],
          [
            6.8176,
            51.0456
          ],
          [
            6.849,
            51.042
          ],
          [
            6.8768,
            51.0319
          ],
          [
            6.8933,
            51.0235
          ],
          [
            6.8984,
            51.0207
          ],
          [
            6.9187,
            51.0086
          ],
          [
            6.9369,
            50.9969
          ],
          [
            6.9524,
            50.9863
          ],
          [
            6.9695,
            50.9749
          ],
          [
            6.9835,
            50.9654
          ],
          [
            6.9984,
            50.955
          ],
          [
            7.0129,
            50.9451
          ],
          [
            7.026,
            50.9361
          ],
          [
            7.0479,
            50.921
          ],
          [
            7.0579,
            50.9142
          ],
          [
            7.0586,
            50.9138
          ],
          [
            7.0686,
            50.907
          ],
          [
            7.0777,
            50.9006
          ],
          [
            7.1046,
            50.882
          ],
          [
            7.1128,
            50.8764
          ],
          [
            7.1226,
            50.8697
          ]
        ]
      },
      "properties": {
        "time_europe_berlin": [
          "01.12.2025 18:51:33",
          "01.12.2025 18:51:49",
          "01.12.2025 18:52:05",
          "01.12.2025 18:52:21",
          "01.12.2025 18:52:37",
          "01.12.2025 18:52:53",
          "01.12.2025 18:53:09",
          "01.12.2025 18:53:25",
          "01.12.2025 18:53:41",
          "01.12.2025 18:53:57",
          "01.12.2025 18:54:13",
          "01.12.2025 18:54:29",
          "01.12.2025 18:54:45",
          "01.12.2025 18:55:01",
          "01.12.2025 18:55:22",
          "01.12.2025 18:55:41",
          "01.12.2025 18:56:00",
          "01.12.2025 18:56:30",
          "01.12.2025 18:57:00",
          "01.12.2025 18:57:17",
          "01.12.2025 18:57:47",
          "01.12.2025 18:58:13",
          "01.12.2025 18:58:40",
          "01.12.2025 18:59:12",
          "01.12.2025 18:59:42",
          "01.12.2025 18:59:58",
          "01.12.2025 19:00:24",
          "01.12.2025 19:00:40",
          "01.12.2025 19:01:10",
          "01.12.2025 19:01:40",
          "01.12.2025 19:02:10",
          "01.12.2025 19:02:29",
          "01.12.2025 19:02:59",
          "01.12.2025 19:03:25",
          "01.12.2025 19:03:42",
          "01.12.2025 19:04:12",
          "01.12.2025 19:04:38",
          "01.12.2025 19:05:08",
          "01.12.2025 19:05:38",
          "01.12.2025 19:06:08",
          "01.12.2025 19:06:38",
          "01.12.2025 19:07:08",
          "01.12.2025 19:07:38",
          "01.12.2025 19:08:08",
          "01.12.2025 19:08:38",
          "01.12.2025 19:09:08",
          "01.12.2025 19:09:47",
          "01.12.2025 19:10:17",
          "01.12.2025 19:10:47",
          "01.12.2025 19:11:17",
          "01.12.2025 19:11:47",
          "01.12.2025 19:12:17",
          "01.12.2025 19:12:47",
          "01.12.2025 19:13:17",
          "01.12.2025 19:13:47",
          "01.12.2025 19:14:17",
          "01.12.2025 19:14:34",
          "01.12.2025 19:15:04",
          "01.12.2025 19:15:34",
          "01.12.2025 19:16:04",
          "01.12.2025 19:16:34",
          "01.12.2025 19:16:54",
          "01.12.2025 19:17:24",
          "01.12.2025 19:17:54",
          "01.12.2025 19:18:24",
          "01.12.2025 19:18:54",
          "01.12.2025 19:19:24",
          "01.12.2025 19:19:54",
          "01.12.2025 19:20:24",
          "01.12.2025 19:20:54",
          "01.12.2025 19:21:24",
          "01.12.2025 19:21:54",
          "01.12.2025 19:22:47",
          "01.12.2025 19:23:31",
          "01.12.2025 19:24:01",
          "01.12.2025 19:24:27",
          "01.12.2025 19:24:43",
          "01.12.2025 19:25:21",
          "01.12.2025 19:26:01",
          "01.12.2025 19:26:24",
          "01.12.2025 19:26:54",
          "01.12.2025 19:27:24",
          "01.12.2025 19:27:54",
          "01.12.2025 19:28:24",
          "01.12.2025 19:28:54",
          "01.12.2025 19:29:24",
          "01.12.2025 19:29:43",
          "01.12.2025 19:30:05",
          "01.12.2025 19:30:25",
          "01.12.2025 19:30:43",
          "01.12.2025 19:31:11",
          "01.12.2025 19:31:41",
          "01.12.2025 19:32:11",
          "01.12.2025 19:32:41",
          "01.12.2025 19:32:58",
          "01.12.2025 19:33:16",
          "01.12.2025 19:33:32",
          "01.12.2025 19:33:49",
          "01.12.2025 19:34:00",
          "01.12.2025 19:34:05",
          "01.12.2025 19:34:21",
          "01.12.2025 19:34:37",
          "01.12.2025 19:34:53",
          "01.12.2025 19:35:09",
          "01.12.2025 19:35:25",
          "01.12.2025 19:35:41",
          "01.12.2025 19:35:57",
          "01.12.2025 19:36:13",
          "01.12.2025 19:36:43",
          "01.12.2025 19:36:58",
          "01.12.2025 19:36:59",
          "01.12.2025 19:37:15",
          "01.12.2025 19:37:31",
          "01.12.2025 19:38:19",
          "01.12.2025 19:38:35",
          "01.12.2025 19:38:52"
        ],
        "course_deg_clockwise_from_north": [
          208,
          207,
          244,
          291,
          332,
          9,
          49,
          89,
          133,
          166,
          128,
          93,
          84,
          84,
          86,
          93,
          97,
          98,
          97,
          97,
          97,
          97,
          98,
          98,
          99,
          100,
          101,
          102,
          101,
          101,
          102,
          98,
          97,
          97,
          97,
          97,
          95,
          94,
          95,
          95,
          95,
          95,
          94,
          94,
          94,
          96,
          102,
          102,
          101,
          102,
          102,
          102,
          102,
          102,
          102,
          102,
          102,
          102,
          102,
          102,
          102,
          102,
          102,
          103,
          103,
          103,
          103,
          103,
          103,
          103,
          103,
          103,
          103,
          103,
          104,
          102,
          85,
          81,
          82,
          83,
          83,
          81,
          82,
          81,
          81,
          81,
          64,
          32,
          29,
          29,
          28,
          28,
          28,
          30,
          51,
          84,
          111,
          126,
          131,
          132,
          134,
          137,
          138,
          136,
          138,
          138,
          137,
          138,
          137,
          137,
          137,
          138,
          137,
          137,
          138,
          138
        ],
        "speed_kts": [
          127,
          119,
          147,
          191,
          235,
          230,
          224,
          194,
          167,
          152,
          192,
          220,
          230,
          235,
          257,
          269,
          284,
          288,
          285,
          286,
          285,
          285,
          292,
          314,
          338,
          346,
          356,
          361,
          369,
          385,
          402,
          410,
          419,
          425,
          428,
          435,
          448,
          458,
          467,
          472,
          468,
          468,
          468,
          471,
          474,
          478,
          476,
          477,
          476,
          474,
          477,
          485,
          495,
          493,
          493,
          492,
          492,
          491,
          491,
          489,
          489,
          488,
          489,
          490,
          486,
          483,
          480,
          479,
          475,
          468,
          466,
          467,
          457,
          447,
          443,
          440,
          442,
          438,
          433,
          434,
          421,
          413,
          411,
          399,
          379,
          350,
          339,
          325,
          312,
          299,
          287,
          288,
          284,
          284,
          281,
          272,
          260,
          251,
          246,
          244,
          228,
          207,
          197,
          194,
          193,
          186,
          180,
          160,
          136,
          130,
          129,
          120,
          118,
          110,
          112,
          108
        ],
        "speed_mph": [
          146.0,
          137.0,
          169.0,
          220.0,
          270.0,
          265.0,
          258.0,
          223.0,
          192.0,
          175.0,
          221.0,
          253.0,
          265.0,
          270.0,
          296.0,
          310.0,
          327.0,
          331.0,
          328.0,
          329.0,
          328.0,
          328.0,
          336.0,
          361.0,
          389.0,
          398.0,
          410.0,
          415.0,
          425.0,
          443.0,
          463.0,
          472.0,
          482.0,
          489.0,
          493.0,
          501.0,
          516.0,
          527.0,
          537.0,
          543.0,
          539.0,
          539.0,
          539.0,
          542.0,
          545.0,
          550.0,
          548.0,
          549.0,
          548.0,
          545.0,
          549.0,
          558.0,
          570.0,
          567.0,
          567.0,
          566.0,
          566.0,
          565.0,
          565.0,
          563.0,
          563.0,
          562.0,
          563.0,
          564.0,
          559.0,
          556.0,
          552.0,
          551.0,
          547.0,
          539.0,
          536.0,
          537.0,
          526.0,
          514.0,
          510.0,
          506.0,
          509.0,
          504.0,
          498.0,
          499.0,
          484.0,
          475.0,
          473.0,
          459.0,
          436.0,
          403.0,
          390.0,
          374.0,
          359.0,
          344.0,
          330.0,
          331.0,
          327.0,
          327.0,
          323.0,
          313.0,
          299.0,
          289.0,
          283.0,
          281.0,
          262.0,
          238.0,
          227.0,
          223.0,
          222.0,
          214.0,
          207.0,
          184.0,
          157.0,
          150.0,
          148.0,
          138.0,
          136.0,
          127.0,
          129.0,
          124.0
        ],
        "altitude_ft": [
          1250,
          1975,
          2400,
          2775,
          2750,
          2950,
          2950,
          3225,
          3350,
          3450,
          3375,
          3450,
          3425,
          3575,
          3950,
          4300,
          4400,
          4400,
          5250,
          5825,
          6800,
          8100,
          9425,
          10925,
          11900,
          12450,
          13350,
          13900,
          14850,
          15675,
          16675,
          17275,
          18275,
          19125,
          19700,
          20625,
          21250,
          22000,
          22725,
          23450,
          24200,
          24975,
          25775,
          26525,
          27325,
          28125,
          29150,
          29975,
          30875,
          31850,
          32650,
          33000,
          33000,
          33000,
          33000,
          33000,
          33000,
          33000,
          33000,
          33000,
          33000,
          33000,
          33000,
          33000,
          32000,
          30725,
          29425,
          28150,
          26850,
          25550,
          24200,
          23275,
          21975,
          20900,
          20150,
          19475,
          19100,
          18175,
          17150,
          16575,
          15725,
          14775,
          13800,
          13050,
          12575,
          11575,
          10925,
          10200,
          9675,
          9225,
          8575,
          7900,
          7050,
          5925,
          5350,
          4750,
          4200,
          3650,
          3350,
          3225,
          3025,
          3000,
          3000,
          3000,
          2825,
          2575,
          2300,
          2050,
          1625,
          1450,
          1450,
          1250,
          1100,
          575,
          425,
          250
        ],
        "vertical_rate_fpm": [
          0.0,
          2156.0,
          1500.0,
          656.0,
          328.0,
          375.0,
          516.0,
          750.0,
          422.0,
          47.0,
          0.0,
          94.0,
          234.0,
          851.0,
          1088.0,
          711.0,
          122.0,
          850.0,
          1819.0,
          1979.0,
          2438.0,
          2972.0,
          2873.0,
          2395.0,
          1989.0,
          2071.0,
          2071.0,
          1957.0,
          1775.0,
          1825.0,
          1959.0,
          1959.0,
          1982.0,
          1988.0,
          1915.0,
          1661.0,
          1473.0,
          1475.0,
          1450.0,
          1475.0,
          1525.0,
          1575.0,
          1550.0,
          1550.0,
          1600.0,
          1587.0,
          1609.0,
          1725.0,
          1875.0,
          1775.0,
          1150.0,
          350.0,
          0.0,
          0.0,
          0.0,
          0.0,
          0.0,
          0.0,
          0.0,
          0.0,
          0.0,
          0.0,
          0.0,
          -1000.0,
          -2275.0,
          -2575.0,
          -2575.0,
          -2575.0,
          -2600.0,
          -2650.0,
          -2275.0,
          -1608.0,
          -1469.0,
          -1480.0,
          -1527.0,
          -1500.0,
          -1444.0,
          -1500.0,
          -1524.0,
          -1613.0,
          -1800.0,
          -1925.0,
          -1725.0,
          -1225.0,
          -1475.0,
          -2020.0,
          -2012.0,
          -1786.0,
          -1539.0,
          -1435.0,
          -1371.0,
          -1525.0,
          -1975.0,
          -2170.0,
          -2014.0,
          -2029.0,
          -2000.0,
          -1821.0,
          -1594.0,
          -929.0,
          -422.0,
          -47.0,
          0.0,
          -328.0,
          -797.0,
          -984.0,
          -984.0,
          -880.0,
          -800.0,
          -656.0,
          -706.0,
          -656.0,
          -633.0,
          -633.0,
          -591.0,
          -618.0
        ]
      }
    }
  ]
}