{
  "type": "FeatureCollection",
  "features": [
    {
      "type": "Feature",
      "geometry": {
        "type": "LineString",
        "coordinates": [
          [
            30.831,
            36.9516
          ],
          [
            30.8387,
            36.9667
          ],
          [
            30.8463,
            36.9841
          ],
          [
            30.8523,
            36.9982
          ],
          [
            30.8595,
            37.0132
          ],
          [
            30.8682,
            37.03
          ],
          [
            30.8758,
            37.0447
          ],
          [
            30.8836,
            37.0602
          ],
          [
            30.8913,
            37.0811
          ],
          [
            30.8794,
            37.1291
          ],
          [
            30.8688,
            37.1616
          ],
          [
            30.8592,
            37.1991
          ],
          [
            30.8484,
            37.2436
          ],
          [
            30.8377,
            37.2953
          ],
          [
            30.8377,
            37.3395
          ],
          [
            30.8375,
            37.3991
          ],
          [
            30.8336,
            37.4736
          ],
          [
            30.8318,
            37.5359
          ],
          [
            30.8288,
            37.597
          ],
          [
            30.8274,
            37.6653
          ],
          [
            30.8238,
            37.7413
          ],
          [
            30.8149,
            37.7763
          ],
          [
            30.7825,
            37.844
          ],
          [
            30.7536,
            37.9018
          ],
          [
            30.7231,
            37.9626
          ],
          [
            30.6912,
            38.0296
          ],
          [
            30.6581,
            38.098
          ],
          [
            30.6276,
            38.161
          ],
          [
            30.5989,
            38.2201
          ],
          [
            30.5697,
            38.2824
          ],
          [
            30.5372,
            38.3467
          ],
          [
            30.5051,
            38.4163
          ],
          [
            30.4764,
            38.4805
          ],
          [
            30.4439,
            38.544
          ],
          [
            30.4134,
            38.6054
          ],
          [
            30.3805,
            38.6737
          ],
          [
            30.3506,
            38.7365
          ],
          [
            30.3197,
            38.8001
          ],
          [
            30.2898,
            38.8608
          ],
          [
            30.2605,
            38.9227
          ],
          [
            30.2262,
            38.9913
          ],
          [
            30.1969,
            39.0509
          ],
          [
            30.1659,
            39.1138
          ],
          [
            30.1368,
            39.1728
          ],
          [
            30.107,
            39.2329
          ],
          [
            30.0748,
            39.2979
          ],
          [
            30.0447,
            39.358
          ],
          [
            30.0134,
            39.4207
          ],
          [
            29.9807,
            39.4861
          ],
          [
            29.9503,
            39.5476
          ],
          [
            29.9186,
            39.6125
          ],
          [
            29.8829,
            39.6752
          ],
          [
            29.8394,
            39.7299
          ],
          [
            29.7835,
            39.7948
          ],
          [
            29.7398,
            39.8493
          ],
          [
            29.6965,
            39.9051
          ],
          [
            29.6474,
            39.9669
          ],
          [
            29.6031,
            40.0223
          ],
          [
            29.56,
            40.0769
          ],
          [
            29.5116,
            40.1375
          ],
          [
            29.4633,
            40.1985
          ],
          [
            29.4197,
            40.2534
          ],
          [
            29.3715,
            40.3127
          ],
          [
            29.3219,
            40.3756
          ],
          [
            29.2765,
            40.4308
          ],
          [
            29.2287,
            40.4896
          ],
          [
            29.1804,
            40.5499
          ],
          [
            29.132,
            40.6093
          ],
          [
            29.0854,
            40.6674
          ],
          [
            29.0342,
            40.7297
          ],
          [
            28.9861,
            40.7875
          ],
          [
            28.9398,
            40.8457
          ],
          [
            28.8948,
            40.9015
          ],
          [
            28.8453,
            40.962
          ],
          [
            28.7993,
            41.0169
          ],
          [
            28.7513,
            41.0764
          ],
          [
            28.7063,
            41.1308
          ],
          [
            28.6559,
            41.192
          ],
          [
            28.6077,
            41.2568
          ],
          [
            28.5625,
            41.3139
          ],
          [
            28.5355,
            41.3418
          ],
          [
            28.4841,
            41.399
          ],
          [
            28.4386,
            41.4553
          ],
          [
            28.386,
            41.5022
          ],
          [
            28.3272,
            41.5342
          ],
          [
            28.2575,
            41.5683
          ],
          [
            28.1746,
            41.6077
          ],
          [
            28.1043,
            41.64
          ],
          [
            28.0312,
            41.6756
          ],
          [
            27.9596,
            41.7099
          ],
          [
            27.8861,
            41.745
          ],
          [
            27.8148,
            41.7801
          ],
          [
            27.7408,
            41.8156
          ],
          [
            27.6695,
            41.85
          ],
          [
            27.5979,
            41.8843
          ],
          [
            27.5273,
            41.9179
          ],
          [
            27.4533,
            41.9506
          ],
          [
            27.3734,
            41.9773
          ],
          [
            27.2942,
            42.0029
          ],
          [
            27.2086,
            42.0298
          ],
          [
            27.1305,
            42.0556
          ],
          [
            27.0551,
            42.0801
          ],
          [
            26.9748,
            42.1065
          ],
          [
            26.8892,
            42.1335
          ],
          [
            26.8123,
            42.1592
          ],
          [
            26.7369,
            42.1837
          ],
          [
            26.652,
            42.211
          ],
          [
            26.5756,
            42.2357
          ],
          [
            26.4998,
            42.26
          ],
          [
            26.4261,
            42.2835
          ],
          [
            26.3516,
            42.3074
          ],
          [
            26.2763,
            42.3334
          ],
          [
            26.2047,
            42.3641
          ],
          [
            26.1323,
            42.3937
          ],
          [
            26.0563,
            42.4243
          ],
          [
            25.9771,
            42.4559
          ],
          [
            25.8987,
            42.4865
          ],
          [
            25.8249,
            42.5161
          ],
          [
            25.7435,
            42.5472
          ],
          [
            25.6493,
            42.5748
          ],
          [
            25.5399,
            42.602
          ],
          [
            25.4555,
            42.627
          ],
          [
            25.3738,
            42.6512
          ],
          [
            25.2956,
            42.6739
          ],
          [
            25.2178,
            42.6967
          ],
          [
            25.1361,
            42.7209
          ],
          [
            25.0575,
            42.7436
          ],
          [
            24.9813,
            42.7645
          ],
          [
            24.8975,
            42.7887
          ],
          [
            24.8082,
            42.8149
          ],
          [
            24.7306,
            42.8375
          ],
          [
            24.6482,
            42.8603
          ],
          [
            24.5711,
            42.8817
          ],
          [
            24.4922,
            42.9041
          ],
          [
            24.405,
            42.9288
          ],
          [
            24.3273,
            42.9508
          ],
          [
            24.246,
            42.9735
          ],
          [
            24.1603,
            42.9974
          ],
          [
            24.0782,
            43.0203
          ],
          [
            23.9995,
            43.042
          ],
          [
            23.9203,
            43.0637
          ],
          [
            23.8352,
            43.0873
          ],
          [
            23.7513,
            43.1105
          ],
          [
            23.6669,
            43.1336
          ],
          [
            23.5849,
            43.1558
          ],
          [
            23.4946,
            43.1805
          ],
          [
            23.4148,
            43.202
          ],
          [
            23.3349,
            43.2234
          ],
          [
            23.2555,
            43.245
          ],
          [
            23.1722,
            43.2665
          ],
          [
            23.0908,
            43.2885
          ],
          [
            23.0052,
            43.3125
          ],
          [
            22.9224,
            43.3409
          ],
          [
            22.8419,
            43.368
          ],
          [
            22.7631,
            43.3937
          ],
          [
            22.6831,
            43.4196
          ],
          [
            22.5919,
            43.447
          ],
          [
            22.5133,
            43.4733
          ],
          [
            22.4359,
            43.4999
          ],
          [
            22.3487,
            43.5286
          ],
          [
            22.2655,
            43.5557
          ],
          [
            22.1846,
            43.581
          ],
          [
            22.0963,
            43.6089
          ],
          [
            22.0152,
            43.6337
          ],
          [
            21.9362,
            43.6611
          ],
          [
            21.8549,
            43.6874
          ],
          [
            21.7765,
            43.7121
          ],
          [
            21.6966,
            43.7375
          ],
          [
            21.6065,
            43.7657
          ],
          [
            21.5187,
            43.7934
          ],
          [
            21.4383,
            43.818
          ],
          [
            21.3553,
            43.8446
          ],
          [
            21.2755,
            43.8695
          ],
          [
            21.191,
            43.8948
          ],
          [
            21.1051,
            43.9218
          ],
          [
            21.0197,
            43.9487
          ],
          [
            20.9385,
            43.973
          ],
          [
            20.8514,
            44.0005
          ],
          [
            20.7692,
            44.0244
          ],
          [
            20.6829,
            44.0509
          ],
          [
            20.5951,
            44.078
          ],
          [
            20.5119,
            44.103
          ],
          [
            20.4231,
            44.1293
          ],
          [
            20.3319,
            44.1592
          ],
          [
            20.2455,
            44.185
          ],
          [
            20.1558,
            44.2123
          ],
          [
            20.0765,
            44.2365
          ],
          [
            19.9912,
            44.2621
          ],
          [
            19.9114,
            44.2861
          ],
          [
            19.8228,
            44.3131
          ],
          [
            19.7347,
            44.3394
          ],
          [
            19.6519,
            44.364
          ],
          [
            19.5659,
            44.3901
          ],
          [
            19.472,
            44.4186
          ],
          [
            19.3849,
            44.4441
          ],
          [
            19.2955,
            44.4694
          ],
          [
            19.207,
            44.4962
          ],
          [
            19.1247,
            44.5202
          ],
          [
            19.0403,
            44.5442
          ],
          [
            18.9585,
            44.5681
          ],
          [
            18.8682,
            44.5945
          ],
          [
            18.7827,
            44.6198
          ],
          [
            18.6982,
            44.6436
          ],
          [
            18.6025,
            44.6715
          ],
          [
            18.5142,
            44.6961
          ],
          [
            18.4217,
            44.7227
          ],
          [
            18.371,
            44.7426
          ],
          [
            18.3085,
            44.7799
          ],
          [
            18.2333,
            44.8266
          ],
          [
            18.1607,
            44.8682
          ],
          [
            18.074,
            44.9173
          ],
          [
            18.0038,
            44.9584
          ],
          [
            17.9357,
            44.9975
          ],
          [
            17.8676,
            45.036
          ],
          [
            17.797,
            45.0758
          ],
          [
            17.7323,
            45.1145
          ],
          [
            17.6637,
            45.153
          ],
          [
            17.6024,
            45.1888
          ],
          [
            17.534,
            45.2266
          ],
          [
            17.4737,
            45.2619
          ],
          [
            17.384,
            45.3103
          ],
          [
            17.3258,
            45.3435
          ],
          [
            17.2533,
            45.3782
          ],
          [
            17.1885,
            45.4084
          ],
          [
            17.1332,
            45.4398
          ],
          [
            17.0769,
            45.4737
          ],
          [
            17.0146,
            45.5052
          ],
          [
            16.9729,
            45.5415
          ],
          [
            16.9115,
            45.5718
          ],
          [
            16.8779,
            45.5937
          ],
          [
            16.8238,
            45.6247
          ],
          [
            16.7821,
            45.6414
          ],
          [
            16.7369,
            45.6552
          ],
          [
            16.6897,
            45.6951
          ],
          [
            16.6612,
            45.7221
          ],
          [
            16.6412,
            45.7375
          ],
          [
            16.5962,
            45.7546
          ],
          [
            16.5453,
            45.7793
          ],
          [
            16.4969,
            45.8045
          ],
          [
            16.4747,
            45.8166
          ],
          [
            16.4547,
            45.827
          ],
          [
            16.438,
            45.8363
          ],
          [
            16.4202,
            45.846
          ],
          [
            16.4001,
            45.8571
          ]
        ]
      },
      "properties": {
        "time_europe_berlin": [
          "22.10.2025 10:43:02",
          "22.10.2025 10:43:19",
          "22.10.2025 10:43:39",
          "22.10.2025 10:43:55",
          "22.10.2025 10:44:11",
          "22.10.2025 10:44:29",
          "22.10.2025 10:44:45",
          "22.10.2025 10:45:01",
          "22.10.2025 10:45:22",
          "22.10.2025 10:46:08",
          "22.10.2025 10:46:38",
          "22.10.2025 10:47:08",
          "22.10.2025 10:47:39",
          "22.10.2025 10:48:11",
          "22.10.2025 10:48:36",
          "22.10.2025 10:49:07",
          "22.10.2025 10:49:46",
          "22.10.2025 10:50:17",
          "22.10.2025 10:50:47",
          "22.10.2025 10:51:20",
          "22.10.2025 10:51:56",
          "22.10.2025 10:52:13",
          "22.10.2025 10:52:48",
          "22.10.2025 10:53:18",
          "22.10.2025 10:53:48",
          "22.10.2025 10:54:21",
          "22.10.2025 10:54:55",
          "22.10.2025 10:55:27",
          "22.10.2025 10:55:57",
          "22.10.2025 10:56:28",
          "22.10.2025 10:57:00",
          "22.10.2025 10:57:34",
          "22.10.2025 10:58:06",
          "22.10.2025 10:58:38",
          "22.10.2025 10:59:09",
          "22.10.2025 10:59:43",
          "22.10.2025 11:00:14",
          "22.10.2025 11:00:45",
          "22.10.2025 11:01:15",
          "22.10.2025 11:01:45",
          "22.10.2025 11:02:19",
          "22.10.2025 11:02:49",
          "22.10.2025 11:03:21",
          "22.10.2025 11:03:51",
          "22.10.2025 11:04:21",
          "22.10.2025 11:04:54",
          "22.10.2025 11:05:24",
          "22.10.2025 11:05:55",
          "22.10.2025 11:06:28",
          "22.10.2025 11:06:59",
          "22.10.2025 11:07:31",
          "22.10.2025 11:08:03",
          "22.10.2025 11:08:33",
          "22.10.2025 11:09:09",
          "22.10.2025 11:09:39",
          "22.10.2025 11:10:09",
          "22.10.2025 11:10:43",
          "22.10.2025 11:11:13",
          "22.10.2025 11:11:43",
          "22.10.2025 11:12:16",
          "22.10.2025 11:12:49",
          "22.10.2025 11:13:19",
          "22.10.2025 11:13:52",
          "22.10.2025 11:14:26",
          "22.10.2025 11:14:56",
          "22.10.2025 11:15:28",
          "22.10.2025 11:16:01",
          "22.10.2025 11:16:33",
          "22.10.2025 11:17:04",
          "22.10.2025 11:17:38",
          "22.10.2025 11:18:09",
          "22.10.2025 11:18:41",
          "22.10.2025 11:19:11",
          "22.10.2025 11:19:44",
          "22.10.2025 11:20:14",
          "22.10.2025 11:20:46",
          "22.10.2025 11:21:16",
          "22.10.2025 11:21:49",
          "22.10.2025 11:22:23",
          "22.10.2025 11:22:54",
          "22.10.2025 11:23:10",
          "22.10.2025 11:23:42",
          "22.10.2025 11:24:13",
          "22.10.2025 11:24:42",
          "22.10.2025 11:25:07",
          "22.10.2025 11:25:37",
          "22.10.2025 11:26:11",
          "22.10.2025 11:26:41",
          "22.10.2025 11:27:12",
          "22.10.2025 11:27:42",
          "22.10.2025 11:28:13",
          "22.10.2025 11:28:43",
          "22.10.2025 11:29:14",
          "22.10.2025 11:29:44",
          "22.10.2025 11:30:14",
          "22.10.2025 11:30:44",
          "22.10.2025 11:31:14",
          "22.10.2025 11:31:45",
          "22.10.2025 11:32:16",
          "22.10.2025 11:32:49",
          "22.10.2025 11:33:19",
          "22.10.2025 11:33:49",
          "22.10.2025 11:34:20",
          "22.10.2025 11:34:54",
          "22.10.2025 11:35:24",
          "22.10.2025 11:35:54",
          "22.10.2025 11:36:28",
          "22.10.2025 11:36:58",
          "22.10.2025 11:37:28",
          "22.10.2025 11:37:58",
          "22.10.2025 11:38:28",
          "22.10.2025 11:38:58",
          "22.10.2025 11:39:28",
          "22.10.2025 11:39:58",
          "22.10.2025 11:40:29",
          "22.10.2025 11:41:01",
          "22.10.2025 11:41:33",
          "22.10.2025 11:42:03",
          "22.10.2025 11:42:35",
          "22.10.2025 11:43:09",
          "22.10.2025 11:43:52",
          "22.10.2025 11:44:25",
          "22.10.2025 11:44:56",
          "22.10.2025 11:45:26",
          "22.10.2025 11:45:56",
          "22.10.2025 11:46:27",
          "22.10.2025 11:46:57",
          "22.10.2025 11:47:27",
          "22.10.2025 11:47:59",
          "22.10.2025 11:48:33",
          "22.10.2025 11:49:03",
          "22.10.2025 11:49:35",
          "22.10.2025 11:50:05",
          "22.10.2025 11:50:35",
          "22.10.2025 11:51:08",
          "22.10.2025 11:51:38",
          "22.10.2025 11:52:09",
          "22.10.2025 11:52:42",
          "22.10.2025 11:53:13",
          "22.10.2025 11:53:43",
          "22.10.2025 11:54:13",
          "22.10.2025 11:54:45",
          "22.10.2025 11:55:17",
          "22.10.2025 11:55:49",
          "22.10.2025 11:56:20",
          "22.10.2025 11:56:54",
          "22.10.2025 11:57:24",
          "22.10.2025 11:57:54",
          "22.10.2025 11:58:24",
          "22.10.2025 11:58:55",
          "22.10.2025 11:59:26",
          "22.10.2025 11:59:58",
          "22.10.2025 12:00:30",
          "22.10.2025 12:01:01",
          "22.10.2025 12:01:31",
          "22.10.2025 12:02:01",
          "22.10.2025 12:02:35",
          "22.10.2025 12:03:05",
          "22.10.2025 12:03:36",
          "22.10.2025 12:04:09",
          "22.10.2025 12:04:41",
          "22.10.2025 12:05:11",
          "22.10.2025 12:05:44",
          "22.10.2025 12:06:14",
          "22.10.2025 12:06:46",
          "22.10.2025 12:07:16",
          "22.10.2025 12:07:46",
          "22.10.2025 12:08:16",
          "22.10.2025 12:08:50",
          "22.10.2025 12:09:23",
          "22.10.2025 12:09:53",
          "22.10.2025 12:10:24",
          "22.10.2025 12:10:54",
          "22.10.2025 12:11:25",
          "22.10.2025 12:11:57",
          "22.10.2025 12:12:29",
          "22.10.2025 12:12:59",
          "22.10.2025 12:13:32",
          "22.10.2025 12:14:02",
          "22.10.2025 12:14:34",
          "22.10.2025 12:15:07",
          "22.10.2025 12:15:38",
          "22.10.2025 12:16:11",
          "22.10.2025 12:16:45",
          "22.10.2025 12:17:17",
          "22.10.2025 12:17:51",
          "22.10.2025 12:18:21",
          "22.10.2025 12:18:53",
          "22.10.2025 12:19:23",
          "22.10.2025 12:19:56",
          "22.10.2025 12:20:29",
          "22.10.2025 12:21:00",
          "22.10.2025 12:21:31",
          "22.10.2025 12:22:06",
          "22.10.2025 12:22:38",
          "22.10.2025 12:23:11",
          "22.10.2025 12:23:44",
          "22.10.2025 12:24:14",
          "22.10.2025 12:24:45",
          "22.10.2025 12:25:15",
          "22.10.2025 12:25:48",
          "22.10.2025 12:26:19",
          "22.10.2025 12:26:50",
          "22.10.2025 12:27:25",
          "22.10.2025 12:27:56",
          "22.10.2025 12:28:30",
          "22.10.2025 12:28:50",
          "22.10.2025 12:29:16",
          "22.10.2025 12:29:50",
          "22.10.2025 12:30:21",
          "22.10.2025 12:30:58",
          "22.10.2025 12:31:30",
          "22.10.2025 12:32:00",
          "22.10.2025 12:32:30",
          "22.10.2025 12:33:01",
          "22.10.2025 12:33:31",
          "22.10.2025 12:34:02",
          "22.10.2025 12:34:32",
          "22.10.2025 12:35:05",
          "22.10.2025 12:35:36",
          "22.10.2025 12:36:21",
          "22.10.2025 12:36:51",
          "22.10.2025 12:37:25",
          "22.10.2025 12:37:56",
          "22.10.2025 12:38:26",
          "22.10.2025 12:38:56",
          "22.10.2025 12:39:27",
          "22.10.2025 12:39:57",
          "22.10.2025 12:40:28",
          "22.10.2025 12:40:49",
          "22.10.2025 12:41:19",
          "22.10.2025 12:41:36",
          "22.10.2025 12:41:56",
          "22.10.2025 12:42:28",
          "22.10.2025 12:42:50",
          "22.10.2025 12:43:08",
          "22.10.2025 12:43:33",
          "22.10.2025 12:44:03",
          "22.10.2025 12:44:36",
          "22.10.2025 12:44:52",
          "22.10.2025 12:45:08",
          "22.10.2025 12:45:24",
          "22.10.2025 12:45:41",
          "22.10.2025 12:46:02"
        ],
        "course_deg_clockwise_from_north": [
          "24",
          "22",
          "20",
          "19",
          "23",
          "23",
          "21",
          "21",
          "9",
          "346",
          "347",
          "349",
          "348",
          "357",
          "0",
          "358",
          "358",
          "358",
          "358",
          "358",
          "352",
          "344",
          "339",
          "338",
          "339",
          "339",
          "339",
          "339",
          "339",
          "339",
          "339",
          "339",
          "339",
          "339",
          "339",
          "339",
          "339",
          "339",
          "339",
          "339",
          "339",
          "339",
          "339",
          "339",
          "339",
          "339",
          "339",
          "339",
          "339",
          "339",
          "339",
          "331",
          "328",
          "328",
          "329",
          "329",
          "328",
          "329",
          "329",
          "329",
          "329",
          "328",
          "329",
          "328",
          "328",
          "328",
          "328",
          "328",
          "328",
          "328",
          "328",
          "328",
          "328",
          "328",
          "328",
          "328",
          "328",
          "328",
          "330",
          "327",
          "326",
          "327",
          "327",
          "311",
          "305",
          "303",
          "302",
          "303",
          "303",
          "303",
          "303",
          "303",
          "303",
          "303",
          "303",
          "302",
          "296",
          "294",
          "293",
          "294",
          "294",
          "294",
          "294",
          "294",
          "293",
          "294",
          "294",
          "293",
          "293",
          "293",
          "293",
          "298",
          "299",
          "299",
          "298",
          "298",
          "298",
          "298",
          "293",
          "291",
          "291",
          "292",
          "291",
          "291",
          "291",
          "291",
          "291",
          "291",
          "291",
          "291",
          "291",
          "291",
          "291",
          "291",
          "291",
          "291",
          "291",
          "291",
          "291",
          "291",
          "291",
          "291",
          "291",
          "290",
          "290",
          "291",
          "290",
          "291",
          "290",
          "290",
          "290",
          "294",
          "295",
          "294",
          "294",
          "294",
          "294",
          "294",
          "294",
          "294",
          "294",
          "294",
          "294",
          "294",
          "294",
          "294",
          "294",
          "293",
          "294",
          "294",
          "293",
          "293",
          "293",
          "293",
          "293",
          "293",
          "293",
          "293",
          "293",
          "293",
          "293",
          "293",
          "293",
          "293",
          "293",
          "293",
          "292",
          "293",
          "293",
          "293",
          "292",
          "293",
          "292",
          "293",
          "292",
          "292",
          "293",
          "292",
          "292",
          "292",
          "292",
          "292",
          "292",
          "292",
          "292",
          "293",
          "303",
          "310",
          "310",
          "309",
          "310",
          "309",
          "309",
          "309",
          "309",
          "309",
          "309",
          "309",
          "309",
          "308",
          "309",
          "309",
          "309",
          "309",
          "308",
          "308",
          "308",
          "308",
          "308",
          "308",
          "308",
          "308",
          "308",
          "308",
          "308",
          "308",
          "308",
          "308",
          "308",
          "308",
          "308",
          "308",
          "308",
          "308"
        ],
        "speed_kts": [
          "184",
          "196",
          "196",
          "202",
          "212",
          "216",
          "222",
          "222",
          "230",
          "220",
          "266",
          "300",
          "332",
          "362",
          "378",
          "404",
          "416",
          "430",
          "442",
          "450",
          "452",
          "446",
          "450",
          "454",
          "470",
          "470",
          "458",
          "458",
          "462",
          "466",
          "468",
          "464",
          "460",
          "460",
          "462",
          "463",
          "469",
          "472",
          "472",
          "474",
          "468",
          "458",
          "456",
          "456",
          "469",
          "457",
          "453",
          "474",
          "466",
          "460",
          "457",
          "461",
          "461",
          "464",
          "464",
          "464",
          "464",
          "467",
          "461",
          "464",
          "464",
          "462",
          "464",
          "466",
          "466",
          "468",
          "468",
          "470",
          "470",
          "470",
          "470",
          "468",
          "468",
          "468",
          "468",
          "468",
          "468",
          "468",
          "470",
          "468",
          "468",
          "468",
          "466",
          "460",
          "456",
          "456",
          "456",
          "449",
          "455",
          "458",
          "452",
          "458",
          "459",
          "466",
          "458",
          "452",
          "456",
          "454",
          "454",
          "452",
          "452",
          "452",
          "452",
          "448",
          "444",
          "442",
          "440",
          "440",
          "438",
          "438",
          "438",
          "438",
          "442",
          "446",
          "448",
          "448",
          "448",
          "448",
          "448",
          "448",
          "450",
          "448",
          "448",
          "448",
          "446",
          "446",
          "444",
          "444",
          "444",
          "444",
          "444",
          "444",
          "444",
          "444",
          "444",
          "444",
          "444",
          "446",
          "446",
          "446",
          "446",
          "446",
          "446",
          "448",
          "448",
          "448",
          "448",
          "448",
          "448",
          "448",
          "448",
          "452",
          "452",
          "452",
          "452",
          "452",
          "452",
          "454",
          "452",
          "452",
          "454",
          "454",
          "452",
          "452",
          "452",
          "452",
          "454",
          "454",
          "454",
          "456",
          "456",
          "456",
          "456",
          "456",
          "456",
          "456",
          "456",
          "456",
          "456",
          "456",
          "456",
          "456",
          "456",
          "452",
          "452",
          "450",
          "448",
          "450",
          "450",
          "450",
          "454",
          "454",
          "454",
          "454",
          "454",
          "454",
          "454",
          "454",
          "456",
          "456",
          "456",
          "458",
          "458",
          "458",
          "458",
          "460",
          "460",
          "460",
          "460",
          "460",
          "454",
          "448",
          "444",
          "442",
          "442",
          "442",
          "428",
          "408",
          "400",
          "386",
          "380",
          "378",
          "387",
          "374",
          "370",
          "368",
          "366",
          "362",
          "358",
          "356",
          "348",
          "348",
          "344",
          "340",
          "334",
          "334",
          "320",
          "310",
          "268",
          "268",
          "257",
          "232",
          "217",
          "200"
        ],
        "speed_mph": [
          "212",
          "226",
          "226",
          "232",
          "244",
          "249",
          "255",
          "255",
          "265",
          "253",
          "306",
          "345",
          "382",
          "417",
          "435",
          "465",
          "479",
          "495",
          "509",
          "518",
          "520",
          "513",
          "518",
          "522",
          "541",
          "541",
          "527",
          "527",
          "532",
          "536",
          "539",
          "534",
          "529",
          "529",
          "532",
          "533",
          "540",
          "543",
          "543",
          "545",
          "539",
          "527",
          "525",
          "525",
          "540",
          "526",
          "521",
          "545",
          "536",
          "529",
          "526",
          "531",
          "531",
          "534",
          "534",
          "534",
          "534",
          "537",
          "531",
          "534",
          "534",
          "532",
          "534",
          "536",
          "536",
          "539",
          "539",
          "541",
          "541",
          "541",
          "541",
          "539",
          "539",
          "539",
          "539",
          "539",
          "539",
          "539",
          "541",
          "539",
          "539",
          "539",
          "536",
          "529",
          "525",
          "525",
          "525",
          "517",
          "524",
          "527",
          "520",
          "527",
          "528",
          "536",
          "527",
          "520",
          "525",
          "522",
          "522",
          "520",
          "520",
          "520",
          "520",
          "516",
          "511",
          "509",
          "506",
          "506",
          "504",
          "504",
          "504",
          "504",
          "509",
          "513",
          "516",
          "516",
          "516",
          "516",
          "516",
          "516",
          "518",
          "516",
          "516",
          "516",
          "513",
          "513",
          "511",
          "511",
          "511",
          "511",
          "511",
          "511",
          "511",
          "511",
          "511",
          "511",
          "511",
          "513",
          "513",
          "513",
          "513",
          "513",
          "513",
          "516",
          "516",
          "516",
          "516",
          "516",
          "516",
          "516",
          "516",
          "520",
          "520",
          "520",
          "520",
          "520",
          "520",
          "522",
          "520",
          "520",
          "522",
          "522",
          "520",
          "520",
          "520",
          "520",
          "522",
          "522",
          "522",
          "525",
          "525",
          "525",
          "525",
          "525",
          "525",
          "525",
          "525",
          "525",
          "525",
          "525",
          "525",
          "525",
          "525",
          "520",
          "520",
          "518",
          "516",
          "518",
          "518",
          "518",
          "522",
          "522",
          "522",
          "522",
          "522",
          "522",
          "522",
          "522",
          "525",
          "525",
          "525",
          "527",
          "527",
          "527",
          "527",
          "529",
          "529",
          "529",
          "529",
          "529",
          "522",
          "516",
          "511",
          "509",
          "509",
          "509",
          "493",
          "470",
          "460",
          "444",
          "437",
          "435",
          "445",
          "430",
          "426",
          "423",
          "421",
          "417",
          "412",
          "410",
          "400",
          "400",
          "396",
          "391",
          "384",
          "384",
          "368",
          "357",
          "308",
          "308",
          "296",
          "267",
          "250",
          "230"
        ],
        "altitude_ft": [
          "3275",
          "4050",
          "5025",
          "5975",
          "6750",
          "7400",
          "8175",
          "8825",
          "10125",
          "12950",
          "14250",
          "15550",
          "16850",
          "18350",
          "19200",
          "20525",
          "21350",
          "22700",
          "23850",
          "24950",
          "26200",
          "26775",
          "27725",
          "27975",
          "28000",
          "28000",
          "28000",
          "28000",
          "28000",
          "28000",
          "28000",
          "28000",
          "28000",
          "28000",
          "28000",
          "28000",
          "28000",
          "28000",
          "28000",
          "28000",
          "28000",
          "28000",
          "28000",
          "28000",
          "28000",
          "28000",
          "28000",
          "28000",
          "28000",
          "28000",
          "28000",
          "28000",
          "28000",
          "28000",
          "28000",
          "28000",
          "28000",
          "28000",
          "28000",
          "28000",
          "28000",
          "28000",
          "28000",
          "28000",
          "28000",
          "28000",
          "28000",
          "28000",
          "28000",
          "28000",
          "28000",
          "28000",
          "28000",
          "28000",
          "28000",
          "28000",
          "28000",
          "28000",
          "27975",
          "28000",
          "28000",
          "28000",
          "28000",
          "27975",
          "28000",
          "28000",
          "28000",
          "28000",
          "28000",
          "28000",
          "28000",
          "28000",
          "28000",
          "28000",
          "28000",
          "28000",
          "28000",
          "28000",
          "27975",
          "27975",
          "27975",
          "28000",
          "28000",
          "28000",
          "28000",
          "28000",
          "28000",
          "28000",
          "28000",
          "28000",
          "28000",
          "28000",
          "28000",
          "28000",
          "28000",
          "27975",
          "28000",
          "28000",
          "28000",
          "28000",
          "28000",
          "28000",
          "28000",
          "28000",
          "28000",
          "28000",
          "28000",
          "28000",
          "28000",
          "28000",
          "28000",
          "28000",
          "28000",
          "28000",
          "28000",
          "28000",
          "28000",
          "28000",
          "28000",
          "28000",
          "28000",
          "28000",
          "28000",
          "28000",
          "28000",
          "28000",
          "28000",
          "28000",
          "28000",
          "28000",
          "28000",
          "28000",
          "28000",
          "28000",
          "28000",
          "28000",
          "27975",
          "28000",
          "28000",
          "28000",
          "28000",
          "28000",
          "28000",
          "28000",
          "28000",
          "28000",
          "28000",
          "28000",
          "28000",
          "28000",
          "28000",
          "28000",
          "28000",
          "28000",
          "28000",
          "28000",
          "28000",
          "28000",
          "28000",
          "28000",
          "28000",
          "28000",
          "28000",
          "28000",
          "28000",
          "28000",
          "28000",
          "28000",
          "28000",
          "28000",
          "28000",
          "28000",
          "28000",
          "28000",
          "28000",
          "28000",
          "28000",
          "28000",
          "28000",
          "28000",
          "28000",
          "28000",
          "28000",
          "28000",
          "28000",
          "28000",
          "28000",
          "28000",
          "28000",
          "27525",
          "26650",
          "25775",
          "25125",
          "24300",
          "23525",
          "22825",
          "22025",
          "21350",
          "20575",
          "19625",
          "18450",
          "17650",
          "16800",
          "16025",
          "15275",
          "14525",
          "13700",
          "12975",
          "12350",
          "11725",
          "10950",
          "10450",
          "10050",
          "9250",
          "8550",
          "8325",
          "7550",
          "6825",
          "6125",
          "5850",
          "5600",
          "5250",
          "5225",
          "4675"
        ],
        "vertical_rate_fpm": [
          "",
          "2838",
          "3208",
          "3234",
          "2515",
          "2515",
          "2672",
          "3162",
          "3694",
          "3257",
          "2600",
          "2557",
          "2667",
          "2474",
          "2330",
          "1843",
          "1864",
          "2459",
          "2143",
          "2043",
          "2066",
          "1760",
          "1108",
          "275",
          "24",
          "",
          "",
          "",
          "",
          "",
          "",
          "",
          "",
          "",
          "",
          "",
          "",
          "",
          "",
          "",
          "",
          "",
          "",
          "",
          "",
          "",
          "",
          "",
          "",
          "",
          "",
          "",
          "",
          "",
          "",
          "",
          "",
          "",
          "",
          "",
          "",
          "",
          "",
          "",
          "",
          "",
          "",
          "",
          "",
          "",
          "",
          "",
          "",
          "",
          "",
          "",
          "",
          "-22",
          "",
          "32",
          "",
          "",
          "-25",
          "",
          "27",
          "",
          "",
          "",
          "",
          "",
          "",
          "",
          "",
          "",
          "",
          "",
          "",
          "-24",
          "-23",
          "",
          "25",
          "25",
          "",
          "",
          "",
          "",
          "",
          "",
          "",
          "",
          "",
          "",
          "",
          "",
          "-24",
          "",
          "24",
          "",
          "",
          "",
          "",
          "",
          "",
          "",
          "",
          "",
          "",
          "",
          "",
          "",
          "",
          "",
          "",
          "",
          "",
          "",
          "",
          "",
          "",
          "",
          "",
          "",
          "",
          "",
          "",
          "",
          "",
          "",
          "",
          "",
          "",
          "",
          "",
          "",
          "",
          "-23",
          "",
          "25",
          "",
          "",
          "",
          "",
          "",
          "",
          "",
          "",
          "",
          "",
          "",
          "",
          "",
          "",
          "",
          "",
          "",
          "",
          "",
          "",
          "",
          "",
          "",
          "",
          "",
          "",
          "",
          "",
          "",
          "",
          "",
          "",
          "",
          "",
          "",
          "",
          "",
          "",
          "",
          "",
          "",
          "",
          "",
          "",
          "",
          "",
          "",
          "",
          "",
          "",
          "-438",
          "-1191",
          "-1522",
          "-1476",
          "-1475",
          "-1574",
          "-1451",
          "-1475",
          "-1451",
          "-1381",
          "-1617",
          "-1678",
          "-1580",
          "-1547",
          "-1500",
          "-1500",
          "-1500",
          "-1549",
          "-1525",
          "-1328",
          "-1442",
          "-1647",
          "-1628",
          "-1459",
          "-1385",
          "-1667",
          "-1388",
          "-1395",
          "-1636",
          "-1357",
          "-1194",
          "-984",
          "-1125",
          "-682",
          "-908",
          "-1571"
        ],
        "reporting_facility": [
          "FlightAware MLAT(5 sites)",
          "FlightAware MLAT(5 sites)",
          "FlightAware MLAT(5 sites)",
          "FlightAware MLAT(4 sites)",
          "FlightAware MLAT(4 sites)",
          "FlightAware MLAT(4 sites)",
          "FlightAware MLAT(5 sites)",
          "FlightAware MLAT(5 sites)",
          "FlightAware MLAT(5 sites)",
          "FlightAware MLAT(5 sites)",
          "FlightAware MLAT(5 sites)",
          "FlightAware MLAT(5 sites)",
          "FlightAware MLAT(5 sites)",
          "FlightAware MLAT(5 sites)",
          "FlightAware MLAT(5 sites)",
          "FlightAware MLAT(6 sites)",
          "FlightAware MLAT(4 sites)",
          "FlightAware MLAT(6 sites)",
          "FlightAware MLAT(5 sites)",
          "FlightAware MLAT(5 sites)",
          "FlightAware MLAT(5 sites)",
          "FlightAware MLAT(4 sites)",
          "FlightAware MLAT(7 sites)",
          "FlightAware MLAT(6 sites)",
          "FlightAware MLAT(8 sites)",
          "FlightAware MLAT(6 sites)",
          "FlightAware MLAT(4 sites)",
          "FlightAware MLAT(6 sites)",
          "FlightAware MLAT(6 sites)",
          "FlightAware MLAT(7 sites)",
          "FlightAware MLAT(6 sites)",
          "FlightAware MLAT(5 sites)",
          "FlightAware MLAT(4 sites)",
          "FlightAware MLAT(4 sites)",
          "FlightAware MLAT(7 sites)",
          "FlightAware MLAT(6 sites)",
          "FlightAware MLAT(4 sites)",
          "FlightAware MLAT(4 sites)",
          "FlightAware MLAT(6 sites)",
          "FlightAware MLAT(5 sites)",
          "FlightAware MLAT(6 sites)",
          "FlightAware MLAT(6 sites)",
          "FlightAware MLAT(5 sites)",
          "FlightAware MLAT(9 sites)",
          "FlightAware MLAT(11 sites)",
          "FlightAware MLAT(7 sites)",
          "FlightAware MLAT(6 sites)",
          "FlightAware MLAT(7 sites)",
          "FlightAware MLAT(7 sites)",
          "FlightAware MLAT(6 sites)",
          "FlightAware MLAT(6 sites)",
          "FlightAware MLAT(6 sites)",
          "FlightAware MLAT(6 sites)",
          "FlightAware MLAT(4 sites)",
          "FlightAware MLAT(5 sites)",
          "FlightAware MLAT(6 sites)",
          "FlightAware MLAT(5 sites)",
          "FlightAware MLAT(8 sites)",
          "FlightAware MLAT(4 sites)",
          "FlightAware MLAT(4 sites)",
          "FlightAware MLAT(4 sites)",
          "FlightAware MLAT(6 sites)",
          "FlightAware MLAT(4 sites)",
          "FlightAware MLAT(6 sites)",
          "FlightAware MLAT(6 sites)",
          "FlightAware MLAT(4 sites)",
          "FlightAware MLAT(9 sites)",
          "FlightAware MLAT(7 sites)",
          "FlightAware MLAT(11 sites)",
          "FlightAware MLAT(5 sites)",
          "FlightAware MLAT(8 sites)",
          "FlightAware MLAT(9 sites)",
          "FlightAware MLAT(9 sites)",
          "FlightAware MLAT(5 sites)",
          "FlightAware MLAT(8 sites)",
          "FlightAware MLAT(5 sites)",
          "FlightAware MLAT(4 sites)",
          "FlightAware MLAT(5 sites)",
          "FlightAware MLAT(4 sites)",
          "FlightAware MLAT(5 sites)",
          "FlightAware MLAT(5 sites)",
          "FlightAware MLAT(4 sites)",
          "FlightAware MLAT(5 sites)",
          "FlightAware MLAT(6 sites)",
          "FlightAware MLAT(7 sites)",
          "FlightAware MLAT(6 sites)",
          "FlightAware MLAT(10 sites)",
          "FlightAware MLAT(10 sites)",
          "FlightAware MLAT(7 sites)",
          "FlightAware MLAT(12 sites)",
          "FlightAware MLAT(4 sites)",
          "FlightAware MLAT(4 sites)",
          "FlightAware MLAT(9 sites)",
          "FlightAware MLAT(12 sites)",
          "FlightAware MLAT(5 sites)",
          "FlightAware MLAT(8 sites)",
          "FlightAware MLAT(5 sites)",
          "FlightAware MLAT(15 sites)",
          "FlightAware MLAT(8 sites)",
          "FlightAware MLAT(4 sites)",
          "FlightAware MLAT(6 sites)",
          "FlightAware MLAT(8 sites)",
          "FlightAware MLAT(6 sites)",
          "FlightAware MLAT(4 sites)",
          "FlightAware MLAT(8 sites)",
          "FlightAware MLAT(6 sites)",
          "FlightAware MLAT(5 sites)",
          "FlightAware MLAT(6 sites)",
          "FlightAware MLAT(11 sites)",
          "FlightAware MLAT(12 sites)",
          "FlightAware MLAT(4 sites)",
          "FlightAware MLAT(5 sites)",
          "FlightAware MLAT(9 sites)",
          "FlightAware MLAT(6 sites)",
          "FlightAware MLAT(9 sites)",
          "FlightAware MLAT(5 sites)",
          "FlightAware MLAT(5 sites)",
          "FlightAware MLAT(9 sites)",
          "FlightAware MLAT(6 sites)",
          "FlightAware MLAT(5 sites)",
          "FlightAware MLAT(6 sites)",
          "FlightAware MLAT(4 sites)",
          "FlightAware MLAT(5 sites)",
          "FlightAware MLAT(5 sites)",
          "FlightAware MLAT(10 sites)",
          "FlightAware MLAT(8 sites)",
          "FlightAware MLAT(5 sites)",
          "FlightAware MLAT(9 sites)",
          "FlightAware MLAT(5 sites)",
          "FlightAware MLAT(5 sites)",
          "FlightAware MLAT(4 sites)",
          "FlightAware MLAT(12 sites)",
          "FlightAware MLAT(6 sites)",
          "FlightAware MLAT(8 sites)",
          "FlightAware MLAT(6 sites)",
          "FlightAware MLAT(6 sites)",
          "FlightAware MLAT(13 sites)",
          "FlightAware MLAT(5 sites)",
          "FlightAware MLAT(6 sites)",
          "FlightAware MLAT(5 sites)",
          "FlightAware MLAT(6 sites)",
          "FlightAware MLAT(12 sites)",
          "FlightAware MLAT(7 sites)",
          "FlightAware MLAT(5 sites)",
          "FlightAware MLAT(9 sites)",
          "FlightAware MLAT(5 sites)",
          "FlightAware MLAT(13 sites)",
          "FlightAware MLAT(8 sites)",
          "FlightAware MLAT(9 sites)",
          "FlightAware MLAT(6 sites)",
          "FlightAware MLAT(14 sites)",
          "FlightAware MLAT(9 sites)",
          "FlightAware MLAT(4 sites)",
          "FlightAware MLAT(13 sites)",
          "FlightAware MLAT(5 sites)",
          "FlightAware MLAT(8 sites)",
          "FlightAware MLAT(10 sites)",
          "FlightAware MLAT(11 sites)",
          "FlightAware MLAT(5 sites)",
          "FlightAware MLAT(6 sites)",
          "FlightAware MLAT(4 sites)",
          "FlightAware MLAT(8 sites)",
          "FlightAware MLAT(4 sites)",
          "FlightAware MLAT(9 sites)",
          "FlightAware MLAT(4 sites)",
          "FlightAware MLAT(7 sites)",
          "FlightAware MLAT(6 sites)",
          "FlightAware MLAT(7 sites)",
          "FlightAware MLAT(5 sites)",
          "FlightAware MLAT(4 sites)",
          "FlightAware MLAT(4 sites)",
          "FlightAware MLAT(9 sites)",
          "FlightAware MLAT(4 sites)",
          "FlightAware MLAT(5 sites)",
          "FlightAware MLAT(7 sites)",
          "FlightAware MLAT(8 sites)",
          "FlightAware MLAT(8 sites)",
          "FlightAware MLAT(4 sites)",
          "FlightAware MLAT(5 sites)",
          "FlightAware MLAT(5 sites)",
          "FlightAware MLAT(5 sites)",
          "FlightAware MLAT(7 sites)",
          "FlightAware MLAT(4 sites)",
          "FlightAware MLAT(4 sites)",
          "FlightAware MLAT(8 sites)",
          "FlightAware MLAT(6 sites)",
          "FlightAware MLAT(5 sites)",
          "FlightAware MLAT(5 sites)",
          "FlightAware MLAT(5 sites)",
          "FlightAware MLAT(5 sites)",
          "FlightAware MLAT(5 sites)",
          "FlightAware MLAT(4 sites)",
          "FlightAware MLAT(4 sites)",
          "FlightAware MLAT(6 sites)",
          "FlightAware MLAT(5 sites)",
          "FlightAware MLAT(5 sites)",
          "FlightAware MLAT(4 sites)",
          "FlightAware MLAT(10 sites)",
          "FlightAware MLAT(6 sites)",
          "FlightAware MLAT(6 sites)",
          "FlightAware MLAT(5 sites)",
          "FlightAware MLAT(7 sites)",
          "FlightAware MLAT(4 sites)",
          "FlightAware MLAT(4 sites)",
          "FlightAware MLAT(7 sites)",
          "FlightAware MLAT(4 sites)",
          "FlightAware MLAT(4 sites)",
          "FlightAware MLAT(5 sites)",
          "FlightAware MLAT(5 sites)",
          "FlightAware MLAT(5 sites)",
          "FlightAware MLAT(4 sites)",
          "FlightAware MLAT(4 sites)",
          "FlightAware MLAT(6 sites)",
          "FlightAware MLAT(4 sites)",
          "FlightAware MLAT(6 sites)",
          "FlightAware MLAT(4 sites)",
          "FlightAware MLAT(4 sites)",
          "FlightAware MLAT(5 sites)",
          "FlightAware MLAT(5 sites)",
          "FlightAware MLAT(5 sites)",
          "FlightAware MLAT(6 sites)",
          "FlightAware MLAT(4 sites)",
          "FlightAware MLAT(6 sites)",
          "FlightAware MLAT(5 sites)",
          "FlightAware MLAT(5 sites)",
          "FlightAware MLAT(6 sites)",
          "FlightAware MLAT(6 sites)",
          "FlightAware MLAT(5 sites)",
          "FlightAware MLAT(6 sites)",
          "FlightAware MLAT(7 sites)",
          "FlightAware MLAT(5 sites)",
          "FlightAware MLAT(7 sites)",
          "FlightAware MLAT(6 sites)",
          "FlightAware MLAT(4 sites)",
          "FlightAware MLAT(4 sites)",
          "FlightAware MLAT(4 sites)",
          "FlightAware MLAT(6 sites)",
          "FlightAware MLAT(5 sites)",
          "FlightAware MLAT(5 sites)",
          "FlightAware MLAT(4 sites)",
          "FlightAware MLAT(4 sites)",
          "FlightAware MLAT(4 sites)",
          "FlightAware MLAT(5 sites)",
          "FlightAware MLAT(5 sites)"
        ]
      }
    }
  ]
}