{
  "type": "FeatureCollection",
  "features": [
    {
      "type": "Feature",
      "geometry": {
        "type": "LineString",
        "coordinates": [
          [
            -3.4243,
            47.764
          ],
          [
            -3.4087,
            47.7685
          ],
          [
            -3.3865,
            47.7787
          ],
          [
            -3.358,
            47.7906
          ],
          [
            -3.3401,
            47.7988
          ],
          [
            -3.3025,
            47.8154
          ],
          [
            -3.2589,
            47.8345
          ],
          [
            -3.1862,
            47.8668
          ],
          [
            -3.1308,
            47.8912
          ],
          [
            -3.0986,
            47.9055
          ],
          [
            -3.0688,
            47.9231
          ],
          [
            -3.0162,
            47.9621
          ],
          [
            -2.9669,
            48.0014
          ],
          [
            -2.9139,
            48.0439
          ],
          [
            -2.8602,
            48.0853
          ],
          [
            -2.8047,
            48.1277
          ],
          [
            -2.7474,
            48.1716
          ],
          [
            -2.6931,
            48.2127
          ],
          [
            -2.6386,
            48.2539
          ],
          [
            -2.5854,
            48.2939
          ],
          [
            -2.5318,
            48.3341
          ],
          [
            -2.4765,
            48.3756
          ],
          [
            -2.4425,
            48.4011
          ],
          [
            -2.3502,
            48.4388
          ],
          [
            -2.2827,
            48.4617
          ],
          [
            -2.2109,
            48.4867
          ],
          [
            -2.1733,
            48.5019
          ],
          [
            -2.1248,
            48.5383
          ],
          [
            -2.0811,
            48.581
          ],
          [
            -2.0382,
            48.6261
          ],
          [
            -1.995,
            48.6704
          ],
          [
            -1.9503,
            48.7137
          ],
          [
            -1.9123,
            48.7376
          ],
          [
            -1.8503,
            48.7717
          ],
          [
            -1.7895,
            48.8046
          ],
          [
            -1.7265,
            48.8386
          ],
          [
            -1.6612,
            48.8733
          ],
          [
            -1.5949,
            48.9083
          ],
          [
            -1.5272,
            48.9434
          ],
          [
            -1.4534,
            48.9811
          ],
          [
            -1.4054,
            49.0044
          ],
          [
            -1.3557,
            49.0193
          ],
          [
            -1.3008,
            49.0263
          ],
          [
            -1.2469,
            49.0274
          ],
          [
            -1.1833,
            49.025
          ],
          [
            -1.0533,
            49.0159
          ],
          [
            -0.9505,
            49.0093
          ],
          [
            -0.8259,
            49.0005
          ],
          [
            -0.7346,
            48.9939
          ],
          [
            -0.6414,
            48.9873
          ],
          [
            -0.5433,
            48.98
          ],
          [
            -0.3461,
            48.9656
          ],
          [
            -0.2471,
            48.9579
          ],
          [
            -0.1546,
            48.9507
          ],
          [
            -0.0747,
            48.9446
          ],
          [
            0.0254,
            48.9368
          ],
          [
            0.089,
            48.9317
          ],
          [
            0.1808,
            48.9245
          ],
          [
            0.2777,
            48.9165
          ],
          [
            0.3735,
            48.9087
          ],
          [
            0.5414,
            48.8951
          ],
          [
            0.6024,
            48.8897
          ],
          [
            0.6685,
            48.884
          ],
          [
            0.7622,
            48.8761
          ],
          [
            0.8613,
            48.8678
          ],
          [
            0.9115,
            48.8658
          ],
          [
            0.9743,
            48.869
          ],
          [
            1.0668,
            48.8787
          ],
          [
            1.1639,
            48.8907
          ],
          [
            1.2574,
            48.9019
          ],
          [
            1.3547,
            48.913
          ],
          [
            1.452,
            48.924
          ],
          [
            1.5487,
            48.9345
          ],
          [
            1.6435,
            48.9447
          ],
          [
            1.7376,
            48.9552
          ],
          [
            1.8336,
            48.9654
          ],
          [
            1.9252,
            48.9749
          ],
          [
            2.0206,
            48.9852
          ],
          [
            2.1152,
            48.9951
          ],
          [
            2.2124,
            49.0051
          ],
          [
            2.3046,
            49.0148
          ],
          [
            2.4016,
            49.0243
          ],
          [
            2.4964,
            49.0341
          ],
          [
            2.5926,
            49.044
          ],
          [
            2.6419,
            49.0531
          ],
          [
            2.7098,
            49.0744
          ],
          [
            2.8311,
            49.1237
          ],
          [
            2.9196,
            49.161
          ],
          [
            2.9896,
            49.1893
          ],
          [
            3.0689,
            49.2219
          ],
          [
            3.1499,
            49.2545
          ],
          [
            3.2315,
            49.2873
          ],
          [
            3.3146,
            49.3204
          ],
          [
            3.3953,
            49.353
          ],
          [
            3.484,
            49.3882
          ],
          [
            3.5624,
            49.4192
          ],
          [
            3.6458,
            49.4522
          ],
          [
            3.7258,
            49.4839
          ],
          [
            3.8089,
            49.5165
          ],
          [
            3.891,
            49.5487
          ],
          [
            3.975,
            49.5814
          ],
          [
            4.058,
            49.6136
          ],
          [
            4.1409,
            49.6461
          ],
          [
            4.2266,
            49.6789
          ],
          [
            4.3079,
            49.7102
          ],
          [
            4.3946,
            49.7438
          ],
          [
            4.4766,
            49.7752
          ],
          [
            4.5595,
            49.8067
          ],
          [
            4.6443,
            49.8391
          ],
          [
            4.726,
            49.8702
          ],
          [
            4.8109,
            49.902
          ],
          [
            4.8944,
            49.9338
          ],
          [
            4.9791,
            49.9653
          ],
          [
            5.064,
            49.9973
          ],
          [
            5.1494,
            50.0291
          ],
          [
            5.2362,
            50.0615
          ],
          [
            5.3189,
            50.0921
          ],
          [
            5.4067,
            50.1246
          ],
          [
            5.4904,
            50.1555
          ],
          [
            5.5755,
            50.1866
          ],
          [
            5.6616,
            50.2181
          ],
          [
            5.7475,
            50.2495
          ],
          [
            5.8319,
            50.2802
          ],
          [
            5.9186,
            50.3116
          ],
          [
            5.9992,
            50.3409
          ],
          [
            6.0818,
            50.3704
          ],
          [
            6.1654,
            50.4004
          ],
          [
            6.2183,
            50.4158
          ],
          [
            6.2677,
            50.4217
          ],
          [
            6.3595,
            50.4266
          ],
          [
            6.4507,
            50.4305
          ],
          [
            6.5527,
            50.4359
          ],
          [
            6.6248,
            50.4398
          ],
          [
            6.7149,
            50.4448
          ],
          [
            6.8034,
            50.4492
          ],
          [
            6.8501,
            50.4517
          ],
          [
            6.9373,
            50.4563
          ],
          [
            7.0191,
            50.4602
          ],
          [
            7.1048,
            50.4645
          ],
          [
            7.1893,
            50.4688
          ],
          [
            7.2664,
            50.4721
          ],
          [
            7.3428,
            50.4764
          ],
          [
            7.4171,
            50.4793
          ],
          [
            7.4905,
            50.483
          ],
          [
            7.5617,
            50.4862
          ],
          [
            7.6318,
            50.4892
          ],
          [
            7.6983,
            50.492
          ],
          [
            7.7622,
            50.4951
          ],
          [
            7.827,
            50.4977
          ],
          [
            7.8841,
            50.5004
          ],
          [
            7.9456,
            50.5028
          ],
          [
            8.0037,
            50.5052
          ],
          [
            8.0596,
            50.5076
          ],
          [
            8.1142,
            50.5096
          ],
          [
            8.164,
            50.5118
          ],
          [
            8.2112,
            50.5137
          ],
          [
            8.2513,
            50.5153
          ],
          [
            8.2882,
            50.5169
          ],
          [
            8.326,
            50.5183
          ],
          [
            8.3625,
            50.5196
          ],
          [
            8.384,
            50.5204
          ],
          [
            8.401,
            50.5243
          ],
          [
            8.4122,
            50.5363
          ],
          [
            8.406,
            50.5475
          ],
          [
            8.391,
            50.5541
          ],
          [
            8.373,
            50.5617
          ],
          [
            8.3493,
            50.5733
          ],
          [
            8.3212,
            50.588
          ],
          [
            8.2916,
            50.603
          ],
          [
            8.2633,
            50.6173
          ],
          [
            8.2406,
            50.6286
          ],
          [
            8.2118,
            50.6432
          ],
          [
            8.1837,
            50.6572
          ],
          [
            8.1712,
            50.6634
          ],
          [
            8.17,
            50.664
          ],
          [
            8.1568,
            50.6706
          ],
          [
            8.1444,
            50.6768
          ],
          [
            8.1323,
            50.683
          ],
          [
            8.1195,
            50.6894
          ],
          [
            8.1065,
            50.6959
          ]
        ]
      },
      "properties": {
        "time_europe_berlin": [
          "16.10.2025 15:30:30",
          "16.10.2025 15:30:50",
          "16.10.2025 15:31:20",
          "16.10.2025 15:31:51",
          "16.10.2025 15:32:07",
          "16.10.2025 15:32:37",
          "16.10.2025 15:33:07",
          "16.10.2025 15:33:52",
          "16.10.2025 15:34:22",
          "16.10.2025 15:34:39",
          "16.10.2025 15:34:55",
          "16.10.2025 15:35:25",
          "16.10.2025 15:35:55",
          "16.10.2025 15:36:25",
          "16.10.2025 15:36:55",
          "16.10.2025 15:37:25",
          "16.10.2025 15:37:57",
          "16.10.2025 15:38:27",
          "16.10.2025 15:38:58",
          "16.10.2025 15:39:28",
          "16.10.2025 15:39:58",
          "16.10.2025 15:40:28",
          "16.10.2025 15:40:48",
          "16.10.2025 15:41:32",
          "16.10.2025 15:42:02",
          "16.10.2025 15:42:33",
          "16.10.2025 15:42:49",
          "16.10.2025 15:43:16",
          "16.10.2025 15:43:46",
          "16.10.2025 15:44:16",
          "16.10.2025 15:44:46",
          "16.10.2025 15:45:16",
          "16.10.2025 15:45:36",
          "16.10.2025 15:46:06",
          "16.10.2025 15:46:36",
          "16.10.2025 15:47:06",
          "16.10.2025 15:47:36",
          "16.10.2025 15:48:06",
          "16.10.2025 15:48:36",
          "16.10.2025 15:49:06",
          "16.10.2025 15:49:25",
          "16.10.2025 15:49:43",
          "16.10.2025 15:50:01",
          "16.10.2025 15:50:17",
          "16.10.2025 15:50:37",
          "16.10.2025 15:51:17",
          "16.10.2025 15:51:48",
          "16.10.2025 15:52:28",
          "16.10.2025 15:52:55",
          "16.10.2025 15:53:25",
          "16.10.2025 15:53:55",
          "16.10.2025 15:54:57",
          "16.10.2025 15:55:27",
          "16.10.2025 15:55:57",
          "16.10.2025 15:56:22",
          "16.10.2025 15:56:52",
          "16.10.2025 15:57:11",
          "16.10.2025 15:57:41",
          "16.10.2025 15:58:11",
          "16.10.2025 15:58:41",
          "16.10.2025 15:59:33",
          "16.10.2025 15:59:52",
          "16.10.2025 16:00:12",
          "16.10.2025 16:00:42",
          "16.10.2025 16:01:12",
          "16.10.2025 16:01:29",
          "16.10.2025 16:01:47",
          "16.10.2025 16:02:17",
          "16.10.2025 16:02:47",
          "16.10.2025 16:03:18",
          "16.10.2025 16:03:48",
          "16.10.2025 16:04:19",
          "16.10.2025 16:04:49",
          "16.10.2025 16:05:19",
          "16.10.2025 16:05:49",
          "16.10.2025 16:06:19",
          "16.10.2025 16:06:49",
          "16.10.2025 16:07:19",
          "16.10.2025 16:07:49",
          "16.10.2025 16:08:19",
          "16.10.2025 16:08:49",
          "16.10.2025 16:09:19",
          "16.10.2025 16:09:49",
          "16.10.2025 16:10:19",
          "16.10.2025 16:10:35",
          "16.10.2025 16:10:59",
          "16.10.2025 16:11:44",
          "16.10.2025 16:12:16",
          "16.10.2025 16:12:42",
          "16.10.2025 16:13:12",
          "16.10.2025 16:13:42",
          "16.10.2025 16:14:12",
          "16.10.2025 16:14:42",
          "16.10.2025 16:15:12",
          "16.10.2025 16:15:43",
          "16.10.2025 16:16:13",
          "16.10.2025 16:16:43",
          "16.10.2025 16:17:13",
          "16.10.2025 16:17:43",
          "16.10.2025 16:18:13",
          "16.10.2025 16:18:43",
          "16.10.2025 16:19:13",
          "16.10.2025 16:19:43",
          "16.10.2025 16:20:13",
          "16.10.2025 16:20:43",
          "16.10.2025 16:21:13",
          "16.10.2025 16:21:43",
          "16.10.2025 16:22:13",
          "16.10.2025 16:22:43",
          "16.10.2025 16:23:13",
          "16.10.2025 16:23:43",
          "16.10.2025 16:24:13",
          "16.10.2025 16:24:43",
          "16.10.2025 16:25:13",
          "16.10.2025 16:25:43",
          "16.10.2025 16:26:13",
          "16.10.2025 16:26:43",
          "16.10.2025 16:27:13",
          "16.10.2025 16:27:43",
          "16.10.2025 16:28:13",
          "16.10.2025 16:28:43",
          "16.10.2025 16:29:13",
          "16.10.2025 16:29:43",
          "16.10.2025 16:30:13",
          "16.10.2025 16:30:43",
          "16.10.2025 16:31:13",
          "16.10.2025 16:31:43",
          "16.10.2025 16:32:01",
          "16.10.2025 16:32:18",
          "16.10.2025 16:32:48",
          "16.10.2025 16:33:18",
          "16.10.2025 16:33:52",
          "16.10.2025 16:34:16",
          "16.10.2025 16:34:46",
          "16.10.2025 16:35:16",
          "16.10.2025 16:35:32",
          "16.10.2025 16:36:02",
          "16.10.2025 16:36:32",
          "16.10.2025 16:37:02",
          "16.10.2025 16:37:32",
          "16.10.2025 16:38:02",
          "16.10.2025 16:38:32",
          "16.10.2025 16:39:02",
          "16.10.2025 16:39:32",
          "16.10.2025 16:40:01",
          "16.10.2025 16:40:31",
          "16.10.2025 16:41:02",
          "16.10.2025 16:41:32",
          "16.10.2025 16:42:02",
          "16.10.2025 16:42:32",
          "16.10.2025 16:43:02",
          "16.10.2025 16:43:32",
          "16.10.2025 16:44:02",
          "16.10.2025 16:44:32",
          "16.10.2025 16:45:02",
          "16.10.2025 16:45:32",
          "16.10.2025 16:46:02",
          "16.10.2025 16:46:32",
          "16.10.2025 16:47:02",
          "16.10.2025 16:47:32",
          "16.10.2025 16:47:50",
          "16.10.2025 16:48:06",
          "16.10.2025 16:48:23",
          "16.10.2025 16:48:39",
          "16.10.2025 16:48:55",
          "16.10.2025 16:49:12",
          "16.10.2025 16:49:37",
          "16.10.2025 16:50:07",
          "16.10.2025 16:50:37",
          "16.10.2025 16:51:07",
          "16.10.2025 16:51:30",
          "16.10.2025 16:52:00",
          "16.10.2025 16:52:30",
          "16.10.2025 16:52:44",
          "16.10.2025 16:52:46",
          "16.10.2025 16:53:02",
          "16.10.2025 16:53:19",
          "16.10.2025 16:53:35",
          "16.10.2025 16:53:53",
          "16.10.2025 16:54:10"
        ],
        "course_deg_clockwise_from_north": [
          "71",
          "56",
          "58",
          "57",
          "56",
          "57",
          "57",
          "57",
          "57",
          "54",
          "45",
          "41",
          "40",
          "40",
          "42",
          "41",
          "41",
          "42",
          "41",
          "42",
          "42",
          "41",
          "43",
          "63",
          "62",
          "63",
          "51",
          "37",
          "33",
          "32",
          "33",
          "39",
          "50",
          "50",
          "51",
          "51",
          "52",
          "51",
          "52",
          "53",
          "57",
          "72",
          "84",
          "91",
          "95",
          "96",
          "96",
          "96",
          "97",
          "96",
          "97",
          "97",
          "97",
          "97",
          "97",
          "97",
          "97",
          "97",
          "97",
          "98",
          "97",
          "98",
          "97",
          "97",
          "98",
          "89",
          "83",
          "80",
          "80",
          "80",
          "81",
          "80",
          "81",
          "81",
          "81",
          "81",
          "81",
          "81",
          "81",
          "81",
          "81",
          "82",
          "81",
          "80",
          "70",
          "61",
          "57",
          "58",
          "59",
          "58",
          "58",
          "59",
          "59",
          "59",
          "59",
          "59",
          "58",
          "59",
          "59",
          "59",
          "59",
          "59",
          "60",
          "59",
          "59",
          "59",
          "60",
          "60",
          "60",
          "59",
          "60",
          "60",
          "60",
          "60",
          "60",
          "60",
          "61",
          "60",
          "60",
          "61",
          "61",
          "61",
          "60",
          "61",
          "60",
          "61",
          "61",
          "74",
          "83",
          "86",
          "85",
          "85",
          "85",
          "86",
          "85",
          "85",
          "85",
          "86",
          "85",
          "86",
          "85",
          "86",
          "86",
          "86",
          "87",
          "85",
          "86",
          "86",
          "86",
          "87",
          "86",
          "86",
          "87",
          "87",
          "86",
          "87",
          "87",
          "86",
          "87",
          "87",
          "85",
          "55",
          "10",
          "319",
          "301",
          "305",
          "309",
          "309",
          "309",
          "308",
          "309",
          "307",
          "308",
          "308",
          "308",
          "309",
          "309",
          "308",
          "309",
          "309"
        ],
        "speed_kts": [
          "119",
          "123",
          "145",
          "178",
          "195",
          "235",
          "267",
          "303",
          "333",
          "350",
          "362",
          "376",
          "388",
          "391",
          "400",
          "403",
          "397",
          "383",
          "389",
          "392",
          "384",
          "377",
          "374",
          "365",
          "370",
          "381",
          "387",
          "386",
          "384",
          "381",
          "379",
          "376",
          "378",
          "382",
          "382",
          "385",
          "400",
          "412",
          "422",
          "434",
          "449",
          "454",
          "462",
          "463",
          "463",
          "462",
          "463",
          "462",
          "461",
          "459",
          "460",
          "461",
          "461",
          "461",
          "461",
          "461",
          "462",
          "461",
          "461",
          "462",
          "463",
          "462",
          "463",
          "463",
          "463",
          "460",
          "459",
          "458",
          "458",
          "458",
          "457",
          "457",
          "457",
          "457",
          "456",
          "456",
          "456",
          "457",
          "457",
          "458",
          "458",
          "458",
          "459",
          "458",
          "454",
          "452",
          "452",
          "452",
          "452",
          "452",
          "453",
          "453",
          "453",
          "454",
          "453",
          "453",
          "452",
          "453",
          "453",
          "453",
          "453",
          "454",
          "454",
          "455",
          "454",
          "454",
          "455",
          "455",
          "454",
          "454",
          "455",
          "455",
          "452",
          "458",
          "464",
          "460",
          "456",
          "453",
          "454",
          "454",
          "453",
          "454",
          "454",
          "445",
          "441",
          "440",
          "434",
          "432",
          "428",
          "420",
          "415",
          "423",
          "418",
          "411",
          "406",
          "403",
          "396",
          "391",
          "386",
          "381",
          "340",
          "345",
          "345",
          "339",
          "333",
          "327",
          "294",
          "287",
          "281",
          "276",
          "271",
          "262",
          "254",
          "249",
          "225",
          "204",
          "178",
          "166",
          "173",
          "167",
          "168",
          "168",
          "166",
          "167",
          "163",
          "166",
          "169",
          "170",
          "174",
          "171",
          "169",
          "165",
          "162",
          "150",
          "150",
          "137",
          "130",
          "130",
          "132",
          "130"
        ],
        "speed_mph": [
          "137",
          "142",
          "167",
          "205",
          "224",
          "270",
          "307",
          "349",
          "383",
          "403",
          "417",
          "433",
          "447",
          "450",
          "460",
          "464",
          "457",
          "441",
          "448",
          "451",
          "442",
          "434",
          "430",
          "420",
          "426",
          "438",
          "445",
          "444",
          "442",
          "438",
          "436",
          "433",
          "435",
          "440",
          "440",
          "443",
          "460",
          "474",
          "486",
          "499",
          "517",
          "522",
          "532",
          "533",
          "533",
          "532",
          "533",
          "532",
          "531",
          "528",
          "529",
          "531",
          "531",
          "531",
          "531",
          "531",
          "532",
          "531",
          "531",
          "532",
          "533",
          "532",
          "533",
          "533",
          "533",
          "529",
          "528",
          "527",
          "527",
          "527",
          "526",
          "526",
          "526",
          "526",
          "525",
          "525",
          "525",
          "526",
          "526",
          "527",
          "527",
          "527",
          "528",
          "527",
          "522",
          "520",
          "520",
          "520",
          "520",
          "520",
          "521",
          "521",
          "521",
          "522",
          "521",
          "521",
          "520",
          "521",
          "521",
          "521",
          "521",
          "522",
          "522",
          "524",
          "522",
          "522",
          "524",
          "524",
          "522",
          "522",
          "524",
          "524",
          "520",
          "527",
          "534",
          "529",
          "525",
          "521",
          "522",
          "522",
          "521",
          "522",
          "522",
          "512",
          "507",
          "506",
          "499",
          "497",
          "493",
          "483",
          "478",
          "487",
          "481",
          "473",
          "467",
          "464",
          "456",
          "450",
          "444",
          "438",
          "391",
          "397",
          "397",
          "390",
          "383",
          "376",
          "338",
          "330",
          "323",
          "318",
          "312",
          "302",
          "292",
          "287",
          "259",
          "235",
          "205",
          "191",
          "199",
          "192",
          "193",
          "193",
          "191",
          "192",
          "188",
          "191",
          "194",
          "196",
          "200",
          "197",
          "194",
          "190",
          "186",
          "173",
          "173",
          "158",
          "150",
          "150",
          "152",
          "150"
        ],
        "altitude_ft": [
          "1425",
          "2550",
          "3925",
          "5225",
          "6000",
          "7300",
          "8650",
          "11125",
          "12850",
          "13775",
          "14775",
          "16825",
          "18000",
          "18750",
          "19000",
          "19000",
          "19000",
          "19000",
          "19000",
          "19000",
          "19000",
          "19000",
          "19000",
          "19000",
          "19000",
          "19000",
          "18975",
          "19000",
          "19000",
          "19000",
          "19000",
          "19000",
          "19375",
          "21275",
          "23150",
          "24875",
          "26050",
          "27100",
          "28050",
          "28825",
          "28950",
          "29325",
          "29675",
          "30200",
          "30800",
          "31900",
          "32000",
          "32000",
          "32000",
          "32000",
          "32000",
          "32000",
          "32000",
          "32000",
          "32000",
          "32000",
          "32000",
          "32000",
          "32000",
          "32000",
          "32000",
          "32000",
          "32000",
          "32000",
          "32000",
          "32000",
          "32000",
          "32000",
          "32000",
          "32000",
          "32000",
          "32000",
          "32000",
          "32000",
          "32000",
          "32000",
          "32000",
          "32000",
          "32000",
          "32000",
          "32000",
          "32000",
          "32000",
          "32000",
          "32000",
          "32000",
          "32000",
          "32000",
          "32000",
          "32000",
          "32000",
          "32000",
          "32000",
          "32000",
          "32000",
          "32000",
          "32000",
          "32000",
          "32000",
          "32000",
          "32000",
          "32000",
          "32000",
          "32000",
          "32000",
          "32000",
          "32000",
          "32000",
          "32000",
          "32000",
          "32000",
          "31975",
          "31225",
          "30500",
          "29750",
          "29000",
          "28300",
          "27525",
          "26800",
          "26050",
          "25300",
          "25000",
          "24825",
          "24300",
          "23550",
          "22825",
          "22000",
          "21525",
          "21200",
          "20550",
          "19750",
          "18975",
          "18375",
          "17675",
          "17050",
          "16700",
          "16100",
          "15575",
          "15000",
          "14450",
          "13725",
          "13025",
          "12350",
          "11800",
          "11275",
          "10750",
          "10200",
          "9650",
          "9075",
          "8575",
          "8000",
          "7475",
          "6925",
          "6375",
          "5850",
          "5725",
          "5725",
          "5725",
          "5725",
          "5725",
          "5725",
          "5725",
          "5725",
          "5725",
          "5700",
          "5725",
          "5725",
          "5525",
          "5025",
          "4575",
          "4200",
          "3725",
          "3225",
          "3050",
          "3025",
          "2825",
          "2600",
          "2400",
          "2150",
          "1950"
        ],
        "vertical_rate_fpm": [
          "",
          "3000",
          "2631",
          "2649",
          "2707",
          "2650",
          "3060",
          "3360",
          "3383",
          "3500",
          "3978",
          "3225",
          "1925",
          "1000",
          "250",
          "",
          "",
          "",
          "",
          "",
          "",
          "",
          "",
          "",
          "",
          "-32",
          "",
          "26",
          "",
          "",
          "",
          "450",
          "2730",
          "3775",
          "3600",
          "2900",
          "2225",
          "2000",
          "1725",
          "1102",
          "811",
          "1208",
          "1544",
          "1875",
          "1700",
          "1014",
          "85",
          "",
          "",
          "",
          "",
          "",
          "",
          "",
          "",
          "",
          "",
          "",
          "",
          "",
          "",
          "",
          "",
          "",
          "",
          "",
          "",
          "",
          "",
          "",
          "",
          "",
          "",
          "",
          "",
          "",
          "",
          "",
          "",
          "",
          "",
          "",
          "",
          "",
          "",
          "",
          "",
          "",
          "",
          "",
          "",
          "",
          "",
          "",
          "",
          "",
          "",
          "",
          "",
          "",
          "",
          "",
          "",
          "",
          "",
          "",
          "",
          "",
          "",
          "",
          "-25",
          "-775",
          "-1475",
          "-1475",
          "-1500",
          "-1450",
          "-1475",
          "-1500",
          "-1475",
          "-1500",
          "-1050",
          "-475",
          "-700",
          "-1275",
          "-1475",
          "-1550",
          "-1625",
          "-1371",
          "-1245",
          "-1450",
          "-1477",
          "-1422",
          "-1444",
          "-1325",
          "-1272",
          "-1239",
          "-1125",
          "-1100",
          "-1125",
          "-1275",
          "-1425",
          "-1375",
          "-1225",
          "-1093",
          "-1068",
          "-1057",
          "-1082",
          "-1125",
          "-1075",
          "-1075",
          "-1100",
          "-1075",
          "-1100",
          "-1075",
          "-650",
          "-125",
          "",
          "",
          "",
          "",
          "",
          "",
          "",
          "-47",
          "",
          "36",
          "-218",
          "-700",
          "-950",
          "-934",
          "-962",
          "-975",
          "-920",
          "-750",
          "-750",
          "-773",
          "-773",
          "-794",
          "-771",
          "-706"
        ],
        "reporting_facility": [
          "FlightAware ADS-B(LRT / LFRH)",
          "FlightAware ADS-B(LRT / LFRH)",
          "FlightAware ADS-B(LRT / LFRH)",
          "FlightAware ADS-B(JER / EGJJ)",
          "FlightAware ADS-B(BES / LFRB)",
          "FlightAware ADS-B(JER / EGJJ)",
          "FlightAware ADS-B(BES / LFRB)",
          "FlightAware ADS-B(BIC / LFEA)",
          "FlightAware ADS-B(BIC / LFEA)",
          "FlightAware ADS-B(RNS / LFRN)",
          "FlightAware ADS-B(SNR / LFRZ)",
          "FlightAware ADS-B(MXN / LFRU)",
          "FlightAware ADS-B(LFFO)",
          "FlightAware ADS-B(SNR / LFRZ)",
          "FlightAware ADS-B(GCI / EGJB)",
          "FlightAware ADS-B(RNS / LFRN)",
          "FlightAware ADS-B(GCI / EGJB)",
          "FlightAware ADS-B(LFED)",
          "FlightAware ADS-B(CFR / LFRK)",
          "FlightAware ADS-B(RNS / LFRN)",
          "FlightAware ADS-B(RNS / LFRN)",
          "FlightAware ADS-B(JER / EGJJ)",
          "FlightAware ADS-B(LFEB)",
          "FlightAware ADS-B(LFOG)",
          "FlightAware ADS-B(MXN / LFRU)",
          "FlightAware ADS-B(LFAO)",
          "FlightAware ADS-B(LFOM)",
          "FlightAware ADS-B(BRS / EGGD)",
          "FlightAware ADS-B(LFED)",
          "FlightAware ADS-B(RNS / LFRN)",
          "FlightAware ADS-B(RNS / LFRN)",
          "FlightAware ADS-B(JER / EGJJ)",
          "FlightAware ADS-B(EGUV)",
          "FlightAware ADS-B(BES / LFRB)",
          "FlightAware ADS-B(EXT / EGTE)",
          "FlightAware ADS-B(LFOG)",
          "FlightAware ADS-B(YEO / EGDY)",
          "FlightAware ADS-B(HYC / EGTB)",
          "FlightAware ADS-B(RNS / LFRN)",
          "FlightAware ADS-B(RNS / LFRN)",
          "FlightAware ADS-B(LFEB)",
          "FlightAware ADS-B(RNS / LFRN)",
          "FlightAware ADS-B(SEN / EGMC)",
          "FlightAware ADS-B(LYX / EGMD)",
          "FlightAware ADS-B(EGDR)",
          "FlightAware ADS-B(BZZ / EGVN)",
          "FlightAware ADS-B(EGUV)",
          "FlightAware ADS-B(EGHR)",
          "FlightAware ADS-B(LCY / EGLC)",
          "FlightAware ADS-B(CWL / EGFF)",
          "FlightAware ADS-B(SOU / EGHI)",
          "FlightAware ADS-B(FFD / EGVA)",
          "FlightAware ADS-B(LHR / EGLL)",
          "FlightAware ADS-B(EGLW)",
          "FlightAware ADS-B(EGHG)",
          "FlightAware ADS-B(LME / LFRM)",
          "FlightAware ADS-B(LFOF)",
          "FlightAware ADS-B(LME / LFRM)",
          "FlightAware ADS-B(RNS / LFRN)",
          "FlightAware ADS-B(LHR / EGLL)",
          "FlightAware ADS-B(BOH / EGHH)",
          "FlightAware ADS-B(SEN / EGMC)",
          "FlightAware ADS-B(LME / LFRM)",
          "FlightAware ADS-B(LIG / LFBL)",
          "FlightAware ADS-B(ESH / EGKA)",
          "FlightAware ADS-B(EGUV)",
          "FlightAware ADS-B(LHR / EGLL)",
          "FlightAware ADS-B(ESH / EGKA)",
          "FlightAware ADS-B(JER / EGJJ)",
          "FlightAware ADS-B(GFR / LFRF)",
          "FlightAware ADS-B(EVX / LFOE)",
          "FlightAware ADS-B(GFR / LFRF)",
          "FlightAware ADS-B(GFR / LFRF)",
          "FlightAware ADS-B(LFPA)",
          "FlightAware ADS-B(LFPA)",
          "FlightAware ADS-B(LFPA)",
          "FlightAware ADS-B(ORY / LFPO)",
          "FlightAware ADS-B(LFFE)",
          "FlightAware ADS-B(LFFE)",
          "FlightAware ADS-B(LFPE)",
          "FlightAware ADS-B(LME / LFRM)",
          "FlightAware ADS-B(LME / LFRM)",
          "FlightAware ADS-B(CDG / LFPG)",
          "FlightAware ADS-B(CDG / LFPG)",
          "FlightAware ADS-B(LFPK)",
          "FlightAware ADS-B(STN / EGSS)",
          "FlightAware ADS-B(RCS / EGTO)",
          "FlightAware ADS-B(CSF / LFPC)",
          "FlightAware ADS-B(EBSH)",
          "FlightAware ADS-B(EBSG)",
          "FlightAware ADS-B(LFFC)",
          "FlightAware ADS-B(CDG / LFPG)",
          "FlightAware ADS-B(CDG / LFPG)",
          "FlightAware ADS-B(CDG / LFPG)",
          "FlightAware ADS-B(EBSH)",
          "FlightAware ADS-B(ESH / EGKA)",
          "FlightAware ADS-B(EGMT)",
          "FlightAware ADS-B(BRU / EBBR)",
          "FlightAware ADS-B(EBBY)",
          "FlightAware ADS-B(CDG / LFPG)",
          "FlightAware ADS-B(LFPZ)",
          "FlightAware ADS-B(EBUL)",
          "FlightAware ADS-B(EHDP)",
          "FlightAware ADS-B(EHDP)",
          "FlightAware ADS-B(ANR / EBAW)",
          "FlightAware ADS-B(WOE / EHWO)",
          "FlightAware ADS-B(EDKB)",
          "FlightAware ADS-B(EBHM)",
          "FlightAware ADS-B(EBFS)",
          "FlightAware ADS-B(TNF / LFPN)",
          "FlightAware ADS-B(EDRH)",
          "FlightAware ADS-B(ANR / EBAW)",
          "FlightAware ADS-B(ORY / LFPO)",
          "FlightAware ADS-B(EHHV)",
          "FlightAware ADS-B(EGSR)",
          "FlightAware ADS-B(LUX / ELLX)",
          "FlightAware ADS-B(CRL / EBCI)",
          "FlightAware ADS-B(LUX / ELLX)",
          "FlightAware ADS-B(UDE / EHVK)",
          "FlightAware ADS-B(DTM / EDLW)",
          "FlightAware ADS-B(LUX / ELLX)",
          "FlightAware ADS-B(OBL / EBZR)",
          "FlightAware ADS-B(EDGQ)",
          "FlightAware ADS-B(UDE / EHVK)",
          "FlightAware ADS-B(GKE / ETNG)",
          "FlightAware ADS-B(ETWM)",
          "FlightAware ADS-B(LUX / ELLX)",
          "FlightAware ADS-B(EBBL)",
          "FlightAware ADS-B(AAH / EDKA)",
          "FlightAware ADS-B(ETNN)",
          "FlightAware ADS-B(MGL / EDLN)",
          "FlightAware ADS-B(UDE / EHVK)",
          "FlightAware ADS-B(LUX / ELLX)",
          "FlightAware ADS-B(FRA / EDDF)",
          "FlightAware ADS-B(LUX / ELLX)",
          "FlightAware ADS-B(EDRK)",
          "FlightAware ADS-B(EDKN)",
          "FlightAware ADS-B(ETNN)",
          "FlightAware ADS-B(DUS / EDDL)",
          "FlightAware ADS-B(ERF / EDDE)",
          "FlightAware ADS-B(ETSB)",
          "FlightAware ADS-B(AAH / EDKA)",
          "FlightAware ADS-B(EDGL)",
          "FlightAware ADS-B(MGL / EDLN)",
          "FlightAware ADS-B(CGN / EDDK)",
          "FlightAware ADS-B(DUS / EDDL)",
          "FlightAware ADS-B(DTM / EDLW)",
          "FlightAware ADS-B(EDKB)",
          "FlightAware ADS-B(EDRE)",
          "FlightAware ADS-B(FRA / EDDF)",
          "FlightAware ADS-B(CGN / EDDK)",
          "FlightAware ADS-B(EDKB)",
          "FlightAware ADS-B(EDRW)",
          "FlightAware ADS-B(ETOU)",
          "FlightAware ADS-B(QEF / EDFE)",
          "FlightAware ADS-B(FRZ / ETHF)",
          "FlightAware ADS-B(EDFG)",
          "FlightAware ADS-B(FRA / EDDF)",
          "FlightAware ADS-B(FRA / EDDF)",
          "FlightAware ADS-B(STR / EDDS)",
          "FlightAware ADS-B(EDFC)",
          "FlightAware ADS-B(SCN / EDDR)",
          "FlightAware ADS-B(EDFY)",
          "FlightAware ADS-B(EDFB)",
          "FlightAware ADS-B(ERF / EDDE)",
          "FlightAware ADS-B(EDRA)",
          "FlightAware ADS-B(EDRV)",
          "FlightAware ADS-B(ETOU)",
          "FlightAware ADS-B(QEF / EDFE)",
          "FlightAware ADS-B(ETOU)",
          "FlightAware ADS-B(EDFY)",
          "FlightAware ADS-B(EDGB)",
          "FlightAware ADS-B(EDGB)",
          "Surface and Near-Surface",
          "FlightAware ADS-B(EDKF)",
          "FlightAware ADS-B(EDGA)",
          "FlightAware ADS-B(EDKF)",
          "FlightAware ADS-B(SGE / EDGS)",
          "FlightAware ADS-B(EDFY)",
          "FlightAware ADS-B(SGE / EDGS)"
        ]
      }
    }
  ]
}