{
  "type": "FeatureCollection",
  "features": [
    {
      "type": "Feature",
      "geometry": {
        "type": "LineString",
        "coordinates": [
          [
            7.1231,
            50.8603
          ],
          [
            7.1091,
            50.8563
          ],
          [
            7.0935,
            50.8517
          ],
          [
            7.0782,
            50.8468
          ],
          [
            7.0619,
            50.8404
          ],
          [
            7.0541,
            50.8289
          ],
          [
            7.0567,
            50.812
          ],
          [
            7.0657,
            50.7954
          ],
          [
            7.0811,
            50.781
          ],
          [
            7.1039,
            50.7688
          ],
          [
            7.2403,
            50.7162
          ],
          [
            7.3083,
            50.6884
          ],
          [
            7.3838,
            50.6574
          ],
          [
            7.4701,
            50.622
          ],
          [
            7.5386,
            50.5936
          ],
          [
            7.63,
            50.5555
          ],
          [
            7.7195,
            50.5179
          ],
          [
            7.7694,
            50.489
          ],
          [
            7.8162,
            50.4525
          ],
          [
            7.8812,
            50.397
          ],
          [
            7.9501,
            50.3398
          ],
          [
            8.0182,
            50.2848
          ],
          [
            8.0886,
            50.2281
          ],
          [
            8.1588,
            50.1711
          ],
          [
            8.2279,
            50.1146
          ],
          [
            8.3005,
            50.0548
          ],
          [
            8.3391,
            50.023
          ],
          [
            8.4187,
            49.9573
          ],
          [
            8.4635,
            49.9125
          ],
          [
            8.5685,
            49.7723
          ],
          [
            8.6168,
            49.707
          ],
          [
            8.6668,
            49.642
          ],
          [
            8.7156,
            49.5795
          ],
          [
            8.7661,
            49.5136
          ],
          [
            8.8161,
            49.4478
          ],
          [
            8.8642,
            49.3844
          ],
          [
            8.9128,
            49.3197
          ],
          [
            8.9606,
            49.2557
          ],
          [
            9.0084,
            49.1919
          ],
          [
            9.0571,
            49.1267
          ],
          [
            9.1028,
            49.0653
          ],
          [
            9.1461,
            49.007
          ],
          [
            9.1916,
            48.9451
          ],
          [
            9.2355,
            48.8855
          ],
          [
            9.2824,
            48.8215
          ],
          [
            9.3277,
            48.7597
          ],
          [
            9.3724,
            48.6982
          ],
          [
            9.4154,
            48.639
          ],
          [
            9.4597,
            48.5786
          ],
          [
            9.5012,
            48.5212
          ],
          [
            9.5431,
            48.4633
          ],
          [
            9.5736,
            48.4212
          ],
          [
            9.6116,
            48.3683
          ],
          [
            9.6546,
            48.3085
          ],
          [
            9.6953,
            48.2519
          ],
          [
            9.7359,
            48.1951
          ],
          [
            9.7758,
            48.1388
          ],
          [
            9.8117,
            48.0884
          ],
          [
            9.8787,
            47.9937
          ],
          [
            9.9207,
            47.9344
          ],
          [
            9.9623,
            47.8755
          ],
          [
            10.004,
            47.816
          ],
          [
            10.0437,
            47.7595
          ],
          [
            10.0831,
            47.7032
          ],
          [
            10.1214,
            47.6482
          ],
          [
            10.1614,
            47.5907
          ],
          [
            10.1998,
            47.5354
          ],
          [
            10.2383,
            47.4801
          ],
          [
            10.2776,
            47.4233
          ],
          [
            10.3145,
            47.3696
          ],
          [
            10.3433,
            47.3243
          ],
          [
            10.3591,
            47.294
          ],
          [
            10.3823,
            47.2452
          ],
          [
            10.4153,
            47.1646
          ],
          [
            10.4398,
            47.1068
          ],
          [
            10.4649,
            47.0474
          ],
          [
            10.4891,
            46.9886
          ],
          [
            10.5139,
            46.9291
          ],
          [
            10.5396,
            46.8673
          ],
          [
            10.5638,
            46.8087
          ],
          [
            10.5884,
            46.7493
          ],
          [
            10.6127,
            46.6903
          ],
          [
            10.6373,
            46.6301
          ],
          [
            10.6604,
            46.5738
          ],
          [
            10.6852,
            46.5133
          ],
          [
            10.7101,
            46.4522
          ],
          [
            10.7338,
            46.3942
          ],
          [
            10.7573,
            46.3363
          ],
          [
            10.781,
            46.2775
          ],
          [
            10.8049,
            46.2183
          ],
          [
            10.8276,
            46.1624
          ],
          [
            10.8534,
            46.0981
          ],
          [
            10.8765,
            46.0404
          ],
          [
            10.8993,
            45.9838
          ],
          [
            10.9236,
            45.9229
          ],
          [
            10.9463,
            45.8661
          ],
          [
            10.9699,
            45.8066
          ],
          [
            10.9926,
            45.7493
          ],
          [
            11.0163,
            45.6901
          ],
          [
            11.0375,
            45.6364
          ],
          [
            11.0576,
            45.5819
          ],
          [
            11.0738,
            45.5274
          ],
          [
            11.091,
            45.4721
          ],
          [
            11.1093,
            45.4147
          ],
          [
            11.1257,
            45.3612
          ],
          [
            11.1438,
            45.3033
          ],
          [
            11.1612,
            45.2475
          ],
          [
            11.18,
            45.1872
          ],
          [
            11.1972,
            45.1315
          ],
          [
            11.2158,
            45.0709
          ],
          [
            11.2251,
            45.0323
          ],
          [
            11.2249,
            44.9687
          ],
          [
            11.222,
            44.911
          ],
          [
            11.2208,
            44.8521
          ],
          [
            11.2197,
            44.7951
          ],
          [
            11.2183,
            44.7332
          ],
          [
            11.217,
            44.6757
          ],
          [
            11.2156,
            44.6174
          ],
          [
            11.2142,
            44.5577
          ],
          [
            11.2132,
            44.5039
          ],
          [
            11.2122,
            44.4522
          ],
          [
            11.2108,
            44.4023
          ],
          [
            11.2095,
            44.3529
          ],
          [
            11.2085,
            44.3049
          ],
          [
            11.2076,
            44.256
          ],
          [
            11.2066,
            44.2104
          ],
          [
            11.2054,
            44.1651
          ],
          [
            11.2045,
            44.1235
          ],
          [
            11.2036,
            44.0836
          ],
          [
            11.2028,
            44.0462
          ],
          [
            11.202,
            44.0073
          ],
          [
            11.2011,
            43.9691
          ],
          [
            11.2004,
            43.9331
          ],
          [
            11.1995,
            43.8937
          ],
          [
            11.1987,
            43.8582
          ],
          [
            11.1981,
            43.832
          ],
          [
            11.1973,
            43.7977
          ],
          [
            11.1965,
            43.7632
          ],
          [
            11.1956,
            43.7276
          ],
          [
            11.195,
            43.7067
          ],
          [
            11.1839,
            43.6874
          ],
          [
            11.1628,
            43.6707
          ],
          [
            11.1431,
            43.6583
          ],
          [
            11.1237,
            43.6467
          ],
          [
            11.0935,
            43.6273
          ],
          [
            11.0738,
            43.6222
          ],
          [
            11.0499,
            43.6269
          ],
          [
            11.0278,
            43.6367
          ],
          [
            11.0094,
            43.6475
          ],
          [
            11.0012,
            43.6663
          ],
          [
            11.0181,
            43.6906
          ],
          [
            11.0479,
            43.7093
          ],
          [
            11.0665,
            43.7205
          ],
          [
            11.1011,
            43.7423
          ],
          [
            11.1314,
            43.7619
          ],
          [
            11.146,
            43.7715
          ],
          [
            11.1601,
            43.7807
          ],
          [
            11.1724,
            43.7888
          ],
          [
            11.1834,
            43.7961
          ],
          [
            11.1941,
            43.803
          ]
        ]
      },
      "properties": {
        "time_europe_berlin": [
          "30.10.2025 08:39:22",
          "30.10.2025 08:39:38",
          "30.10.2025 08:39:54",
          "30.10.2025 08:40:10",
          "30.10.2025 08:40:26",
          "30.10.2025 08:40:42",
          "30.10.2025 08:41:00",
          "30.10.2025 08:41:17",
          "30.10.2025 08:41:33",
          "30.10.2025 08:41:50",
          "30.10.2025 08:43:03",
          "30.10.2025 08:43:33",
          "30.10.2025 08:44:03",
          "30.10.2025 08:44:33",
          "30.10.2025 08:44:57",
          "30.10.2025 08:45:27",
          "30.10.2025 08:45:57",
          "30.10.2025 08:46:15",
          "30.10.2025 08:46:36",
          "30.10.2025 08:47:06",
          "30.10.2025 08:47:36",
          "30.10.2025 08:48:06",
          "30.10.2025 08:48:36",
          "30.10.2025 08:49:06",
          "30.10.2025 08:49:36",
          "30.10.2025 08:50:06",
          "30.10.2025 08:50:23",
          "30.10.2025 08:50:57",
          "30.10.2025 08:51:17",
          "30.10.2025 08:52:23",
          "30.10.2025 08:52:53",
          "30.10.2025 08:53:23",
          "30.10.2025 08:53:53",
          "30.10.2025 08:54:23",
          "30.10.2025 08:54:53",
          "30.10.2025 08:55:23",
          "30.10.2025 08:55:53",
          "30.10.2025 08:56:23",
          "30.10.2025 08:56:53",
          "30.10.2025 08:57:23",
          "30.10.2025 08:57:53",
          "30.10.2025 08:58:23",
          "30.10.2025 08:58:53",
          "30.10.2025 08:59:23",
          "30.10.2025 08:59:53",
          "30.10.2025 09:00:23",
          "30.10.2025 09:00:53",
          "30.10.2025 09:01:23",
          "30.10.2025 09:01:53",
          "30.10.2025 09:02:23",
          "30.10.2025 09:02:53",
          "30.10.2025 09:03:13",
          "30.10.2025 09:03:43",
          "30.10.2025 09:04:13",
          "30.10.2025 09:04:43",
          "30.10.2025 09:05:13",
          "30.10.2025 09:05:43",
          "30.10.2025 09:06:09",
          "30.10.2025 09:06:57",
          "30.10.2025 09:07:27",
          "30.10.2025 09:07:57",
          "30.10.2025 09:08:27",
          "30.10.2025 09:08:57",
          "30.10.2025 09:09:27",
          "30.10.2025 09:09:57",
          "30.10.2025 09:10:27",
          "30.10.2025 09:10:57",
          "30.10.2025 09:11:27",
          "30.10.2025 09:11:57",
          "30.10.2025 09:12:27",
          "30.10.2025 09:12:51",
          "30.10.2025 09:13:09",
          "30.10.2025 09:13:34",
          "30.10.2025 09:14:16",
          "30.10.2025 09:14:46",
          "30.10.2025 09:15:16",
          "30.10.2025 09:15:46",
          "30.10.2025 09:16:16",
          "30.10.2025 09:16:46",
          "30.10.2025 09:17:16",
          "30.10.2025 09:17:46",
          "30.10.2025 09:18:17",
          "30.10.2025 09:18:47",
          "30.10.2025 09:19:17",
          "30.10.2025 09:19:48",
          "30.10.2025 09:20:19",
          "30.10.2025 09:20:49",
          "30.10.2025 09:21:19",
          "30.10.2025 09:21:49",
          "30.10.2025 09:22:19",
          "30.10.2025 09:22:49",
          "30.10.2025 09:23:22",
          "30.10.2025 09:23:52",
          "30.10.2025 09:24:23",
          "30.10.2025 09:24:54",
          "30.10.2025 09:25:24",
          "30.10.2025 09:25:54",
          "30.10.2025 09:26:24",
          "30.10.2025 09:26:54",
          "30.10.2025 09:27:24",
          "30.10.2025 09:27:54",
          "30.10.2025 09:28:24",
          "30.10.2025 09:28:54",
          "30.10.2025 09:29:24",
          "30.10.2025 09:29:54",
          "30.10.2025 09:30:24",
          "30.10.2025 09:30:54",
          "30.10.2025 09:31:24",
          "30.10.2025 09:31:54",
          "30.10.2025 09:32:24",
          "30.10.2025 09:32:44",
          "30.10.2025 09:33:15",
          "30.10.2025 09:33:45",
          "30.10.2025 09:34:15",
          "30.10.2025 09:34:45",
          "30.10.2025 09:35:15",
          "30.10.2025 09:35:45",
          "30.10.2025 09:36:15",
          "30.10.2025 09:36:45",
          "30.10.2025 09:37:15",
          "30.10.2025 09:37:45",
          "30.10.2025 09:38:15",
          "30.10.2025 09:38:45",
          "30.10.2025 09:39:15",
          "30.10.2025 09:39:45",
          "30.10.2025 09:40:15",
          "30.10.2025 09:40:45",
          "30.10.2025 09:41:15",
          "30.10.2025 09:41:45",
          "30.10.2025 09:42:15",
          "30.10.2025 09:42:45",
          "30.10.2025 09:43:15",
          "30.10.2025 09:43:45",
          "30.10.2025 09:44:15",
          "30.10.2025 09:44:45",
          "30.10.2025 09:45:06",
          "30.10.2025 09:45:36",
          "30.10.2025 09:46:06",
          "30.10.2025 09:46:36",
          "30.10.2025 09:46:55",
          "30.10.2025 09:47:15",
          "30.10.2025 09:47:36",
          "30.10.2025 09:47:54",
          "30.10.2025 09:48:10",
          "30.10.2025 09:48:40",
          "30.10.2025 09:48:57",
          "30.10.2025 09:49:15",
          "30.10.2025 09:49:35",
          "30.10.2025 09:49:53",
          "30.10.2025 09:50:11",
          "30.10.2025 09:50:35",
          "30.10.2025 09:51:01",
          "30.10.2025 09:51:17",
          "30.10.2025 09:51:47",
          "30.10.2025 09:52:15",
          "30.10.2025 09:52:32",
          "30.10.2025 09:52:49",
          "30.10.2025 09:53:05",
          "30.10.2025 09:53:21",
          "30.10.2025 09:53:37"
        ],
        "course_deg_clockwise_from_north": [
          247,
          246,
          244,
          243,
          228,
          185,
          166,
          158,
          137,
          127,
          122,
          123,
          123,
          123,
          123,
          123,
          125,
          137,
          143,
          143,
          142,
          141,
          142,
          142,
          142,
          142,
          142,
          142,
          151,
          154,
          154,
          153,
          153,
          154,
          154,
          154,
          154,
          154,
          154,
          154,
          154,
          154,
          154,
          154,
          154,
          154,
          154,
          154,
          154,
          154,
          154,
          154,
          154,
          155,
          154,
          155,
          155,
          154,
          155,
          155,
          155,
          155,
          155,
          155,
          155,
          155,
          155,
          155,
          155,
          155,
          159,
          161,
          163,
          164,
          164,
          164,
          164,
          164,
          164,
          164,
          164,
          164,
          164,
          164,
          164,
          164,
          164,
          164,
          165,
          164,
          164,
          165,
          164,
          164,
          165,
          165,
          164,
          165,
          164,
          165,
          167,
          168,
          167,
          168,
          168,
          168,
          168,
          168,
          168,
          168,
          174,
          182,
          182,
          181,
          181,
          181,
          181,
          181,
          181,
          181,
          181,
          181,
          181,
          181,
          181,
          181,
          181,
          181,
          181,
          181,
          181,
          181,
          181,
          181,
          181,
          181,
          181,
          181,
          181,
          184,
          216,
          227,
          230,
          230,
          230,
          271,
          295,
          305,
          319,
          3,
          42,
          51,
          50,
          48,
          48,
          48,
          47,
          46,
          48,
          49
        ],
        "speed_kts": [
          140,
          137,
          150,
          162,
          170,
          193,
          210,
          221,
          236,
          249,
          356,
          403,
          441,
          472,
          488,
          498,
          508,
          503,
          499,
          509,
          507,
          507,
          526,
          523,
          532,
          534,
          533,
          535,
          526,
          527,
          523,
          520,
          518,
          518,
          520,
          521,
          519,
          516,
          509,
          499,
          490,
          481,
          485,
          497,
          500,
          500,
          496,
          478,
          470,
          469,
          471,
          466,
          462,
          454,
          448,
          451,
          461,
          468,
          474,
          473,
          469,
          461,
          454,
          450,
          447,
          446,
          443,
          440,
          437,
          437,
          431,
          429,
          430,
          435,
          440,
          442,
          445,
          449,
          450,
          452,
          439,
          431,
          434,
          439,
          442,
          439,
          437,
          437,
          433,
          431,
          430,
          430,
          430,
          430,
          431,
          433,
          433,
          434,
          426,
          415,
          403,
          402,
          408,
          413,
          415,
          422,
          426,
          430,
          432,
          434,
          431,
          426,
          427,
          428,
          427,
          423,
          422,
          419,
          411,
          386,
          363,
          352,
          355,
          353,
          336,
          332,
          318,
          295,
          279,
          269,
          269,
          271,
          272,
          273,
          259,
          257,
          252,
          249,
          245,
          242,
          232,
          230,
          229,
          226,
          206,
          203,
          204,
          212,
          223,
          242,
          243,
          244,
          248,
          229,
          206,
          188,
          169,
          152,
          144,
          133
        ],
        "speed_mph": [
          161.0,
          158.0,
          173.0,
          186.0,
          196.0,
          222.0,
          242.0,
          254.0,
          272.0,
          287.0,
          410.0,
          464.0,
          507.0,
          543.0,
          562.0,
          573.0,
          585.0,
          579.0,
          574.0,
          586.0,
          583.0,
          583.0,
          605.0,
          602.0,
          612.0,
          615.0,
          613.0,
          616.0,
          605.0,
          606.0,
          602.0,
          598.0,
          596.0,
          596.0,
          598.0,
          600.0,
          597.0,
          594.0,
          586.0,
          574.0,
          564.0,
          554.0,
          558.0,
          572.0,
          575.0,
          575.0,
          571.0,
          550.0,
          541.0,
          540.0,
          542.0,
          536.0,
          532.0,
          522.0,
          516.0,
          519.0,
          531.0,
          539.0,
          545.0,
          544.0,
          540.0,
          531.0,
          522.0,
          518.0,
          514.0,
          513.0,
          510.0,
          506.0,
          503.0,
          503.0,
          496.0,
          494.0,
          495.0,
          501.0,
          506.0,
          509.0,
          512.0,
          517.0,
          518.0,
          520.0,
          505.0,
          496.0,
          499.0,
          505.0,
          509.0,
          505.0,
          503.0,
          503.0,
          498.0,
          496.0,
          495.0,
          495.0,
          495.0,
          495.0,
          496.0,
          498.0,
          498.0,
          499.0,
          490.0,
          478.0,
          464.0,
          463.0,
          470.0,
          475.0,
          478.0,
          486.0,
          490.0,
          495.0,
          497.0,
          499.0,
          496.0,
          490.0,
          491.0,
          493.0,
          491.0,
          487.0,
          486.0,
          482.0,
          473.0,
          444.0,
          418.0,
          405.0,
          409.0,
          406.0,
          387.0,
          382.0,
          366.0,
          339.0,
          321.0,
          310.0,
          310.0,
          312.0,
          313.0,
          314.0,
          298.0,
          296.0,
          290.0,
          287.0,
          282.0,
          278.0,
          267.0,
          265.0,
          264.0,
          260.0,
          237.0,
          234.0,
          235.0,
          244.0,
          257.0,
          278.0,
          280.0,
          281.0,
          285.0,
          264.0,
          237.0,
          216.0,
          194.0,
          175.0,
          166.0,
          153.0
        ],
        "altitude_ft": [
          1375,
          2350,
          3100,
          3775,
          4625,
          5575,
          6550,
          7550,
          8525,
          9500,
          13025,
          14275,
          15525,
          16750,
          17875,
          19200,
          19950,
          20250,
          20625,
          21600,
          23050,
          24450,
          24975,
          25300,
          26100,
          27100,
          27675,
          28575,
          28950,
          29000,
          29150,
          29875,
          30600,
          31350,
          32125,
          32850,
          33625,
          34625,
          35600,
          36675,
          37700,
          38550,
          38975,
          39000,
          39000,
          39000,
          39000,
          38975,
          39000,
          39000,
          39000,
          39275,
          39725,
          40225,
          40750,
          40975,
          41000,
          41000,
          41000,
          41000,
          40975,
          41000,
          41000,
          41000,
          41000,
          41025,
          41000,
          41000,
          41000,
          41000,
          41000,
          41000,
          41000,
          41000,
          41000,
          41000,
          41000,
          41000,
          41000,
          41000,
          41000,
          41000,
          41000,
          41000,
          41000,
          41000,
          41000,
          41000,
          41000,
          41000,
          41000,
          41000,
          41000,
          41000,
          41000,
          41000,
          40950,
          40250,
          39225,
          38250,
          37275,
          36250,
          35325,
          34375,
          33500,
          32575,
          31675,
          30725,
          29825,
          28925,
          28275,
          27350,
          26450,
          25550,
          24650,
          23475,
          22250,
          21000,
          19750,
          18475,
          17500,
          16500,
          15450,
          14525,
          14000,
          13900,
          13150,
          12425,
          11650,
          11125,
          11000,
          10975,
          11000,
          10975,
          10475,
          9975,
          9325,
          8675,
          8050,
          7700,
          7375,
          6975,
          6650,
          6350,
          5800,
          5475,
          5100,
          4750,
          4425,
          4125,
          3600,
          2975,
          2650,
          2000,
          1475,
          1175,
          900,
          675,
          475,
          275
        ],
        "vertical_rate_fpm": [
          0.0,
          3234.0,
          2672.0,
          2859.0,
          3375.0,
          3397.0,
          3386.0,
          3591.0,
          3545.0,
          3000.0,
          2782.0,
          2500.0,
          2475.0,
          2611.0,
          2722.0,
          2075.0,
          1313.0,
          1038.0,
          1588.0,
          2425.0,
          2850.0,
          1925.0,
          850.0,
          1125.0,
          1800.0,
          2011.0,
          1735.0,
          1417.0,
          297.0,
          125.0,
          875.0,
          1450.0,
          1475.0,
          1525.0,
          1500.0,
          1500.0,
          1775.0,
          1975.0,
          2050.0,
          2100.0,
          1875.0,
          1275.0,
          450.0,
          25.0,
          0.0,
          0.0,
          -25.0,
          0.0,
          25.0,
          0.0,
          330.0,
          870.0,
          950.0,
          1025.0,
          750.0,
          250.0,
          27.0,
          0.0,
          0.0,
          -25.0,
          0.0,
          25.0,
          0.0,
          0.0,
          25.0,
          0.0,
          -25.0,
          0.0,
          0.0,
          0.0,
          0.0,
          0.0,
          0.0,
          0.0,
          0.0,
          0.0,
          0.0,
          0.0,
          0.0,
          0.0,
          0.0,
          0.0,
          0.0,
          0.0,
          0.0,
          0.0,
          0.0,
          0.0,
          0.0,
          0.0,
          0.0,
          0.0,
          0.0,
          0.0,
          0.0,
          -50.0,
          -750.0,
          -1725.0,
          -2000.0,
          -1950.0,
          -2000.0,
          -1950.0,
          -1875.0,
          -1825.0,
          -1800.0,
          -1825.0,
          -1850.0,
          -1850.0,
          -1800.0,
          -1860.0,
          -1853.0,
          -1795.0,
          -1800.0,
          -1800.0,
          -2075.0,
          -2400.0,
          -2475.0,
          -2500.0,
          -2525.0,
          -2250.0,
          -1975.0,
          -2050.0,
          -1975.0,
          -1450.0,
          -625.0,
          -850.0,
          -1475.0,
          -1500.0,
          -1300.0,
          -650.0,
          -150.0,
          0.0,
          0.0,
          -525.0,
          -1176.0,
          -1353.0,
          -1300.0,
          -1275.0,
          -1194.0,
          -1038.0,
          -1061.0,
          -1115.0,
          -1103.0,
          -1109.0,
          -1117.0,
          -1200.0,
          -1145.0,
          -1066.0,
          -1042.0,
          -1179.0,
          -1380.0,
          -1357.0,
          -1272.0,
          -1216.0,
          -1100.0,
          -1015.0,
          -909.0,
          -797.0,
          -750.0,
          -750.0
        ]
      }
    }
  ]
}