{
  "type": "FeatureCollection",
  "features": [
    {
      "type": "Feature",
      "geometry": {
        "type": "LineString",
        "coordinates": [
          [
            1.3744,
            38.8733
          ],
          [
            1.3905,
            38.8788
          ],
          [
            1.4051,
            38.881
          ],
          [
            1.4243,
            38.8836
          ],
          [
            1.441,
            38.8866
          ],
          [
            1.4598,
            38.8905
          ],
          [
            1.4786,
            38.8948
          ],
          [
            1.4968,
            38.8988
          ],
          [
            1.5315,
            38.9061
          ],
          [
            1.5506,
            38.9165
          ],
          [
            1.558,
            38.934
          ],
          [
            1.5581,
            38.9619
          ],
          [
            1.5522,
            38.9996
          ],
          [
            1.5483,
            39.0285
          ],
          [
            1.5563,
            39.0564
          ],
          [
            1.5707,
            39.0965
          ],
          [
            1.5864,
            39.1408
          ],
          [
            1.6023,
            39.1861
          ],
          [
            1.6058,
            39.2165
          ],
          [
            1.5874,
            39.2873
          ],
          [
            1.5715,
            39.3358
          ],
          [
            1.5554,
            39.3892
          ],
          [
            1.5404,
            39.4415
          ],
          [
            1.5254,
            39.4937
          ],
          [
            1.5102,
            39.5473
          ],
          [
            1.4946,
            39.6018
          ],
          [
            1.4792,
            39.6567
          ],
          [
            1.4635,
            39.7122
          ],
          [
            1.4487,
            39.7642
          ],
          [
            1.4346,
            39.8139
          ],
          [
            1.4194,
            39.8677
          ],
          [
            1.4054,
            39.9172
          ],
          [
            1.3905,
            39.9688
          ],
          [
            1.3752,
            40.0228
          ],
          [
            1.36,
            40.0757
          ],
          [
            1.346,
            40.1249
          ],
          [
            1.3314,
            40.176
          ],
          [
            1.3158,
            40.2304
          ],
          [
            1.3011,
            40.2815
          ],
          [
            1.2867,
            40.332
          ],
          [
            1.2733,
            40.4003
          ],
          [
            1.27,
            40.4319
          ],
          [
            1.2565,
            40.462
          ],
          [
            1.2352,
            40.4907
          ],
          [
            1.1992,
            40.5315
          ],
          [
            1.1644,
            40.569
          ],
          [
            1.1348,
            40.6029
          ],
          [
            1.1044,
            40.638
          ],
          [
            1.0758,
            40.6708
          ],
          [
            1.047,
            40.7041
          ],
          [
            1.0176,
            40.7382
          ],
          [
            0.9913,
            40.7683
          ],
          [
            0.9626,
            40.8014
          ],
          [
            0.9355,
            40.8329
          ],
          [
            0.9089,
            40.8633
          ],
          [
            0.8946,
            40.8796
          ],
          [
            0.8707,
            40.9073
          ],
          [
            0.8459,
            40.936
          ],
          [
            0.8349,
            40.9528
          ],
          [
            0.8253,
            40.9704
          ],
          [
            0.8102,
            41.0002
          ],
          [
            0.8148,
            41.0164
          ],
          [
            0.8377,
            41.0332
          ],
          [
            0.8559,
            41.0413
          ],
          [
            0.881,
            41.0504
          ],
          [
            0.9263,
            41.066
          ],
          [
            0.9442,
            41.073
          ],
          [
            0.9767,
            41.0856
          ]
        ]
      },
      "properties": {
        "time_europe_berlin": [
          "15.10.2025 13:06:16",
          "15.10.2025 13:06:36",
          "15.10.2025 13:06:52",
          "15.10.2025 13:07:11",
          "15.10.2025 13:07:27",
          "15.10.2025 13:07:43",
          "15.10.2025 13:08:00",
          "15.10.2025 13:08:16",
          "15.10.2025 13:08:45",
          "15.10.2025 13:09:03",
          "15.10.2025 13:09:22",
          "15.10.2025 13:09:49",
          "15.10.2025 13:10:20",
          "15.10.2025 13:10:44",
          "15.10.2025 13:11:05",
          "15.10.2025 13:11:37",
          "15.10.2025 13:12:07",
          "15.10.2025 13:12:37",
          "15.10.2025 13:12:56",
          "15.10.2025 13:13:41",
          "15.10.2025 13:14:11",
          "15.10.2025 13:14:41",
          "15.10.2025 13:15:11",
          "15.10.2025 13:15:41",
          "15.10.2025 13:16:11",
          "15.10.2025 13:16:44",
          "15.10.2025 13:17:16",
          "15.10.2025 13:17:48",
          "15.10.2025 13:18:19",
          "15.10.2025 13:18:49",
          "15.10.2025 13:19:19",
          "15.10.2025 13:19:49",
          "15.10.2025 13:20:19",
          "15.10.2025 13:20:50",
          "15.10.2025 13:21:20",
          "15.10.2025 13:21:50",
          "15.10.2025 13:22:20",
          "15.10.2025 13:22:52",
          "15.10.2025 13:23:22",
          "15.10.2025 13:23:52",
          "15.10.2025 13:24:34",
          "15.10.2025 13:24:52",
          "15.10.2025 13:25:11",
          "15.10.2025 13:25:32",
          "15.10.2025 13:26:03",
          "15.10.2025 13:26:33",
          "15.10.2025 13:27:03",
          "15.10.2025 13:27:33",
          "15.10.2025 13:28:03",
          "15.10.2025 13:28:33",
          "15.10.2025 13:29:03",
          "15.10.2025 13:29:33",
          "15.10.2025 13:30:04",
          "15.10.2025 13:30:34",
          "15.10.2025 13:31:06",
          "15.10.2025 13:31:23",
          "15.10.2025 13:31:53",
          "15.10.2025 13:32:25",
          "15.10.2025 13:32:42",
          "15.10.2025 13:33:01",
          "15.10.2025 13:33:32",
          "15.10.2025 13:33:49",
          "15.10.2025 13:34:14",
          "15.10.2025 13:34:30",
          "15.10.2025 13:34:50",
          "15.10.2025 13:35:26",
          "15.10.2025 13:35:42",
          "15.10.2025 13:36:14"
        ],
        "course_deg_clockwise_from_north": [
          "63",
          "75",
          "81",
          "78",
          "76",
          "74",
          "74",
          "75",
          "74",
          "33",
          "8",
          "356",
          "352",
          "4",
          "15",
          "16",
          "15",
          "15",
          "356",
          "346",
          "346",
          "348",
          "347",
          "348",
          "347",
          "348",
          "348",
          "348",
          "348",
          "348",
          "348",
          "347",
          "348",
          "348",
          "347",
          "348",
          "348",
          "347",
          "348",
          "348",
          "355",
          "353",
          "335",
          "328",
          "325",
          "326",
          "327",
          "327",
          "327",
          "327",
          "327",
          "327",
          "327",
          "327",
          "326",
          "327",
          "327",
          "328",
          "336",
          "338",
          "344",
          "29",
          "56",
          "62",
          "66",
          "64",
          "62",
          "64"
        ],
        "speed_kts": [
          "144",
          "155",
          "164",
          "179",
          "194",
          "198",
          "192",
          "202",
          "219",
          "211",
          "212",
          "239",
          "270",
          "283",
          "288",
          "303",
          "334",
          "345",
          "345",
          "353",
          "366",
          "390",
          "396",
          "387",
          "379",
          "375",
          "375",
          "381",
          "380",
          "378",
          "376",
          "376",
          "380",
          "378",
          "377",
          "377",
          "377",
          "375",
          "371",
          "365",
          "364",
          "369",
          "366",
          "359",
          "332",
          "307",
          "292",
          "291",
          "292",
          "283",
          "275",
          "274",
          "271",
          "266",
          "239",
          "241",
          "236",
          "235",
          "228",
          "216",
          "220",
          "209",
          "217",
          "220",
          "226",
          "219",
          "196",
          "183"
        ],
        "speed_mph": [
          "166",
          "178",
          "189",
          "206",
          "223",
          "228",
          "221",
          "232",
          "252",
          "243",
          "244",
          "275",
          "311",
          "326",
          "331",
          "349",
          "384",
          "397",
          "397",
          "406",
          "421",
          "449",
          "456",
          "445",
          "436",
          "432",
          "432",
          "438",
          "437",
          "435",
          "433",
          "433",
          "437",
          "435",
          "434",
          "434",
          "434",
          "432",
          "427",
          "420",
          "419",
          "425",
          "421",
          "413",
          "382",
          "353",
          "336",
          "335",
          "336",
          "326",
          "316",
          "315",
          "312",
          "306",
          "275",
          "277",
          "272",
          "270",
          "262",
          "249",
          "253",
          "241",
          "250",
          "253",
          "260",
          "252",
          "226",
          "211"
        ],
        "altitude_ft": [
          "50",
          "975",
          "1800",
          "2625",
          "3050",
          "3325",
          "3750",
          "4275",
          "5100",
          "5600",
          "6375",
          "7500",
          "8925",
          "10275",
          "11800",
          "14075",
          "15625",
          "17550",
          "18700",
          "21250",
          "22650",
          "23575",
          "23975",
          "24000",
          "24000",
          "24000",
          "23900",
          "23350",
          "22825",
          "22350",
          "21800",
          "21200",
          "20550",
          "19925",
          "19300",
          "18725",
          "18100",
          "17425",
          "16825",
          "16175",
          "15400",
          "14800",
          "14075",
          "13400",
          "12375",
          "11575",
          "10825",
          "10075",
          "9300",
          "8525",
          "7725",
          "7000",
          "6425",
          "5925",
          "5800",
          "5425",
          "4925",
          "4400",
          "4300",
          "4300",
          "4300",
          "4350",
          "4325",
          "4275",
          "3800",
          "2875",
          "2875",
          "2525"
        ],
        "vertical_rate_fpm": [
          "",
          "2917",
          "2829",
          "2143",
          "1313",
          "1273",
          "1727",
          "1800",
          "1691",
          "2068",
          "2478",
          "2638",
          "3027",
          "3833",
          "4302",
          "3702",
          "3475",
          "3765",
          "3469",
          "3160",
          "2325",
          "1325",
          "425",
          "25",
          "",
          "-92",
          "-609",
          "-1024",
          "-984",
          "-1025",
          "-1150",
          "-1250",
          "-1254",
          "-1230",
          "-1200",
          "-1200",
          "-1258",
          "-1234",
          "-1250",
          "-1188",
          "-1375",
          "-2149",
          "-2100",
          "-1962",
          "-1795",
          "-1550",
          "-1500",
          "-1525",
          "-1550",
          "-1575",
          "-1525",
          "-1279",
          "-1057",
          "-605",
          "-612",
          "-1117",
          "-992",
          "-765",
          "-167",
          "",
          "63",
          "36",
          "-110",
          "-875",
          "-1500",
          "-1067",
          "-438",
          "-656"
        ],
        "reporting_facility": [
          "FlightAware ADS-B(IBZ / LEIB)",
          "FlightAware ADS-B(IBZ / LEIB)",
          "FlightAware ADS-B(IBZ / LEIB)",
          "FlightAware ADS-B(IBZ / LEIB)",
          "FlightAware ADS-B(IBZ / LEIB)",
          "FlightAware ADS-B(IBZ / LEIB)",
          "FlightAware ADS-B(PMI / LEPA)",
          "FlightAware ADS-B(IBZ / LEIB)",
          "FlightAware ADS-B(LEMU)",
          "FlightAware ADS-B(PMI / LEPA)",
          "FlightAware ADS-B(MAD / LEMD)",
          "FlightAware ADS-B(IBZ / LEIB)",
          "FlightAware ADS-B(PMI / LEPA)",
          "FlightAware ADS-B(PMI / LEPA)",
          "FlightAware ADS-B(PMI / LEPA)",
          "FlightAware ADS-B(RMU / LEMI)",
          "FlightAware ADS-B(RMU / LEMI)",
          "FlightAware ADS-B(RMU / LEMI)",
          "FlightAware ADS-B(RMU / LEMI)",
          "FlightAware ADS-B(VLC / LEVC)",
          "FlightAware ADS-B(BCN / LEBL)",
          "FlightAware ADS-B(VLC / LEVC)",
          "FlightAware ADS-B(PMI / LEPA)",
          "FlightAware ADS-B(PMI / LEPA)",
          "FlightAware ADS-B(PMI / LEPA)",
          "FlightAware ADS-B(MAD / LEMD)",
          "FlightAware ADS-B(PMI / LEPA)",
          "FlightAware ADS-B(CDT / LECH)",
          "FlightAware ADS-B(MJV / LELC)",
          "FlightAware ADS-B(VLC / LEVC)",
          "FlightAware ADS-B(RMU / LEMI)",
          "FlightAware ADS-B(LELL)",
          "FlightAware ADS-B(VLC / LEVC)",
          "FlightAware ADS-B(REU / LERS)",
          "FlightAware ADS-B(VLC / LEVC)",
          "FlightAware ADS-B(REU / LERS)",
          "FlightAware ADS-B(LELL)",
          "FlightAware ADS-B(LEMN)",
          "FlightAware ADS-B(BCN / LEBL)",
          "FlightAware ADS-B(VLC / LEVC)",
          "FlightAware ADS-B(PMI / LEPA)",
          "FlightAware ADS-B(LEMN)",
          "FlightAware ADS-B(REU / LERS)",
          "FlightAware ADS-B(REU / LERS)",
          "FlightAware ADS-B(LEMN)",
          "FlightAware ADS-B(LEMN)",
          "FlightAware ADS-B(REU / LERS)",
          "FlightAware ADS-B(REU / LERS)",
          "FlightAware ADS-B(MAD / LEMD)",
          "FlightAware ADS-B(BCN / LEBL)",
          "FlightAware ADS-B(VLC / LEVC)",
          "FlightAware ADS-B(MAD / LEMD)",
          "FlightAware ADS-B(BCN / LEBL)",
          "FlightAware ADS-B(BCN / LEBL)",
          "FlightAware ADS-B(BCN / LEBL)",
          "FlightAware ADS-B(REU / LERS)",
          "FlightAware ADS-B(REU / LERS)",
          "FlightAware ADS-B(REU / LERS)",
          "FlightAware ADS-B(LEMN)",
          "FlightAware ADS-B(LEMN)",
          "FlightAware ADS-B(REU / LERS)",
          "FlightAware ADS-B(REU / LERS)",
          "FlightAware ADS-B(REU / LERS)",
          "FlightAware ADS-B(REU / LERS)",
          "FlightAware ADS-B(REU / LERS)",
          "FlightAware ADS-B(REU / LERS)",
          "FlightAware ADS-B(REU / LERS)",
          "FlightAware ADS-B(REU / LERS)"
        ]
      }
    }
  ]
}