{
  "type": "FeatureCollection",
  "features": [
    {
      "type": "Feature",
      "geometry": {
        "type": "LineString",
        "coordinates": [
          [
            28.7903,
            36.7065
          ],
          [
            28.7858,
            36.6931
          ],
          [
            28.7821,
            36.682
          ],
          [
            28.7773,
            36.6687
          ],
          [
            28.7724,
            36.6552
          ],
          [
            28.7655,
            36.638
          ],
          [
            28.7538,
            36.6284
          ],
          [
            28.7321,
            36.626
          ],
          [
            28.7107,
            36.6333
          ],
          [
            28.6956,
            36.6487
          ],
          [
            28.6767,
            36.6751
          ],
          [
            28.6453,
            36.7177
          ],
          [
            28.6215,
            36.7487
          ],
          [
            28.5983,
            36.7794
          ],
          [
            28.5727,
            36.8129
          ],
          [
            28.5473,
            36.846
          ],
          [
            28.5203,
            36.881
          ],
          [
            28.4922,
            36.9177
          ],
          [
            28.4724,
            36.9377
          ],
          [
            28.4115,
            36.9731
          ],
          [
            28.363,
            36.9987
          ],
          [
            28.3066,
            37.0308
          ],
          [
            28.2549,
            37.0595
          ],
          [
            28.2039,
            37.0881
          ],
          [
            28.15,
            37.1182
          ],
          [
            28.096,
            37.1485
          ],
          [
            28.0407,
            37.179
          ],
          [
            27.9865,
            37.2098
          ],
          [
            27.9195,
            37.2466
          ],
          [
            27.8584,
            37.2807
          ],
          [
            27.8009,
            37.3127
          ],
          [
            27.7419,
            37.3454
          ],
          [
            27.6865,
            37.3762
          ],
          [
            27.6257,
            37.4092
          ],
          [
            27.5698,
            37.4404
          ],
          [
            27.512,
            37.4724
          ],
          [
            27.4715,
            37.5037
          ],
          [
            27.4324,
            37.5525
          ],
          [
            27.4005,
            37.6045
          ],
          [
            27.3707,
            37.6585
          ],
          [
            27.3428,
            37.7101
          ],
          [
            27.3143,
            37.7614
          ],
          [
            27.2849,
            37.8144
          ],
          [
            27.2545,
            37.8697
          ],
          [
            27.2245,
            37.9246
          ],
          [
            27.1967,
            37.975
          ],
          [
            27.1612,
            38.0213
          ],
          [
            27.1189,
            38.0686
          ],
          [
            27.0741,
            38.118
          ],
          [
            27.0299,
            38.1684
          ],
          [
            26.9862,
            38.2174
          ],
          [
            26.9434,
            38.2657
          ],
          [
            26.9001,
            38.3142
          ],
          [
            26.8576,
            38.362
          ],
          [
            26.815,
            38.4096
          ],
          [
            26.7748,
            38.4543
          ],
          [
            26.7318,
            38.5028
          ],
          [
            26.6895,
            38.5499
          ],
          [
            26.6437,
            38.6005
          ],
          [
            26.6033,
            38.6458
          ],
          [
            26.5571,
            38.6967
          ],
          [
            26.5128,
            38.7459
          ],
          [
            26.484,
            38.7746
          ],
          [
            26.3975,
            38.8289
          ],
          [
            26.3355,
            38.8618
          ],
          [
            26.2743,
            38.8949
          ],
          [
            26.2149,
            38.9274
          ],
          [
            26.1514,
            38.9621
          ],
          [
            26.0918,
            38.9943
          ],
          [
            26.0309,
            39.0277
          ],
          [
            25.9676,
            39.0619
          ],
          [
            25.9068,
            39.0948
          ],
          [
            25.848,
            39.1267
          ],
          [
            25.7859,
            39.1603
          ],
          [
            25.7236,
            39.1937
          ],
          [
            25.6615,
            39.2272
          ],
          [
            25.5995,
            39.2603
          ],
          [
            25.5339,
            39.2956
          ],
          [
            25.4718,
            39.3288
          ],
          [
            25.4121,
            39.3608
          ],
          [
            25.3472,
            39.3952
          ],
          [
            25.2856,
            39.428
          ],
          [
            25.2219,
            39.4618
          ],
          [
            25.1593,
            39.4948
          ],
          [
            25.0964,
            39.5283
          ],
          [
            25.0336,
            39.5613
          ],
          [
            24.9688,
            39.5956
          ],
          [
            24.9078,
            39.6274
          ],
          [
            24.8428,
            39.6615
          ],
          [
            24.781,
            39.6938
          ],
          [
            24.7196,
            39.7259
          ],
          [
            24.6566,
            39.7589
          ],
          [
            24.5929,
            39.7918
          ],
          [
            24.5309,
            39.8239
          ],
          [
            24.4695,
            39.856
          ],
          [
            24.4031,
            39.8903
          ],
          [
            24.3417,
            39.9219
          ],
          [
            24.2777,
            39.9549
          ],
          [
            24.213,
            39.9878
          ],
          [
            24.1498,
            40.0206
          ],
          [
            24.0865,
            40.053
          ],
          [
            24.02,
            40.0867
          ],
          [
            23.9562,
            40.1194
          ],
          [
            23.891,
            40.1525
          ],
          [
            23.8279,
            40.1845
          ],
          [
            23.7637,
            40.2171
          ],
          [
            23.6995,
            40.2497
          ],
          [
            23.6355,
            40.2818
          ],
          [
            23.5705,
            40.3146
          ],
          [
            23.5063,
            40.3469
          ],
          [
            23.4401,
            40.38
          ],
          [
            23.3768,
            40.4117
          ],
          [
            23.3141,
            40.4432
          ],
          [
            23.2498,
            40.475
          ],
          [
            23.1834,
            40.508
          ],
          [
            23.1191,
            40.54
          ],
          [
            23.0526,
            40.5731
          ],
          [
            22.9867,
            40.6055
          ],
          [
            22.9222,
            40.6373
          ],
          [
            22.859,
            40.668
          ],
          [
            22.7955,
            40.6999
          ],
          [
            22.7289,
            40.7321
          ],
          [
            22.6661,
            40.763
          ],
          [
            22.6012,
            40.7948
          ],
          [
            22.5395,
            40.8246
          ],
          [
            22.4737,
            40.8565
          ],
          [
            22.411,
            40.887
          ],
          [
            22.3421,
            40.9206
          ],
          [
            22.2783,
            40.951
          ],
          [
            22.2091,
            40.9846
          ],
          [
            22.1448,
            41.0153
          ],
          [
            22.0831,
            41.0452
          ],
          [
            22.0137,
            41.0783
          ],
          [
            21.9514,
            41.108
          ],
          [
            21.8853,
            41.1397
          ],
          [
            21.8202,
            41.1703
          ],
          [
            21.7592,
            41.1994
          ],
          [
            21.689,
            41.2328
          ],
          [
            21.6239,
            41.2637
          ],
          [
            21.5552,
            41.2958
          ],
          [
            21.4918,
            41.3258
          ],
          [
            21.4255,
            41.3569
          ],
          [
            21.3609,
            41.3873
          ],
          [
            21.2973,
            41.4169
          ],
          [
            21.2257,
            41.4502
          ],
          [
            21.1642,
            41.4791
          ],
          [
            21.0963,
            41.5105
          ],
          [
            21.0319,
            41.5403
          ],
          [
            20.9676,
            41.5701
          ],
          [
            20.8978,
            41.6024
          ],
          [
            20.8329,
            41.632
          ],
          [
            20.7677,
            41.6622
          ],
          [
            20.6994,
            41.6934
          ],
          [
            20.6338,
            41.7236
          ],
          [
            20.5686,
            41.7533
          ],
          [
            20.5303,
            41.7693
          ],
          [
            20.4818,
            41.7853
          ],
          [
            20.4316,
            41.7998
          ],
          [
            20.3497,
            41.822
          ],
          [
            20.2769,
            41.8441
          ],
          [
            20.2064,
            41.8689
          ],
          [
            20.1354,
            41.8937
          ],
          [
            20.0669,
            41.9177
          ],
          [
            19.9945,
            41.9424
          ],
          [
            19.9231,
            41.9673
          ],
          [
            19.8562,
            41.9898
          ],
          [
            19.7869,
            42.014
          ],
          [
            19.7173,
            42.0377
          ],
          [
            19.6426,
            42.0629
          ],
          [
            19.5723,
            42.087
          ],
          [
            19.497,
            42.1125
          ],
          [
            19.421,
            42.1383
          ],
          [
            19.3463,
            42.1633
          ],
          [
            19.2355,
            42.1961
          ],
          [
            19.1552,
            42.2174
          ],
          [
            19.0766,
            42.2388
          ],
          [
            18.9998,
            42.2599
          ],
          [
            18.927,
            42.2796
          ],
          [
            18.8536,
            42.2993
          ],
          [
            18.7882,
            42.3172
          ],
          [
            18.7192,
            42.3357
          ],
          [
            18.6524,
            42.3536
          ],
          [
            18.5858,
            42.3714
          ],
          [
            18.5227,
            42.3884
          ],
          [
            18.4643,
            42.4033
          ],
          [
            18.4023,
            42.4204
          ],
          [
            18.3483,
            42.4346
          ],
          [
            18.2937,
            42.4487
          ],
          [
            18.2401,
            42.4632
          ],
          [
            18.1865,
            42.4771
          ],
          [
            18.1329,
            42.491
          ],
          [
            18.0835,
            42.5043
          ],
          [
            18.0465,
            42.5158
          ],
          [
            18.0118,
            42.529
          ],
          [
            17.9698,
            42.5466
          ],
          [
            17.9543,
            42.5584
          ],
          [
            17.9497,
            42.5744
          ],
          [
            17.9527,
            42.5911
          ],
          [
            17.9671,
            42.6178
          ],
          [
            17.9763,
            42.6304
          ],
          [
            17.99,
            42.6474
          ],
          [
            18.008,
            42.6579
          ],
          [
            18.0319,
            42.6562
          ],
          [
            18.0524,
            42.6496
          ],
          [
            18.0798,
            42.6353
          ],
          [
            18.0988,
            42.6281
          ],
          [
            18.1186,
            42.6205
          ],
          [
            18.1489,
            42.6086
          ],
          [
            18.176,
            42.5977
          ],
          [
            18.1845,
            42.5944
          ],
          [
            18.1926,
            42.5913
          ],
          [
            18.2079,
            42.5851
          ],
          [
            18.2232,
            42.5792
          ],
          [
            18.2348,
            42.5746
          ],
          [
            18.2474,
            42.5696
          ]
        ]
      },
      "properties": {
        "time_europe_berlin": [
          "31.10.2025 13:32:43",
          "31.10.2025 13:33:02",
          "31.10.2025 13:33:18",
          "31.10.2025 13:33:34",
          "31.10.2025 13:33:50",
          "31.10.2025 13:34:10",
          "31.10.2025 13:34:26",
          "31.10.2025 13:34:46",
          "31.10.2025 13:35:06",
          "31.10.2025 13:35:26",
          "31.10.2025 13:35:56",
          "31.10.2025 13:36:41",
          "31.10.2025 13:37:13",
          "31.10.2025 13:37:43",
          "31.10.2025 13:38:16",
          "31.10.2025 13:38:46",
          "31.10.2025 13:39:16",
          "31.10.2025 13:39:46",
          "31.10.2025 13:40:04",
          "31.10.2025 13:40:45",
          "31.10.2025 13:41:16",
          "31.10.2025 13:41:52",
          "31.10.2025 13:42:22",
          "31.10.2025 13:42:52",
          "31.10.2025 13:43:22",
          "31.10.2025 13:43:52",
          "31.10.2025 13:44:22",
          "31.10.2025 13:44:52",
          "31.10.2025 13:45:28",
          "31.10.2025 13:46:00",
          "31.10.2025 13:46:30",
          "31.10.2025 13:47:01",
          "31.10.2025 13:47:31",
          "31.10.2025 13:48:01",
          "31.10.2025 13:48:31",
          "31.10.2025 13:49:01",
          "31.10.2025 13:49:26",
          "31.10.2025 13:49:55",
          "31.10.2025 13:50:25",
          "31.10.2025 13:50:55",
          "31.10.2025 13:51:25",
          "31.10.2025 13:51:55",
          "31.10.2025 13:52:25",
          "31.10.2025 13:52:55",
          "31.10.2025 13:53:25",
          "31.10.2025 13:53:53",
          "31.10.2025 13:54:20",
          "31.10.2025 13:54:50",
          "31.10.2025 13:55:20",
          "31.10.2025 13:55:50",
          "31.10.2025 13:56:20",
          "31.10.2025 13:56:50",
          "31.10.2025 13:57:21",
          "31.10.2025 13:57:51",
          "31.10.2025 13:58:21",
          "31.10.2025 13:58:51",
          "31.10.2025 13:59:21",
          "31.10.2025 13:59:51",
          "31.10.2025 14:00:21",
          "31.10.2025 14:00:51",
          "31.10.2025 14:01:21",
          "31.10.2025 14:01:51",
          "31.10.2025 14:02:09",
          "31.10.2025 14:02:53",
          "31.10.2025 14:03:23",
          "31.10.2025 14:03:53",
          "31.10.2025 14:04:23",
          "31.10.2025 14:04:53",
          "31.10.2025 14:05:23",
          "31.10.2025 14:05:53",
          "31.10.2025 14:06:23",
          "31.10.2025 14:06:53",
          "31.10.2025 14:07:23",
          "31.10.2025 14:07:53",
          "31.10.2025 14:08:23",
          "31.10.2025 14:08:54",
          "31.10.2025 14:09:25",
          "31.10.2025 14:09:56",
          "31.10.2025 14:10:26",
          "31.10.2025 14:10:56",
          "31.10.2025 14:11:27",
          "31.10.2025 14:11:57",
          "31.10.2025 14:12:27",
          "31.10.2025 14:12:58",
          "31.10.2025 14:13:28",
          "31.10.2025 14:13:58",
          "31.10.2025 14:14:28",
          "31.10.2025 14:14:59",
          "31.10.2025 14:15:29",
          "31.10.2025 14:15:59",
          "31.10.2025 14:16:29",
          "31.10.2025 14:16:59",
          "31.10.2025 14:17:29",
          "31.10.2025 14:17:59",
          "31.10.2025 14:18:29",
          "31.10.2025 14:19:00",
          "31.10.2025 14:19:30",
          "31.10.2025 14:20:00",
          "31.10.2025 14:20:30",
          "31.10.2025 14:21:00",
          "31.10.2025 14:21:30",
          "31.10.2025 14:22:01",
          "31.10.2025 14:22:33",
          "31.10.2025 14:23:03",
          "31.10.2025 14:23:33",
          "31.10.2025 14:24:03",
          "31.10.2025 14:24:33",
          "31.10.2025 14:25:04",
          "31.10.2025 14:25:34",
          "31.10.2025 14:26:04",
          "31.10.2025 14:26:35",
          "31.10.2025 14:27:05",
          "31.10.2025 14:27:35",
          "31.10.2025 14:28:05",
          "31.10.2025 14:28:35",
          "31.10.2025 14:29:06",
          "31.10.2025 14:29:37",
          "31.10.2025 14:30:07",
          "31.10.2025 14:30:37",
          "31.10.2025 14:31:07",
          "31.10.2025 14:31:37",
          "31.10.2025 14:32:07",
          "31.10.2025 14:32:37",
          "31.10.2025 14:33:07",
          "31.10.2025 14:33:37",
          "31.10.2025 14:34:07",
          "31.10.2025 14:34:37",
          "31.10.2025 14:35:09",
          "31.10.2025 14:35:39",
          "31.10.2025 14:36:10",
          "31.10.2025 14:36:40",
          "31.10.2025 14:37:10",
          "31.10.2025 14:37:42",
          "31.10.2025 14:38:12",
          "31.10.2025 14:38:42",
          "31.10.2025 14:39:12",
          "31.10.2025 14:39:42",
          "31.10.2025 14:40:14",
          "31.10.2025 14:40:45",
          "31.10.2025 14:41:16",
          "31.10.2025 14:41:46",
          "31.10.2025 14:42:16",
          "31.10.2025 14:42:46",
          "31.10.2025 14:43:16",
          "31.10.2025 14:43:47",
          "31.10.2025 14:44:17",
          "31.10.2025 14:44:47",
          "31.10.2025 14:45:17",
          "31.10.2025 14:45:47",
          "31.10.2025 14:46:19",
          "31.10.2025 14:46:49",
          "31.10.2025 14:47:19",
          "31.10.2025 14:47:50",
          "31.10.2025 14:48:21",
          "31.10.2025 14:48:52",
          "31.10.2025 14:49:10",
          "31.10.2025 14:49:31",
          "31.10.2025 14:49:52",
          "31.10.2025 14:50:27",
          "31.10.2025 14:50:57",
          "31.10.2025 14:51:28",
          "31.10.2025 14:51:59",
          "31.10.2025 14:52:29",
          "31.10.2025 14:53:01",
          "31.10.2025 14:53:31",
          "31.10.2025 14:54:01",
          "31.10.2025 14:54:31",
          "31.10.2025 14:55:01",
          "31.10.2025 14:55:33",
          "31.10.2025 14:56:03",
          "31.10.2025 14:56:34",
          "31.10.2025 14:57:04",
          "31.10.2025 14:57:34",
          "31.10.2025 14:58:17",
          "31.10.2025 14:58:49",
          "31.10.2025 14:59:20",
          "31.10.2025 14:59:51",
          "31.10.2025 15:00:21",
          "31.10.2025 15:00:51",
          "31.10.2025 15:01:21",
          "31.10.2025 15:01:51",
          "31.10.2025 15:02:21",
          "31.10.2025 15:02:51",
          "31.10.2025 15:03:21",
          "31.10.2025 15:03:51",
          "31.10.2025 15:04:21",
          "31.10.2025 15:04:51",
          "31.10.2025 15:05:21",
          "31.10.2025 15:05:51",
          "31.10.2025 15:06:21",
          "31.10.2025 15:06:52",
          "31.10.2025 15:07:22",
          "31.10.2025 15:07:47",
          "31.10.2025 15:08:10",
          "31.10.2025 15:08:40",
          "31.10.2025 15:08:56",
          "31.10.2025 15:09:13",
          "31.10.2025 15:09:30",
          "31.10.2025 15:10:00",
          "31.10.2025 15:10:16",
          "31.10.2025 15:10:39",
          "31.10.2025 15:10:59",
          "31.10.2025 15:11:19",
          "31.10.2025 15:11:39",
          "31.10.2025 15:12:09",
          "31.10.2025 15:12:29",
          "31.10.2025 15:12:49",
          "31.10.2025 15:13:20",
          "31.10.2025 15:13:50",
          "31.10.2025 15:14:00",
          "31.10.2025 15:14:10",
          "31.10.2025 15:14:30",
          "31.10.2025 15:14:50",
          "31.10.2025 15:15:06",
          "31.10.2025 15:15:23"
        ],
        "course_deg_clockwise_from_north": [
          "195",
          "195",
          "196",
          "196",
          "197",
          "205",
          "244",
          "273",
          "313",
          "328",
          "331",
          "329",
          "329",
          "328",
          "328",
          "329",
          "328",
          "328",
          "313",
          "304",
          "304",
          "306",
          "305",
          "305",
          "305",
          "305",
          "305",
          "305",
          "304",
          "305",
          "304",
          "305",
          "304",
          "305",
          "304",
          "305",
          "322",
          "332",
          "336",
          "337",
          "336",
          "336",
          "336",
          "336",
          "336",
          "334",
          "326",
          "324",
          "325",
          "325",
          "325",
          "325",
          "325",
          "325",
          "325",
          "325",
          "325",
          "325",
          "325",
          "325",
          "325",
          "325",
          "317",
          "305",
          "304",
          "305",
          "306",
          "305",
          "305",
          "305",
          "305",
          "305",
          "305",
          "305",
          "305",
          "305",
          "305",
          "304",
          "304",
          "304",
          "305",
          "305",
          "304",
          "304",
          "304",
          "304",
          "304",
          "304",
          "305",
          "304",
          "304",
          "304",
          "304",
          "304",
          "304",
          "304",
          "304",
          "304",
          "304",
          "303",
          "304",
          "303",
          "304",
          "303",
          "303",
          "304",
          "303",
          "303",
          "303",
          "303",
          "303",
          "303",
          "304",
          "303",
          "303",
          "304",
          "303",
          "303",
          "303",
          "303",
          "302",
          "303",
          "303",
          "302",
          "303",
          "303",
          "303",
          "303",
          "303",
          "303",
          "303",
          "302",
          "302",
          "302",
          "302",
          "302",
          "302",
          "302",
          "302",
          "302",
          "302",
          "302",
          "302",
          "302",
          "302",
          "302",
          "301",
          "302",
          "302",
          "302",
          "301",
          "302",
          "301",
          "302",
          "301",
          "296",
          "292",
          "299",
          "291",
          "294",
          "296",
          "295",
          "295",
          "295",
          "295",
          "294",
          "295",
          "294",
          "295",
          "294",
          "294",
          "294",
          "294",
          "289",
          "290",
          "291",
          "290",
          "290",
          "290",
          "290",
          "290",
          "290",
          "290",
          "289",
          "290",
          "290",
          "289",
          "290",
          "290",
          "290",
          "290",
          "290",
          "296",
          "298",
          "301",
          "333",
          "359",
          "16",
          "26",
          "30",
          "31",
          "79",
          "107",
          "118",
          "119",
          "117",
          "118",
          "119",
          "118",
          "118",
          "118",
          "118",
          "119",
          "118",
          "118"
        ],
        "speed_kts": [
          "151",
          "160",
          "166",
          "181",
          "192",
          "193",
          "193",
          "196",
          "211",
          "215",
          "227",
          "242",
          "252",
          "259",
          "270",
          "287",
          "301",
          "314",
          "313",
          "323",
          "332",
          "346",
          "361",
          "371",
          "377",
          "382",
          "386",
          "391",
          "394",
          "396",
          "399",
          "401",
          "403",
          "405",
          "405",
          "407",
          "411",
          "414",
          "414",
          "415",
          "411",
          "410",
          "419",
          "428",
          "434",
          "433",
          "428",
          "428",
          "430",
          "432",
          "431",
          "425",
          "420",
          "416",
          "412",
          "414",
          "421",
          "426",
          "431",
          "433",
          "434",
          "435",
          "429",
          "422",
          "421",
          "420",
          "420",
          "419",
          "418",
          "419",
          "419",
          "419",
          "419",
          "419",
          "419",
          "418",
          "419",
          "420",
          "420",
          "420",
          "421",
          "420",
          "420",
          "421",
          "420",
          "421",
          "421",
          "421",
          "421",
          "421",
          "421",
          "422",
          "420",
          "421",
          "421",
          "421",
          "421",
          "422",
          "422",
          "422",
          "422",
          "422",
          "422",
          "421",
          "421",
          "420",
          "420",
          "420",
          "421",
          "421",
          "422",
          "422",
          "422",
          "422",
          "422",
          "422",
          "421",
          "420",
          "421",
          "420",
          "420",
          "419",
          "419",
          "417",
          "416",
          "417",
          "417",
          "415",
          "415",
          "416",
          "416",
          "416",
          "414",
          "413",
          "412",
          "412",
          "413",
          "413",
          "414",
          "415",
          "416",
          "417",
          "417",
          "417",
          "418",
          "418",
          "419",
          "418",
          "417",
          "415",
          "411",
          "407",
          "408",
          "402",
          "403",
          "404",
          "407",
          "295",
          "410",
          "411",
          "409",
          "407",
          "407",
          "406",
          "406",
          "406",
          "409",
          "417",
          "425",
          "435",
          "438",
          "440",
          "439",
          "436",
          "433",
          "430",
          "423",
          "413",
          "400",
          "388",
          "381",
          "373",
          "363",
          "355",
          "348",
          "323",
          "305",
          "303",
          "302",
          "299",
          "292",
          "269",
          "265",
          "264",
          "237",
          "223",
          "214",
          "210",
          "199",
          "191",
          "189",
          "188",
          "187",
          "181",
          "170",
          "174",
          "175",
          "167",
          "158",
          "150",
          "141",
          "137",
          "138",
          "136",
          "132"
        ],
        "speed_mph": [
          "174",
          "184",
          "191",
          "208",
          "221",
          "222",
          "222",
          "226",
          "243",
          "247",
          "261",
          "278",
          "290",
          "298",
          "311",
          "330",
          "346",
          "361",
          "360",
          "372",
          "382",
          "398",
          "415",
          "427",
          "434",
          "440",
          "444",
          "450",
          "453",
          "456",
          "459",
          "461",
          "464",
          "466",
          "466",
          "468",
          "473",
          "476",
          "476",
          "478",
          "473",
          "472",
          "482",
          "493",
          "499",
          "498",
          "493",
          "493",
          "495",
          "497",
          "496",
          "489",
          "483",
          "479",
          "474",
          "476",
          "484",
          "490",
          "496",
          "498",
          "499",
          "501",
          "494",
          "486",
          "484",
          "483",
          "483",
          "482",
          "481",
          "482",
          "482",
          "482",
          "482",
          "482",
          "482",
          "481",
          "482",
          "483",
          "483",
          "483",
          "484",
          "483",
          "483",
          "484",
          "483",
          "484",
          "484",
          "484",
          "484",
          "484",
          "484",
          "486",
          "483",
          "484",
          "484",
          "484",
          "484",
          "486",
          "486",
          "486",
          "486",
          "486",
          "486",
          "484",
          "484",
          "483",
          "483",
          "483",
          "484",
          "484",
          "486",
          "486",
          "486",
          "486",
          "486",
          "486",
          "484",
          "483",
          "484",
          "483",
          "483",
          "482",
          "482",
          "480",
          "479",
          "480",
          "480",
          "478",
          "478",
          "479",
          "479",
          "479",
          "476",
          "475",
          "474",
          "474",
          "475",
          "475",
          "476",
          "478",
          "479",
          "480",
          "480",
          "480",
          "481",
          "481",
          "482",
          "481",
          "480",
          "478",
          "473",
          "468",
          "470",
          "463",
          "464",
          "465",
          "468",
          "339",
          "472",
          "473",
          "471",
          "468",
          "468",
          "467",
          "467",
          "467",
          "471",
          "480",
          "489",
          "501",
          "504",
          "506",
          "505",
          "502",
          "498",
          "495",
          "487",
          "475",
          "460",
          "447",
          "438",
          "429",
          "418",
          "409",
          "400",
          "372",
          "351",
          "349",
          "348",
          "344",
          "336",
          "310",
          "305",
          "304",
          "273",
          "257",
          "246",
          "242",
          "229",
          "220",
          "217",
          "216",
          "215",
          "208",
          "196",
          "200",
          "201",
          "192",
          "182",
          "173",
          "162",
          "158",
          "159",
          "157",
          "152"
        ],
        "altitude_ft": [
          "325",
          "1175",
          "1925",
          "2625",
          "3275",
          "4275",
          "5000",
          "5975",
          "6650",
          "7600",
          "8875",
          "10775",
          "12075",
          "13300",
          "14475",
          "15475",
          "16475",
          "17500",
          "18050",
          "19425",
          "20425",
          "21450",
          "22225",
          "22950",
          "23700",
          "24425",
          "25150",
          "25875",
          "26750",
          "27525",
          "28275",
          "29025",
          "29725",
          "30475",
          "31175",
          "31875",
          "32500",
          "33250",
          "33975",
          "34700",
          "35425",
          "35950",
          "36000",
          "36000",
          "36000",
          "36000",
          "36175",
          "36575",
          "37000",
          "37400",
          "37800",
          "38275",
          "38775",
          "39275",
          "39750",
          "40000",
          "40000",
          "40000",
          "40000",
          "40000",
          "40000",
          "40000",
          "40000",
          "40000",
          "40000",
          "40000",
          "40000",
          "40000",
          "40000",
          "40000",
          "40000",
          "40000",
          "40000",
          "40000",
          "40000",
          "40000",
          "40000",
          "40000",
          "40000",
          "40000",
          "40000",
          "40000",
          "40000",
          "40000",
          "40000",
          "40000",
          "40000",
          "40000",
          "40000",
          "40000",
          "40000",
          "40000",
          "40000",
          "40000",
          "40000",
          "40000",
          "40000",
          "40000",
          "40000",
          "40000",
          "40000",
          "40000",
          "40000",
          "40000",
          "40000",
          "40000",
          "40000",
          "40000",
          "40000",
          "40000",
          "40000",
          "40000",
          "40000",
          "40000",
          "40000",
          "40000",
          "40000",
          "40000",
          "40000",
          "40000",
          "40000",
          "40000",
          "40000",
          "40000",
          "40000",
          "40000",
          "40000",
          "40000",
          "40000",
          "40000",
          "40000",
          "40000",
          "40000",
          "40000",
          "40000",
          "40000",
          "40000",
          "40000",
          "40000",
          "40000",
          "40000",
          "40000",
          "40000",
          "40000",
          "40000",
          "40000",
          "40000",
          "39725",
          "39275",
          "38775",
          "37850",
          "36850",
          "36075",
          "36000",
          "36000",
          "36000",
          "36000",
          "36000",
          "36000",
          "36000",
          "36000",
          "36000",
          "36000",
          "36000",
          "35350",
          "34650",
          "33875",
          "32950",
          "31900",
          "30925",
          "29800",
          "28625",
          "27550",
          "25950",
          "24800",
          "23675",
          "22550",
          "21450",
          "20350",
          "19300",
          "18200",
          "17075",
          "15975",
          "14875",
          "13850",
          "12675",
          "11650",
          "10525",
          "9425",
          "8325",
          "7250",
          "6350",
          "5800",
          "5300",
          "4900",
          "4800",
          "4500",
          "4125",
          "3675",
          "3650",
          "3650",
          "3375",
          "3000",
          "2775",
          "2475",
          "2475",
          "2450",
          "2025",
          "1550",
          "1425",
          "1300",
          "1075",
          "825",
          "650",
          "450"
        ],
        "vertical_rate_fpm": [
          "",
          "2743",
          "2719",
          "2531",
          "2750",
          "2875",
          "2833",
          "2475",
          "2438",
          "2670",
          "2540",
          "2494",
          "2444",
          "2286",
          "2071",
          "2000",
          "2025",
          "1969",
          "1958",
          "1979",
          "1813",
          "1636",
          "1500",
          "1475",
          "1475",
          "1450",
          "1450",
          "1455",
          "1456",
          "1476",
          "1475",
          "1426",
          "1450",
          "1450",
          "1400",
          "1445",
          "1528",
          "1500",
          "1450",
          "1450",
          "1250",
          "575",
          "50",
          "",
          "",
          "191",
          "605",
          "825",
          "825",
          "800",
          "875",
          "959",
          "984",
          "975",
          "725",
          "250",
          "",
          "",
          "",
          "",
          "",
          "",
          "",
          "",
          "",
          "",
          "",
          "",
          "",
          "",
          "",
          "",
          "",
          "",
          "",
          "",
          "",
          "",
          "",
          "",
          "",
          "",
          "",
          "",
          "",
          "",
          "",
          "",
          "",
          "",
          "",
          "",
          "",
          "",
          "",
          "",
          "",
          "",
          "",
          "",
          "",
          "",
          "",
          "",
          "",
          "",
          "",
          "",
          "",
          "",
          "",
          "",
          "",
          "",
          "",
          "",
          "",
          "",
          "",
          "",
          "",
          "",
          "",
          "",
          "",
          "",
          "",
          "",
          "",
          "",
          "",
          "",
          "",
          "",
          "",
          "",
          "",
          "",
          "",
          "",
          "",
          "",
          "",
          "",
          "",
          "",
          "-275",
          "-725",
          "-919",
          "-1379",
          "-1925",
          "-1746",
          "-823",
          "-73",
          "",
          "",
          "",
          "",
          "",
          "",
          "",
          "",
          "",
          "-629",
          "-1350",
          "-1475",
          "-1700",
          "-1911",
          "-1960",
          "-2066",
          "-2262",
          "-2250",
          "-2199",
          "-2200",
          "-2167",
          "-2177",
          "-2189",
          "-2200",
          "-2150",
          "-2150",
          "-2225",
          "-2225",
          "-2200",
          "-2125",
          "-2200",
          "-2200",
          "-2150",
          "-2225",
          "-2200",
          "-2139",
          "-1943",
          "-1582",
          "-1313",
          "-1019",
          "-652",
          "-727",
          "-1191",
          "-1053",
          "-620",
          "-38",
          "-384",
          "-975",
          "-900",
          "-630",
          "-360",
          "-38",
          "-529",
          "-885",
          "-900",
          "-750",
          "-700",
          "-713",
          "-708",
          "-682",
          "-706"
        ],
        "reporting_facility": [
          "FlightAware ADS-B(RHO / LGRP)",
          "FlightAware ADS-B(DLM / LTBS)",
          "FlightAware ADS-B(RHO / LGRP)",
          "FlightAware ADS-B(RHO / LGRP)",
          "FlightAware ADS-B(DLM / LTBS)",
          "FlightAware ADS-B(DLM / LTBS)",
          "FlightAware ADS-B(RHO / LGRP)",
          "FlightAware ADS-B(RHO / LGRP)",
          "FlightAware ADS-B(RHO / LGRP)",
          "FlightAware ADS-B(RHO / LGRP)",
          "FlightAware ADS-B(DLM / LTBS)",
          "FlightAware ADS-B(RHO / LGRP)",
          "FlightAware ADS-B(RHO / LGRP)",
          "FlightAware ADS-B(DLM / LTBS)",
          "FlightAware ADS-B(BJV / LTFE)",
          "FlightAware ADS-B(BJV / LTFE)",
          "FlightAware ADS-B(BJV / LTFE)",
          "FlightAware ADS-B(BJV / LTFE)",
          "FlightAware ADS-B(RHO / LGRP)",
          "FlightAware ADS-B(LTBD)",
          "FlightAware ADS-B(LTBD)",
          "FlightAware ADS-B(RHO / LGRP)",
          "FlightAware ADS-B(DLM / LTBS)",
          "FlightAware ADS-B(RHO / LGRP)",
          "FlightAware ADS-B(RHO / LGRP)",
          "FlightAware ADS-B(BJV / LTFE)",
          "FlightAware ADS-B(RHO / LGRP)",
          "FlightAware ADS-B(RHO / LGRP)",
          "FlightAware ADS-B(LTFA)",
          "FlightAware ADS-B(JKH / LGHI)",
          "FlightAware ADS-B(KGS / LGKO)",
          "FlightAware ADS-B(RHO / LGRP)",
          "FlightAware ADS-B(LTBV)",
          "FlightAware ADS-B(RHO / LGRP)",
          "FlightAware ADS-B(JKH / LGHI)",
          "FlightAware ADS-B(USQ / LTBO)",
          "FlightAware ADS-B(ADB / LTBJ)",
          "FlightAware ADS-B(JKH / LGHI)",
          "FlightAware ADS-B(JKH / LGHI)",
          "FlightAware ADS-B(SKU / LGSY)",
          "FlightAware ADS-B(JKH / LGHI)",
          "FlightAware ADS-B(JKH / LGHI)",
          "FlightAware ADS-B(RHO / LGRP)",
          "FlightAware ADS-B(RHO / LGRP)",
          "FlightAware ADS-B(RHO / LGRP)",
          "FlightAware ADS-B(JKH / LGHI)",
          "FlightAware ADS-B(RHO / LGRP)",
          "FlightAware ADS-B(ISL / LTBA)",
          "FlightAware ADS-B(RHO / LGRP)",
          "FlightAware ADS-B(KGS / LGKO)",
          "FlightAware ADS-B(KGS / LGKO)",
          "FlightAware ADS-B(RHO / LGRP)",
          "FlightAware ADS-B(KGS / LGKO)",
          "FlightAware ADS-B(KGS / LGKO)",
          "FlightAware ADS-B(KGS / LGKO)",
          "FlightAware ADS-B(MJT / LGMT)",
          "FlightAware ADS-B(DLM / LTBS)",
          "FlightAware ADS-B(MJT / LGMT)",
          "FlightAware ADS-B(CHQ / LGSA)",
          "FlightAware ADS-B(MJT / LGMT)",
          "FlightAware ADS-B(MJT / LGMT)",
          "FlightAware ADS-B(MJT / LGMT)",
          "FlightAware ADS-B(ISL / LTBA)",
          "FlightAware ADS-B(JKH / LGHI)",
          "FlightAware ADS-B(JKH / LGHI)",
          "FlightAware ADS-B(JKH / LGHI)",
          "FlightAware ADS-B(AXD / LGAL)",
          "FlightAware ADS-B(JKH / LGHI)",
          "FlightAware ADS-B(JKH / LGHI)",
          "FlightAware ADS-B(ADB / LTBJ)",
          "FlightAware ADS-B(KGS / LGKO)",
          "FlightAware ADS-B(KGS / LGKO)",
          "FlightAware ADS-B(KVA / LGKV)",
          "FlightAware ADS-B(KVA / LGKV)",
          "FlightAware ADS-B(ISL / LTBA)",
          "FlightAware ADS-B(KGS / LGKO)",
          "FlightAware ADS-B(ATH / LGAV)",
          "FlightAware ADS-B(ADB / LTBJ)",
          "FlightAware ADS-B(AXD / LGAL)",
          "FlightAware ADS-B(AXD / LGAL)",
          "FlightAware ADS-B(ADB / LTBJ)",
          "FlightAware ADS-B(ADB / LTBJ)",
          "FlightAware ADS-B(ADB / LTBJ)",
          "FlightAware ADS-B(AXD / LGAL)",
          "FlightAware ADS-B(ADB / LTBJ)",
          "FlightAware ADS-B(ADB / LTBJ)",
          "FlightAware ADS-B(SKG / LGTS)",
          "FlightAware ADS-B(ADB / LTBJ)",
          "FlightAware ADS-B(RHO / LGRP)",
          "FlightAware ADS-B(SKG / LGTS)",
          "FlightAware ADS-B(AXD / LGAL)",
          "FlightAware ADS-B(BOJ / LBBG)",
          "FlightAware ADS-B(ADB / LTBJ)",
          "FlightAware ADS-B(SKG / LGTS)",
          "FlightAware ADS-B(JAM / LBIA)",
          "FlightAware ADS-B(LGTT)",
          "FlightAware ADS-B(LGTT)",
          "FlightAware ADS-B(JAM / LBIA)",
          "FlightAware ADS-B(SKG / LGTS)",
          "FlightAware ADS-B(SKG / LGTS)",
          "FlightAware ADS-B(SKG / LGTS)",
          "FlightAware ADS-B(AXD / LGAL)",
          "FlightAware ADS-B(ADB / LTBJ)",
          "FlightAware ADS-B(AXD / LGAL)",
          "FlightAware ADS-B(AXD / LGAL)",
          "FlightAware ADS-B(AXD / LGAL)",
          "FlightAware ADS-B(AXD / LGAL)",
          "FlightAware ADS-B(AXD / LGAL)",
          "FlightAware ADS-B(AXD / LGAL)",
          "FlightAware ADS-B(AXD / LGAL)",
          "FlightAware ADS-B(SKG / LGTS)",
          "FlightAware ADS-B(AXD / LGAL)",
          "FlightAware ADS-B(AXD / LGAL)",
          "FlightAware ADS-B(SKG / LGTS)",
          "FlightAware ADS-B(AXD / LGAL)",
          "FlightAware ADS-B(SKG / LGTS)",
          "FlightAware ADS-B(KZI / LGKZ)",
          "FlightAware ADS-B(KZI / LGKZ)",
          "FlightAware ADS-B(KZI / LGKZ)",
          "FlightAware ADS-B(SKG / LGTS)",
          "FlightAware ADS-B(SKG / LGTS)",
          "FlightAware ADS-B(KZI / LGKZ)",
          "FlightAware ADS-B(SKG / LGTS)",
          "FlightAware ADS-B(SKG / LGTS)",
          "FlightAware ADS-B(AXD / LGAL)",
          "FlightAware ADS-B(AXD / LGAL)",
          "FlightAware ADS-B(AXD / LGAL)",
          "FlightAware ADS-B(AXD / LGAL)",
          "FlightAware ADS-B(AXD / LGAL)",
          "FlightAware ADS-B(SKG / LGTS)",
          "FlightAware ADS-B(SKG / LGTS)",
          "FlightAware ADS-B(AXD / LGAL)",
          "FlightAware ADS-B(CFU / LGKR)",
          "FlightAware ADS-B(SKG / LGTS)",
          "FlightAware ADS-B(CFU / LGKR)",
          "FlightAware ADS-B(CFU / LGKR)",
          "FlightAware ADS-B(PDV / LBPD)",
          "FlightAware ADS-B(SKG / LGTS)",
          "FlightAware ADS-B(SKG / LGTS)",
          "FlightAware ADS-B(BDS / LIBR)",
          "FlightAware ADS-B(BDS / LIBR)",
          "FlightAware ADS-B(BDS / LIBR)",
          "FlightAware ADS-B(PDV / LBPD)",
          "FlightAware ADS-B(CRA / LRCV)",
          "FlightAware ADS-B(CFU / LGKR)",
          "FlightAware ADS-B(BDS / LIBR)",
          "FlightAware ADS-B(LCC / LIBN)",
          "FlightAware ADS-B(CFU / LGKR)",
          "FlightAware ADS-B(CRA / LRCV)",
          "FlightAware ADS-B(PDV / LBPD)",
          "FlightAware ADS-B(BDS / LIBR)",
          "FlightAware ADS-B(BDS / LIBR)",
          "FlightAware ADS-B(LYPO)",
          "FlightAware ADS-B(LCC / LIBN)",
          "FlightAware ADS-B(BDS / LIBR)",
          "FlightAware ADS-B(INI / LYNI)",
          "FlightAware ADS-B(BDS / LIBR)",
          "FlightAware ADS-B(BDS / LIBR)",
          "FlightAware ADS-B(CFU / LGKR)",
          "FlightAware ADS-B(INI / LYNI)",
          "FlightAware ADS-B(LCC / LIBN)",
          "FlightAware ADS-B(LCC / LIBN)",
          "FlightAware ADS-B(BDS / LIBR)",
          "FlightAware ADS-B(CFU / LGKR)",
          "FlightAware ADS-B(SKP / LWSK)",
          "FlightAware ADS-B(CFU / LGKR)",
          "FlightAware ADS-B(CFU / LGKR)",
          "FlightAware ADS-B(CFU / LGKR)",
          "FlightAware ADS-B(SKP / LWSK)",
          "FlightAware ADS-B(BEG / LYBE)",
          "FlightAware ADS-B(INI / LYNI)",
          "FlightAware ADS-B(FOG / LIBF)",
          "FlightAware ADS-B(FOG / LIBF)",
          "FlightAware ADS-B(LIBX)",
          "FlightAware ADS-B(LCC / LIBN)",
          "FlightAware ADS-B(TGD / LYPG)",
          "FlightAware ADS-B(BDS / LIBR)",
          "FlightAware ADS-B(LCC / LIBN)",
          "FlightAware ADS-B(LCC / LIBN)",
          "FlightAware ADS-B(DBV / LDDU)",
          "FlightAware ADS-B(BRI / LIBD)",
          "FlightAware ADS-B(DBV / LDDU)",
          "FlightAware ADS-B(TGD / LYPG)",
          "FlightAware ADS-B(TIV / LYTV)",
          "FlightAware ADS-B(TQR / LINI)",
          "FlightAware ADS-B(TQR / LINI)",
          "FlightAware ADS-B(TQR / LINI)",
          "FlightAware ADS-B(LIBX)",
          "FlightAware ADS-B(TQR / LINI)",
          "FlightAware ADS-B(BRI / LIBD)",
          "FlightAware ADS-B(BDS / LIBR)",
          "FlightAware ADS-B(BDS / LIBR)",
          "FlightAware ADS-B(BRI / LIBD)",
          "FlightAware ADS-B(DBV / LDDU)",
          "FlightAware ADS-B(BRI / LIBD)",
          "FlightAware ADS-B(BRI / LIBD)",
          "FlightAware ADS-B(TQR / LINI)",
          "FlightAware ADS-B(PSR / LIBP)",
          "FlightAware ADS-B(LIBX)",
          "FlightAware ADS-B(BRI / LIBD)",
          "FlightAware ADS-B(DBV / LDDU)",
          "FlightAware ADS-B(DBV / LDDU)",
          "FlightAware ADS-B(DBV / LDDU)",
          "FlightAware ADS-B(DBV / LDDU)",
          "FlightAware ADS-B(DBV / LDDU)",
          "FlightAware ADS-B(DBV / LDDU)",
          "FlightAware ADS-B(DBV / LDDU)",
          "FlightAware ADS-B(DBV / LDDU)",
          "FlightAware ADS-B(DBV / LDDU)",
          "Surface and Near-Surface",
          "FlightAware ADS-B(DBV / LDDU)",
          "FlightAware ADS-B(DBV / LDDU)",
          "FlightAware ADS-B(DBV / LDDU)",
          "FlightAware ADS-B(DBV / LDDU)",
          "FlightAware ADS-B(DBV / LDDU)"
        ]
      }
    }
  ]
}