{
  "type": "FeatureCollection",
  "features": [
    {
      "type": "Feature",
      "geometry": {
        "type": "LineString",
        "coordinates": [
          [
            7.6014,
            51.5147
          ],
          [
            7.5953,
            51.5125
          ],
          [
            7.5855,
            51.5089
          ],
          [
            7.569,
            51.5024
          ],
          [
            7.5533,
            51.4967
          ],
          [
            7.5368,
            51.4914
          ],
          [
            7.519,
            51.4855
          ],
          [
            7.4955,
            51.477
          ],
          [
            7.4765,
            51.467
          ],
          [
            7.4513,
            51.4482
          ],
          [
            7.4358,
            51.4353
          ],
          [
            7.4168,
            51.4204
          ],
          [
            7.3533,
            51.3731
          ],
          [
            7.3283,
            51.3538
          ],
          [
            7.2876,
            51.3226
          ],
          [
            7.2327,
            51.2812
          ],
          [
            7.1887,
            51.2478
          ],
          [
            7.1434,
            51.2132
          ],
          [
            7.098,
            51.1786
          ],
          [
            7.0582,
            51.1477
          ],
          [
            7.0375,
            51.1278
          ],
          [
            6.9965,
            51.0801
          ],
          [
            6.9742,
            51.0528
          ],
          [
            6.9465,
            51.0204
          ],
          [
            6.9068,
            50.9751
          ],
          [
            6.8676,
            50.9295
          ],
          [
            6.8304,
            50.8862
          ],
          [
            6.7922,
            50.8419
          ],
          [
            6.7503,
            50.7933
          ],
          [
            6.7197,
            50.7577
          ],
          [
            6.6767,
            50.7074
          ],
          [
            6.6356,
            50.6597
          ],
          [
            6.6065,
            50.6267
          ],
          [
            6.5796,
            50.5973
          ],
          [
            6.5498,
            50.5652
          ],
          [
            6.5041,
            50.5166
          ],
          [
            6.4361,
            50.4448
          ],
          [
            6.394,
            50.4003
          ],
          [
            6.3491,
            50.3545
          ],
          [
            6.3108,
            50.3162
          ],
          [
            6.2669,
            50.2719
          ],
          [
            6.2393,
            50.2425
          ],
          [
            6.2058,
            50.2149
          ],
          [
            6.1113,
            50.1588
          ],
          [
            6.0746,
            50.1382
          ],
          [
            6.026,
            50.1145
          ],
          [
            5.949,
            50.0792
          ],
          [
            5.8509,
            50.0326
          ],
          [
            5.7793,
            49.9986
          ],
          [
            5.6829,
            49.9526
          ],
          [
            5.6148,
            49.9199
          ],
          [
            5.5412,
            49.8846
          ],
          [
            5.4702,
            49.8503
          ],
          [
            5.4001,
            49.8164
          ],
          [
            5.3302,
            49.7825
          ],
          [
            5.261,
            49.749
          ],
          [
            5.1921,
            49.7154
          ],
          [
            5.1197,
            49.68
          ],
          [
            5.0834,
            49.6586
          ],
          [
            5.0458,
            49.6247
          ],
          [
            5.0243,
            49.5999
          ],
          [
            4.9833,
            49.5477
          ],
          [
            4.9517,
            49.5077
          ],
          [
            4.9103,
            49.4575
          ],
          [
            4.8706,
            49.4084
          ],
          [
            4.8305,
            49.3587
          ],
          [
            4.7909,
            49.31
          ],
          [
            4.7485,
            49.2575
          ],
          [
            4.707,
            49.206
          ],
          [
            4.6658,
            49.1549
          ],
          [
            4.6248,
            49.1039
          ],
          [
            4.5817,
            49.0502
          ],
          [
            4.5399,
            48.9978
          ],
          [
            4.5007,
            48.9487
          ],
          [
            4.4578,
            48.8948
          ],
          [
            4.4159,
            48.842
          ],
          [
            4.3735,
            48.7884
          ],
          [
            4.3338,
            48.7382
          ],
          [
            4.2909,
            48.6838
          ],
          [
            4.2488,
            48.6303
          ],
          [
            4.2068,
            48.5768
          ],
          [
            4.1653,
            48.5238
          ],
          [
            4.1256,
            48.4729
          ],
          [
            4.0831,
            48.4185
          ],
          [
            4.0423,
            48.3658
          ],
          [
            4.0017,
            48.3135
          ],
          [
            3.9599,
            48.2595
          ],
          [
            3.9202,
            48.2079
          ],
          [
            3.878,
            48.1533
          ],
          [
            3.8394,
            48.1031
          ],
          [
            3.798,
            48.0488
          ],
          [
            3.757,
            47.9954
          ],
          [
            3.7167,
            47.9426
          ],
          [
            3.678,
            47.8915
          ],
          [
            3.6368,
            47.8373
          ],
          [
            3.5939,
            47.7809
          ],
          [
            3.5554,
            47.7291
          ],
          [
            3.5227,
            47.679
          ],
          [
            3.4862,
            47.6216
          ],
          [
            3.4503,
            47.5674
          ],
          [
            3.4141,
            47.5121
          ],
          [
            3.3787,
            47.4571
          ],
          [
            3.3441,
            47.4039
          ],
          [
            3.3083,
            47.3485
          ],
          [
            3.2728,
            47.2934
          ],
          [
            3.2381,
            47.2397
          ],
          [
            3.2031,
            47.1852
          ],
          [
            3.1682,
            47.1306
          ],
          [
            3.1331,
            47.0757
          ],
          [
            3.0982,
            47.0211
          ],
          [
            3.0622,
            46.9647
          ],
          [
            3.0291,
            46.9126
          ],
          [
            2.9922,
            46.8541
          ],
          [
            2.9582,
            46.8005
          ],
          [
            2.9241,
            46.7464
          ],
          [
            2.8897,
            46.692
          ],
          [
            2.8549,
            46.6365
          ],
          [
            2.8194,
            46.5795
          ],
          [
            2.7852,
            46.525
          ],
          [
            2.75,
            46.4688
          ],
          [
            2.7144,
            46.4117
          ],
          [
            2.6814,
            46.3595
          ],
          [
            2.6457,
            46.3037
          ],
          [
            2.6099,
            46.2469
          ],
          [
            2.576,
            46.1934
          ],
          [
            2.5404,
            46.1372
          ],
          [
            2.5062,
            46.0828
          ],
          [
            2.469,
            46.0237
          ],
          [
            2.435,
            45.9696
          ],
          [
            2.4002,
            45.9137
          ],
          [
            2.366,
            45.8592
          ],
          [
            2.331,
            45.8029
          ],
          [
            2.2953,
            45.7456
          ],
          [
            2.2623,
            45.6923
          ],
          [
            2.2269,
            45.6355
          ],
          [
            2.193,
            45.5804
          ],
          [
            2.1587,
            45.5246
          ],
          [
            2.1213,
            45.464
          ],
          [
            2.0865,
            45.4072
          ],
          [
            2.0514,
            45.3498
          ],
          [
            2.0178,
            45.2949
          ],
          [
            1.9831,
            45.2379
          ],
          [
            1.9484,
            45.1809
          ],
          [
            1.9138,
            45.1242
          ],
          [
            1.8798,
            45.068
          ],
          [
            1.8432,
            45.0073
          ],
          [
            1.8115,
            44.9547
          ],
          [
            1.7779,
            44.8991
          ],
          [
            1.7433,
            44.8412
          ],
          [
            1.7088,
            44.7838
          ],
          [
            1.6748,
            44.7271
          ],
          [
            1.6413,
            44.6707
          ],
          [
            1.6089,
            44.6162
          ],
          [
            1.5734,
            44.5567
          ],
          [
            1.5411,
            44.502
          ],
          [
            1.5075,
            44.4451
          ],
          [
            1.4746,
            44.3896
          ],
          [
            1.4409,
            44.3325
          ],
          [
            1.4066,
            44.2741
          ],
          [
            1.3725,
            44.216
          ],
          [
            1.3402,
            44.1609
          ],
          [
            1.3057,
            44.1019
          ],
          [
            1.2738,
            44.0471
          ],
          [
            1.2405,
            43.9899
          ],
          [
            1.2077,
            43.9335
          ],
          [
            1.1751,
            43.877
          ],
          [
            1.1419,
            43.8197
          ],
          [
            1.1092,
            43.7632
          ],
          [
            1.0756,
            43.7045
          ],
          [
            1.0432,
            43.6481
          ],
          [
            1.0098,
            43.5902
          ],
          [
            0.9773,
            43.5333
          ],
          [
            0.9443,
            43.4752
          ],
          [
            0.9125,
            43.4197
          ],
          [
            0.8794,
            43.3616
          ],
          [
            0.847,
            43.3045
          ],
          [
            0.8145,
            43.247
          ],
          [
            0.7816,
            43.1888
          ],
          [
            0.748,
            43.104
          ],
          [
            0.7289,
            43.0438
          ],
          [
            0.708,
            42.9822
          ],
          [
            0.6868,
            42.9203
          ],
          [
            0.6661,
            42.8587
          ],
          [
            0.6454,
            42.7978
          ],
          [
            0.6247,
            42.7366
          ],
          [
            0.6042,
            42.6757
          ],
          [
            0.583,
            42.6135
          ],
          [
            0.5624,
            42.5523
          ],
          [
            0.5418,
            42.4911
          ],
          [
            0.5205,
            42.4278
          ],
          [
            0.4992,
            42.3645
          ],
          [
            0.4787,
            42.3032
          ],
          [
            0.4589,
            42.2434
          ],
          [
            0.4388,
            42.1832
          ],
          [
            0.4169,
            42.1174
          ],
          [
            0.3958,
            42.0539
          ],
          [
            0.373,
            41.9846
          ],
          [
            0.3527,
            41.9234
          ],
          [
            0.3327,
            41.8625
          ],
          [
            0.3109,
            41.7968
          ],
          [
            0.2896,
            41.7313
          ],
          [
            0.2681,
            41.6658
          ],
          [
            0.2476,
            41.6032
          ],
          [
            0.2268,
            41.5394
          ],
          [
            0.2067,
            41.478
          ],
          [
            0.186,
            41.4146
          ],
          [
            0.1666,
            41.3543
          ],
          [
            0.1464,
            41.2917
          ],
          [
            0.1263,
            41.2299
          ],
          [
            0.1066,
            41.1684
          ],
          [
            0.0868,
            41.1069
          ],
          [
            0.0662,
            41.043
          ],
          [
            0.046,
            40.9801
          ],
          [
            0.0267,
            40.9195
          ],
          [
            0.0059,
            40.8546
          ],
          [
            -0.0137,
            40.7929
          ],
          [
            -0.0332,
            40.7316
          ],
          [
            -0.0526,
            40.6711
          ],
          [
            -0.0723,
            40.6083
          ],
          [
            -0.0924,
            40.5451
          ],
          [
            -0.1108,
            40.4863
          ],
          [
            -0.129,
            40.429
          ],
          [
            -0.1453,
            40.3771
          ],
          [
            -0.1626,
            40.3225
          ],
          [
            -0.18,
            40.2666
          ],
          [
            -0.2059,
            40.1976
          ],
          [
            -0.2281,
            40.1431
          ],
          [
            -0.2484,
            40.0904
          ],
          [
            -0.272,
            40.0297
          ],
          [
            -0.2949,
            39.9714
          ],
          [
            -0.3151,
            39.9195
          ],
          [
            -0.3386,
            39.8589
          ],
          [
            -0.3605,
            39.803
          ],
          [
            -0.3822,
            39.7466
          ],
          [
            -0.4035,
            39.6919
          ],
          [
            -0.4248,
            39.6367
          ],
          [
            -0.4462,
            39.581
          ],
          [
            -0.4673,
            39.5265
          ],
          [
            -0.4884,
            39.4711
          ],
          [
            -0.5071,
            39.4174
          ],
          [
            -0.5255,
            39.3658
          ],
          [
            -0.5443,
            39.3144
          ],
          [
            -0.5636,
            39.2598
          ],
          [
            -0.5827,
            39.2063
          ],
          [
            -0.6014,
            39.1529
          ],
          [
            -0.6191,
            39.1027
          ],
          [
            -0.6363,
            39.0543
          ],
          [
            -0.6505,
            39.0144
          ],
          [
            -0.6644,
            38.9753
          ],
          [
            -0.6783,
            38.9354
          ],
          [
            -0.692,
            38.8971
          ],
          [
            -0.7059,
            38.8567
          ],
          [
            -0.7198,
            38.8169
          ],
          [
            -0.7331,
            38.7787
          ],
          [
            -0.745,
            38.7444
          ],
          [
            -0.7584,
            38.7072
          ],
          [
            -0.7708,
            38.6715
          ],
          [
            -0.7828,
            38.637
          ],
          [
            -0.7964,
            38.5982
          ],
          [
            -0.8086,
            38.5628
          ],
          [
            -0.817,
            38.5441
          ],
          [
            -0.8386,
            38.5238
          ],
          [
            -0.8542,
            38.5059
          ],
          [
            -0.8547,
            38.4844
          ],
          [
            -0.8492,
            38.4672
          ],
          [
            -0.8343,
            38.4371
          ],
          [
            -0.8255,
            38.421
          ],
          [
            -0.8095,
            38.3891
          ],
          [
            -0.7952,
            38.3582
          ],
          [
            -0.781,
            38.3337
          ],
          [
            -0.7735,
            38.3206
          ],
          [
            -0.7644,
            38.31
          ],
          [
            -0.74,
            38.3056
          ],
          [
            -0.7112,
            38.303
          ],
          [
            -0.6845,
            38.2997
          ],
          [
            -0.6557,
            38.2957
          ],
          [
            -0.6484,
            38.2947
          ],
          [
            -0.6392,
            38.2934
          ],
          [
            -0.6242,
            38.2914
          ],
          [
            -0.6109,
            38.2897
          ],
          [
            -0.5979,
            38.2879
          ],
          [
            -0.586,
            38.2861
          ],
          [
            -0.5752,
            38.2846
          ]
        ]
      },
      "properties": {
        "time_europe_berlin": [
          "10.12.2025 09:46:19",
          "10.12.2025 09:46:24",
          "10.12.2025 09:46:35",
          "10.12.2025 09:46:51",
          "10.12.2025 09:47:07",
          "10.12.2025 09:47:23",
          "10.12.2025 09:47:39",
          "10.12.2025 09:48:02",
          "10.12.2025 09:48:21",
          "10.12.2025 09:48:48",
          "10.12.2025 09:49:06",
          "10.12.2025 09:49:23",
          "10.12.2025 09:50:12",
          "10.12.2025 09:50:30",
          "10.12.2025 09:50:57",
          "10.12.2025 09:51:35",
          "10.12.2025 09:52:05",
          "10.12.2025 09:52:35",
          "10.12.2025 09:53:05",
          "10.12.2025 09:53:30",
          "10.12.2025 09:53:46",
          "10.12.2025 09:54:20",
          "10.12.2025 09:54:38",
          "10.12.2025 09:55:00",
          "10.12.2025 09:55:30",
          "10.12.2025 09:56:00",
          "10.12.2025 09:56:28",
          "10.12.2025 09:56:57",
          "10.12.2025 09:57:27",
          "10.12.2025 09:57:50",
          "10.12.2025 09:58:20",
          "10.12.2025 09:58:50",
          "10.12.2025 09:59:11",
          "10.12.2025 09:59:30",
          "10.12.2025 09:59:51",
          "10.12.2025 10:00:21",
          "10.12.2025 10:01:06",
          "10.12.2025 10:01:36",
          "10.12.2025 10:02:06",
          "10.12.2025 10:02:31",
          "10.12.2025 10:03:01",
          "10.12.2025 10:03:20",
          "10.12.2025 10:03:39",
          "10.12.2025 10:04:23",
          "10.12.2025 10:04:41",
          "10.12.2025 10:05:06",
          "10.12.2025 10:05:36",
          "10.12.2025 10:06:17",
          "10.12.2025 10:06:47",
          "10.12.2025 10:07:28",
          "10.12.2025 10:07:58",
          "10.12.2025 10:08:28",
          "10.12.2025 10:08:58",
          "10.12.2025 10:09:28",
          "10.12.2025 10:09:58",
          "10.12.2025 10:10:28",
          "10.12.2025 10:10:58",
          "10.12.2025 10:11:28",
          "10.12.2025 10:11:45",
          "10.12.2025 10:12:08",
          "10.12.2025 10:12:24",
          "10.12.2025 10:12:54",
          "10.12.2025 10:13:19",
          "10.12.2025 10:13:49",
          "10.12.2025 10:14:19",
          "10.12.2025 10:14:49",
          "10.12.2025 10:15:19",
          "10.12.2025 10:15:49",
          "10.12.2025 10:16:19",
          "10.12.2025 10:16:49",
          "10.12.2025 10:17:19",
          "10.12.2025 10:17:49",
          "10.12.2025 10:18:19",
          "10.12.2025 10:18:49",
          "10.12.2025 10:19:19",
          "10.12.2025 10:19:49",
          "10.12.2025 10:20:19",
          "10.12.2025 10:20:49",
          "10.12.2025 10:21:19",
          "10.12.2025 10:21:49",
          "10.12.2025 10:22:20",
          "10.12.2025 10:22:50",
          "10.12.2025 10:23:20",
          "10.12.2025 10:23:51",
          "10.12.2025 10:24:21",
          "10.12.2025 10:24:51",
          "10.12.2025 10:25:21",
          "10.12.2025 10:25:51",
          "10.12.2025 10:26:21",
          "10.12.2025 10:26:51",
          "10.12.2025 10:27:21",
          "10.12.2025 10:27:51",
          "10.12.2025 10:28:21",
          "10.12.2025 10:28:51",
          "10.12.2025 10:29:22",
          "10.12.2025 10:29:52",
          "10.12.2025 10:30:21",
          "10.12.2025 10:30:51",
          "10.12.2025 10:31:22",
          "10.12.2025 10:31:52",
          "10.12.2025 10:32:22",
          "10.12.2025 10:32:52",
          "10.12.2025 10:33:22",
          "10.12.2025 10:33:53",
          "10.12.2025 10:34:23",
          "10.12.2025 10:34:53",
          "10.12.2025 10:35:23",
          "10.12.2025 10:35:53",
          "10.12.2025 10:36:23",
          "10.12.2025 10:36:53",
          "10.12.2025 10:37:23",
          "10.12.2025 10:37:53",
          "10.12.2025 10:38:23",
          "10.12.2025 10:38:53",
          "10.12.2025 10:39:23",
          "10.12.2025 10:39:53",
          "10.12.2025 10:40:24",
          "10.12.2025 10:40:54",
          "10.12.2025 10:41:24",
          "10.12.2025 10:41:55",
          "10.12.2025 10:42:25",
          "10.12.2025 10:42:55",
          "10.12.2025 10:43:25",
          "10.12.2025 10:43:56",
          "10.12.2025 10:44:26",
          "10.12.2025 10:44:56",
          "10.12.2025 10:45:26",
          "10.12.2025 10:45:57",
          "10.12.2025 10:46:28",
          "10.12.2025 10:46:58",
          "10.12.2025 10:47:28",
          "10.12.2025 10:47:58",
          "10.12.2025 10:48:28",
          "10.12.2025 10:48:58",
          "10.12.2025 10:49:28",
          "10.12.2025 10:49:58",
          "10.12.2025 10:50:29",
          "10.12.2025 10:51:01",
          "10.12.2025 10:51:31",
          "10.12.2025 10:52:02",
          "10.12.2025 10:52:32",
          "10.12.2025 10:53:02",
          "10.12.2025 10:53:33",
          "10.12.2025 10:54:03",
          "10.12.2025 10:54:33",
          "10.12.2025 10:55:05",
          "10.12.2025 10:55:35",
          "10.12.2025 10:56:05",
          "10.12.2025 10:56:35",
          "10.12.2025 10:57:05",
          "10.12.2025 10:57:35",
          "10.12.2025 10:58:05",
          "10.12.2025 10:58:35",
          "10.12.2025 10:59:05",
          "10.12.2025 10:59:35",
          "10.12.2025 11:00:06",
          "10.12.2025 11:00:36",
          "10.12.2025 11:01:06",
          "10.12.2025 11:01:37",
          "10.12.2025 11:02:07",
          "10.12.2025 11:02:37",
          "10.12.2025 11:03:07",
          "10.12.2025 11:03:37",
          "10.12.2025 11:04:07",
          "10.12.2025 11:04:37",
          "10.12.2025 11:05:07",
          "10.12.2025 11:05:37",
          "10.12.2025 11:06:07",
          "10.12.2025 11:06:37",
          "10.12.2025 11:07:07",
          "10.12.2025 11:07:37",
          "10.12.2025 11:08:07",
          "10.12.2025 11:08:37",
          "10.12.2025 11:09:07",
          "10.12.2025 11:09:37",
          "10.12.2025 11:10:07",
          "10.12.2025 11:10:37",
          "10.12.2025 11:11:07",
          "10.12.2025 11:11:50",
          "10.12.2025 11:12:20",
          "10.12.2025 11:12:50",
          "10.12.2025 11:13:21",
          "10.12.2025 11:13:51",
          "10.12.2025 11:14:22",
          "10.12.2025 11:14:52",
          "10.12.2025 11:15:22",
          "10.12.2025 11:15:53",
          "10.12.2025 11:16:23",
          "10.12.2025 11:16:53",
          "10.12.2025 11:17:25",
          "10.12.2025 11:17:56",
          "10.12.2025 11:18:26",
          "10.12.2025 11:18:56",
          "10.12.2025 11:19:26",
          "10.12.2025 11:19:57",
          "10.12.2025 11:20:29",
          "10.12.2025 11:21:03",
          "10.12.2025 11:21:33",
          "10.12.2025 11:22:03",
          "10.12.2025 11:22:35",
          "10.12.2025 11:23:07",
          "10.12.2025 11:23:38",
          "10.12.2025 11:24:09",
          "10.12.2025 11:24:40",
          "10.12.2025 11:25:10",
          "10.12.2025 11:25:41",
          "10.12.2025 11:26:11",
          "10.12.2025 11:26:41",
          "10.12.2025 11:27:11",
          "10.12.2025 11:27:41",
          "10.12.2025 11:28:11",
          "10.12.2025 11:28:43",
          "10.12.2025 11:29:14",
          "10.12.2025 11:29:44",
          "10.12.2025 11:30:15",
          "10.12.2025 11:30:45",
          "10.12.2025 11:31:15",
          "10.12.2025 11:31:45",
          "10.12.2025 11:32:17",
          "10.12.2025 11:32:47",
          "10.12.2025 11:33:18",
          "10.12.2025 11:33:48",
          "10.12.2025 11:34:18",
          "10.12.2025 11:34:48",
          "10.12.2025 11:35:18",
          "10.12.2025 11:35:57",
          "10.12.2025 11:36:27",
          "10.12.2025 11:36:57",
          "10.12.2025 11:37:30",
          "10.12.2025 11:38:00",
          "10.12.2025 11:38:30",
          "10.12.2025 11:39:01",
          "10.12.2025 11:39:31",
          "10.12.2025 11:40:02",
          "10.12.2025 11:40:32",
          "10.12.2025 11:41:02",
          "10.12.2025 11:41:32",
          "10.12.2025 11:42:02",
          "10.12.2025 11:42:32",
          "10.12.2025 11:43:02",
          "10.12.2025 11:43:32",
          "10.12.2025 11:44:02",
          "10.12.2025 11:44:32",
          "10.12.2025 11:45:03",
          "10.12.2025 11:45:35",
          "10.12.2025 11:46:06",
          "10.12.2025 11:46:39",
          "10.12.2025 11:47:09",
          "10.12.2025 11:47:40",
          "10.12.2025 11:48:10",
          "10.12.2025 11:48:40",
          "10.12.2025 11:49:10",
          "10.12.2025 11:49:40",
          "10.12.2025 11:50:10",
          "10.12.2025 11:50:40",
          "10.12.2025 11:51:11",
          "10.12.2025 11:51:41",
          "10.12.2025 11:52:11",
          "10.12.2025 11:52:41",
          "10.12.2025 11:53:12",
          "10.12.2025 11:53:29",
          "10.12.2025 11:53:50",
          "10.12.2025 11:54:09",
          "10.12.2025 11:54:27",
          "10.12.2025 11:54:43",
          "10.12.2025 11:55:09",
          "10.12.2025 11:55:25",
          "10.12.2025 11:55:55",
          "10.12.2025 11:56:25",
          "10.12.2025 11:56:53",
          "10.12.2025 11:57:10",
          "10.12.2025 11:57:26",
          "10.12.2025 11:57:52",
          "10.12.2025 11:58:22",
          "10.12.2025 11:58:52",
          "10.12.2025 11:59:22",
          "10.12.2025 11:59:29",
          "10.12.2025 11:59:39",
          "10.12.2025 11:59:55",
          "10.12.2025 12:00:11",
          "10.12.2025 12:00:27",
          "10.12.2025 12:00:43",
          "10.12.2025 12:00:59"
        ],
        "course_deg_clockwise_from_north": [
          241,
          240,
          239,
          238,
          242,
          243,
          242,
          237,
          224,
          217,
          218,
          219,
          219,
          219,
          221,
          220,
          219,
          220,
          220,
          216,
          211,
          207,
          209,
          209,
          209,
          208,
          209,
          209,
          209,
          209,
          209,
          209,
          210,
          210,
          211,
          211,
          211,
          211,
          213,
          213,
          212,
          212,
          223,
          228,
          231,
          234,
          234,
          233,
          234,
          233,
          234,
          233,
          233,
          233,
          233,
          233,
          233,
          233,
          223,
          212,
          208,
          207,
          209,
          208,
          208,
          208,
          208,
          208,
          208,
          208,
          208,
          208,
          208,
          208,
          208,
          208,
          208,
          208,
          208,
          208,
          207,
          208,
          207,
          207,
          207,
          207,
          207,
          207,
          207,
          207,
          207,
          207,
          207,
          207,
          207,
          207,
          206,
          203,
          204,
          204,
          204,
          204,
          204,
          204,
          204,
          204,
          204,
          204,
          204,
          204,
          204,
          204,
          204,
          203,
          204,
          203,
          203,
          203,
          203,
          203,
          203,
          204,
          204,
          204,
          204,
          204,
          204,
          204,
          204,
          204,
          204,
          204,
          204,
          204,
          204,
          203,
          204,
          203,
          204,
          203,
          203,
          203,
          203,
          203,
          203,
          203,
          203,
          203,
          203,
          203,
          203,
          203,
          203,
          203,
          203,
          203,
          203,
          203,
          203,
          203,
          203,
          203,
          203,
          203,
          203,
          203,
          203,
          203,
          203,
          203,
          203,
          203,
          203,
          203,
          202,
          202,
          203,
          202,
          193,
          193,
          194,
          194,
          194,
          194,
          194,
          194,
          194,
          194,
          194,
          194,
          194,
          194,
          194,
          194,
          194,
          194,
          194,
          194,
          194,
          194,
          194,
          194,
          194,
          194,
          194,
          194,
          194,
          194,
          194,
          194,
          194,
          194,
          194,
          194,
          194,
          194,
          194,
          194,
          193,
          194,
          193,
          194,
          194,
          194,
          194,
          198,
          197,
          196,
          197,
          197,
          197,
          197,
          197,
          197,
          197,
          197,
          197,
          197,
          196,
          195,
          196,
          196,
          195,
          196,
          195,
          195,
          196,
          196,
          195,
          195,
          196,
          195,
          195,
          195,
          196,
          196,
          195,
          195,
          195,
          195,
          208,
          225,
          198,
          174,
          162,
          157,
          157,
          160,
          158,
          155,
          156,
          129,
          95,
          98,
          100,
          100,
          100,
          100,
          99,
          100,
          100,
          101,
          100
        ],
        "speed_kts": [
          146,
          147,
          151,
          155,
          164,
          163,
          165,
          168,
          180,
          201,
          220,
          238,
          306,
          321,
          306,
          310,
          313,
          327,
          333,
          341,
          347,
          355,
          360,
          365,
          371,
          377,
          384,
          390,
          394,
          396,
          397,
          398,
          397,
          397,
          395,
          396,
          391,
          386,
          386,
          389,
          391,
          392,
          392,
          399,
          400,
          403,
          406,
          407,
          410,
          411,
          412,
          412,
          411,
          412,
          411,
          409,
          409,
          407,
          405,
          405,
          405,
          403,
          402,
          401,
          405,
          410,
          413,
          417,
          418,
          421,
          423,
          424,
          426,
          427,
          428,
          428,
          429,
          429,
          429,
          429,
          429,
          429,
          429,
          428,
          429,
          428,
          428,
          428,
          427,
          428,
          428,
          429,
          428,
          429,
          428,
          429,
          429,
          431,
          430,
          428,
          428,
          428,
          429,
          429,
          429,
          429,
          430,
          430,
          430,
          430,
          430,
          431,
          431,
          431,
          431,
          430,
          430,
          431,
          431,
          431,
          432,
          432,
          433,
          434,
          434,
          434,
          434,
          435,
          435,
          436,
          437,
          437,
          437,
          436,
          435,
          436,
          436,
          437,
          437,
          438,
          438,
          439,
          440,
          441,
          441,
          442,
          443,
          443,
          442,
          441,
          442,
          443,
          443,
          443,
          443,
          443,
          442,
          442,
          443,
          443,
          444,
          444,
          445,
          445,
          445,
          444,
          446,
          446,
          447,
          447,
          447,
          447,
          448,
          448,
          449,
          449,
          448,
          449,
          449,
          449,
          449,
          449,
          449,
          449,
          449,
          450,
          451,
          452,
          452,
          453,
          452,
          453,
          453,
          453,
          453,
          454,
          454,
          455,
          455,
          455,
          456,
          456,
          456,
          456,
          456,
          456,
          456,
          456,
          456,
          456,
          456,
          456,
          456,
          457,
          457,
          458,
          455,
          440,
          447,
          433,
          424,
          414,
          409,
          410,
          407,
          399,
          401,
          408,
          415,
          416,
          417,
          421,
          422,
          421,
          419,
          417,
          415,
          412,
          407,
          395,
          387,
          392,
          399,
          381,
          370,
          346,
          306,
          294,
          289,
          285,
          292,
          297,
          297,
          278,
          265,
          263,
          270,
          274,
          270,
          253,
          254,
          257,
          256,
          258,
          258,
          253,
          249,
          240,
          228,
          197,
          182,
          169,
          165,
          160,
          158,
          167,
          164,
          159,
          154,
          148,
          133,
          125,
          120
        ],
        "speed_mph": [
          168.0,
          169.0,
          174.0,
          178.0,
          189.0,
          188.0,
          190.0,
          193.0,
          207.0,
          231.0,
          253.0,
          274.0,
          352.0,
          369.0,
          352.0,
          357.0,
          360.0,
          376.0,
          383.0,
          392.0,
          399.0,
          409.0,
          414.0,
          420.0,
          427.0,
          434.0,
          442.0,
          449.0,
          453.0,
          456.0,
          457.0,
          458.0,
          457.0,
          457.0,
          455.0,
          456.0,
          450.0,
          444.0,
          444.0,
          448.0,
          450.0,
          451.0,
          451.0,
          459.0,
          460.0,
          464.0,
          467.0,
          468.0,
          472.0,
          473.0,
          474.0,
          474.0,
          473.0,
          474.0,
          473.0,
          471.0,
          471.0,
          468.0,
          466.0,
          466.0,
          466.0,
          464.0,
          463.0,
          461.0,
          466.0,
          472.0,
          475.0,
          480.0,
          481.0,
          484.0,
          487.0,
          488.0,
          490.0,
          491.0,
          493.0,
          493.0,
          494.0,
          494.0,
          494.0,
          494.0,
          494.0,
          494.0,
          494.0,
          493.0,
          494.0,
          493.0,
          493.0,
          493.0,
          491.0,
          493.0,
          493.0,
          494.0,
          493.0,
          494.0,
          493.0,
          494.0,
          494.0,
          496.0,
          495.0,
          493.0,
          493.0,
          493.0,
          494.0,
          494.0,
          494.0,
          494.0,
          495.0,
          495.0,
          495.0,
          495.0,
          495.0,
          496.0,
          496.0,
          496.0,
          496.0,
          495.0,
          495.0,
          496.0,
          496.0,
          496.0,
          497.0,
          497.0,
          498.0,
          499.0,
          499.0,
          499.0,
          499.0,
          501.0,
          501.0,
          502.0,
          503.0,
          503.0,
          503.0,
          502.0,
          501.0,
          502.0,
          502.0,
          503.0,
          503.0,
          504.0,
          504.0,
          505.0,
          506.0,
          507.0,
          507.0,
          509.0,
          510.0,
          510.0,
          509.0,
          507.0,
          509.0,
          510.0,
          510.0,
          510.0,
          510.0,
          510.0,
          509.0,
          509.0,
          510.0,
          510.0,
          511.0,
          511.0,
          512.0,
          512.0,
          512.0,
          511.0,
          513.0,
          513.0,
          514.0,
          514.0,
          514.0,
          514.0,
          516.0,
          516.0,
          517.0,
          517.0,
          516.0,
          517.0,
          517.0,
          517.0,
          517.0,
          517.0,
          517.0,
          517.0,
          517.0,
          518.0,
          519.0,
          520.0,
          520.0,
          521.0,
          520.0,
          521.0,
          521.0,
          521.0,
          521.0,
          522.0,
          522.0,
          524.0,
          524.0,
          524.0,
          525.0,
          525.0,
          525.0,
          525.0,
          525.0,
          525.0,
          525.0,
          525.0,
          525.0,
          525.0,
          525.0,
          525.0,
          525.0,
          526.0,
          526.0,
          527.0,
          524.0,
          506.0,
          514.0,
          498.0,
          488.0,
          476.0,
          471.0,
          472.0,
          468.0,
          459.0,
          461.0,
          470.0,
          478.0,
          479.0,
          480.0,
          484.0,
          486.0,
          484.0,
          482.0,
          480.0,
          478.0,
          474.0,
          468.0,
          455.0,
          445.0,
          451.0,
          459.0,
          438.0,
          426.0,
          398.0,
          352.0,
          338.0,
          333.0,
          328.0,
          336.0,
          342.0,
          342.0,
          320.0,
          305.0,
          303.0,
          311.0,
          315.0,
          311.0,
          291.0,
          292.0,
          296.0,
          295.0,
          297.0,
          297.0,
          291.0,
          287.0,
          276.0,
          262.0,
          227.0,
          209.0,
          194.0,
          190.0,
          184.0,
          182.0,
          192.0,
          189.0,
          183.0,
          177.0,
          170.0,
          153.0,
          144.0,
          138.0
        ],
        "altitude_ft": [
          925,
          1150,
          1750,
          2700,
          3400,
          4325,
          5275,
          6525,
          7600,
          9050,
          9900,
          10825,
          12975,
          13800,
          16350,
          19125,
          21025,
          22425,
          23875,
          25000,
          25575,
          26925,
          27525,
          28275,
          29200,
          30100,
          30750,
          31550,
          32275,
          32825,
          33600,
          34325,
          34825,
          35300,
          35875,
          36375,
          37350,
          38000,
          38550,
          38850,
          39200,
          39425,
          39675,
          40075,
          40225,
          40450,
          40700,
          41075,
          41350,
          41700,
          41950,
          42225,
          42500,
          42750,
          43025,
          43300,
          43550,
          43825,
          43975,
          44175,
          44300,
          44575,
          44775,
          44975,
          45000,
          45000,
          45000,
          45000,
          45000,
          45000,
          45000,
          45000,
          45000,
          45000,
          45000,
          45000,
          45000,
          45000,
          45000,
          45000,
          45000,
          45000,
          45000,
          45000,
          45000,
          45000,
          45000,
          45000,
          45000,
          45000,
          45000,
          45000,
          45000,
          45000,
          45000,
          45000,
          45000,
          45000,
          45000,
          45000,
          45000,
          45000,
          45000,
          45000,
          45000,
          45000,
          45000,
          45000,
          45000,
          45000,
          45000,
          45000,
          45000,
          45000,
          45000,
          45000,
          45000,
          45000,
          45000,
          45000,
          45000,
          45000,
          45000,
          45000,
          45000,
          45000,
          45000,
          45000,
          45000,
          45000,
          45000,
          45000,
          45000,
          45000,
          45000,
          45000,
          45000,
          45000,
          45000,
          45000,
          45000,
          45000,
          45000,
          45000,
          45000,
          45000,
          45000,
          45000,
          45000,
          45000,
          45000,
          45000,
          45000,
          45000,
          45000,
          45000,
          45000,
          45000,
          45000,
          45000,
          45000,
          45000,
          45000,
          45000,
          45000,
          45000,
          45000,
          45000,
          45000,
          45000,
          45000,
          45000,
          45000,
          45000,
          45000,
          45000,
          45000,
          45000,
          45000,
          45000,
          45000,
          45000,
          45000,
          45000,
          45000,
          45000,
          45000,
          45000,
          45000,
          45000,
          45000,
          45000,
          45000,
          45000,
          45000,
          45000,
          45000,
          45000,
          45000,
          45000,
          45000,
          45000,
          45000,
          45000,
          45000,
          45000,
          45000,
          45000,
          45000,
          45000,
          45000,
          45000,
          45000,
          45000,
          45000,
          45000,
          45000,
          44500,
          42825,
          40725,
          38700,
          36775,
          34975,
          33150,
          31300,
          29825,
          29025,
          28375,
          27650,
          26950,
          26325,
          25600,
          24950,
          24250,
          23550,
          22825,
          22125,
          21400,
          20675,
          19950,
          19250,
          18650,
          18000,
          17150,
          16250,
          15350,
          14375,
          13650,
          13000,
          12300,
          11725,
          11125,
          10575,
          10000,
          9450,
          8875,
          8300,
          7750,
          7150,
          6800,
          6775,
          6775,
          6700,
          6525,
          6025,
          5225,
          4800,
          3950,
          3200,
          3075,
          3075,
          2975,
          2550,
          2125,
          1725,
          1250,
          1150,
          1000,
          775,
          575,
          350,
          175,
          175
        ],
        "vertical_rate_fpm": [
          0.0,
          3094.0,
          3444.0,
          3094.0,
          3047.0,
          3516.0,
          3385.0,
          3321.0,
          3293.0,
          3067.0,
          3043.0,
          2795.0,
          2664.0,
          4500.0,
          4915.0,
          4125.0,
          3300.0,
          2850.0,
          2809.0,
          2488.0,
          2310.0,
          2250.0,
          2025.0,
          1933.0,
          1825.0,
          1603.0,
          1526.0,
          1551.0,
          1443.0,
          1500.0,
          1500.0,
          1441.0,
          1463.0,
          1575.0,
          1265.0,
          1180.0,
          1300.0,
          1200.0,
          927.0,
          709.0,
          704.0,
          750.0,
          619.0,
          532.0,
          523.0,
          518.0,
          528.0,
          549.0,
          528.0,
          507.0,
          525.0,
          550.0,
          525.0,
          525.0,
          550.0,
          525.0,
          525.0,
          543.0,
          525.0,
          500.0,
          522.0,
          518.0,
          436.0,
          225.0,
          25.0,
          0.0,
          0.0,
          0.0,
          0.0,
          0.0,
          0.0,
          0.0,
          0.0,
          0.0,
          0.0,
          0.0,
          0.0,
          0.0,
          0.0,
          0.0,
          0.0,
          0.0,
          0.0,
          0.0,
          0.0,
          0.0,
          0.0,
          0.0,
          0.0,
          0.0,
          0.0,
          0.0,
          0.0,
          0.0,
          0.0,
          0.0,
          0.0,
          0.0,
          0.0,
          0.0,
          0.0,
          0.0,
          0.0,
          0.0,
          0.0,
          0.0,
          0.0,
          0.0,
          0.0,
          0.0,
          0.0,
          0.0,
          0.0,
          0.0,
          0.0,
          0.0,
          0.0,
          0.0,
          0.0,
          0.0,
          0.0,
          0.0,
          0.0,
          0.0,
          0.0,
          0.0,
          0.0,
          0.0,
          0.0,
          0.0,
          0.0,
          0.0,
          0.0,
          0.0,
          0.0,
          0.0,
          0.0,
          0.0,
          0.0,
          0.0,
          0.0,
          0.0,
          0.0,
          0.0,
          0.0,
          0.0,
          0.0,
          0.0,
          0.0,
          0.0,
          0.0,
          0.0,
          0.0,
          0.0,
          0.0,
          0.0,
          0.0,
          0.0,
          0.0,
          0.0,
          0.0,
          0.0,
          0.0,
          0.0,
          0.0,
          0.0,
          0.0,
          0.0,
          0.0,
          0.0,
          0.0,
          0.0,
          0.0,
          0.0,
          0.0,
          0.0,
          0.0,
          0.0,
          0.0,
          0.0,
          0.0,
          0.0,
          0.0,
          0.0,
          0.0,
          0.0,
          0.0,
          0.0,
          0.0,
          0.0,
          0.0,
          0.0,
          0.0,
          0.0,
          0.0,
          0.0,
          0.0,
          0.0,
          0.0,
          0.0,
          0.0,
          0.0,
          0.0,
          0.0,
          0.0,
          0.0,
          0.0,
          0.0,
          0.0,
          0.0,
          0.0,
          0.0,
          0.0,
          0.0,
          0.0,
          0.0,
          -500.0,
          -2105.0,
          -3653.0,
          -4057.0,
          -3885.0,
          -3725.0,
          -3625.0,
          -3675.0,
          -2891.0,
          -1978.0,
          -1450.0,
          -1310.0,
          -1357.0,
          -1325.0,
          -1328.0,
          -1352.0,
          -1328.0,
          -1377.0,
          -1425.0,
          -1425.0,
          -1425.0,
          -1450.0,
          -1450.0,
          -1425.0,
          -1300.0,
          -1250.0,
          -1475.0,
          -1667.0,
          -1714.0,
          -1758.0,
          -1619.0,
          -1352.0,
          -1328.0,
          -1275.0,
          -1175.0,
          -1150.0,
          -1125.0,
          -1125.0,
          -1107.0,
          -1131.0,
          -1125.0,
          -1150.0,
          -934.0,
          -469.0,
          -39.0,
          -113.0,
          -405.0,
          -1191.0,
          -1857.0,
          -1750.0,
          -1663.0,
          -1600.0,
          -905.0,
          -167.0,
          -182.0,
          -750.0,
          -911.0,
          -825.0,
          -875.0,
          -932.0,
          -882.0,
          -865.0,
          -797.0,
          -797.0,
          -750.0,
          -656.0,
          -656.0
        ]
      }
    }
  ]
}