{
  "type": "FeatureCollection",
  "features": [
    {
      "type": "Feature",
      "geometry": {
        "type": "LineString",
        "coordinates": [
          [
            9.4415,
            51.4175
          ],
          [
            9.4415,
            51.4175
          ],
          [
            9.4709,
            51.416
          ],
          [
            9.5015,
            51.4152
          ],
          [
            9.5387,
            51.4148
          ],
          [
            9.565,
            51.4186
          ],
          [
            9.577,
            51.4317
          ],
          [
            9.5683,
            51.4503
          ],
          [
            9.5426,
            51.4597
          ],
          [
            9.5128,
            51.4644
          ],
          [
            9.4796,
            51.4675
          ],
          [
            9.4212,
            51.4725
          ],
          [
            9.3759,
            51.4776
          ],
          [
            9.333,
            51.4823
          ],
          [
            9.2911,
            51.4789
          ],
          [
            9.2588,
            51.4708
          ],
          [
            9.2089,
            51.4555
          ],
          [
            9.1632,
            51.4424
          ],
          [
            9.1099,
            51.4282
          ],
          [
            9.0561,
            51.4134
          ],
          [
            9.0038,
            51.399
          ],
          [
            8.949,
            51.3841
          ],
          [
            8.8979,
            51.3701
          ],
          [
            8.8415,
            51.3546
          ],
          [
            8.7895,
            51.3403
          ],
          [
            8.7356,
            51.3254
          ],
          [
            8.6839,
            51.3111
          ],
          [
            8.6293,
            51.296
          ],
          [
            8.5774,
            51.2815
          ],
          [
            8.5246,
            51.2669
          ],
          [
            8.472,
            51.2522
          ],
          [
            8.4196,
            51.2376
          ],
          [
            8.3658,
            51.2225
          ],
          [
            8.3113,
            51.2072
          ],
          [
            8.2611,
            51.1931
          ],
          [
            8.2095,
            51.1785
          ],
          [
            8.1529,
            51.1625
          ],
          [
            8.1016,
            51.148
          ],
          [
            8.0481,
            51.1328
          ],
          [
            7.9952,
            51.1178
          ],
          [
            7.9439,
            51.1031
          ],
          [
            7.9105,
            51.0941
          ],
          [
            7.8749,
            51.0917
          ],
          [
            7.8233,
            51.0911
          ],
          [
            7.7655,
            51.0906
          ],
          [
            7.7081,
            51.0902
          ],
          [
            7.6647,
            51.0876
          ],
          [
            7.6273,
            51.084
          ],
          [
            7.57,
            51.0794
          ],
          [
            7.5143,
            51.0754
          ],
          [
            7.4635,
            51.0712
          ],
          [
            7.4046,
            51.0666
          ],
          [
            7.3602,
            51.063
          ],
          [
            7.3072,
            51.0588
          ],
          [
            7.2499,
            51.0541
          ],
          [
            7.1942,
            51.0495
          ],
          [
            7.154,
            51.0463
          ],
          [
            7.1131,
            51.043
          ],
          [
            7.0846,
            51.0406
          ],
          [
            7.057,
            51.0383
          ],
          [
            7.028,
            51.0359
          ],
          [
            7.0005,
            51.0337
          ],
          [
            6.9754,
            51.0318
          ],
          [
            6.954,
            51.0271
          ],
          [
            6.9435,
            51.0145
          ],
          [
            6.9454,
            51.0015
          ],
          [
            6.9537,
            50.9895
          ],
          [
            6.9659,
            50.9786
          ],
          [
            6.9788,
            50.969
          ],
          [
            6.9944,
            50.9582
          ],
          [
            7.0095,
            50.9475
          ],
          [
            7.0264,
            50.9357
          ],
          [
            7.0495,
            50.9198
          ],
          [
            7.0578,
            50.9141
          ],
          [
            7.0621,
            50.9112
          ],
          [
            7.0731,
            50.9036
          ],
          [
            7.0839,
            50.8962
          ],
          [
            7.0942,
            50.889
          ],
          [
            7.1042,
            50.8823
          ],
          [
            7.1136,
            50.8758
          ],
          [
            7.1235,
            50.8691
          ]
        ]
      },
      "properties": {
        "time_europe_berlin": [
          "01.10.2025 10:54:34",
          "01.10.2025 10:54:34",
          "01.10.2025 10:54:58",
          "01.10.2025 10:55:22",
          "01.10.2025 10:55:52",
          "01.10.2025 10:56:11",
          "01.10.2025 10:56:29",
          "01.10.2025 10:56:47",
          "01.10.2025 10:57:05",
          "01.10.2025 10:57:22",
          "01.10.2025 10:57:42",
          "01.10.2025 10:58:12",
          "01.10.2025 10:58:37",
          "01.10.2025 10:58:58",
          "01.10.2025 10:59:21",
          "01.10.2025 10:59:37",
          "01.10.2025 11:00:07",
          "01.10.2025 11:00:32",
          "01.10.2025 11:01:02",
          "01.10.2025 11:01:32",
          "01.10.2025 11:02:02",
          "01.10.2025 11:02:32",
          "01.10.2025 11:03:02",
          "01.10.2025 11:03:32",
          "01.10.2025 11:04:02",
          "01.10.2025 11:04:32",
          "01.10.2025 11:05:02",
          "01.10.2025 11:05:32",
          "01.10.2025 11:06:02",
          "01.10.2025 11:06:32",
          "01.10.2025 11:07:02",
          "01.10.2025 11:07:32",
          "01.10.2025 11:08:02",
          "01.10.2025 11:08:32",
          "01.10.2025 11:09:02",
          "01.10.2025 11:09:32",
          "01.10.2025 11:10:02",
          "01.10.2025 11:10:32",
          "01.10.2025 11:11:02",
          "01.10.2025 11:11:32",
          "01.10.2025 11:12:02",
          "01.10.2025 11:12:19",
          "01.10.2025 11:12:38",
          "01.10.2025 11:13:05",
          "01.10.2025 11:13:35",
          "01.10.2025 11:14:05",
          "01.10.2025 11:14:27",
          "01.10.2025 11:14:47",
          "01.10.2025 11:15:17",
          "01.10.2025 11:15:47",
          "01.10.2025 11:16:12",
          "01.10.2025 11:16:42",
          "01.10.2025 11:17:05",
          "01.10.2025 11:17:35",
          "01.10.2025 11:18:05",
          "01.10.2025 11:18:35",
          "01.10.2025 11:18:56",
          "01.10.2025 11:19:17",
          "01.10.2025 11:19:33",
          "01.10.2025 11:19:49",
          "01.10.2025 11:20:05",
          "01.10.2025 11:20:21",
          "01.10.2025 11:20:37",
          "01.10.2025 11:20:53",
          "01.10.2025 11:21:09",
          "01.10.2025 11:21:25",
          "01.10.2025 11:21:41",
          "01.10.2025 11:21:57",
          "01.10.2025 11:22:13",
          "01.10.2025 11:22:29",
          "01.10.2025 11:22:45",
          "01.10.2025 11:23:06",
          "01.10.2025 11:23:36",
          "01.10.2025 11:23:47",
          "01.10.2025 11:23:52",
          "01.10.2025 11:24:08",
          "01.10.2025 11:24:24",
          "01.10.2025 11:24:40",
          "01.10.2025 11:24:56",
          "01.10.2025 11:25:12",
          "01.10.2025 11:25:28"
        ],
        "course_deg_clockwise_from_north": [
          96,
          96,
          93,
          91,
          93,
          54,
          8,
          322,
          289,
          281,
          277,
          279,
          281,
          279,
          253,
          246,
          244,
          246,
          247,
          246,
          246,
          247,
          246,
          246,
          246,
          246,
          246,
          246,
          246,
          246,
          246,
          246,
          246,
          246,
          246,
          246,
          246,
          246,
          246,
          246,
          246,
          251,
          268,
          269,
          269,
          268,
          262,
          261,
          264,
          263,
          263,
          263,
          263,
          263,
          263,
          263,
          263,
          263,
          263,
          262,
          263,
          263,
          263,
          230,
          189,
          165,
          150,
          142,
          138,
          138,
          138,
          137,
          138,
          137,
          137,
          137,
          138,
          138,
          137,
          138,
          137
        ],
        "speed_kts": [
          161,
          161,
          168,
          165,
          181,
          195,
          210,
          230,
          231,
          236,
          247,
          261,
          265,
          266,
          266,
          267,
          266,
          265,
          264,
          263,
          263,
          263,
          262,
          262,
          262,
          262,
          263,
          263,
          262,
          261,
          261,
          262,
          262,
          262,
          264,
          263,
          264,
          264,
          265,
          265,
          266,
          265,
          263,
          262,
          262,
          263,
          264,
          264,
          263,
          263,
          264,
          266,
          257,
          256,
          260,
          258,
          257,
          255,
          254,
          250,
          241,
          226,
          208,
          196,
          184,
          180,
          177,
          176,
          184,
          187,
          182,
          168,
          150,
          153,
          155,
          145,
          124,
          125,
          123,
          123,
          120
        ],
        "speed_mph": [
          185.0,
          185.0,
          193.0,
          190.0,
          208.0,
          224.0,
          242.0,
          265.0,
          266.0,
          272.0,
          284.0,
          300.0,
          305.0,
          306.0,
          306.0,
          307.0,
          306.0,
          305.0,
          304.0,
          303.0,
          303.0,
          303.0,
          302.0,
          302.0,
          302.0,
          302.0,
          303.0,
          303.0,
          302.0,
          300.0,
          300.0,
          302.0,
          302.0,
          302.0,
          304.0,
          303.0,
          304.0,
          304.0,
          305.0,
          305.0,
          306.0,
          305.0,
          303.0,
          302.0,
          302.0,
          303.0,
          304.0,
          304.0,
          303.0,
          303.0,
          304.0,
          306.0,
          296.0,
          295.0,
          299.0,
          297.0,
          296.0,
          293.0,
          292.0,
          288.0,
          277.0,
          260.0,
          239.0,
          226.0,
          212.0,
          207.0,
          204.0,
          203.0,
          212.0,
          215.0,
          209.0,
          193.0,
          173.0,
          176.0,
          178.0,
          167.0,
          143.0,
          144.0,
          142.0,
          142.0,
          138.0
        ],
        "altitude_ft": [
          3150,
          3547,
          4150,
          5400,
          6800,
          7675,
          8400,
          8650,
          8925,
          9000,
          9000,
          9000,
          9000,
          9000,
          9000,
          9000,
          9000,
          9000,
          9000,
          9000,
          9000,
          9000,
          9000,
          9000,
          9000,
          9000,
          9000,
          9000,
          9000,
          9000,
          9000,
          9000,
          9000,
          9000,
          9000,
          9000,
          9000,
          9000,
          9000,
          9000,
          9000,
          8975,
          9000,
          9000,
          8975,
          9000,
          9000,
          9000,
          9000,
          9000,
          8975,
          8500,
          8100,
          7400,
          6425,
          5425,
          4700,
          4025,
          3450,
          2950,
          2625,
          2550,
          2550,
          2575,
          2575,
          2575,
          2575,
          2525,
          2425,
          2175,
          1900,
          1550,
          1125,
          1050,
          925,
          675,
          475,
          325,
          125,
          0,
          0
        ],
        "vertical_rate_fpm": [
          0.0,
          2500.0,
          2316.0,
          2944.0,
          2786.0,
          2595.0,
          1625.0,
          875.0,
          600.0,
          122.0,
          0.0,
          0.0,
          0.0,
          0.0,
          0.0,
          0.0,
          0.0,
          0.0,
          0.0,
          0.0,
          0.0,
          0.0,
          0.0,
          0.0,
          0.0,
          0.0,
          0.0,
          0.0,
          0.0,
          0.0,
          0.0,
          0.0,
          0.0,
          0.0,
          0.0,
          0.0,
          0.0,
          0.0,
          0.0,
          0.0,
          -32.0,
          0.0,
          33.0,
          -26.0,
          0.0,
          29.0,
          0.0,
          0.0,
          0.0,
          -27.0,
          -545.0,
          -991.0,
          -1245.0,
          -1675.0,
          -1975.0,
          -2029.0,
          -2000.0,
          -2027.0,
          -2016.0,
          -1547.0,
          -750.0,
          -141.0,
          47.0,
          47.0,
          0.0,
          0.0,
          -94.0,
          -281.0,
          -656.0,
          -984.0,
          -1014.0,
          -912.0,
          -732.0,
          -750.0,
          -1071.0,
          -844.0,
          -656.0,
          -656.0,
          -703.0,
          -609.0,
          -563.0
        ]
      }
    }
  ]
}