{
  "type": "FeatureCollection",
  "features": [
    {
      "type": "Feature",
      "geometry": {
        "type": "LineString",
        "coordinates": [
          [
            18.2622,
            42.5638
          ],
          [
            18.2742,
            42.5591
          ],
          [
            18.2868,
            42.5544
          ],
          [
            18.3009,
            42.5488
          ],
          [
            18.3148,
            42.5431
          ],
          [
            18.3304,
            42.5362
          ],
          [
            18.3341,
            42.5234
          ],
          [
            18.3135,
            42.5041
          ],
          [
            18.2979,
            42.4946
          ],
          [
            18.2768,
            42.4881
          ],
          [
            18.2476,
            42.4857
          ],
          [
            18.1992,
            42.4884
          ],
          [
            18.1425,
            42.4944
          ],
          [
            18.0789,
            42.5012
          ],
          [
            18.0277,
            42.5058
          ],
          [
            17.9829,
            42.5179
          ],
          [
            17.9305,
            42.5466
          ],
          [
            17.867,
            42.5904
          ],
          [
            17.8059,
            42.6341
          ],
          [
            17.7457,
            42.6758
          ],
          [
            17.6851,
            42.717
          ],
          [
            17.6247,
            42.7583
          ],
          [
            17.5632,
            42.8001
          ],
          [
            17.4957,
            42.8457
          ],
          [
            17.432,
            42.8886
          ],
          [
            17.3654,
            42.9334
          ],
          [
            17.2997,
            42.9775
          ],
          [
            17.2319,
            43.0227
          ],
          [
            17.1651,
            43.0673
          ],
          [
            17.0851,
            43.1206
          ],
          [
            17.0138,
            43.1679
          ],
          [
            16.9421,
            43.2153
          ],
          [
            16.8753,
            43.2595
          ],
          [
            16.8037,
            43.3068
          ],
          [
            16.7347,
            43.352
          ],
          [
            16.6669,
            43.3964
          ],
          [
            16.6002,
            43.44
          ],
          [
            16.5306,
            43.4854
          ],
          [
            16.465,
            43.5282
          ],
          [
            16.3983,
            43.5714
          ],
          [
            16.3328,
            43.6139
          ],
          [
            16.2643,
            43.6581
          ],
          [
            16.1992,
            43.7001
          ],
          [
            16.1332,
            43.7426
          ],
          [
            16.0633,
            43.7874
          ],
          [
            15.999,
            43.8285
          ],
          [
            15.9308,
            43.8722
          ],
          [
            15.8544,
            43.9209
          ],
          [
            15.7851,
            43.965
          ],
          [
            15.718,
            44.0075
          ],
          [
            15.6511,
            44.0499
          ],
          [
            15.5793,
            44.0951
          ],
          [
            15.5127,
            44.1371
          ],
          [
            15.4473,
            44.1782
          ],
          [
            15.3787,
            44.2211
          ],
          [
            15.3165,
            44.2599
          ],
          [
            15.2525,
            44.2999
          ],
          [
            15.1815,
            44.3442
          ],
          [
            15.112,
            44.3872
          ],
          [
            15.041,
            44.4312
          ],
          [
            14.9648,
            44.4782
          ],
          [
            14.8961,
            44.5207
          ],
          [
            14.8247,
            44.5645
          ],
          [
            14.7496,
            44.6105
          ],
          [
            14.6768,
            44.655
          ],
          [
            14.6109,
            44.6952
          ],
          [
            14.5422,
            44.737
          ],
          [
            14.4708,
            44.7804
          ],
          [
            14.3983,
            44.8243
          ],
          [
            14.3305,
            44.8652
          ],
          [
            14.2636,
            44.9055
          ],
          [
            14.1827,
            44.954
          ],
          [
            14.1129,
            44.9959
          ],
          [
            14.0391,
            45.04
          ],
          [
            13.9709,
            45.0808
          ],
          [
            13.9007,
            45.1224
          ],
          [
            13.8311,
            45.1637
          ],
          [
            13.7589,
            45.2067
          ],
          [
            13.6794,
            45.2622
          ],
          [
            13.6255,
            45.3051
          ],
          [
            13.5599,
            45.3583
          ],
          [
            13.501,
            45.4048
          ],
          [
            13.438,
            45.4545
          ],
          [
            13.3753,
            45.504
          ],
          [
            13.3137,
            45.5523
          ],
          [
            13.252,
            45.6007
          ],
          [
            13.1886,
            45.6502
          ],
          [
            13.125,
            45.6998
          ],
          [
            13.0653,
            45.7462
          ],
          [
            13.029,
            45.7743
          ],
          [
            12.9657,
            45.8233
          ],
          [
            12.9032,
            45.8716
          ],
          [
            12.8435,
            45.9176
          ],
          [
            12.7805,
            45.9661
          ],
          [
            12.7189,
            46.0133
          ],
          [
            12.6579,
            46.0599
          ],
          [
            12.5961,
            46.107
          ],
          [
            12.5327,
            46.1554
          ],
          [
            12.4773,
            46.1974
          ],
          [
            12.4064,
            46.251
          ],
          [
            12.3443,
            46.298
          ],
          [
            12.2828,
            46.3445
          ],
          [
            12.2189,
            46.3925
          ],
          [
            12.1772,
            46.4237
          ],
          [
            12.1135,
            46.4715
          ],
          [
            12.0497,
            46.5193
          ],
          [
            11.9855,
            46.567
          ],
          [
            11.9225,
            46.6138
          ],
          [
            11.8589,
            46.6609
          ],
          [
            11.7949,
            46.7084
          ],
          [
            11.7311,
            46.7554
          ],
          [
            11.6651,
            46.8041
          ],
          [
            11.6366,
            46.8248
          ],
          [
            11.567,
            46.8744
          ],
          [
            11.5021,
            46.9208
          ],
          [
            11.4351,
            46.9686
          ],
          [
            11.373,
            47.0127
          ],
          [
            11.3082,
            47.0586
          ],
          [
            11.2419,
            47.1055
          ],
          [
            11.1577,
            47.1649
          ],
          [
            11.0944,
            47.2092
          ],
          [
            11.0279,
            47.2557
          ],
          [
            10.9641,
            47.3002
          ],
          [
            10.8997,
            47.3454
          ],
          [
            10.8353,
            47.3899
          ],
          [
            10.7711,
            47.4346
          ],
          [
            10.7062,
            47.4795
          ],
          [
            10.6418,
            47.5238
          ],
          [
            10.5776,
            47.5681
          ],
          [
            10.4777,
            47.6365
          ],
          [
            10.4119,
            47.6816
          ],
          [
            10.345,
            47.7273
          ],
          [
            10.281,
            47.7708
          ],
          [
            10.2156,
            47.8151
          ],
          [
            10.17,
            47.846
          ],
          [
            10.0798,
            47.907
          ],
          [
            10.0157,
            47.9501
          ],
          [
            9.9266,
            48.0098
          ],
          [
            9.8578,
            48.056
          ],
          [
            9.8052,
            48.0912
          ],
          [
            9.7527,
            48.126
          ],
          [
            9.6855,
            48.1707
          ],
          [
            9.6187,
            48.2152
          ],
          [
            9.5375,
            48.2687
          ],
          [
            9.4721,
            48.3119
          ],
          [
            9.4065,
            48.355
          ],
          [
            9.3636,
            48.3832
          ],
          [
            9.2949,
            48.4282
          ],
          [
            9.2273,
            48.4723
          ],
          [
            9.1877,
            48.4982
          ],
          [
            9.1223,
            48.5407
          ],
          [
            9.084,
            48.5656
          ],
          [
            9.014,
            48.6108
          ],
          [
            8.9485,
            48.6532
          ],
          [
            8.844,
            48.7204
          ],
          [
            8.7751,
            48.7647
          ],
          [
            8.6393,
            48.8514
          ],
          [
            8.5699,
            48.8956
          ],
          [
            8.4995,
            48.9403
          ],
          [
            8.4322,
            48.983
          ],
          [
            8.3638,
            49.0261
          ],
          [
            8.2942,
            49.07
          ],
          [
            8.2512,
            49.097
          ],
          [
            8.1792,
            49.1421
          ],
          [
            8.1099,
            49.1854
          ],
          [
            8.0406,
            49.2287
          ],
          [
            7.9721,
            49.2713
          ],
          [
            7.9192,
            49.3041
          ],
          [
            7.8479,
            49.3482
          ],
          [
            7.7764,
            49.3922
          ],
          [
            7.7066,
            49.4352
          ],
          [
            7.6356,
            49.4789
          ],
          [
            7.5671,
            49.5207
          ],
          [
            7.4951,
            49.5647
          ],
          [
            7.4231,
            49.6085
          ],
          [
            7.3519,
            49.6517
          ],
          [
            7.2776,
            49.6968
          ],
          [
            7.2092,
            49.738
          ],
          [
            7.1353,
            49.7825
          ],
          [
            7.0627,
            49.8262
          ],
          [
            6.9889,
            49.8702
          ],
          [
            6.915,
            49.9143
          ],
          [
            6.8531,
            49.9511
          ],
          [
            6.7787,
            49.9953
          ],
          [
            6.7371,
            50.0169
          ],
          [
            6.6832,
            50.0385
          ],
          [
            6.5943,
            50.0696
          ],
          [
            6.5137,
            50.0998
          ],
          [
            6.4623,
            50.1203
          ],
          [
            6.3837,
            50.1511
          ],
          [
            6.2968,
            50.1841
          ],
          [
            6.2134,
            50.2162
          ],
          [
            6.1334,
            50.2467
          ],
          [
            6.0516,
            50.2779
          ],
          [
            5.997,
            50.2986
          ],
          [
            5.9143,
            50.3298
          ],
          [
            5.8308,
            50.3613
          ],
          [
            5.7473,
            50.3927
          ],
          [
            5.6647,
            50.4237
          ],
          [
            5.5783,
            50.4559
          ],
          [
            5.5098,
            50.4813
          ],
          [
            5.4237,
            50.5134
          ],
          [
            5.3347,
            50.5464
          ],
          [
            5.253,
            50.5765
          ],
          [
            5.1673,
            50.6079
          ],
          [
            5.081,
            50.6395
          ],
          [
            4.9966,
            50.6703
          ],
          [
            4.9133,
            50.7007
          ],
          [
            4.7829,
            50.7478
          ],
          [
            4.6972,
            50.7788
          ],
          [
            4.6103,
            50.81
          ],
          [
            4.5247,
            50.8407
          ],
          [
            4.4688,
            50.8607
          ],
          [
            4.4221,
            50.8774
          ],
          [
            4.3347,
            50.9084
          ],
          [
            4.249,
            50.9388
          ],
          [
            4.1871,
            50.9608
          ],
          [
            4.1,
            50.9914
          ],
          [
            4.0123,
            51.0222
          ],
          [
            3.9261,
            51.0525
          ],
          [
            3.8583,
            51.0761
          ],
          [
            3.7723,
            51.106
          ],
          [
            3.685,
            51.1362
          ],
          [
            3.5574,
            51.1803
          ],
          [
            3.4697,
            51.2104
          ],
          [
            3.3812,
            51.2408
          ],
          [
            3.2941,
            51.2705
          ],
          [
            3.2043,
            51.3009
          ],
          [
            3.1161,
            51.3309
          ],
          [
            3.0468,
            51.3544
          ],
          [
            2.8489,
            51.4209
          ],
          [
            2.7585,
            51.4511
          ],
          [
            2.668,
            51.4813
          ],
          [
            2.5804,
            51.5103
          ],
          [
            2.4912,
            51.5397
          ],
          [
            2.3611,
            51.5826
          ],
          [
            2.2681,
            51.6131
          ],
          [
            2.1817,
            51.6414
          ],
          [
            2.0911,
            51.6708
          ],
          [
            2.002,
            51.6997
          ],
          [
            1.9125,
            51.7286
          ],
          [
            1.8416,
            51.7513
          ],
          [
            1.749,
            51.781
          ],
          [
            1.6575,
            51.8103
          ],
          [
            1.5684,
            51.8387
          ],
          [
            1.4787,
            51.8672
          ],
          [
            1.3894,
            51.8954
          ],
          [
            1.2986,
            51.924
          ],
          [
            1.2065,
            51.953
          ],
          [
            1.1149,
            51.9816
          ],
          [
            1.025,
            52.0095
          ],
          [
            0.9313,
            52.0386
          ],
          [
            0.84,
            52.0669
          ],
          [
            0.7523,
            52.0939
          ],
          [
            0.6575,
            52.123
          ],
          [
            0.5679,
            52.1504
          ],
          [
            0.4825,
            52.1764
          ],
          [
            0.4318,
            52.1917
          ],
          [
            0.3396,
            52.2197
          ],
          [
            0.2557,
            52.2515
          ],
          [
            0.2067,
            52.2724
          ],
          [
            0.122,
            52.3101
          ],
          [
            0.0772,
            52.3304
          ],
          [
            -0.0084,
            52.3699
          ],
          [
            -0.0711,
            52.3974
          ],
          [
            -0.1383,
            52.4275
          ],
          [
            -0.2255,
            52.4677
          ],
          [
            -0.3159,
            52.5083
          ],
          [
            -0.3925,
            52.5428
          ],
          [
            -0.5045,
            52.5941
          ],
          [
            -0.5914,
            52.6332
          ],
          [
            -0.6371,
            52.6534
          ],
          [
            -0.7234,
            52.6905
          ],
          [
            -0.8348,
            52.7343
          ],
          [
            -0.9206,
            52.7676
          ],
          [
            -1.0083,
            52.8018
          ],
          [
            -1.091,
            52.8337
          ],
          [
            -1.1588,
            52.8599
          ],
          [
            -1.2166,
            52.8843
          ],
          [
            -1.2714,
            52.9087
          ],
          [
            -1.3439,
            52.9414
          ],
          [
            -1.419,
            52.9744
          ],
          [
            -1.4937,
            53.007
          ],
          [
            -1.5674,
            53.0395
          ],
          [
            -1.6136,
            53.0596
          ],
          [
            -1.715,
            53.1035
          ],
          [
            -1.7896,
            53.1358
          ],
          [
            -1.8505,
            53.1622
          ],
          [
            -1.8972,
            53.1829
          ],
          [
            -1.9571,
            53.2074
          ],
          [
            -1.9989,
            53.2252
          ],
          [
            -2.0422,
            53.2442
          ],
          [
            -2.0603,
            53.2584
          ],
          [
            -2.062,
            53.2746
          ],
          [
            -2.0376,
            53.2965
          ],
          [
            -2.0081,
            53.3133
          ],
          [
            -1.9622,
            53.3386
          ],
          [
            -1.9295,
            53.3571
          ],
          [
            -1.9166,
            53.3727
          ],
          [
            -1.9241,
            53.3914
          ],
          [
            -1.9389,
            53.4112
          ],
          [
            -1.9523,
            53.4301
          ],
          [
            -1.9649,
            53.4478
          ],
          [
            -1.9841,
            53.4574
          ],
          [
            -2.0086,
            53.4563
          ],
          [
            -2.0323,
            53.4535
          ],
          [
            -2.0644,
            53.4493
          ],
          [
            -2.0865,
            53.4427
          ],
          [
            -2.1149,
            53.4302
          ],
          [
            -2.1427,
            53.4173
          ],
          [
            -2.1589,
            53.4097
          ],
          [
            -2.1736,
            53.4026
          ],
          [
            -2.1809,
            53.3991
          ],
          [
            -2.1886,
            53.3954
          ],
          [
            -2.2011,
            53.3894
          ],
          [
            -2.2139,
            53.3832
          ],
          [
            -2.2256,
            53.3777
          ],
          [
            -2.2379,
            53.3716
          ],
          [
            -2.2497,
            53.3659
          ],
          [
            -2.2616,
            53.3602
          ]
        ]
      },
      "properties": {
        "time_europe_berlin": [
          "04.12.2025 12:11:05",
          "04.12.2025 12:11:21",
          "04.12.2025 12:11:39",
          "04.12.2025 12:11:57",
          "04.12.2025 12:12:15",
          "04.12.2025 12:12:34",
          "04.12.2025 12:12:52",
          "04.12.2025 12:13:23",
          "04.12.2025 12:13:40",
          "04.12.2025 12:13:57",
          "04.12.2025 12:14:16",
          "04.12.2025 12:14:46",
          "04.12.2025 12:15:17",
          "04.12.2025 12:15:49",
          "04.12.2025 12:16:11",
          "04.12.2025 12:16:31",
          "04.12.2025 12:16:57",
          "04.12.2025 12:17:28",
          "04.12.2025 12:17:58",
          "04.12.2025 12:18:28",
          "04.12.2025 12:18:58",
          "04.12.2025 12:19:28",
          "04.12.2025 12:19:58",
          "04.12.2025 12:20:29",
          "04.12.2025 12:20:59",
          "04.12.2025 12:21:29",
          "04.12.2025 12:21:59",
          "04.12.2025 12:22:29",
          "04.12.2025 12:22:59",
          "04.12.2025 12:23:32",
          "04.12.2025 12:24:03",
          "04.12.2025 12:24:34",
          "04.12.2025 12:25:04",
          "04.12.2025 12:25:34",
          "04.12.2025 12:26:04",
          "04.12.2025 12:26:34",
          "04.12.2025 12:27:04",
          "04.12.2025 12:27:34",
          "04.12.2025 12:28:04",
          "04.12.2025 12:28:34",
          "04.12.2025 12:29:04",
          "04.12.2025 12:29:34",
          "04.12.2025 12:30:04",
          "04.12.2025 12:30:34",
          "04.12.2025 12:31:04",
          "04.12.2025 12:31:34",
          "04.12.2025 12:32:05",
          "04.12.2025 12:32:38",
          "04.12.2025 12:33:09",
          "04.12.2025 12:33:39",
          "04.12.2025 12:34:09",
          "04.12.2025 12:34:40",
          "04.12.2025 12:35:10",
          "04.12.2025 12:35:41",
          "04.12.2025 12:36:11",
          "04.12.2025 12:36:41",
          "04.12.2025 12:37:11",
          "04.12.2025 12:37:42",
          "04.12.2025 12:38:12",
          "04.12.2025 12:38:44",
          "04.12.2025 12:39:17",
          "04.12.2025 12:39:47",
          "04.12.2025 12:40:18",
          "04.12.2025 12:40:50",
          "04.12.2025 12:41:20",
          "04.12.2025 12:41:50",
          "04.12.2025 12:42:20",
          "04.12.2025 12:42:50",
          "04.12.2025 12:43:20",
          "04.12.2025 12:43:50",
          "04.12.2025 12:44:20",
          "04.12.2025 12:44:53",
          "04.12.2025 12:45:24",
          "04.12.2025 12:45:55",
          "04.12.2025 12:46:25",
          "04.12.2025 12:46:55",
          "04.12.2025 12:47:25",
          "04.12.2025 12:47:56",
          "04.12.2025 12:48:33",
          "04.12.2025 12:49:00",
          "04.12.2025 12:49:32",
          "04.12.2025 12:50:02",
          "04.12.2025 12:50:32",
          "04.12.2025 12:51:03",
          "04.12.2025 12:51:33",
          "04.12.2025 12:52:03",
          "04.12.2025 12:52:33",
          "04.12.2025 12:53:04",
          "04.12.2025 12:53:34",
          "04.12.2025 12:53:52",
          "04.12.2025 12:54:22",
          "04.12.2025 12:54:52",
          "04.12.2025 12:55:22",
          "04.12.2025 12:55:52",
          "04.12.2025 12:56:22",
          "04.12.2025 12:56:52",
          "04.12.2025 12:57:22",
          "04.12.2025 12:57:52",
          "04.12.2025 12:58:22",
          "04.12.2025 12:58:52",
          "04.12.2025 12:59:22",
          "04.12.2025 12:59:52",
          "04.12.2025 13:00:22",
          "04.12.2025 13:00:42",
          "04.12.2025 13:01:12",
          "04.12.2025 13:01:42",
          "04.12.2025 13:02:12",
          "04.12.2025 13:02:42",
          "04.12.2025 13:03:12",
          "04.12.2025 13:03:42",
          "04.12.2025 13:04:12",
          "04.12.2025 13:04:42",
          "04.12.2025 13:04:58",
          "04.12.2025 13:05:28",
          "04.12.2025 13:05:58",
          "04.12.2025 13:06:28",
          "04.12.2025 13:06:58",
          "04.12.2025 13:07:28",
          "04.12.2025 13:07:58",
          "04.12.2025 13:08:38",
          "04.12.2025 13:09:08",
          "04.12.2025 13:09:38",
          "04.12.2025 13:10:09",
          "04.12.2025 13:10:39",
          "04.12.2025 13:11:09",
          "04.12.2025 13:11:39",
          "04.12.2025 13:12:09",
          "04.12.2025 13:12:39",
          "04.12.2025 13:13:09",
          "04.12.2025 13:13:54",
          "04.12.2025 13:14:24",
          "04.12.2025 13:14:54",
          "04.12.2025 13:15:24",
          "04.12.2025 13:15:54",
          "04.12.2025 13:16:15",
          "04.12.2025 13:16:55",
          "04.12.2025 13:17:25",
          "04.12.2025 13:18:05",
          "04.12.2025 13:18:35",
          "04.12.2025 13:19:00",
          "04.12.2025 13:19:23",
          "04.12.2025 13:19:53",
          "04.12.2025 13:20:22",
          "04.12.2025 13:20:59",
          "04.12.2025 13:21:27",
          "04.12.2025 13:21:57",
          "04.12.2025 13:22:16",
          "04.12.2025 13:22:46",
          "04.12.2025 13:23:16",
          "04.12.2025 13:23:33",
          "04.12.2025 13:24:03",
          "04.12.2025 13:24:20",
          "04.12.2025 13:24:50",
          "04.12.2025 13:25:20",
          "04.12.2025 13:26:06",
          "04.12.2025 13:26:36",
          "04.12.2025 13:27:35",
          "04.12.2025 13:28:05",
          "04.12.2025 13:28:35",
          "04.12.2025 13:29:05",
          "04.12.2025 13:29:35",
          "04.12.2025 13:30:05",
          "04.12.2025 13:30:25",
          "04.12.2025 13:30:55",
          "04.12.2025 13:31:25",
          "04.12.2025 13:31:55",
          "04.12.2025 13:32:25",
          "04.12.2025 13:32:48",
          "04.12.2025 13:33:18",
          "04.12.2025 13:33:48",
          "04.12.2025 13:34:18",
          "04.12.2025 13:34:48",
          "04.12.2025 13:35:18",
          "04.12.2025 13:35:48",
          "04.12.2025 13:36:18",
          "04.12.2025 13:36:48",
          "04.12.2025 13:37:18",
          "04.12.2025 13:37:48",
          "04.12.2025 13:38:18",
          "04.12.2025 13:38:48",
          "04.12.2025 13:39:18",
          "04.12.2025 13:39:48",
          "04.12.2025 13:40:14",
          "04.12.2025 13:40:44",
          "04.12.2025 13:41:01",
          "04.12.2025 13:41:21",
          "04.12.2025 13:41:51",
          "04.12.2025 13:42:20",
          "04.12.2025 13:42:38",
          "04.12.2025 13:43:08",
          "04.12.2025 13:43:38",
          "04.12.2025 13:44:08",
          "04.12.2025 13:44:37",
          "04.12.2025 13:45:07",
          "04.12.2025 13:45:28",
          "04.12.2025 13:45:55",
          "04.12.2025 13:46:25",
          "04.12.2025 13:46:55",
          "04.12.2025 13:47:25",
          "04.12.2025 13:47:55",
          "04.12.2025 13:48:20",
          "04.12.2025 13:48:50",
          "04.12.2025 13:49:20",
          "04.12.2025 13:49:50",
          "04.12.2025 13:50:20",
          "04.12.2025 13:50:50",
          "04.12.2025 13:51:20",
          "04.12.2025 13:51:50",
          "04.12.2025 13:52:36",
          "04.12.2025 13:53:06",
          "04.12.2025 13:53:36",
          "04.12.2025 13:54:06",
          "04.12.2025 13:54:26",
          "04.12.2025 13:54:42",
          "04.12.2025 13:55:12",
          "04.12.2025 13:55:42",
          "04.12.2025 13:56:03",
          "04.12.2025 13:56:33",
          "04.12.2025 13:57:03",
          "04.12.2025 13:57:33",
          "04.12.2025 13:57:56",
          "04.12.2025 13:58:26",
          "04.12.2025 13:58:56",
          "04.12.2025 13:59:40",
          "04.12.2025 14:00:10",
          "04.12.2025 14:00:40",
          "04.12.2025 14:01:10",
          "04.12.2025 14:01:40",
          "04.12.2025 14:02:10",
          "04.12.2025 14:02:34",
          "04.12.2025 14:03:40",
          "04.12.2025 14:04:10",
          "04.12.2025 14:04:40",
          "04.12.2025 14:05:10",
          "04.12.2025 14:05:40",
          "04.12.2025 14:06:25",
          "04.12.2025 14:06:55",
          "04.12.2025 14:07:25",
          "04.12.2025 14:07:55",
          "04.12.2025 14:08:25",
          "04.12.2025 14:08:55",
          "04.12.2025 14:09:20",
          "04.12.2025 14:09:50",
          "04.12.2025 14:10:20",
          "04.12.2025 14:10:50",
          "04.12.2025 14:11:20",
          "04.12.2025 14:11:50",
          "04.12.2025 14:12:20",
          "04.12.2025 14:12:50",
          "04.12.2025 14:13:20",
          "04.12.2025 14:13:50",
          "04.12.2025 14:14:20",
          "04.12.2025 14:14:50",
          "04.12.2025 14:15:20",
          "04.12.2025 14:15:50",
          "04.12.2025 14:16:20",
          "04.12.2025 14:16:50",
          "04.12.2025 14:17:07",
          "04.12.2025 14:17:36",
          "04.12.2025 14:18:06",
          "04.12.2025 14:18:24",
          "04.12.2025 14:18:54",
          "04.12.2025 14:19:10",
          "04.12.2025 14:19:40",
          "04.12.2025 14:20:01",
          "04.12.2025 14:20:26",
          "04.12.2025 14:20:56",
          "04.12.2025 14:21:26",
          "04.12.2025 14:21:51",
          "04.12.2025 14:22:30",
          "04.12.2025 14:23:00",
          "04.12.2025 14:23:16",
          "04.12.2025 14:23:46",
          "04.12.2025 14:24:24",
          "04.12.2025 14:24:54",
          "04.12.2025 14:25:24",
          "04.12.2025 14:25:54",
          "04.12.2025 14:26:19",
          "04.12.2025 14:26:43",
          "04.12.2025 14:27:04",
          "04.12.2025 14:27:34",
          "04.12.2025 14:28:04",
          "04.12.2025 14:28:34",
          "04.12.2025 14:29:04",
          "04.12.2025 14:29:27",
          "04.12.2025 14:30:08",
          "04.12.2025 14:30:40",
          "04.12.2025 14:31:10",
          "04.12.2025 14:31:33",
          "04.12.2025 14:32:03",
          "04.12.2025 14:32:26",
          "04.12.2025 14:32:52",
          "04.12.2025 14:33:08",
          "04.12.2025 14:33:24",
          "04.12.2025 14:33:47",
          "04.12.2025 14:34:07",
          "04.12.2025 14:34:37",
          "04.12.2025 14:35:02",
          "04.12.2025 14:35:18",
          "04.12.2025 14:35:37",
          "04.12.2025 14:36:03",
          "04.12.2025 14:36:27",
          "04.12.2025 14:36:50",
          "04.12.2025 14:37:08",
          "04.12.2025 14:37:26",
          "04.12.2025 14:37:44",
          "04.12.2025 14:38:10",
          "04.12.2025 14:38:29",
          "04.12.2025 14:38:56",
          "04.12.2025 14:39:26",
          "04.12.2025 14:39:42",
          "04.12.2025 14:39:58",
          "04.12.2025 14:40:07",
          "04.12.2025 14:40:14",
          "04.12.2025 14:40:30",
          "04.12.2025 14:40:46",
          "04.12.2025 14:41:02",
          "04.12.2025 14:41:18",
          "04.12.2025 14:41:34",
          "04.12.2025 14:41:50"
        ],
        "course_deg_clockwise_from_north": [
          119,
          117,
          117,
          119,
          119,
          134,
          198,
          227,
          239,
          254,
          270,
          277,
          279,
          277,
          278,
          299,
          311,
          314,
          314,
          313,
          313,
          313,
          313,
          313,
          313,
          312,
          312,
          312,
          312,
          312,
          312,
          312,
          312,
          312,
          312,
          312,
          312,
          312,
          312,
          312,
          312,
          312,
          312,
          312,
          312,
          312,
          311,
          312,
          311,
          311,
          311,
          311,
          311,
          311,
          311,
          311,
          311,
          311,
          311,
          311,
          311,
          311,
          311,
          311,
          311,
          311,
          310,
          310,
          310,
          310,
          310,
          310,
          310,
          310,
          310,
          310,
          310,
          311,
          317,
          319,
          319,
          318,
          318,
          318,
          318,
          318,
          318,
          318,
          318,
          318,
          318,
          318,
          319,
          318,
          318,
          318,
          318,
          318,
          318,
          318,
          318,
          317,
          317,
          317,
          317,
          317,
          317,
          317,
          317,
          317,
          317,
          317,
          318,
          316,
          316,
          316,
          316,
          316,
          316,
          316,
          316,
          316,
          316,
          316,
          316,
          316,
          315,
          316,
          315,
          315,
          315,
          315,
          315,
          315,
          315,
          315,
          315,
          315,
          315,
          315,
          315,
          315,
          315,
          315,
          316,
          315,
          315,
          315,
          315,
          315,
          314,
          314,
          314,
          314,
          314,
          314,
          314,
          314,
          314,
          314,
          314,
          314,
          315,
          314,
          314,
          314,
          314,
          314,
          313,
          313,
          313,
          313,
          313,
          313,
          313,
          313,
          313,
          313,
          313,
          313,
          313,
          313,
          313,
          313,
          305,
          300,
          299,
          302,
          302,
          301,
          301,
          301,
          301,
          301,
          301,
          301,
          301,
          300,
          300,
          300,
          300,
          300,
          300,
          300,
          300,
          300,
          300,
          300,
          300,
          300,
          300,
          300,
          300,
          299,
          299,
          299,
          299,
          299,
          299,
          299,
          299,
          299,
          299,
          299,
          299,
          299,
          298,
          299,
          298,
          298,
          298,
          298,
          298,
          298,
          298,
          298,
          298,
          298,
          298,
          298,
          297,
          297,
          297,
          297,
          297,
          297,
          297,
          297,
          297,
          297,
          297,
          297,
          297,
          297,
          296,
          297,
          296,
          296,
          298,
          304,
          306,
          306,
          307,
          306,
          306,
          307,
          307,
          306,
          307,
          307,
          306,
          306,
          305,
          302,
          303,
          303,
          302,
          304,
          306,
          307,
          306,
          306,
          306,
          306,
          306,
          306,
          306,
          306,
          305,
          304,
          306,
          307,
          337,
          10,
          45,
          47,
          47,
          41,
          6,
          337,
          336,
          337,
          335,
          281,
          261,
          257,
          256,
          235,
          233,
          232,
          231,
          231,
          231,
          231,
          231,
          231,
          231,
          231,
          231,
          232
        ],
        "speed_kts": [
          134,
          133,
          128,
          138,
          152,
          149,
          162,
          189,
          203,
          221,
          247,
          282,
          312,
          347,
          370,
          401,
          425,
          444,
          443,
          440,
          442,
          445,
          451,
          460,
          468,
          474,
          481,
          488,
          493,
          496,
          498,
          496,
          494,
          490,
          485,
          479,
          475,
          473,
          472,
          471,
          469,
          467,
          463,
          461,
          461,
          465,
          468,
          469,
          468,
          467,
          466,
          463,
          457,
          454,
          450,
          453,
          457,
          461,
          465,
          468,
          471,
          473,
          472,
          472,
          471,
          471,
          470,
          470,
          470,
          468,
          467,
          468,
          467,
          466,
          466,
          464,
          463,
          463,
          466,
          467,
          468,
          469,
          468,
          469,
          468,
          469,
          467,
          466,
          466,
          465,
          464,
          464,
          463,
          463,
          464,
          464,
          464,
          464,
          462,
          463,
          464,
          464,
          465,
          466,
          466,
          466,
          467,
          467,
          468,
          467,
          468,
          468,
          467,
          465,
          464,
          462,
          459,
          456,
          455,
          453,
          453,
          452,
          452,
          451,
          451,
          450,
          452,
          453,
          455,
          455,
          455,
          455,
          454,
          454,
          454,
          455,
          455,
          455,
          457,
          458,
          458,
          458,
          458,
          458,
          458,
          458,
          458,
          455,
          454,
          454,
          453,
          453,
          453,
          453,
          455,
          455,
          456,
          456,
          456,
          456,
          455,
          454,
          454,
          453,
          453,
          453,
          453,
          453,
          454,
          454,
          456,
          456,
          457,
          459,
          460,
          461,
          462,
          463,
          463,
          463,
          463,
          463,
          463,
          462,
          459,
          456,
          455,
          454,
          452,
          451,
          450,
          450,
          450,
          449,
          450,
          451,
          451,
          451,
          452,
          453,
          453,
          454,
          453,
          452,
          452,
          451,
          450,
          448,
          449,
          450,
          453,
          453,
          454,
          455,
          455,
          455,
          455,
          454,
          453,
          452,
          453,
          453,
          453,
          453,
          455,
          455,
          456,
          457,
          457,
          457,
          457,
          457,
          457,
          456,
          454,
          453,
          451,
          450,
          450,
          450,
          452,
          452,
          451,
          454,
          454,
          454,
          455,
          455,
          455,
          455,
          455,
          456,
          455,
          453,
          449,
          447,
          445,
          443,
          448,
          456,
          457,
          462,
          464,
          464,
          466,
          471,
          487,
          489,
          485,
          478,
          472,
          470,
          465,
          458,
          452,
          438,
          420,
          410,
          404,
          407,
          403,
          398,
          392,
          387,
          380,
          369,
          350,
          330,
          316,
          299,
          281,
          250,
          243,
          244,
          259,
          260,
          255,
          247,
          225,
          201,
          182,
          180,
          187,
          179,
          172,
          172,
          163,
          160,
          163,
          155,
          160,
          161,
          152,
          145,
          133,
          126,
          127,
          124,
          124,
          122
        ],
        "speed_mph": [
          154.0,
          153.0,
          147.0,
          159.0,
          175.0,
          171.0,
          186.0,
          217.0,
          234.0,
          254.0,
          284.0,
          325.0,
          359.0,
          399.0,
          426.0,
          461.0,
          489.0,
          511.0,
          510.0,
          506.0,
          509.0,
          512.0,
          519.0,
          529.0,
          539.0,
          545.0,
          554.0,
          562.0,
          567.0,
          571.0,
          573.0,
          571.0,
          568.0,
          564.0,
          558.0,
          551.0,
          547.0,
          544.0,
          543.0,
          542.0,
          540.0,
          537.0,
          533.0,
          531.0,
          531.0,
          535.0,
          539.0,
          540.0,
          539.0,
          537.0,
          536.0,
          533.0,
          526.0,
          522.0,
          518.0,
          521.0,
          526.0,
          531.0,
          535.0,
          539.0,
          542.0,
          544.0,
          543.0,
          543.0,
          542.0,
          542.0,
          541.0,
          541.0,
          541.0,
          539.0,
          537.0,
          539.0,
          537.0,
          536.0,
          536.0,
          534.0,
          533.0,
          533.0,
          536.0,
          537.0,
          539.0,
          540.0,
          539.0,
          540.0,
          539.0,
          540.0,
          537.0,
          536.0,
          536.0,
          535.0,
          534.0,
          534.0,
          533.0,
          533.0,
          534.0,
          534.0,
          534.0,
          534.0,
          532.0,
          533.0,
          534.0,
          534.0,
          535.0,
          536.0,
          536.0,
          536.0,
          537.0,
          537.0,
          539.0,
          537.0,
          539.0,
          539.0,
          537.0,
          535.0,
          534.0,
          532.0,
          528.0,
          525.0,
          524.0,
          521.0,
          521.0,
          520.0,
          520.0,
          519.0,
          519.0,
          518.0,
          520.0,
          521.0,
          524.0,
          524.0,
          524.0,
          524.0,
          522.0,
          522.0,
          522.0,
          524.0,
          524.0,
          524.0,
          526.0,
          527.0,
          527.0,
          527.0,
          527.0,
          527.0,
          527.0,
          527.0,
          527.0,
          524.0,
          522.0,
          522.0,
          521.0,
          521.0,
          521.0,
          521.0,
          524.0,
          524.0,
          525.0,
          525.0,
          525.0,
          525.0,
          524.0,
          522.0,
          522.0,
          521.0,
          521.0,
          521.0,
          521.0,
          521.0,
          522.0,
          522.0,
          525.0,
          525.0,
          526.0,
          528.0,
          529.0,
          531.0,
          532.0,
          533.0,
          533.0,
          533.0,
          533.0,
          533.0,
          533.0,
          532.0,
          528.0,
          525.0,
          524.0,
          522.0,
          520.0,
          519.0,
          518.0,
          518.0,
          518.0,
          517.0,
          518.0,
          519.0,
          519.0,
          519.0,
          520.0,
          521.0,
          521.0,
          522.0,
          521.0,
          520.0,
          520.0,
          519.0,
          518.0,
          516.0,
          517.0,
          518.0,
          521.0,
          521.0,
          522.0,
          524.0,
          524.0,
          524.0,
          524.0,
          522.0,
          521.0,
          520.0,
          521.0,
          521.0,
          521.0,
          521.0,
          524.0,
          524.0,
          525.0,
          526.0,
          526.0,
          526.0,
          526.0,
          526.0,
          526.0,
          525.0,
          522.0,
          521.0,
          519.0,
          518.0,
          518.0,
          518.0,
          520.0,
          520.0,
          519.0,
          522.0,
          522.0,
          522.0,
          524.0,
          524.0,
          524.0,
          524.0,
          524.0,
          525.0,
          524.0,
          521.0,
          517.0,
          514.0,
          512.0,
          510.0,
          516.0,
          525.0,
          526.0,
          532.0,
          534.0,
          534.0,
          536.0,
          542.0,
          560.0,
          563.0,
          558.0,
          550.0,
          543.0,
          541.0,
          535.0,
          527.0,
          520.0,
          504.0,
          483.0,
          472.0,
          465.0,
          468.0,
          464.0,
          458.0,
          451.0,
          445.0,
          437.0,
          425.0,
          403.0,
          380.0,
          364.0,
          344.0,
          323.0,
          288.0,
          280.0,
          281.0,
          298.0,
          299.0,
          293.0,
          284.0,
          259.0,
          231.0,
          209.0,
          207.0,
          215.0,
          206.0,
          198.0,
          198.0,
          188.0,
          184.0,
          188.0,
          178.0,
          184.0,
          185.0,
          175.0,
          167.0,
          153.0,
          145.0,
          146.0,
          143.0,
          143.0,
          140.0
        ],
        "altitude_ft": [
          950,
          1750,
          2875,
          3600,
          4375,
          5500,
          6500,
          8025,
          8875,
          9750,
          10775,
          12075,
          13350,
          14675,
          15600,
          16475,
          17500,
          18875,
          20275,
          21650,
          22925,
          24125,
          25275,
          26250,
          27125,
          28025,
          28800,
          29525,
          30225,
          31100,
          31875,
          32725,
          33575,
          34400,
          35225,
          36050,
          36775,
          37400,
          37925,
          38375,
          38850,
          39325,
          39800,
          40250,
          40575,
          40775,
          40950,
          41200,
          41425,
          41650,
          41875,
          42100,
          42400,
          42650,
          42925,
          43000,
          43000,
          43000,
          43000,
          43000,
          43000,
          43000,
          43000,
          43000,
          43000,
          43000,
          43000,
          43000,
          43000,
          43000,
          43000,
          43000,
          43000,
          43000,
          43000,
          43000,
          43000,
          43000,
          43000,
          43000,
          43000,
          43000,
          43000,
          43000,
          43000,
          43000,
          43000,
          43000,
          43000,
          43000,
          43000,
          43000,
          43000,
          43000,
          43000,
          43000,
          43000,
          43000,
          43000,
          43000,
          43000,
          43000,
          43000,
          43000,
          43000,
          43000,
          43000,
          43000,
          43000,
          43000,
          43000,
          43000,
          43000,
          43000,
          43000,
          43000,
          43000,
          43000,
          43000,
          43000,
          43000,
          43000,
          43000,
          43000,
          43000,
          43000,
          43000,
          43000,
          43000,
          43000,
          43000,
          43000,
          43000,
          43000,
          43000,
          43000,
          43000,
          43000,
          43000,
          43000,
          43000,
          43000,
          43000,
          43000,
          43000,
          43000,
          43000,
          43000,
          43000,
          43000,
          43000,
          43000,
          43000,
          43000,
          43000,
          43000,
          43000,
          43000,
          43000,
          43000,
          43000,
          43000,
          43000,
          43000,
          43000,
          43000,
          43000,
          43000,
          43000,
          43000,
          43000,
          43000,
          43000,
          43000,
          43000,
          43000,
          43000,
          43000,
          43000,
          43000,
          43000,
          43000,
          43000,
          43000,
          43000,
          43000,
          43000,
          43000,
          43000,
          43000,
          43000,
          43000,
          43000,
          43000,
          43000,
          43000,
          43000,
          43000,
          43000,
          43000,
          43000,
          43000,
          43000,
          43000,
          43000,
          43000,
          43000,
          43000,
          43000,
          43000,
          43000,
          43000,
          43000,
          43000,
          43000,
          43000,
          43000,
          43000,
          43000,
          43000,
          43000,
          43000,
          43000,
          43000,
          43000,
          43000,
          43000,
          43000,
          43000,
          43000,
          43000,
          43000,
          43000,
          43000,
          43000,
          43000,
          43000,
          43000,
          43000,
          43000,
          43000,
          43000,
          43000,
          43000,
          43000,
          43000,
          43000,
          43000,
          43000,
          43000,
          43000,
          43000,
          43000,
          42825,
          42175,
          41175,
          40175,
          39600,
          38525,
          37525,
          36900,
          35875,
          35325,
          34275,
          33550,
          32675,
          31600,
          30500,
          29575,
          28125,
          27000,
          26375,
          25200,
          23825,
          22725,
          21350,
          19900,
          18650,
          17825,
          17100,
          16125,
          15125,
          14125,
          13125,
          12400,
          11050,
          9950,
          9025,
          8250,
          7400,
          7025,
          7000,
          7000,
          6925,
          6575,
          6225,
          5725,
          5325,
          5025,
          4675,
          4475,
          4300,
          3825,
          3550,
          3500,
          3500,
          3500,
          3425,
          3025,
          2600,
          2350,
          2125,
          2000,
          1875,
          1700,
          1500,
          1325,
          1150,
          950,
          775
        ],
        "vertical_rate_fpm": [
          0.0,
          3397.0,
          3083.0,
          2500.0,
          3081.0,
          3446.0,
          3092.0,
          2969.0,
          3044.0,
          3167.0,
          2847.0,
          2533.0,
          2476.0,
          2500.0,
          2571.0,
          2478.0,
          2526.0,
          2730.0,
          2775.0,
          2650.0,
          2475.0,
          2350.0,
          2090.0,
          1820.0,
          1775.0,
          1675.0,
          1500.0,
          1425.0,
          1500.0,
          1547.0,
          1573.0,
          1672.0,
          1675.0,
          1650.0,
          1650.0,
          1550.0,
          1350.0,
          1150.0,
          975.0,
          925.0,
          950.0,
          950.0,
          925.0,
          775.0,
          525.0,
          369.0,
          398.0,
          445.0,
          443.0,
          450.0,
          443.0,
          516.0,
          541.0,
          516.0,
          350.0,
          75.0,
          0.0,
          0.0,
          0.0,
          0.0,
          0.0,
          0.0,
          0.0,
          0.0,
          0.0,
          0.0,
          0.0,
          0.0,
          0.0,
          0.0,
          0.0,
          0.0,
          0.0,
          0.0,
          0.0,
          0.0,
          0.0,
          0.0,
          0.0,
          0.0,
          0.0,
          0.0,
          0.0,
          0.0,
          0.0,
          0.0,
          0.0,
          0.0,
          0.0,
          0.0,
          0.0,
          0.0,
          0.0,
          0.0,
          0.0,
          0.0,
          0.0,
          0.0,
          0.0,
          0.0,
          0.0,
          0.0,
          0.0,
          0.0,
          0.0,
          0.0,
          0.0,
          0.0,
          0.0,
          0.0,
          0.0,
          0.0,
          0.0,
          0.0,
          0.0,
          0.0,
          0.0,
          0.0,
          0.0,
          0.0,
          0.0,
          0.0,
          0.0,
          0.0,
          0.0,
          0.0,
          0.0,
          0.0,
          0.0,
          0.0,
          0.0,
          0.0,
          0.0,
          0.0,
          0.0,
          0.0,
          0.0,
          0.0,
          0.0,
          0.0,
          0.0,
          0.0,
          0.0,
          0.0,
          0.0,
          0.0,
          0.0,
          0.0,
          0.0,
          0.0,
          0.0,
          0.0,
          0.0,
          0.0,
          0.0,
          0.0,
          0.0,
          0.0,
          0.0,
          0.0,
          0.0,
          0.0,
          0.0,
          0.0,
          0.0,
          0.0,
          0.0,
          0.0,
          0.0,
          0.0,
          0.0,
          0.0,
          0.0,
          0.0,
          0.0,
          0.0,
          0.0,
          0.0,
          0.0,
          0.0,
          0.0,
          0.0,
          0.0,
          0.0,
          0.0,
          0.0,
          0.0,
          0.0,
          0.0,
          0.0,
          0.0,
          0.0,
          0.0,
          0.0,
          0.0,
          0.0,
          0.0,
          0.0,
          0.0,
          0.0,
          0.0,
          0.0,
          0.0,
          0.0,
          0.0,
          0.0,
          0.0,
          0.0,
          0.0,
          0.0,
          0.0,
          0.0,
          0.0,
          0.0,
          0.0,
          0.0,
          0.0,
          0.0,
          0.0,
          0.0,
          0.0,
          0.0,
          0.0,
          0.0,
          0.0,
          0.0,
          0.0,
          0.0,
          0.0,
          0.0,
          0.0,
          0.0,
          0.0,
          0.0,
          0.0,
          0.0,
          0.0,
          0.0,
          0.0,
          0.0,
          0.0,
          0.0,
          0.0,
          0.0,
          0.0,
          0.0,
          0.0,
          0.0,
          0.0,
          0.0,
          0.0,
          0.0,
          -175.0,
          -825.0,
          -1650.0,
          -2000.0,
          -2011.0,
          -2152.0,
          -2110.0,
          -2031.0,
          -2063.0,
          -2054.0,
          -2087.0,
          -2088.0,
          -2087.0,
          -2127.0,
          -2175.0,
          -2209.0,
          -2227.0,
          -2239.0,
          -2283.0,
          -2348.0,
          -2250.0,
          -2184.0,
          -2475.0,
          -2825.0,
          -2945.0,
          -2541.0,
          -2067.0,
          -2000.0,
          -1975.0,
          -2000.0,
          -2000.0,
          -1953.0,
          -1945.0,
          -2014.0,
          -1960.0,
          -1925.0,
          -1840.0,
          -1387.0,
          -490.0,
          -36.0,
          -141.0,
          -654.0,
          -977.0,
          -1020.0,
          -982.0,
          -1024.0,
          -1114.0,
          -733.0,
          -450.0,
          -830.0,
          -1098.0,
          -542.0,
          -83.0,
          0.0,
          -100.0,
          -620.0,
          -868.0,
          -880.0,
          -891.0,
          -840.0,
          -938.0,
          -783.0,
          -703.0,
          -703.0,
          -656.0,
          -703.0,
          -703.0,
          -656.0
        ]
      }
    }
  ]
}