{
  "type": "FeatureCollection",
  "features": [
    {
      "type": "Feature",
      "geometry": {
        "type": "LineString",
        "coordinates": [
          [
            98.3375,
            8.1151
          ],
          [
            98.3481,
            8.1158
          ],
          [
            98.3603,
            8.1171
          ],
          [
            98.3751,
            8.1191
          ],
          [
            98.3882,
            8.1205
          ],
          [
            98.4036,
            8.1168
          ],
          [
            98.4143,
            8.098
          ],
          [
            98.4035,
            8.06
          ],
          [
            98.3849,
            8.0184
          ],
          [
            98.3744,
            7.9945
          ],
          [
            98.3657,
            7.9738
          ],
          [
            98.347,
            7.9315
          ],
          [
            98.3212,
            7.9106
          ],
          [
            98.2845,
            7.9038
          ],
          [
            98.2455,
            7.9076
          ],
          [
            98.1952,
            7.9193
          ],
          [
            98.1473,
            7.9325
          ],
          [
            98.0852,
            7.9466
          ],
          [
            98.0318,
            7.9554
          ],
          [
            97.9744,
            7.9656
          ],
          [
            97.9176,
            7.9758
          ],
          [
            97.8574,
            7.9861
          ],
          [
            97.8011,
            7.9964
          ],
          [
            97.7399,
            8.0068
          ],
          [
            97.6851,
            8.0164
          ],
          [
            97.6274,
            8.0268
          ],
          [
            97.5677,
            8.037
          ],
          [
            97.4716,
            8.054
          ],
          [
            97.3758,
            8.0706
          ],
          [
            97.3052,
            8.0829
          ],
          [
            97.2288,
            8.0981
          ],
          [
            97.1643,
            8.1249
          ],
          [
            97.1007,
            8.1546
          ],
          [
            97.0378,
            8.1842
          ],
          [
            96.975,
            8.2134
          ],
          [
            96.9115,
            8.2429
          ],
          [
            96.8478,
            8.2719
          ],
          [
            96.7837,
            8.3016
          ],
          [
            96.7193,
            8.3318
          ],
          [
            96.6558,
            8.3618
          ],
          [
            96.5924,
            8.3917
          ],
          [
            96.5292,
            8.4216
          ],
          [
            96.4654,
            8.4519
          ],
          [
            96.3818,
            8.4921
          ],
          [
            96.3205,
            8.5225
          ],
          [
            96.2581,
            8.554
          ],
          [
            96.1976,
            8.5851
          ],
          [
            96.136,
            8.6167
          ],
          [
            96.076,
            8.6476
          ],
          [
            96.0146,
            8.679
          ],
          [
            95.9546,
            8.7095
          ],
          [
            95.8958,
            8.7392
          ],
          [
            95.8357,
            8.7695
          ],
          [
            95.7715,
            8.8016
          ],
          [
            95.7043,
            8.8352
          ],
          [
            95.6324,
            8.8708
          ],
          [
            95.5535,
            8.91
          ],
          [
            95.4951,
            8.9393
          ],
          [
            95.3667,
            9.0026
          ],
          [
            95.3063,
            9.0326
          ],
          [
            95.2204,
            9.0749
          ],
          [
            95.1557,
            9.1064
          ],
          [
            95.0936,
            9.1364
          ],
          [
            94.8863,
            9.2343
          ],
          [
            94.776,
            9.2866
          ],
          [
            94.7141,
            9.3162
          ],
          [
            94.6544,
            9.3448
          ],
          [
            94.583,
            9.379
          ],
          [
            94.4773,
            9.4302
          ],
          [
            94.419,
            9.4578
          ],
          [
            94.2192,
            9.5525
          ],
          [
            94.1365,
            9.5919
          ],
          [
            94.0358,
            9.6394
          ],
          [
            93.97815075593952,
            9.66858423326134
          ],
          [
            93.92050151187904,
            9.697768466522678
          ],
          [
            93.86285226781857,
            9.726952699784018
          ],
          [
            93.8052030237581,
            9.756136933045356
          ],
          [
            93.74755377969763,
            9.785321166306696
          ],
          [
            93.68990453563714,
            9.814505399568034
          ],
          [
            93.63225529157667,
            9.843689632829374
          ],
          [
            93.5746060475162,
            9.872873866090712
          ],
          [
            93.51695680345571,
            9.902058099352052
          ],
          [
            93.45930755939524,
            9.93124233261339
          ],
          [
            93.40165831533477,
            9.96042656587473
          ],
          [
            93.34400907127429,
            9.98961079913607
          ],
          [
            93.28635982721381,
            10.018795032397408
          ],
          [
            93.22871058315334,
            10.047979265658748
          ],
          [
            93.17106133909287,
            10.077163498920086
          ],
          [
            93.11341209503239,
            10.106347732181426
          ],
          [
            93.05576285097192,
            10.135531965442764
          ],
          [
            92.99811360691145,
            10.164716198704104
          ],
          [
            92.94046436285096,
            10.193900431965442
          ],
          [
            92.88281511879049,
            10.223084665226782
          ],
          [
            92.82516587473002,
            10.25226889848812
          ],
          [
            92.76751663066955,
            10.28145313174946
          ],
          [
            92.70986738660906,
            10.310637365010798
          ],
          [
            92.65221814254859,
            10.339821598272138
          ],
          [
            92.59456889848812,
            10.369005831533478
          ],
          [
            92.53691965442763,
            10.398190064794816
          ],
          [
            92.47927041036716,
            10.427374298056156
          ],
          [
            92.42162116630669,
            10.456558531317494
          ],
          [
            92.36397192224622,
            10.485742764578834
          ],
          [
            92.30632267818574,
            10.514926997840172
          ],
          [
            92.24867343412527,
            10.544111231101512
          ],
          [
            92.1910241900648,
            10.57329546436285
          ],
          [
            92.13337494600431,
            10.60247969762419
          ],
          [
            92.07572570194384,
            10.63166393088553
          ],
          [
            92.01807645788337,
            10.660848164146868
          ],
          [
            91.9604272138229,
            10.690032397408208
          ],
          [
            91.90277796976241,
            10.719216630669546
          ],
          [
            91.84512872570194,
            10.748400863930886
          ],
          [
            91.78747948164147,
            10.777585097192224
          ],
          [
            91.72983023758098,
            10.806769330453564
          ],
          [
            91.67218099352051,
            10.835953563714902
          ],
          [
            91.61453174946004,
            10.865137796976242
          ],
          [
            91.55688250539956,
            10.89432203023758
          ],
          [
            91.49923326133909,
            10.92350626349892
          ],
          [
            91.44158401727861,
            10.952690496760258
          ],
          [
            91.38393477321814,
            10.981874730021598
          ],
          [
            91.32628552915766,
            11.011058963282938
          ],
          [
            91.26863628509719,
            11.040243196544276
          ],
          [
            91.21098704103672,
            11.069427429805616
          ],
          [
            91.15333779697623,
            11.098611663066954
          ],
          [
            91.09568855291576,
            11.127795896328294
          ],
          [
            91.03803930885529,
            11.156980129589632
          ],
          [
            90.98039006479482,
            11.186164362850972
          ],
          [
            90.92274082073433,
            11.21534859611231
          ],
          [
            90.86509157667386,
            11.24453282937365
          ],
          [
            90.80744233261339,
            11.27371706263499
          ],
          [
            90.7497930885529,
            11.302901295896328
          ],
          [
            90.69214384449243,
            11.332085529157666
          ],
          [
            90.63449460043196,
            11.361269762419006
          ],
          [
            90.57684535637148,
            11.390453995680346
          ],
          [
            90.51919611231101,
            11.419638228941684
          ],
          [
            90.46154686825054,
            11.448822462203024
          ],
          [
            90.40389762419007,
            11.478006695464362
          ],
          [
            90.34624838012958,
            11.507190928725702
          ],
          [
            90.28859913606911,
            11.53637516198704
          ],
          [
            90.23094989200864,
            11.56555939524838
          ],
          [
            90.17330064794815,
            11.594743628509718
          ],
          [
            90.11565140388768,
            11.623927861771058
          ],
          [
            90.05800215982721,
            11.653112095032398
          ],
          [
            90.00035291576674,
            11.682296328293736
          ],
          [
            89.94270367170625,
            11.711480561555074
          ],
          [
            89.88505442764578,
            11.740664794816414
          ],
          [
            89.82740518358531,
            11.769849028077754
          ],
          [
            89.76975593952483,
            11.799033261339092
          ],
          [
            89.71210669546436,
            11.828217494600432
          ],
          [
            89.65445745140389,
            11.85740172786177
          ],
          [
            89.59680820734341,
            11.88658596112311
          ],
          [
            89.53915896328293,
            11.91577019438445
          ],
          [
            89.48150971922246,
            11.944954427645788
          ],
          [
            89.42386047516199,
            11.974138660907128
          ],
          [
            89.3662112311015,
            12.003322894168466
          ],
          [
            89.30856198704103,
            12.032507127429806
          ],
          [
            89.25091274298056,
            12.061691360691144
          ],
          [
            89.19326349892009,
            12.090875593952484
          ],
          [
            89.1356142548596,
            12.120059827213822
          ],
          [
            89.07796501079913,
            12.149244060475162
          ],
          [
            89.02031576673866,
            12.1784282937365
          ],
          [
            88.96266652267818,
            12.20761252699784
          ],
          [
            88.9050172786177,
            12.236796760259178
          ],
          [
            88.84736803455723,
            12.265980993520518
          ],
          [
            88.78971879049675,
            12.295165226781858
          ],
          [
            88.73206954643628,
            12.324349460043196
          ],
          [
            88.67442030237581,
            12.353533693304534
          ],
          [
            88.61677105831534,
            12.382717926565874
          ],
          [
            88.55912181425485,
            12.411902159827214
          ],
          [
            88.50147257019438,
            12.441086393088552
          ],
          [
            88.44382332613391,
            12.470270626349892
          ],
          [
            88.38617408207342,
            12.49945485961123
          ],
          [
            88.32852483801295,
            12.52863909287257
          ],
          [
            88.27087559395248,
            12.55782332613391
          ],
          [
            88.21322634989201,
            12.587007559395248
          ],
          [
            88.15557710583153,
            12.616191792656586
          ],
          [
            88.09792786177105,
            12.645376025917926
          ],
          [
            88.04027861771058,
            12.674560259179266
          ],
          [
            87.9826293736501,
            12.703744492440604
          ],
          [
            87.92498012958963,
            12.732928725701944
          ],
          [
            87.86733088552916,
            12.762112958963282
          ],
          [
            87.80968164146867,
            12.791297192224622
          ],
          [
            87.7520323974082,
            12.820481425485962
          ],
          [
            87.69438315334773,
            12.8496656587473
          ],
          [
            87.63673390928726,
            12.878849892008638
          ],
          [
            87.57908466522677,
            12.908034125269978
          ],
          [
            87.5214354211663,
            12.937218358531318
          ],
          [
            87.46378617710583,
            12.966402591792656
          ],
          [
            87.40613693304535,
            12.995586825053996
          ],
          [
            87.34848768898487,
            13.024771058315334
          ],
          [
            87.2908384449244,
            13.053955291576674
          ],
          [
            87.23318920086393,
            13.083139524838012
          ],
          [
            87.17553995680345,
            13.112323758099352
          ],
          [
            87.11789071274298,
            13.14150799136069
          ],
          [
            87.0602414686825,
            13.17069222462203
          ],
          [
            87.00259222462202,
            13.199876457883368
          ],
          [
            86.94494298056155,
            13.229060691144708
          ],
          [
            86.88729373650108,
            13.258244924406046
          ],
          [
            86.82964449244061,
            13.287429157667386
          ],
          [
            86.77199524838012,
            13.316613390928726
          ],
          [
            86.71434600431965,
            13.345797624190064
          ],
          [
            86.65669676025918,
            13.374981857451404
          ],
          [
            86.5990475161987,
            13.404166090712742
          ],
          [
            86.54139827213822,
            13.433350323974082
          ],
          [
            86.48374902807775,
            13.46253455723542
          ],
          [
            86.42609978401728,
            13.49171879049676
          ],
          [
            86.3684505399568,
            13.520903023758098
          ],
          [
            86.31080129589633,
            13.550087257019438
          ],
          [
            86.25315205183585,
            13.579271490280778
          ],
          [
            86.19550280777537,
            13.608455723542116
          ],
          [
            86.1378535637149,
            13.637639956803454
          ],
          [
            86.08020431965443,
            13.666824190064794
          ],
          [
            86.02255507559394,
            13.696008423326134
          ],
          [
            85.96490583153347,
            13.725192656587472
          ],
          [
            85.907256587473,
            13.754376889848812
          ],
          [
            85.84960734341253,
            13.78356112311015
          ],
          [
            85.79195809935204,
            13.81274535637149
          ],
          [
            85.73430885529157,
            13.84192958963283
          ],
          [
            85.6766596112311,
            13.871113822894168
          ],
          [
            85.61901036717062,
            13.900298056155506
          ],
          [
            85.56136112311015,
            13.929482289416846
          ],
          [
            85.50371187904967,
            13.958666522678186
          ],
          [
            85.4460626349892,
            13.987850755939524
          ],
          [
            85.38841339092872,
            14.017034989200862
          ],
          [
            85.33076414686825,
            14.046219222462202
          ],
          [
            85.27311490280778,
            14.075403455723542
          ],
          [
            85.21546565874729,
            14.10458768898488
          ],
          [
            85.15781641468682,
            14.13377192224622
          ],
          [
            85.1386,
            14.1435
          ],
          [
            85.0838,
            14.1742
          ],
          [
            84.9021,
            14.2762
          ],
          [
            84.8037,
            14.3318
          ],
          [
            84.7475,
            14.363
          ],
          [
            84.6364,
            14.4255
          ],
          [
            84.5816,
            14.456
          ],
          [
            84.5261,
            14.4884
          ],
          [
            84.471,
            14.5197
          ],
          [
            84.3969,
            14.5617
          ],
          [
            84.341,
            14.5935
          ],
          [
            84.2866,
            14.6243
          ],
          [
            84.2082,
            14.669
          ],
          [
            84.1218,
            14.7175
          ],
          [
            84.0658,
            14.7495
          ],
          [
            84.0114,
            14.7801
          ],
          [
            83.9556,
            14.8118
          ],
          [
            83.9005,
            14.8429
          ],
          [
            83.8447,
            14.8744
          ],
          [
            83.7907,
            14.9049
          ],
          [
            83.7348,
            14.9362
          ],
          [
            83.6802,
            14.9673
          ],
          [
            83.6249,
            14.9981
          ],
          [
            83.5694,
            15.0294
          ],
          [
            83.5136,
            15.0606
          ],
          [
            83.4584,
            15.0917
          ],
          [
            83.4031,
            15.1228
          ],
          [
            83.3479,
            15.1539
          ],
          [
            83.2918,
            15.1852
          ],
          [
            83.2362,
            15.2163
          ],
          [
            83.1813,
            15.2471
          ],
          [
            83.1257,
            15.2778
          ],
          [
            83.0704,
            15.309
          ],
          [
            83.0146,
            15.3403
          ],
          [
            82.9585,
            15.3714
          ],
          [
            82.9031,
            15.4023
          ],
          [
            82.847,
            15.4336
          ],
          [
            82.7913,
            15.4646
          ],
          [
            82.7164,
            15.5062
          ],
          [
            82.6611,
            15.5371
          ],
          [
            82.6049,
            15.5682
          ],
          [
            82.5494,
            15.5987
          ],
          [
            82.4922,
            15.6306
          ],
          [
            82.438,
            15.6607
          ],
          [
            82.3814,
            15.692
          ],
          [
            82.3245,
            15.7235
          ],
          [
            82.2701,
            15.7534
          ],
          [
            82.2125,
            15.7855
          ],
          [
            82.1564,
            15.8162
          ],
          [
            82.1008,
            15.847
          ],
          [
            82.0451,
            15.8777
          ],
          [
            81.9887,
            15.9087
          ],
          [
            81.9326,
            15.9395
          ],
          [
            81.8771,
            15.97
          ],
          [
            81.8208,
            16.0013
          ],
          [
            81.7644,
            16.032
          ],
          [
            81.7083,
            16.0627
          ],
          [
            81.6537,
            16.0925
          ],
          [
            81.5989,
            16.1228
          ],
          [
            81.5421,
            16.1537
          ],
          [
            81.4884,
            16.183
          ],
          [
            81.4308,
            16.2144
          ],
          [
            81.3763,
            16.2444
          ],
          [
            81.3204,
            16.2748
          ],
          [
            81.2649,
            16.305
          ],
          [
            81.2047,
            16.3379
          ],
          [
            81.1366,
            16.3748
          ],
          [
            81.0824,
            16.4042
          ],
          [
            81.0257,
            16.4351
          ],
          [
            80.9722,
            16.4641
          ],
          [
            80.9149,
            16.4952
          ],
          [
            80.8594,
            16.5252
          ],
          [
            80.8229,
            16.5407
          ],
          [
            80.7653,
            16.5594
          ],
          [
            80.7055,
            16.5753
          ],
          [
            80.6448,
            16.5921
          ],
          [
            80.5844,
            16.6096
          ],
          [
            80.5252,
            16.6262
          ],
          [
            80.4487,
            16.6479
          ],
          [
            80.3875,
            16.665
          ],
          [
            80.3257,
            16.6832
          ],
          [
            80.2635,
            16.701
          ],
          [
            80.2015,
            16.7185
          ],
          [
            80.1358,
            16.7368
          ],
          [
            80.0713,
            16.7549
          ],
          [
            80.0079,
            16.7728
          ],
          [
            79.9452,
            16.7904
          ],
          [
            79.8839,
            16.8076
          ],
          [
            79.8218,
            16.825
          ],
          [
            79.7599,
            16.8424
          ],
          [
            79.698,
            16.8598
          ],
          [
            79.6347,
            16.8776
          ],
          [
            79.5741,
            16.8944
          ],
          [
            79.5097,
            16.9124
          ],
          [
            79.4467,
            16.93
          ],
          [
            79.38,
            16.9484
          ],
          [
            79.3136,
            16.9668
          ],
          [
            79.2478,
            16.9854
          ],
          [
            79.1834,
            17.0033
          ],
          [
            79.1183,
            17.0209
          ],
          [
            79.0543,
            17.039
          ],
          [
            78.9765,
            17.0624
          ],
          [
            78.8941,
            17.0859
          ],
          [
            78.8448,
            17.0958
          ],
          [
            78.7897,
            17.1035
          ],
          [
            78.7259,
            17.1131
          ],
          [
            78.6584,
            17.1255
          ],
          [
            78.5979,
            17.1357
          ],
          [
            78.5473,
            17.1443
          ],
          [
            78.49,
            17.1456
          ],
          [
            78.4187,
            17.1423
          ],
          [
            78.3634,
            17.141
          ],
          [
            78.3296,
            17.137
          ],
          [
            78.2745,
            17.1227
          ],
          [
            78.2302,
            17.111
          ],
          [
            78.1854,
            17.099
          ],
          [
            78.1382,
            17.0868
          ],
          [
            78.1107,
            17.0855
          ],
          [
            78.0831,
            17.1014
          ],
          [
            78.0429,
            17.134
          ],
          [
            78.0113,
            17.1609
          ],
          [
            77.9917,
            17.1802
          ],
          [
            77.9861,
            17.2023
          ],
          [
            77.9855,
            17.2411
          ],
          [
            77.9937,
            17.2604
          ],
          [
            78.0141,
            17.2708
          ],
          [
            78.0384,
            17.2651
          ],
          [
            78.072,
            17.2469
          ],
          [
            78.1043,
            17.2282
          ],
          [
            78.1328,
            17.2239
          ],
          [
            78.1591,
            17.2243
          ],
          [
            78.1959,
            17.2253
          ],
          [
            78.2324,
            17.2259
          ],
          [
            78.2632,
            17.2264
          ],
          [
            78.2798,
            17.2267
          ],
          [
            78.3097,
            17.2271
          ],
          [
            78.325,
            17.2273
          ],
          [
            78.3491,
            17.2277
          ],
          [
            78.3606,
            17.2279
          ],
          [
            78.3618,
            17.2279
          ],
          [
            78.3717,
            17.2281
          ],
          [
            78.3832,
            17.2281
          ],
          [
            78.393,
            17.2284
          ],
          [
            78.4044,
            17.2285
          ],
          [
            78.4161,
            17.2286
          ]
        ]
      },
      "properties": {
        "time_europe_berlin": [
          "25.11.2025 14:39:51",
          "25.11.2025 14:40:07",
          "25.11.2025 14:40:25",
          "25.11.2025 14:40:44",
          "25.11.2025 14:41:00",
          "25.11.2025 14:41:18",
          "25.11.2025 14:41:38",
          "25.11.2025 14:42:08",
          "25.11.2025 14:42:40",
          "25.11.2025 14:42:58",
          "25.11.2025 14:43:14",
          "25.11.2025 14:43:43",
          "25.11.2025 14:44:04",
          "25.11.2025 14:44:25",
          "25.11.2025 14:44:49",
          "25.11.2025 14:45:19",
          "25.11.2025 14:45:49",
          "25.11.2025 14:46:26",
          "25.11.2025 14:46:56",
          "25.11.2025 14:47:26",
          "25.11.2025 14:47:56",
          "25.11.2025 14:48:27",
          "25.11.2025 14:48:57",
          "25.11.2025 14:49:30",
          "25.11.2025 14:50:00",
          "25.11.2025 14:50:30",
          "25.11.2025 14:51:00",
          "25.11.2025 14:51:45",
          "25.11.2025 14:52:27",
          "25.11.2025 14:52:57",
          "25.11.2025 14:53:30",
          "25.11.2025 14:54:01",
          "25.11.2025 14:54:31",
          "25.11.2025 14:55:01",
          "25.11.2025 14:55:31",
          "25.11.2025 14:56:01",
          "25.11.2025 14:56:31",
          "25.11.2025 14:57:01",
          "25.11.2025 14:57:31",
          "25.11.2025 14:58:02",
          "25.11.2025 14:58:32",
          "25.11.2025 14:59:02",
          "25.11.2025 14:59:32",
          "25.11.2025 15:00:12",
          "25.11.2025 15:00:42",
          "25.11.2025 15:01:12",
          "25.11.2025 15:01:42",
          "25.11.2025 15:02:12",
          "25.11.2025 15:02:42",
          "25.11.2025 15:03:12",
          "25.11.2025 15:03:42",
          "25.11.2025 15:04:12",
          "25.11.2025 15:04:43",
          "25.11.2025 15:05:16",
          "25.11.2025 15:05:50",
          "25.11.2025 15:06:26",
          "25.11.2025 15:07:06",
          "25.11.2025 15:07:36",
          "25.11.2025 15:08:42",
          "25.11.2025 15:09:12",
          "25.11.2025 15:09:56",
          "25.11.2025 15:10:29",
          "25.11.2025 15:11:00",
          "25.11.2025 15:12:43",
          "25.11.2025 15:13:38",
          "25.11.2025 15:14:09",
          "25.11.2025 15:14:39",
          "25.11.2025 15:15:14",
          "25.11.2025 15:16:07",
          "25.11.2025 15:16:37",
          "25.11.2025 15:18:15",
          "25.11.2025 15:18:56",
          "25.11.2025 15:19:46",
          "25.11.2025 15:20:16",
          "25.11.2025 15:20:46",
          "25.11.2025 15:21:16",
          "25.11.2025 15:21:46",
          "25.11.2025 15:22:16",
          "25.11.2025 15:22:46",
          "25.11.2025 15:23:16",
          "25.11.2025 15:23:46",
          "25.11.2025 15:24:16",
          "25.11.2025 15:24:46",
          "25.11.2025 15:25:16",
          "25.11.2025 15:25:46",
          "25.11.2025 15:26:16",
          "25.11.2025 15:26:46",
          "25.11.2025 15:27:16",
          "25.11.2025 15:27:46",
          "25.11.2025 15:28:16",
          "25.11.2025 15:28:46",
          "25.11.2025 15:29:16",
          "25.11.2025 15:29:46",
          "25.11.2025 15:30:16",
          "25.11.2025 15:30:46",
          "25.11.2025 15:31:16",
          "25.11.2025 15:31:46",
          "25.11.2025 15:32:16",
          "25.11.2025 15:32:46",
          "25.11.2025 15:33:16",
          "25.11.2025 15:33:46",
          "25.11.2025 15:34:16",
          "25.11.2025 15:34:46",
          "25.11.2025 15:35:16",
          "25.11.2025 15:35:46",
          "25.11.2025 15:36:16",
          "25.11.2025 15:36:46",
          "25.11.2025 15:37:16",
          "25.11.2025 15:37:46",
          "25.11.2025 15:38:16",
          "25.11.2025 15:38:46",
          "25.11.2025 15:39:16",
          "25.11.2025 15:39:46",
          "25.11.2025 15:40:16",
          "25.11.2025 15:40:46",
          "25.11.2025 15:41:16",
          "25.11.2025 15:41:46",
          "25.11.2025 15:42:16",
          "25.11.2025 15:42:46",
          "25.11.2025 15:43:16",
          "25.11.2025 15:43:46",
          "25.11.2025 15:44:16",
          "25.11.2025 15:44:46",
          "25.11.2025 15:45:16",
          "25.11.2025 15:45:46",
          "25.11.2025 15:46:16",
          "25.11.2025 15:46:46",
          "25.11.2025 15:47:16",
          "25.11.2025 15:47:46",
          "25.11.2025 15:48:16",
          "25.11.2025 15:48:46",
          "25.11.2025 15:49:16",
          "25.11.2025 15:49:46",
          "25.11.2025 15:50:16",
          "25.11.2025 15:50:46",
          "25.11.2025 15:51:16",
          "25.11.2025 15:51:46",
          "25.11.2025 15:52:16",
          "25.11.2025 15:52:46",
          "25.11.2025 15:53:16",
          "25.11.2025 15:53:46",
          "25.11.2025 15:54:16",
          "25.11.2025 15:54:46",
          "25.11.2025 15:55:16",
          "25.11.2025 15:55:46",
          "25.11.2025 15:56:16",
          "25.11.2025 15:56:46",
          "25.11.2025 15:57:16",
          "25.11.2025 15:57:46",
          "25.11.2025 15:58:16",
          "25.11.2025 15:58:46",
          "25.11.2025 15:59:16",
          "25.11.2025 15:59:46",
          "25.11.2025 16:00:16",
          "25.11.2025 16:00:46",
          "25.11.2025 16:01:16",
          "25.11.2025 16:01:46",
          "25.11.2025 16:02:16",
          "25.11.2025 16:02:46",
          "25.11.2025 16:03:16",
          "25.11.2025 16:03:46",
          "25.11.2025 16:04:16",
          "25.11.2025 16:04:46",
          "25.11.2025 16:05:16",
          "25.11.2025 16:05:46",
          "25.11.2025 16:06:16",
          "25.11.2025 16:06:46",
          "25.11.2025 16:07:16",
          "25.11.2025 16:07:46",
          "25.11.2025 16:08:16",
          "25.11.2025 16:08:46",
          "25.11.2025 16:09:16",
          "25.11.2025 16:09:46",
          "25.11.2025 16:10:16",
          "25.11.2025 16:10:46",
          "25.11.2025 16:11:16",
          "25.11.2025 16:11:46",
          "25.11.2025 16:12:16",
          "25.11.2025 16:12:46",
          "25.11.2025 16:13:16",
          "25.11.2025 16:13:46",
          "25.11.2025 16:14:16",
          "25.11.2025 16:14:46",
          "25.11.2025 16:15:16",
          "25.11.2025 16:15:46",
          "25.11.2025 16:16:16",
          "25.11.2025 16:16:46",
          "25.11.2025 16:17:16",
          "25.11.2025 16:17:46",
          "25.11.2025 16:18:16",
          "25.11.2025 16:18:46",
          "25.11.2025 16:19:16",
          "25.11.2025 16:19:46",
          "25.11.2025 16:20:16",
          "25.11.2025 16:20:46",
          "25.11.2025 16:21:16",
          "25.11.2025 16:21:46",
          "25.11.2025 16:22:16",
          "25.11.2025 16:22:46",
          "25.11.2025 16:23:16",
          "25.11.2025 16:23:46",
          "25.11.2025 16:24:16",
          "25.11.2025 16:24:46",
          "25.11.2025 16:25:16",
          "25.11.2025 16:25:46",
          "25.11.2025 16:26:16",
          "25.11.2025 16:26:46",
          "25.11.2025 16:27:16",
          "25.11.2025 16:27:46",
          "25.11.2025 16:28:16",
          "25.11.2025 16:28:46",
          "25.11.2025 16:29:16",
          "25.11.2025 16:29:46",
          "25.11.2025 16:30:16",
          "25.11.2025 16:30:46",
          "25.11.2025 16:31:16",
          "25.11.2025 16:31:46",
          "25.11.2025 16:32:16",
          "25.11.2025 16:32:46",
          "25.11.2025 16:33:16",
          "25.11.2025 16:33:46",
          "25.11.2025 16:34:16",
          "25.11.2025 16:34:46",
          "25.11.2025 16:35:16",
          "25.11.2025 16:35:46",
          "25.11.2025 16:36:16",
          "25.11.2025 16:36:46",
          "25.11.2025 16:36:56",
          "25.11.2025 16:37:26",
          "25.11.2025 16:39:06",
          "25.11.2025 16:40:00",
          "25.11.2025 16:40:30",
          "25.11.2025 16:41:30",
          "25.11.2025 16:42:00",
          "25.11.2025 16:42:30",
          "25.11.2025 16:43:00",
          "25.11.2025 16:43:40",
          "25.11.2025 16:44:10",
          "25.11.2025 16:44:41",
          "25.11.2025 16:45:24",
          "25.11.2025 16:46:10",
          "25.11.2025 16:46:41",
          "25.11.2025 16:47:11",
          "25.11.2025 16:47:41",
          "25.11.2025 16:48:11",
          "25.11.2025 16:48:41",
          "25.11.2025 16:49:11",
          "25.11.2025 16:49:41",
          "25.11.2025 16:50:11",
          "25.11.2025 16:50:41",
          "25.11.2025 16:51:11",
          "25.11.2025 16:51:41",
          "25.11.2025 16:52:11",
          "25.11.2025 16:52:41",
          "25.11.2025 16:53:11",
          "25.11.2025 16:53:42",
          "25.11.2025 16:54:12",
          "25.11.2025 16:54:42",
          "25.11.2025 16:55:12",
          "25.11.2025 16:55:42",
          "25.11.2025 16:56:12",
          "25.11.2025 16:56:42",
          "25.11.2025 16:57:12",
          "25.11.2025 16:57:42",
          "25.11.2025 16:58:12",
          "25.11.2025 16:58:52",
          "25.11.2025 16:59:22",
          "25.11.2025 16:59:52",
          "25.11.2025 17:00:22",
          "25.11.2025 17:00:53",
          "25.11.2025 17:01:23",
          "25.11.2025 17:01:53",
          "25.11.2025 17:02:23",
          "25.11.2025 17:02:53",
          "25.11.2025 17:03:23",
          "25.11.2025 17:03:53",
          "25.11.2025 17:04:23",
          "25.11.2025 17:04:53",
          "25.11.2025 17:05:23",
          "25.11.2025 17:05:53",
          "25.11.2025 17:06:23",
          "25.11.2025 17:06:54",
          "25.11.2025 17:07:24",
          "25.11.2025 17:07:54",
          "25.11.2025 17:08:24",
          "25.11.2025 17:08:54",
          "25.11.2025 17:09:24",
          "25.11.2025 17:09:54",
          "25.11.2025 17:10:25",
          "25.11.2025 17:10:55",
          "25.11.2025 17:11:25",
          "25.11.2025 17:11:55",
          "25.11.2025 17:12:27",
          "25.11.2025 17:13:04",
          "25.11.2025 17:13:34",
          "25.11.2025 17:14:04",
          "25.11.2025 17:14:34",
          "25.11.2025 17:15:04",
          "25.11.2025 17:15:34",
          "25.11.2025 17:15:53",
          "25.11.2025 17:16:23",
          "25.11.2025 17:16:53",
          "25.11.2025 17:17:23",
          "25.11.2025 17:17:53",
          "25.11.2025 17:18:23",
          "25.11.2025 17:19:02",
          "25.11.2025 17:19:32",
          "25.11.2025 17:20:02",
          "25.11.2025 17:20:32",
          "25.11.2025 17:21:02",
          "25.11.2025 17:21:33",
          "25.11.2025 17:22:03",
          "25.11.2025 17:22:34",
          "25.11.2025 17:23:04",
          "25.11.2025 17:23:34",
          "25.11.2025 17:24:04",
          "25.11.2025 17:24:34",
          "25.11.2025 17:25:04",
          "25.11.2025 17:25:34",
          "25.11.2025 17:26:04",
          "25.11.2025 17:26:34",
          "25.11.2025 17:27:04",
          "25.11.2025 17:27:36",
          "25.11.2025 17:28:06",
          "25.11.2025 17:28:36",
          "25.11.2025 17:29:06",
          "25.11.2025 17:29:37",
          "25.11.2025 17:30:08",
          "25.11.2025 17:30:44",
          "25.11.2025 17:31:23",
          "25.11.2025 17:31:47",
          "25.11.2025 17:32:13",
          "25.11.2025 17:32:43",
          "25.11.2025 17:33:16",
          "25.11.2025 17:33:46",
          "25.11.2025 17:34:12",
          "25.11.2025 17:34:42",
          "25.11.2025 17:35:20",
          "25.11.2025 17:35:50",
          "25.11.2025 17:36:10",
          "25.11.2025 17:36:46",
          "25.11.2025 17:37:16",
          "25.11.2025 17:37:46",
          "25.11.2025 17:38:19",
          "25.11.2025 17:38:39",
          "25.11.2025 17:39:04",
          "25.11.2025 17:39:39",
          "25.11.2025 17:40:09",
          "25.11.2025 17:40:29",
          "25.11.2025 17:40:47",
          "25.11.2025 17:41:18",
          "25.11.2025 17:41:36",
          "25.11.2025 17:41:57",
          "25.11.2025 17:42:17",
          "25.11.2025 17:42:47",
          "25.11.2025 17:43:16",
          "25.11.2025 17:43:36",
          "25.11.2025 17:43:57",
          "25.11.2025 17:44:27",
          "25.11.2025 17:44:57",
          "25.11.2025 17:45:27",
          "25.11.2025 17:45:43",
          "25.11.2025 17:46:17",
          "25.11.2025 17:46:36",
          "25.11.2025 17:47:06",
          "25.11.2025 17:47:21",
          "25.11.2025 17:47:22",
          "25.11.2025 17:47:38",
          "25.11.2025 17:47:56",
          "25.11.2025 17:48:13",
          "25.11.2025 17:48:33",
          "25.11.2025 17:48:54"
        ],
        "course_deg_clockwise_from_north": [
          85,
          86,
          83,
          82,
          85,
          124,
          173,
          204,
          204,
          203,
          202,
          213,
          244,
          269,
          280,
          285,
          285,
          281,
          279,
          280,
          280,
          280,
          280,
          279,
          280,
          280,
          280,
          280,
          280,
          281,
          286,
          295,
          295,
          295,
          295,
          295,
          295,
          295,
          295,
          295,
          296,
          295,
          295,
          296,
          297,
          297,
          297,
          297,
          297,
          297,
          297,
          297,
          297,
          297,
          297,
          297,
          297,
          297,
          296,
          297,
          297,
          296,
          296,
          296,
          296,
          296,
          296,
          296,
          296,
          296,
          296,
          296,
          296,
          296,
          296,
          296,
          296,
          296,
          296,
          296,
          296,
          296,
          296,
          296,
          296,
          296,
          296,
          296,
          296,
          296,
          296,
          296,
          297,
          297,
          297,
          297,
          297,
          297,
          297,
          297,
          297,
          297,
          297,
          297,
          297,
          297,
          297,
          297,
          297,
          297,
          297,
          297,
          297,
          297,
          297,
          297,
          297,
          297,
          297,
          297,
          297,
          297,
          297,
          297,
          297,
          297,
          297,
          297,
          297,
          297,
          298,
          298,
          298,
          298,
          298,
          298,
          298,
          298,
          298,
          298,
          298,
          298,
          298,
          298,
          298,
          298,
          298,
          298,
          298,
          298,
          298,
          298,
          298,
          298,
          298,
          298,
          298,
          298,
          298,
          298,
          298,
          298,
          298,
          298,
          298,
          298,
          298,
          298,
          298,
          299,
          299,
          299,
          299,
          299,
          299,
          299,
          299,
          299,
          299,
          299,
          299,
          299,
          299,
          299,
          299,
          299,
          299,
          299,
          299,
          299,
          299,
          299,
          299,
          299,
          299,
          299,
          299,
          299,
          299,
          299,
          299,
          299,
          299,
          299,
          299,
          299,
          299,
          299,
          300,
          300,
          300,
          300,
          300,
          300,
          300,
          300,
          300,
          300,
          300,
          300,
          300,
          300,
          300,
          300,
          300,
          300,
          300,
          300,
          300,
          300,
          300,
          300,
          300,
          300,
          301,
          300,
          301,
          300,
          301,
          300,
          300,
          300,
          300,
          300,
          300,
          300,
          300,
          300,
          300,
          300,
          300,
          300,
          300,
          300,
          300,
          300,
          301,
          299,
          300,
          300,
          300,
          300,
          300,
          300,
          300,
          300,
          300,
          300,
          300,
          300,
          300,
          300,
          300,
          300,
          299,
          300,
          300,
          300,
          300,
          300,
          300,
          300,
          300,
          299,
          300,
          300,
          299,
          300,
          299,
          299,
          300,
          300,
          299,
          299,
          299,
          300,
          299,
          300,
          298,
          291,
          287,
          285,
          287,
          286,
          286,
          287,
          286,
          287,
          287,
          286,
          286,
          287,
          286,
          287,
          286,
          286,
          286,
          287,
          287,
          285,
          287,
          286,
          287,
          286,
          286,
          286,
          286,
          287,
          288,
          286,
          280,
          277,
          280,
          280,
          281,
          278,
          269,
          268,
          270,
          256,
          255,
          255,
          254,
          256,
          285,
          308,
          312,
          312,
          329,
          357,
          2,
          41,
          80,
          117,
          121,
          117,
          93,
          88,
          89,
          89,
          90,
          89,
          89,
          89,
          89,
          89,
          89,
          89,
          90,
          90,
          89,
          90
        ],
        "speed_kts": [
          147,
          143,
          153,
          172,
          188,
          212,
          254,
          299,
          313,
          318,
          323,
          342,
          358,
          370,
          376,
          360,
          353,
          378,
          399,
          417,
          426,
          415,
          408,
          400,
          405,
          424,
          444,
          483,
          509,
          508,
          502,
          499,
          498,
          496,
          496,
          499,
          501,
          502,
          503,
          502,
          501,
          499,
          498,
          496,
          495,
          492,
          489,
          487,
          485,
          483,
          479,
          476,
          474,
          471,
          471,
          469,
          470,
          470,
          470,
          470,
          471,
          473,
          475,
          474,
          477,
          478,
          479,
          479,
          477,
          477,
          478,
          479,
          479,
          479,
          479,
          478,
          478,
          478,
          478,
          478,
          477,
          477,
          477,
          477,
          477,
          476,
          476,
          476,
          476,
          475,
          475,
          475,
          475,
          475,
          474,
          474,
          474,
          474,
          474,
          473,
          473,
          473,
          473,
          473,
          472,
          472,
          472,
          472,
          472,
          471,
          471,
          471,
          471,
          470,
          470,
          470,
          470,
          470,
          469,
          469,
          469,
          469,
          469,
          468,
          468,
          468,
          468,
          468,
          467,
          467,
          467,
          467,
          467,
          466,
          466,
          466,
          466,
          466,
          465,
          465,
          465,
          465,
          464,
          464,
          464,
          464,
          464,
          463,
          463,
          463,
          463,
          463,
          462,
          462,
          462,
          462,
          462,
          461,
          461,
          461,
          461,
          461,
          460,
          460,
          460,
          460,
          460,
          459,
          459,
          459,
          459,
          458,
          458,
          458,
          458,
          458,
          457,
          457,
          457,
          457,
          457,
          456,
          456,
          456,
          456,
          456,
          455,
          455,
          455,
          455,
          455,
          454,
          454,
          454,
          454,
          453,
          453,
          453,
          453,
          453,
          452,
          452,
          452,
          452,
          452,
          451,
          451,
          451,
          451,
          451,
          450,
          450,
          450,
          450,
          450,
          449,
          449,
          449,
          449,
          449,
          448,
          448,
          448,
          448,
          447,
          447,
          447,
          447,
          446,
          445,
          444,
          444,
          446,
          446,
          447,
          447,
          447,
          446,
          447,
          446,
          445,
          445,
          445,
          446,
          445,
          445,
          444,
          445,
          445,
          445,
          446,
          445,
          446,
          446,
          445,
          445,
          446,
          446,
          446,
          447,
          447,
          448,
          448,
          448,
          448,
          448,
          448,
          448,
          448,
          447,
          447,
          448,
          448,
          448,
          448,
          448,
          448,
          448,
          448,
          447,
          447,
          444,
          443,
          441,
          442,
          441,
          441,
          440,
          440,
          439,
          439,
          439,
          439,
          440,
          440,
          440,
          441,
          441,
          440,
          434,
          432,
          430,
          432,
          431,
          431,
          432,
          439,
          445,
          454,
          458,
          458,
          459,
          452,
          447,
          442,
          443,
          443,
          449,
          451,
          451,
          453,
          454,
          469,
          484,
          465,
          457,
          464,
          467,
          454,
          442,
          436,
          438,
          441,
          422,
          410,
          403,
          396,
          391,
          363,
          336,
          328,
          332,
          312,
          291,
          283,
          292,
          296,
          290,
          284,
          273,
          260,
          252,
          252,
          259,
          275,
          276,
          272,
          261,
          253,
          235,
          215,
          203,
          168,
          166,
          162,
          146,
          145,
          132,
          126,
          119,
          118,
          118
        ],
        "speed_mph": [
          169.0,
          165.0,
          176.0,
          198.0,
          216.0,
          244.0,
          292.0,
          344.0,
          360.0,
          366.0,
          372.0,
          394.0,
          412.0,
          426.0,
          433.0,
          414.0,
          406.0,
          435.0,
          459.0,
          480.0,
          490.0,
          478.0,
          470.0,
          460.0,
          466.0,
          488.0,
          511.0,
          556.0,
          586.0,
          585.0,
          578.0,
          574.0,
          573.0,
          571.0,
          571.0,
          574.0,
          577.0,
          578.0,
          579.0,
          578.0,
          577.0,
          574.0,
          573.0,
          571.0,
          570.0,
          566.0,
          563.0,
          560.0,
          558.0,
          556.0,
          551.0,
          548.0,
          545.0,
          542.0,
          542.0,
          540.0,
          541.0,
          541.0,
          541.0,
          541.0,
          542.0,
          544.0,
          547.0,
          545.0,
          549.0,
          550.0,
          551.0,
          551.0,
          549.0,
          549.0,
          550.0,
          551.0,
          551.0,
          551.0,
          551.0,
          550.0,
          550.0,
          550.0,
          550.0,
          549.0,
          549.0,
          549.0,
          549.0,
          548.0,
          548.0,
          548.0,
          548.0,
          547.0,
          547.0,
          547.0,
          547.0,
          546.0,
          546.0,
          546.0,
          546.0,
          545.0,
          545.0,
          545.0,
          545.0,
          545.0,
          544.0,
          544.0,
          544.0,
          544.0,
          543.0,
          543.0,
          543.0,
          543.0,
          542.0,
          542.0,
          542.0,
          542.0,
          541.0,
          541.0,
          541.0,
          541.0,
          540.0,
          540.0,
          540.0,
          540.0,
          539.0,
          539.0,
          539.0,
          539.0,
          539.0,
          538.0,
          538.0,
          538.0,
          538.0,
          537.0,
          537.0,
          537.0,
          537.0,
          536.0,
          536.0,
          536.0,
          536.0,
          535.0,
          535.0,
          535.0,
          535.0,
          534.0,
          534.0,
          534.0,
          534.0,
          533.0,
          533.0,
          533.0,
          533.0,
          533.0,
          532.0,
          532.0,
          532.0,
          532.0,
          531.0,
          531.0,
          531.0,
          531.0,
          530.0,
          530.0,
          530.0,
          530.0,
          529.0,
          529.0,
          529.0,
          529.0,
          528.0,
          528.0,
          528.0,
          528.0,
          528.0,
          527.0,
          527.0,
          527.0,
          527.0,
          526.0,
          526.0,
          526.0,
          526.0,
          525.0,
          525.0,
          525.0,
          525.0,
          524.0,
          524.0,
          524.0,
          524.0,
          523.0,
          523.0,
          523.0,
          523.0,
          522.0,
          522.0,
          522.0,
          522.0,
          522.0,
          521.0,
          521.0,
          521.0,
          521.0,
          520.0,
          520.0,
          520.0,
          520.0,
          519.0,
          519.0,
          519.0,
          519.0,
          518.0,
          518.0,
          518.0,
          518.0,
          517.0,
          517.0,
          517.0,
          517.0,
          516.0,
          516.0,
          516.0,
          516.0,
          516.0,
          515.0,
          515.0,
          515.0,
          515.0,
          514.0,
          514.0,
          514.0,
          513.0,
          512.0,
          511.0,
          511.0,
          513.0,
          513.0,
          514.0,
          514.0,
          514.0,
          513.0,
          514.0,
          513.0,
          512.0,
          512.0,
          512.0,
          513.0,
          512.0,
          512.0,
          511.0,
          512.0,
          512.0,
          512.0,
          513.0,
          512.0,
          513.0,
          513.0,
          512.0,
          512.0,
          513.0,
          513.0,
          513.0,
          514.0,
          514.0,
          516.0,
          516.0,
          516.0,
          516.0,
          516.0,
          516.0,
          516.0,
          516.0,
          514.0,
          514.0,
          516.0,
          516.0,
          516.0,
          516.0,
          516.0,
          516.0,
          516.0,
          516.0,
          514.0,
          514.0,
          511.0,
          510.0,
          507.0,
          509.0,
          507.0,
          507.0,
          506.0,
          506.0,
          505.0,
          505.0,
          505.0,
          505.0,
          506.0,
          506.0,
          506.0,
          507.0,
          507.0,
          506.0,
          499.0,
          497.0,
          495.0,
          497.0,
          496.0,
          496.0,
          497.0,
          505.0,
          512.0,
          522.0,
          527.0,
          527.0,
          528.0,
          520.0,
          514.0,
          509.0,
          510.0,
          510.0,
          517.0,
          519.0,
          519.0,
          521.0,
          522.0,
          540.0,
          557.0,
          535.0,
          526.0,
          534.0,
          537.0,
          522.0,
          509.0,
          502.0,
          504.0,
          507.0,
          486.0,
          472.0,
          464.0,
          456.0,
          450.0,
          418.0,
          387.0,
          377.0,
          382.0,
          359.0,
          335.0,
          326.0,
          336.0,
          341.0,
          334.0,
          327.0,
          314.0,
          299.0,
          290.0,
          290.0,
          298.0,
          316.0,
          318.0,
          313.0,
          300.0,
          291.0,
          270.0,
          247.0,
          234.0,
          193.0,
          191.0,
          186.0,
          168.0,
          167.0,
          152.0,
          145.0,
          137.0,
          136.0,
          136.0
        ],
        "altitude_ft": [
          1250,
          2100,
          2825,
          3500,
          4025,
          4650,
          5350,
          6400,
          7825,
          8725,
          9500,
          11000,
          12075,
          13175,
          14175,
          15325,
          16350,
          17675,
          18700,
          19725,
          20725,
          21750,
          22725,
          23850,
          24825,
          25450,
          25950,
          26000,
          26000,
          26000,
          26275,
          27025,
          27800,
          28550,
          29275,
          29800,
          30300,
          30825,
          31325,
          31850,
          32350,
          32875,
          33400,
          34075,
          34575,
          35100,
          35625,
          36125,
          36650,
          37175,
          37675,
          38175,
          38700,
          39225,
          39675,
          40175,
          40600,
          40900,
          41525,
          41800,
          42050,
          42225,
          42400,
          42950,
          43000,
          43000,
          43000,
          43000,
          43000,
          43000,
          43000,
          43000,
          43000,
          43000,
          43000,
          43000,
          43000,
          43000,
          43000,
          43000,
          43000,
          43000,
          43000,
          43000,
          43000,
          43000,
          43000,
          43000,
          43000,
          43000,
          43000,
          43000,
          43000,
          43000,
          43000,
          43000,
          43000,
          43000,
          43000,
          43000,
          43000,
          43000,
          43000,
          43000,
          43000,
          43000,
          43000,
          43000,
          43000,
          43000,
          43000,
          43000,
          43000,
          43000,
          43000,
          43000,
          43000,
          43000,
          43000,
          43000,
          43000,
          43000,
          43000,
          43000,
          43000,
          43000,
          43000,
          43000,
          43000,
          43000,
          43000,
          43000,
          43000,
          43000,
          43000,
          43000,
          43000,
          43000,
          43000,
          43000,
          43000,
          43000,
          43000,
          43000,
          43000,
          43000,
          43000,
          43000,
          43000,
          43000,
          43000,
          43000,
          43000,
          43000,
          43000,
          43000,
          43000,
          43000,
          43000,
          43000,
          43000,
          43000,
          43000,
          43000,
          43000,
          43000,
          43000,
          43000,
          43000,
          43000,
          43000,
          43000,
          43000,
          43000,
          43000,
          43000,
          43000,
          43000,
          43000,
          43000,
          43000,
          43000,
          43000,
          43000,
          43000,
          43000,
          43000,
          43000,
          43000,
          43000,
          43000,
          43000,
          43000,
          43000,
          43000,
          43000,
          43000,
          43000,
          43000,
          43000,
          43000,
          43000,
          43000,
          43000,
          43000,
          43000,
          43000,
          43000,
          43000,
          43000,
          43000,
          43000,
          43000,
          43000,
          43000,
          43000,
          43000,
          43000,
          43000,
          43000,
          43000,
          43000,
          43000,
          43000,
          43000,
          43000,
          43000,
          43000,
          43000,
          43000,
          43000,
          43000,
          43000,
          43000,
          43000,
          43000,
          43000,
          43000,
          43000,
          43000,
          43000,
          43000,
          43000,
          43000,
          43000,
          43000,
          43000,
          43000,
          43000,
          43000,
          43000,
          43000,
          43000,
          43000,
          43000,
          43000,
          43000,
          43000,
          43000,
          43000,
          43000,
          43000,
          43000,
          43000,
          43000,
          43000,
          43000,
          43000,
          43000,
          43000,
          43000,
          43000,
          43000,
          43000,
          43000,
          43000,
          43000,
          43000,
          43000,
          43000,
          43000,
          43000,
          43000,
          43000,
          43000,
          43000,
          43000,
          43000,
          43000,
          43000,
          43000,
          43000,
          43000,
          43000,
          43000,
          43000,
          43000,
          43000,
          43000,
          43000,
          43000,
          43000,
          43000,
          43000,
          43000,
          42975,
          42725,
          42475,
          42050,
          41575,
          41050,
          40550,
          40125,
          39550,
          38825,
          37875,
          36800,
          35550,
          34175,
          32875,
          31500,
          30150,
          28825,
          27625,
          26425,
          25200,
          24000,
          22800,
          22025,
          22000,
          21950,
          21700,
          20875,
          20250,
          19700,
          19250,
          18750,
          18050,
          17250,
          17025,
          17000,
          16750,
          16250,
          15700,
          15300,
          14325,
          13000,
          12150,
          11650,
          11350,
          10800,
          10500,
          10000,
          9300,
          8075,
          6900,
          6075,
          5450,
          4750,
          4175,
          3750,
          3525,
          3450,
          3450,
          3025,
          2825,
          2800,
          2625,
          2450,
          2275,
          2075,
          1875
        ],
        "vertical_rate_fpm": [
          0.0,
          2779.0,
          2270.0,
          2057.0,
          2029.0,
          2092.0,
          2100.0,
          2395.0,
          2790.0,
          2956.0,
          3033.0,
          3090.0,
          3107.0,
          2800.0,
          2389.0,
          2175.0,
          2104.0,
          2104.0,
          2050.0,
          2025.0,
          1992.0,
          1967.0,
          2000.0,
          2000.0,
          1600.0,
          1125.0,
          440.0,
          34.0,
          0.0,
          262.0,
          961.0,
          1500.0,
          1525.0,
          1475.0,
          1250.0,
          1025.0,
          1025.0,
          1025.0,
          1008.0,
          1008.0,
          1025.0,
          1050.0,
          1029.0,
          1007.0,
          1025.0,
          1050.0,
          1025.0,
          1025.0,
          1050.0,
          1025.0,
          1000.0,
          1008.0,
          984.0,
          873.0,
          814.0,
          730.0,
          621.0,
          578.0,
          563.0,
          426.0,
          331.0,
          328.0,
          325.0,
          228.0,
          35.0,
          0.0,
          0.0,
          0.0,
          0.0,
          0.0,
          0.0,
          0.0,
          0.0,
          0.0,
          0.0,
          0.0,
          0.0,
          0.0,
          0.0,
          0.0,
          0.0,
          0.0,
          0.0,
          0.0,
          0.0,
          0.0,
          0.0,
          0.0,
          0.0,
          0.0,
          0.0,
          0.0,
          0.0,
          0.0,
          0.0,
          0.0,
          0.0,
          0.0,
          0.0,
          0.0,
          0.0,
          0.0,
          0.0,
          0.0,
          0.0,
          0.0,
          0.0,
          0.0,
          0.0,
          0.0,
          0.0,
          0.0,
          0.0,
          0.0,
          0.0,
          0.0,
          0.0,
          0.0,
          0.0,
          0.0,
          0.0,
          0.0,
          0.0,
          0.0,
          0.0,
          0.0,
          0.0,
          0.0,
          0.0,
          0.0,
          0.0,
          0.0,
          0.0,
          0.0,
          0.0,
          0.0,
          0.0,
          0.0,
          0.0,
          0.0,
          0.0,
          0.0,
          0.0,
          0.0,
          0.0,
          0.0,
          0.0,
          0.0,
          0.0,
          0.0,
          0.0,
          0.0,
          0.0,
          0.0,
          0.0,
          0.0,
          0.0,
          0.0,
          0.0,
          0.0,
          0.0,
          0.0,
          0.0,
          0.0,
          0.0,
          0.0,
          0.0,
          0.0,
          0.0,
          0.0,
          0.0,
          0.0,
          0.0,
          0.0,
          0.0,
          0.0,
          0.0,
          0.0,
          0.0,
          0.0,
          0.0,
          0.0,
          0.0,
          0.0,
          0.0,
          0.0,
          0.0,
          0.0,
          0.0,
          0.0,
          0.0,
          0.0,
          0.0,
          0.0,
          0.0,
          0.0,
          0.0,
          0.0,
          0.0,
          0.0,
          0.0,
          0.0,
          0.0,
          0.0,
          0.0,
          0.0,
          0.0,
          0.0,
          0.0,
          0.0,
          0.0,
          0.0,
          0.0,
          0.0,
          0.0,
          0.0,
          0.0,
          0.0,
          0.0,
          0.0,
          0.0,
          0.0,
          0.0,
          0.0,
          0.0,
          0.0,
          0.0,
          0.0,
          0.0,
          0.0,
          0.0,
          0.0,
          0.0,
          0.0,
          0.0,
          0.0,
          0.0,
          0.0,
          0.0,
          0.0,
          0.0,
          0.0,
          0.0,
          0.0,
          0.0,
          0.0,
          0.0,
          0.0,
          0.0,
          0.0,
          0.0,
          0.0,
          0.0,
          0.0,
          0.0,
          0.0,
          0.0,
          0.0,
          0.0,
          0.0,
          0.0,
          0.0,
          0.0,
          0.0,
          0.0,
          0.0,
          0.0,
          0.0,
          0.0,
          0.0,
          0.0,
          0.0,
          0.0,
          0.0,
          0.0,
          0.0,
          0.0,
          0.0,
          0.0,
          0.0,
          0.0,
          0.0,
          0.0,
          0.0,
          0.0,
          0.0,
          0.0,
          0.0,
          0.0,
          0.0,
          0.0,
          0.0,
          0.0,
          0.0,
          0.0,
          0.0,
          0.0,
          0.0,
          0.0,
          0.0,
          0.0,
          0.0,
          0.0,
          0.0,
          -22.0,
          -239.0,
          -500.0,
          -675.0,
          -900.0,
          -984.0,
          -1008.0,
          -910.0,
          -984.0,
          -1300.0,
          -1675.0,
          -2025.0,
          -2325.0,
          -2625.0,
          -2675.0,
          -2675.0,
          -2725.0,
          -2589.0,
          -2444.0,
          -2400.0,
          -2425.0,
          -2385.0,
          -2323.0,
          -1769.0,
          -640.0,
          -71.0,
          -360.0,
          -1152.0,
          -1381.0,
          -1119.0,
          -1071.0,
          -1018.0,
          -1059.0,
          -1324.0,
          -1230.0,
          -268.0,
          -250.0,
          -750.0,
          -1000.0,
          -1075.0,
          -1833.0,
          -2300.0,
          -2008.0,
          -1620.0,
          -1263.0,
          -1041.0,
          -1041.0,
          -1231.0,
          -1756.0,
          -2310.0,
          -2441.0,
          -2449.0,
          -2122.0,
          -1559.0,
          -1275.0,
          -1000.0,
          -848.0,
          -360.0,
          -85.0,
          -520.0,
          -833.0,
          -844.0,
          -706.0,
          -618.0,
          -600.0,
          -608.0,
          -585.0,
          -571.0
        ]
      }
    }
  ]
}