{
  "type": "FeatureCollection",
  "features": [
    {
      "type": "Feature",
      "geometry": {
        "type": "LineString",
        "coordinates": [
          [
            14.4768,
            35.8586
          ],
          [
            14.4661,
            35.8676
          ],
          [
            14.4547,
            35.8754
          ],
          [
            14.4424,
            35.8825
          ],
          [
            14.4298,
            35.8899
          ],
          [
            14.4045,
            35.9033
          ],
          [
            14.3784,
            35.9149
          ],
          [
            14.3661,
            35.9256
          ],
          [
            14.3669,
            35.9435
          ],
          [
            14.398,
            35.983
          ],
          [
            14.4227,
            36.0037
          ],
          [
            14.4806,
            36.0147
          ],
          [
            14.5483,
            36.0152
          ],
          [
            14.6213,
            36.0146
          ],
          [
            14.6946,
            36.0155
          ],
          [
            14.7734,
            36.0164
          ],
          [
            14.8551,
            36.0172
          ],
          [
            14.9353,
            36.018
          ],
          [
            15.0204,
            36.0187
          ],
          [
            15.1049,
            36.0194
          ],
          [
            15.1886,
            36.0199
          ],
          [
            15.2731,
            36.0204
          ],
          [
            15.3598,
            36.0209
          ],
          [
            15.4453,
            36.0213
          ],
          [
            15.5341,
            36.0217
          ],
          [
            15.6224,
            36.0219
          ],
          [
            15.7111,
            36.0222
          ],
          [
            15.8043,
            36.0224
          ],
          [
            15.8929,
            36.0224
          ],
          [
            15.9825,
            36.0225
          ],
          [
            16.0719,
            36.0225
          ],
          [
            16.1595,
            36.0222
          ],
          [
            16.2477,
            36.0221
          ],
          [
            16.3354,
            36.0219
          ],
          [
            16.4229,
            36.0216
          ],
          [
            16.5068,
            36.0213
          ],
          [
            16.5934,
            36.0209
          ],
          [
            16.683,
            36.0204
          ],
          [
            16.7718,
            36.0199
          ],
          [
            16.8604,
            36.019
          ],
          [
            16.9482,
            36.0186
          ],
          [
            17.0358,
            36.0177
          ],
          [
            17.1189,
            36.017
          ],
          [
            17.2065,
            36.0161
          ],
          [
            17.29,
            36.0152
          ],
          [
            17.4039,
            36.014
          ],
          [
            17.4904,
            36.0129
          ],
          [
            17.5804,
            36.0117
          ],
          [
            17.6642,
            36.0105
          ],
          [
            17.7495,
            36.0094
          ],
          [
            17.837,
            36.008
          ],
          [
            17.9203,
            36.0067
          ],
          [
            18.01,
            36.0052
          ],
          [
            18.0976,
            36.0037
          ],
          [
            18.1845,
            36.0021
          ],
          [
            18.2721,
            36.0004
          ],
          [
            18.358,
            35.9987
          ],
          [
            18.4533,
            35.9969
          ],
          [
            18.5421,
            35.9951
          ],
          [
            18.6274,
            35.9931
          ],
          [
            18.7105,
            35.9913
          ],
          [
            18.7971,
            35.9893
          ],
          [
            18.8822,
            35.9874
          ],
          [
            18.9631,
            35.9853
          ],
          [
            19.0485,
            35.9831
          ],
          [
            19.1308,
            35.981
          ],
          [
            19.2114,
            35.9789
          ],
          [
            19.2947,
            35.9766
          ],
          [
            19.3796,
            35.9742
          ],
          [
            19.4632,
            35.9719
          ],
          [
            19.5797,
            35.9684
          ],
          [
            19.6637,
            35.9659
          ],
          [
            19.7494,
            35.9631
          ],
          [
            19.8342,
            35.9605
          ],
          [
            19.9184,
            35.9609
          ],
          [
            20.0263,
            35.9695
          ],
          [
            20.1108,
            35.9774
          ],
          [
            20.1948,
            35.9839
          ],
          [
            20.2768,
            35.9903
          ],
          [
            20.36,
            35.997
          ],
          [
            20.4435,
            36.0034
          ],
          [
            20.5265,
            36.0097
          ],
          [
            20.6112,
            36.0161
          ],
          [
            20.6982,
            36.0226
          ],
          [
            20.7818,
            36.0287
          ],
          [
            20.8602,
            36.0344
          ],
          [
            20.9479,
            36.0407
          ],
          [
            21.0311,
            36.0466
          ],
          [
            21.1149,
            36.0525
          ],
          [
            21.1989,
            36.0585
          ],
          [
            21.2786,
            36.0641
          ],
          [
            21.3653,
            36.0699
          ],
          [
            21.45,
            36.0758
          ],
          [
            21.5355,
            36.0815
          ],
          [
            21.6189,
            36.087
          ],
          [
            21.7034,
            36.0926
          ],
          [
            21.7864,
            36.0981
          ],
          [
            21.8695,
            36.1033
          ],
          [
            21.9547,
            36.1088
          ],
          [
            22.0381,
            36.1141
          ],
          [
            22.1227,
            36.1193
          ],
          [
            22.2069,
            36.1245
          ],
          [
            22.2921,
            36.1297
          ],
          [
            22.3773,
            36.1348
          ],
          [
            22.4597,
            36.1397
          ],
          [
            22.5487,
            36.145
          ],
          [
            22.6354,
            36.15
          ],
          [
            22.736,
            36.1558
          ],
          [
            22.8238,
            36.1606
          ],
          [
            22.9194,
            36.1661
          ],
          [
            23.0054,
            36.1708
          ],
          [
            23.0868,
            36.175
          ],
          [
            23.1714,
            36.1797
          ],
          [
            23.2667,
            36.1847
          ],
          [
            23.3459,
            36.1888
          ],
          [
            23.4302,
            36.1931
          ],
          [
            23.5141,
            36.1974
          ],
          [
            23.5973,
            36.2015
          ],
          [
            23.6816,
            36.2057
          ],
          [
            23.7642,
            36.2097
          ],
          [
            23.8504,
            36.2138
          ],
          [
            23.9401,
            36.218
          ],
          [
            24.0272,
            36.2222
          ],
          [
            24.1143,
            36.226
          ],
          [
            24.1988,
            36.2299
          ],
          [
            24.2851,
            36.2336
          ],
          [
            24.3704,
            36.2374
          ],
          [
            24.4557,
            36.241
          ],
          [
            24.5405,
            36.2447
          ],
          [
            24.6253,
            36.2479
          ],
          [
            24.7097,
            36.2515
          ],
          [
            24.7958,
            36.255
          ],
          [
            24.8831,
            36.2583
          ],
          [
            24.9679,
            36.2617
          ],
          [
            25.0526,
            36.2647
          ],
          [
            25.1448,
            36.2683
          ],
          [
            25.2311,
            36.2714
          ],
          [
            25.314,
            36.2744
          ],
          [
            25.4018,
            36.2774
          ],
          [
            25.4894,
            36.2803
          ],
          [
            25.5767,
            36.2833
          ],
          [
            25.6775,
            36.2866
          ],
          [
            25.7641,
            36.2893
          ],
          [
            25.8522,
            36.2921
          ],
          [
            25.9399,
            36.2947
          ],
          [
            26.0256,
            36.2972
          ],
          [
            26.1135,
            36.2998
          ],
          [
            26.2002,
            36.3023
          ],
          [
            26.2909,
            36.3047
          ],
          [
            26.3767,
            36.307
          ],
          [
            26.4642,
            36.3094
          ],
          [
            26.552,
            36.3114
          ],
          [
            26.641,
            36.3137
          ],
          [
            26.7361,
            36.316
          ],
          [
            26.8255,
            36.318
          ],
          [
            26.9111,
            36.3201
          ],
          [
            27.0042,
            36.3218
          ],
          [
            27.0915,
            36.3236
          ],
          [
            27.1859,
            36.3255
          ],
          [
            27.2757,
            36.3273
          ],
          [
            27.3668,
            36.3291
          ],
          [
            27.4522,
            36.3305
          ],
          [
            27.5365,
            36.332
          ],
          [
            27.6226,
            36.3334
          ],
          [
            27.7042,
            36.3347
          ],
          [
            27.7927,
            36.3359
          ],
          [
            27.878,
            36.3371
          ],
          [
            27.96,
            36.3383
          ],
          [
            28.0035,
            36.3392
          ],
          [
            28.064,
            36.3472
          ],
          [
            28.107,
            36.3591
          ],
          [
            28.1841,
            36.3922
          ],
          [
            28.2561,
            36.4293
          ],
          [
            28.3268,
            36.4677
          ],
          [
            28.4061,
            36.511
          ],
          [
            28.4768,
            36.5472
          ],
          [
            28.5511,
            36.5826
          ],
          [
            28.6256,
            36.6167
          ],
          [
            28.6988,
            36.6509
          ],
          [
            28.7468,
            36.6734
          ],
          [
            28.8004,
            36.689
          ],
          [
            28.8589,
            36.6991
          ],
          [
            28.9482,
            36.7099
          ],
          [
            29.0409,
            36.7212
          ],
          [
            29.122,
            36.7315
          ],
          [
            29.1998,
            36.7408
          ],
          [
            29.2763,
            36.7499
          ],
          [
            29.3545,
            36.759
          ],
          [
            29.4315,
            36.7683
          ],
          [
            29.5114,
            36.7776
          ],
          [
            29.5887,
            36.7867
          ],
          [
            29.673,
            36.7965
          ],
          [
            29.7309,
            36.8102
          ],
          [
            29.7633,
            36.8313
          ],
          [
            29.8159,
            36.8992
          ],
          [
            29.8425,
            36.9474
          ],
          [
            29.8645,
            36.9917
          ],
          [
            29.8865,
            37.0362
          ],
          [
            29.9086,
            37.0778
          ],
          [
            29.9278,
            37.1056
          ],
          [
            29.9561,
            37.1195
          ],
          [
            30.0196,
            37.1261
          ],
          [
            30.0855,
            37.1221
          ],
          [
            30.1495,
            37.1166
          ],
          [
            30.2084,
            37.1128
          ],
          [
            30.2679,
            37.1081
          ],
          [
            30.3039,
            37.1056
          ],
          [
            30.3415,
            37.1151
          ],
          [
            30.3649,
            37.1361
          ],
          [
            30.3782,
            37.1618
          ],
          [
            30.3877,
            37.1992
          ],
          [
            30.3929,
            37.2363
          ],
          [
            30.396,
            37.2711
          ],
          [
            30.4004,
            37.3107
          ],
          [
            30.4087,
            37.3341
          ],
          [
            30.4416,
            37.3487
          ],
          [
            30.4711,
            37.3426
          ],
          [
            30.5048,
            37.3126
          ],
          [
            30.5271,
            37.2789
          ],
          [
            30.5473,
            37.2456
          ],
          [
            30.568,
            37.2139
          ],
          [
            30.58,
            37.195
          ],
          [
            30.6012,
            37.1611
          ],
          [
            30.6215,
            37.1289
          ],
          [
            30.632,
            37.1123
          ],
          [
            30.6527,
            37.0796
          ],
          [
            30.6736,
            37.0463
          ],
          [
            30.6832,
            37.0257
          ],
          [
            30.6832,
            36.9907
          ],
          [
            30.6784,
            36.9564
          ],
          [
            30.6754,
            36.9216
          ],
          [
            30.673,
            36.8874
          ],
          [
            30.6697,
            36.8515
          ],
          [
            30.6679,
            36.8354
          ],
          [
            30.6638,
            36.8017
          ],
          [
            30.6596,
            36.7683
          ],
          [
            30.6574,
            36.7531
          ],
          [
            30.6544,
            36.7327
          ],
          [
            30.6521,
            36.7166
          ],
          [
            30.647,
            36.6795
          ],
          [
            30.6442,
            36.6581
          ],
          [
            30.6436,
            36.6414
          ],
          [
            30.6568,
            36.6242
          ],
          [
            30.68,
            36.6193
          ],
          [
            30.7023,
            36.63
          ],
          [
            30.7249,
            36.6541
          ],
          [
            30.7352,
            36.6659
          ],
          [
            30.7546,
            36.6889
          ],
          [
            30.765,
            36.7076
          ],
          [
            30.7678,
            36.7227
          ],
          [
            30.7714,
            36.7467
          ],
          [
            30.775,
            36.772
          ],
          [
            30.7782,
            36.7948
          ],
          [
            30.781,
            36.816
          ],
          [
            30.7839,
            36.836
          ],
          [
            30.7855,
            36.8478
          ],
          [
            30.7869,
            36.8577
          ],
          [
            30.7881,
            36.8669
          ],
          [
            30.7893,
            36.8759
          ],
          [
            30.7906,
            36.885
          ]
        ]
      },
      "properties": {
        "time_europe_berlin": [
          "21.10.2025 16:15:47",
          "21.10.2025 16:16:03",
          "21.10.2025 16:16:19",
          "21.10.2025 16:16:35",
          "21.10.2025 16:16:51",
          "21.10.2025 16:17:22",
          "21.10.2025 16:17:50",
          "21.10.2025 16:18:07",
          "21.10.2025 16:18:24",
          "21.10.2025 16:19:00",
          "21.10.2025 16:19:20",
          "21.10.2025 16:19:50",
          "21.10.2025 16:20:21",
          "21.10.2025 16:20:51",
          "21.10.2025 16:21:21",
          "21.10.2025 16:21:51",
          "21.10.2025 16:22:23",
          "21.10.2025 16:22:53",
          "21.10.2025 16:23:24",
          "21.10.2025 16:23:54",
          "21.10.2025 16:24:24",
          "21.10.2025 16:24:54",
          "21.10.2025 16:25:24",
          "21.10.2025 16:25:54",
          "21.10.2025 16:26:25",
          "21.10.2025 16:26:55",
          "21.10.2025 16:27:25",
          "21.10.2025 16:27:55",
          "21.10.2025 16:28:25",
          "21.10.2025 16:28:55",
          "21.10.2025 16:29:25",
          "21.10.2025 16:29:55",
          "21.10.2025 16:30:25",
          "21.10.2025 16:30:55",
          "21.10.2025 16:31:25",
          "21.10.2025 16:31:55",
          "21.10.2025 16:32:25",
          "21.10.2025 16:32:56",
          "21.10.2025 16:33:26",
          "21.10.2025 16:33:56",
          "21.10.2025 16:34:26",
          "21.10.2025 16:34:56",
          "21.10.2025 16:35:26",
          "21.10.2025 16:35:56",
          "21.10.2025 16:36:26",
          "21.10.2025 16:37:06",
          "21.10.2025 16:37:36",
          "21.10.2025 16:38:07",
          "21.10.2025 16:38:37",
          "21.10.2025 16:39:07",
          "21.10.2025 16:39:38",
          "21.10.2025 16:40:08",
          "21.10.2025 16:40:38",
          "21.10.2025 16:41:09",
          "21.10.2025 16:41:40",
          "21.10.2025 16:42:10",
          "21.10.2025 16:42:40",
          "21.10.2025 16:43:13",
          "21.10.2025 16:43:43",
          "21.10.2025 16:44:13",
          "21.10.2025 16:44:43",
          "21.10.2025 16:45:13",
          "21.10.2025 16:45:43",
          "21.10.2025 16:46:13",
          "21.10.2025 16:46:43",
          "21.10.2025 16:47:13",
          "21.10.2025 16:47:43",
          "21.10.2025 16:48:13",
          "21.10.2025 16:48:43",
          "21.10.2025 16:49:13",
          "21.10.2025 16:49:54",
          "21.10.2025 16:50:24",
          "21.10.2025 16:50:54",
          "21.10.2025 16:51:24",
          "21.10.2025 16:51:54",
          "21.10.2025 16:52:32",
          "21.10.2025 16:53:02",
          "21.10.2025 16:53:32",
          "21.10.2025 16:54:02",
          "21.10.2025 16:54:32",
          "21.10.2025 16:55:02",
          "21.10.2025 16:55:32",
          "21.10.2025 16:56:03",
          "21.10.2025 16:56:34",
          "21.10.2025 16:57:04",
          "21.10.2025 16:57:34",
          "21.10.2025 16:58:05",
          "21.10.2025 16:58:35",
          "21.10.2025 16:59:05",
          "21.10.2025 16:59:35",
          "21.10.2025 17:00:05",
          "21.10.2025 17:00:36",
          "21.10.2025 17:01:06",
          "21.10.2025 17:01:36",
          "21.10.2025 17:02:07",
          "21.10.2025 17:02:37",
          "21.10.2025 17:03:07",
          "21.10.2025 17:03:37",
          "21.10.2025 17:04:07",
          "21.10.2025 17:04:37",
          "21.10.2025 17:05:07",
          "21.10.2025 17:05:37",
          "21.10.2025 17:06:08",
          "21.10.2025 17:06:38",
          "21.10.2025 17:07:08",
          "21.10.2025 17:07:39",
          "21.10.2025 17:08:10",
          "21.10.2025 17:08:46",
          "21.10.2025 17:09:18",
          "21.10.2025 17:09:52",
          "21.10.2025 17:10:22",
          "21.10.2025 17:10:52",
          "21.10.2025 17:11:22",
          "21.10.2025 17:11:55",
          "21.10.2025 17:12:25",
          "21.10.2025 17:12:55",
          "21.10.2025 17:13:25",
          "21.10.2025 17:13:55",
          "21.10.2025 17:14:25",
          "21.10.2025 17:14:55",
          "21.10.2025 17:15:26",
          "21.10.2025 17:15:57",
          "21.10.2025 17:16:28",
          "21.10.2025 17:16:58",
          "21.10.2025 17:17:29",
          "21.10.2025 17:18:00",
          "21.10.2025 17:18:30",
          "21.10.2025 17:19:00",
          "21.10.2025 17:19:31",
          "21.10.2025 17:20:01",
          "21.10.2025 17:20:31",
          "21.10.2025 17:21:01",
          "21.10.2025 17:21:31",
          "21.10.2025 17:22:02",
          "21.10.2025 17:22:32",
          "21.10.2025 17:23:04",
          "21.10.2025 17:23:34",
          "21.10.2025 17:24:04",
          "21.10.2025 17:24:35",
          "21.10.2025 17:25:05",
          "21.10.2025 17:25:36",
          "21.10.2025 17:26:10",
          "21.10.2025 17:26:41",
          "21.10.2025 17:27:11",
          "21.10.2025 17:27:41",
          "21.10.2025 17:28:11",
          "21.10.2025 17:28:41",
          "21.10.2025 17:29:12",
          "21.10.2025 17:29:44",
          "21.10.2025 17:30:14",
          "21.10.2025 17:30:44",
          "21.10.2025 17:31:14",
          "21.10.2025 17:31:44",
          "21.10.2025 17:32:17",
          "21.10.2025 17:32:47",
          "21.10.2025 17:33:17",
          "21.10.2025 17:33:48",
          "21.10.2025 17:34:19",
          "21.10.2025 17:34:50",
          "21.10.2025 17:35:23",
          "21.10.2025 17:35:54",
          "21.10.2025 17:36:24",
          "21.10.2025 17:36:55",
          "21.10.2025 17:37:25",
          "21.10.2025 17:37:55",
          "21.10.2025 17:38:25",
          "21.10.2025 17:38:55",
          "21.10.2025 17:39:25",
          "21.10.2025 17:39:41",
          "21.10.2025 17:40:03",
          "21.10.2025 17:40:20",
          "21.10.2025 17:40:51",
          "21.10.2025 17:41:21",
          "21.10.2025 17:41:51",
          "21.10.2025 17:42:24",
          "21.10.2025 17:42:55",
          "21.10.2025 17:43:25",
          "21.10.2025 17:43:55",
          "21.10.2025 17:44:25",
          "21.10.2025 17:44:45",
          "21.10.2025 17:45:04",
          "21.10.2025 17:45:25",
          "21.10.2025 17:45:57",
          "21.10.2025 17:46:31",
          "21.10.2025 17:47:02",
          "21.10.2025 17:47:32",
          "21.10.2025 17:48:03",
          "21.10.2025 17:48:33",
          "21.10.2025 17:49:03",
          "21.10.2025 17:49:34",
          "21.10.2025 17:50:05",
          "21.10.2025 17:50:38",
          "21.10.2025 17:51:01",
          "21.10.2025 17:51:19",
          "21.10.2025 17:52:01",
          "21.10.2025 17:52:32",
          "21.10.2025 17:53:03",
          "21.10.2025 17:53:33",
          "21.10.2025 17:54:03",
          "21.10.2025 17:54:23",
          "21.10.2025 17:54:40",
          "21.10.2025 17:55:13",
          "21.10.2025 17:55:46",
          "21.10.2025 17:56:20",
          "21.10.2025 17:56:50",
          "21.10.2025 17:57:20",
          "21.10.2025 17:57:39",
          "21.10.2025 17:58:00",
          "21.10.2025 17:58:20",
          "21.10.2025 17:58:40",
          "21.10.2025 17:59:10",
          "21.10.2025 17:59:40",
          "21.10.2025 18:00:10",
          "21.10.2025 18:00:41",
          "21.10.2025 18:01:01",
          "21.10.2025 18:01:26",
          "21.10.2025 18:01:45",
          "21.10.2025 18:02:16",
          "21.10.2025 18:02:46",
          "21.10.2025 18:03:17",
          "21.10.2025 18:03:47",
          "21.10.2025 18:04:03",
          "21.10.2025 18:04:35",
          "21.10.2025 18:05:05",
          "21.10.2025 18:05:21",
          "21.10.2025 18:05:51",
          "21.10.2025 18:06:21",
          "21.10.2025 18:06:39",
          "21.10.2025 18:07:09",
          "21.10.2025 18:07:39",
          "21.10.2025 18:08:10",
          "21.10.2025 18:08:40",
          "21.10.2025 18:09:11",
          "21.10.2025 18:09:27",
          "21.10.2025 18:09:57",
          "21.10.2025 18:10:28",
          "21.10.2025 18:10:44",
          "21.10.2025 18:11:03",
          "21.10.2025 18:11:19",
          "21.10.2025 18:11:53",
          "21.10.2025 18:12:13",
          "21.10.2025 18:12:30",
          "21.10.2025 18:12:49",
          "21.10.2025 18:13:09",
          "21.10.2025 18:13:29",
          "21.10.2025 18:13:59",
          "21.10.2025 18:14:15",
          "21.10.2025 18:14:45",
          "21.10.2025 18:15:05",
          "21.10.2025 18:15:22",
          "21.10.2025 18:15:53",
          "21.10.2025 18:16:23",
          "21.10.2025 18:16:53",
          "21.10.2025 18:17:24",
          "21.10.2025 18:17:52",
          "21.10.2025 18:18:09",
          "21.10.2025 18:18:27",
          "21.10.2025 18:18:43",
          "21.10.2025 18:18:59",
          "21.10.2025 18:19:15"
        ],
        "course_deg_clockwise_from_north": [
          "316",
          "314",
          "307",
          "305",
          "306",
          "301",
          "299",
          "337",
          "20",
          "34",
          "60",
          "86",
          "91",
          "90",
          "89",
          "89",
          "89",
          "90",
          "89",
          "90",
          "90",
          "90",
          "90",
          "90",
          "90",
          "90",
          "90",
          "90",
          "90",
          "90",
          "90",
          "90",
          "90",
          "90",
          "90",
          "90",
          "90",
          "90",
          "91",
          "90",
          "90",
          "91",
          "91",
          "91",
          "91",
          "91",
          "91",
          "91",
          "91",
          "91",
          "91",
          "91",
          "91",
          "91",
          "91",
          "92",
          "91",
          "92",
          "92",
          "92",
          "91",
          "92",
          "92",
          "92",
          "92",
          "92",
          "92",
          "92",
          "92",
          "92",
          "92",
          "92",
          "92",
          "92",
          "86",
          "83",
          "84",
          "85",
          "84",
          "85",
          "85",
          "85",
          "85",
          "85",
          "85",
          "85",
          "85",
          "85",
          "85",
          "85",
          "85",
          "85",
          "85",
          "86",
          "85",
          "86",
          "85",
          "86",
          "86",
          "86",
          "86",
          "86",
          "86",
          "86",
          "86",
          "86",
          "86",
          "86",
          "86",
          "86",
          "86",
          "87",
          "86",
          "86",
          "86",
          "86",
          "86",
          "87",
          "87",
          "87",
          "87",
          "87",
          "87",
          "87",
          "87",
          "87",
          "87",
          "87",
          "87",
          "87",
          "87",
          "87",
          "87",
          "87",
          "87",
          "87",
          "88",
          "88",
          "88",
          "88",
          "88",
          "88",
          "88",
          "88",
          "88",
          "88",
          "88",
          "88",
          "88",
          "88",
          "88",
          "88",
          "88",
          "88",
          "88",
          "89",
          "88",
          "89",
          "89",
          "89",
          "89",
          "89",
          "89",
          "89",
          "89",
          "89",
          "89",
          "89",
          "86",
          "75",
          "69",
          "59",
          "57",
          "56",
          "57",
          "57",
          "61",
          "60",
          "59",
          "62",
          "75",
          "80",
          "82",
          "81",
          "81",
          "82",
          "82",
          "82",
          "81",
          "82",
          "82",
          "82",
          "60",
          "43",
          "26",
          "23",
          "21",
          "23",
          "23",
          "43",
          "71",
          "91",
          "97",
          "95",
          "95",
          "96",
          "89",
          "57",
          "31",
          "17",
          "8",
          "5",
          "4",
          "6",
          "35",
          "84",
          "124",
          "149",
          "155",
          "153",
          "153",
          "153",
          "153",
          "153",
          "153",
          "153",
          "153",
          "169",
          "185",
          "186",
          "183",
          "184",
          "185",
          "185",
          "186",
          "186",
          "187",
          "187",
          "186",
          "186",
          "186",
          "170",
          "128",
          "84",
          "40",
          "35",
          "35",
          "34",
          "12",
          "7",
          "6",
          "7",
          "6",
          "7",
          "7",
          "7",
          "6",
          "6",
          "7",
          "6"
        ],
        "speed_kts": [
          "159",
          "167",
          "166",
          "161",
          "165",
          "184",
          "188",
          "205",
          "243",
          "299",
          "330",
          "371",
          "408",
          "430",
          "444",
          "453",
          "458",
          "473",
          "482",
          "487",
          "491",
          "499",
          "507",
          "513",
          "518",
          "521",
          "524",
          "524",
          "521",
          "520",
          "518",
          "514",
          "509",
          "507",
          "503",
          "504",
          "507",
          "514",
          "518",
          "517",
          "512",
          "505",
          "495",
          "497",
          "499",
          "505",
          "503",
          "497",
          "496",
          "498",
          "500",
          "501",
          "502",
          "504",
          "506",
          "506",
          "506",
          "507",
          "505",
          "501",
          "498",
          "494",
          "492",
          "489",
          "486",
          "485",
          "486",
          "490",
          "492",
          "493",
          "495",
          "495",
          "496",
          "497",
          "496",
          "495",
          "495",
          "493",
          "490",
          "489",
          "487",
          "488",
          "488",
          "488",
          "488",
          "486",
          "486",
          "486",
          "486",
          "487",
          "488",
          "490",
          "492",
          "493",
          "493",
          "494",
          "494",
          "494",
          "493",
          "493",
          "492",
          "494",
          "493",
          "492",
          "492",
          "492",
          "491",
          "490",
          "491",
          "491",
          "490",
          "489",
          "489",
          "489",
          "489",
          "489",
          "490",
          "490",
          "490",
          "491",
          "492",
          "492",
          "493",
          "494",
          "495",
          "495",
          "496",
          "496",
          "496",
          "497",
          "497",
          "497",
          "496",
          "495",
          "496",
          "496",
          "498",
          "499",
          "500",
          "503",
          "503",
          "504",
          "506",
          "508",
          "509",
          "502",
          "498",
          "500",
          "503",
          "505",
          "508",
          "509",
          "509",
          "511",
          "512",
          "512",
          "512",
          "512",
          "506",
          "494",
          "490",
          "488",
          "489",
          "494",
          "496",
          "496",
          "489",
          "487",
          "489",
          "487",
          "484",
          "490",
          "500",
          "499",
          "491",
          "492",
          "496",
          "491",
          "491",
          "502",
          "510",
          "491",
          "467",
          "479",
          "461",
          "456",
          "454",
          "453",
          "448",
          "446",
          "441",
          "452",
          "432",
          "414",
          "385",
          "357",
          "337",
          "334",
          "337",
          "341",
          "339",
          "336",
          "343",
          "332",
          "337",
          "340",
          "339",
          "320",
          "297",
          "289",
          "274",
          "260",
          "261",
          "269",
          "269",
          "283",
          "279",
          "273",
          "267",
          "265",
          "265",
          "265",
          "257",
          "261",
          "265",
          "260",
          "265",
          "262",
          "243",
          "248",
          "249",
          "247",
          "242",
          "236",
          "234",
          "226",
          "227",
          "227",
          "227",
          "228",
          "230",
          "230",
          "226",
          "222",
          "214",
          "215",
          "213",
          "208",
          "205",
          "182",
          "179",
          "164",
          "156",
          "154",
          "153",
          "135",
          "126",
          "121",
          "120",
          "121"
        ],
        "speed_mph": [
          "183",
          "192",
          "191",
          "185",
          "190",
          "212",
          "216",
          "236",
          "280",
          "344",
          "380",
          "427",
          "470",
          "495",
          "511",
          "521",
          "527",
          "544",
          "555",
          "560",
          "565",
          "574",
          "583",
          "590",
          "596",
          "600",
          "603",
          "603",
          "600",
          "598",
          "596",
          "592",
          "586",
          "583",
          "579",
          "580",
          "583",
          "592",
          "596",
          "595",
          "589",
          "581",
          "570",
          "572",
          "574",
          "581",
          "579",
          "572",
          "571",
          "573",
          "575",
          "577",
          "578",
          "580",
          "582",
          "582",
          "582",
          "583",
          "581",
          "577",
          "573",
          "568",
          "566",
          "563",
          "559",
          "558",
          "559",
          "564",
          "566",
          "567",
          "570",
          "570",
          "571",
          "572",
          "571",
          "570",
          "570",
          "567",
          "564",
          "563",
          "560",
          "562",
          "562",
          "562",
          "562",
          "559",
          "559",
          "559",
          "559",
          "560",
          "562",
          "564",
          "566",
          "567",
          "567",
          "568",
          "568",
          "568",
          "567",
          "567",
          "566",
          "568",
          "567",
          "566",
          "566",
          "566",
          "565",
          "564",
          "565",
          "565",
          "564",
          "563",
          "563",
          "563",
          "563",
          "563",
          "564",
          "564",
          "564",
          "565",
          "566",
          "566",
          "567",
          "568",
          "570",
          "570",
          "571",
          "571",
          "571",
          "572",
          "572",
          "572",
          "571",
          "570",
          "571",
          "571",
          "573",
          "574",
          "575",
          "579",
          "579",
          "580",
          "582",
          "585",
          "586",
          "578",
          "573",
          "575",
          "579",
          "581",
          "585",
          "586",
          "586",
          "588",
          "589",
          "589",
          "589",
          "589",
          "582",
          "568",
          "564",
          "562",
          "563",
          "568",
          "571",
          "571",
          "563",
          "560",
          "563",
          "560",
          "557",
          "564",
          "575",
          "574",
          "565",
          "566",
          "571",
          "565",
          "565",
          "578",
          "587",
          "565",
          "537",
          "551",
          "531",
          "525",
          "522",
          "521",
          "516",
          "513",
          "507",
          "520",
          "497",
          "476",
          "443",
          "411",
          "388",
          "384",
          "388",
          "392",
          "390",
          "387",
          "395",
          "382",
          "388",
          "391",
          "390",
          "368",
          "342",
          "333",
          "315",
          "299",
          "300",
          "310",
          "310",
          "326",
          "321",
          "314",
          "307",
          "305",
          "305",
          "305",
          "296",
          "300",
          "305",
          "299",
          "305",
          "302",
          "280",
          "285",
          "287",
          "284",
          "278",
          "272",
          "269",
          "260",
          "261",
          "261",
          "261",
          "262",
          "265",
          "265",
          "260",
          "255",
          "246",
          "247",
          "245",
          "239",
          "236",
          "209",
          "206",
          "189",
          "180",
          "177",
          "176",
          "155",
          "145",
          "139",
          "138",
          "139"
        ],
        "altitude_ft": [
          "975",
          "1850",
          "2700",
          "3700",
          "4625",
          "6150",
          "7850",
          "8750",
          "9525",
          "11225",
          "12275",
          "13875",
          "15175",
          "16575",
          "18100",
          "19700",
          "21325",
          "22375",
          "23475",
          "24650",
          "25775",
          "26700",
          "27500",
          "28200",
          "28950",
          "29675",
          "30325",
          "31025",
          "31800",
          "32525",
          "33225",
          "34000",
          "34825",
          "35550",
          "36275",
          "36875",
          "37350",
          "37600",
          "37950",
          "38350",
          "38925",
          "39550",
          "40300",
          "40650",
          "40900",
          "41000",
          "41175",
          "41675",
          "42000",
          "42225",
          "42375",
          "42525",
          "42700",
          "42825",
          "42925",
          "43050",
          "43175",
          "43275",
          "43400",
          "43625",
          "43875",
          "44100",
          "44300",
          "44500",
          "44700",
          "44900",
          "45000",
          "45000",
          "45000",
          "45000",
          "45000",
          "45000",
          "45000",
          "45000",
          "45000",
          "45000",
          "45000",
          "45000",
          "45000",
          "45000",
          "45000",
          "45000",
          "45000",
          "45000",
          "45000",
          "45000",
          "45000",
          "45000",
          "45000",
          "45000",
          "45000",
          "45000",
          "45000",
          "45000",
          "45000",
          "45000",
          "45000",
          "45000",
          "45000",
          "45000",
          "45000",
          "45000",
          "45000",
          "45000",
          "45000",
          "45000",
          "45000",
          "45000",
          "45000",
          "45000",
          "45000",
          "45000",
          "45000",
          "45000",
          "45000",
          "45000",
          "45000",
          "45000",
          "45000",
          "45000",
          "45000",
          "45000",
          "45000",
          "45000",
          "45000",
          "45000",
          "45000",
          "45000",
          "45000",
          "45000",
          "45000",
          "45000",
          "45000",
          "45000",
          "45000",
          "45000",
          "45000",
          "45000",
          "45000",
          "45000",
          "45000",
          "45000",
          "45000",
          "45000",
          "45000",
          "45000",
          "45000",
          "45000",
          "45000",
          "45000",
          "45000",
          "45000",
          "45000",
          "45000",
          "45000",
          "45000",
          "45000",
          "45000",
          "44425",
          "43400",
          "42325",
          "41300",
          "40300",
          "39275",
          "38325",
          "37250",
          "36150",
          "35075",
          "34500",
          "33675",
          "33075",
          "32125",
          "31675",
          "31225",
          "30700",
          "30225",
          "29675",
          "28900",
          "27975",
          "27325",
          "26725",
          "26050",
          "25000",
          "23375",
          "22000",
          "20625",
          "20025",
          "20000",
          "20000",
          "20000",
          "20000",
          "20000",
          "20000",
          "20000",
          "20000",
          "19625",
          "19175",
          "18700",
          "18275",
          "18025",
          "18000",
          "18000",
          "18000",
          "17525",
          "16500",
          "15425",
          "14775",
          "14000",
          "13300",
          "12825",
          "12350",
          "11900",
          "11475",
          "11025",
          "10950",
          "10925",
          "10675",
          "10325",
          "9975",
          "9625",
          "9325",
          "9150",
          "8950",
          "8650",
          "8400",
          "7850",
          "7350",
          "7050",
          "6950",
          "6950",
          "6925",
          "6425",
          "5925",
          "5650",
          "5150",
          "4950",
          "4950",
          "4950",
          "4950",
          "4950",
          "4950",
          "4950",
          "4700",
          "4375",
          "4050",
          "3550",
          "3300",
          "2975",
          "2950",
          "2925",
          "2850",
          "2325",
          "1900",
          "1500",
          "1125",
          "900",
          "700",
          "550",
          "375",
          "175"
        ],
        "vertical_rate_fpm": [
          "",
          "3234",
          "3469",
          "3609",
          "3128",
          "3280",
          "3467",
          "2956",
          "2802",
          "2946",
          "3180",
          "2852",
          "2656",
          "2925",
          "3125",
          "3121",
          "2589",
          "2115",
          "2238",
          "2300",
          "2050",
          "1725",
          "1500",
          "1426",
          "1451",
          "1375",
          "1350",
          "1475",
          "1500",
          "1425",
          "1475",
          "1600",
          "1550",
          "1450",
          "1325",
          "1075",
          "713",
          "590",
          "750",
          "975",
          "1200",
          "1375",
          "1100",
          "600",
          "300",
          "236",
          "664",
          "811",
          "550",
          "369",
          "295",
          "325",
          "295",
          "218",
          "221",
          "250",
          "214",
          "214",
          "350",
          "475",
          "475",
          "425",
          "400",
          "400",
          "400",
          "300",
          "100",
          "",
          "",
          "",
          "",
          "",
          "",
          "",
          "",
          "",
          "",
          "",
          "",
          "",
          "",
          "",
          "",
          "",
          "",
          "",
          "",
          "",
          "",
          "",
          "",
          "",
          "",
          "",
          "",
          "",
          "",
          "",
          "",
          "",
          "",
          "",
          "",
          "",
          "",
          "",
          "",
          "",
          "",
          "",
          "",
          "",
          "",
          "",
          "",
          "",
          "",
          "",
          "",
          "",
          "",
          "",
          "",
          "",
          "",
          "",
          "",
          "",
          "",
          "",
          "",
          "",
          "",
          "",
          "",
          "",
          "",
          "",
          "",
          "",
          "",
          "",
          "",
          "",
          "",
          "",
          "",
          "",
          "",
          "",
          "",
          "",
          "",
          "",
          "",
          "",
          "",
          "-556",
          "-1500",
          "-1969",
          "-2066",
          "-1992",
          "-1992",
          "-1975",
          "-2025",
          "-2175",
          "-2175",
          "-2152",
          "-2211",
          "-2192",
          "-1938",
          "-1377",
          "-900",
          "-929",
          "-938",
          "-1008",
          "-1325",
          "-1700",
          "-1890",
          "-1923",
          "-1913",
          "-1953",
          "-2432",
          "-2769",
          "-2705",
          "-1943",
          "-615",
          "-25",
          "",
          "",
          "",
          "",
          "",
          "",
          "-308",
          "-798",
          "-910",
          "-900",
          "-810",
          "-446",
          "-30",
          "",
          "-425",
          "-1406",
          "-2100",
          "-2112",
          "-2138",
          "-2159",
          "-1763",
          "-1140",
          "-925",
          "-875",
          "-861",
          "-618",
          "-133",
          "-375",
          "-720",
          "-689",
          "-689",
          "-639",
          "-620",
          "-469",
          "-484",
          "-717",
          "-1043",
          "-1050",
          "-1000",
          "-500",
          "-100",
          "-25",
          "-516",
          "-984",
          "-989",
          "-1011",
          "-689",
          "-255",
          "",
          "",
          "",
          "",
          "",
          "-417",
          "-885",
          "-975",
          "-990",
          "-978",
          "-750",
          "-420",
          "-81",
          "-125",
          "-590",
          "-950",
          "-811",
          "-788",
          "-800",
          "-729",
          "-618",
          "-609",
          "-703",
          "-750"
        ],
        "reporting_facility": [
          "FlightAware ADS-B(MLA / LMML)",
          "FlightAware ADS-B(MLA / LMML)",
          "FlightAware ADS-B(MLA / LMML)",
          "FlightAware ADS-B(MLA / LMML)",
          "FlightAware ADS-B(MLA / LMML)",
          "FlightAware ADS-B(MLA / LMML)",
          "FlightAware ADS-B(CIY / LICB)",
          "FlightAware ADS-B(MLA / LMML)",
          "FlightAware ADS-B(MLA / LMML)",
          "FlightAware ADS-B(CIY / LICB)",
          "FlightAware ADS-B(CIY / LICB)",
          "FlightAware ADS-B(CIY / LICB)",
          "FlightAware ADS-B(MLA / LMML)",
          "FlightAware ADS-B(MLA / LMML)",
          "FlightAware ADS-B(MLA / LMML)",
          "FlightAware ADS-B(CTA / LICC)",
          "FlightAware ADS-B(MLA / LMML)",
          "FlightAware ADS-B(MLA / LMML)",
          "FlightAware ADS-B(MLA / LMML)",
          "FlightAware ADS-B(CTA / LICC)",
          "FlightAware ADS-B(CIY / LICB)",
          "FlightAware ADS-B(CTA / LICC)",
          "FlightAware ADS-B(CTA / LICC)",
          "FlightAware ADS-B(CIY / LICB)",
          "FlightAware ADS-B(MLA / LMML)",
          "FlightAware ADS-B(MLA / LMML)",
          "FlightAware ADS-B(REG / LICR)",
          "FlightAware ADS-B(CTA / LICC)",
          "FlightAware ADS-B(CTA / LICC)",
          "FlightAware ADS-B(CTA / LICC)",
          "FlightAware ADS-B(CTA / LICC)",
          "FlightAware ADS-B(CTA / LICC)",
          "FlightAware ADS-B(CTA / LICC)",
          "FlightAware ADS-B(MLA / LMML)",
          "FlightAware ADS-B(MLA / LMML)",
          "FlightAware ADS-B(CTA / LICC)",
          "FlightAware ADS-B(CTA / LICC)",
          "FlightAware ADS-B(MLA / LMML)",
          "FlightAware ADS-B(MLA / LMML)",
          "FlightAware ADS-B(MLA / LMML)",
          "FlightAware ADS-B(MLA / LMML)",
          "FlightAware ADS-B(MLA / LMML)",
          "FlightAware ADS-B(CTA / LICC)",
          "FlightAware ADS-B(MLA / LMML)",
          "FlightAware ADS-B(CTA / LICC)",
          "FlightAware ADS-B(CTA / LICC)",
          "FlightAware ADS-B(MLA / LMML)",
          "FlightAware ADS-B(GPA / LGRX)",
          "FlightAware ADS-B(MLA / LMML)",
          "FlightAware ADS-B(MLA / LMML)",
          "FlightAware ADS-B(CIY / LICB)",
          "FlightAware ADS-B(MLA / LMML)",
          "FlightAware ADS-B(CTA / LICC)",
          "FlightAware ADS-B(GPA / LGRX)",
          "FlightAware ADS-B(MLA / LMML)",
          "FlightAware ADS-B(CIY / LICB)",
          "FlightAware ADS-B(GPA / LGRX)",
          "FlightAware ADS-B(GPA / LGRX)",
          "FlightAware ADS-B(KLX / LGKL)",
          "FlightAware ADS-B(KLX / LGKL)",
          "FlightAware ADS-B(CIY / LICB)",
          "FlightAware ADS-B(KLX / LGKL)",
          "FlightAware ADS-B(KLX / LGKL)",
          "FlightAware ADS-B(GPA / LGRX)",
          "FlightAware ADS-B(CIY / LICB)",
          "FlightAware ADS-B(GPA / LGRX)",
          "FlightAware ADS-B(ZTH / LGZA)",
          "FlightAware ADS-B(ZTH / LGZA)",
          "FlightAware ADS-B(ZTH / LGZA)",
          "FlightAware ADS-B(ZTH / LGZA)",
          "FlightAware ADS-B(KLX / LGKL)",
          "FlightAware ADS-B(KLX / LGKL)",
          "FlightAware ADS-B(KLX / LGKL)",
          "FlightAware ADS-B(KLX / LGKL)",
          "FlightAware ADS-B(GPA / LGRX)",
          "FlightAware ADS-B(GPA / LGRX)",
          "FlightAware ADS-B(GPA / LGRX)",
          "FlightAware ADS-B(GPA / LGRX)",
          "FlightAware ADS-B(KLX / LGKL)",
          "FlightAware ADS-B(KLX / LGKL)",
          "FlightAware ADS-B(KLX / LGKL)",
          "FlightAware ADS-B(KLX / LGKL)",
          "FlightAware ADS-B(CIY / LICB)",
          "FlightAware ADS-B(GPA / LGRX)",
          "FlightAware ADS-B(GPA / LGRX)",
          "FlightAware ADS-B(CHQ / LGSA)",
          "FlightAware ADS-B(CHQ / LGSA)",
          "FlightAware ADS-B(GPA / LGRX)",
          "FlightAware ADS-B(GPA / LGRX)",
          "FlightAware ADS-B(GPA / LGRX)",
          "FlightAware ADS-B(LGEP)",
          "FlightAware ADS-B(GPA / LGRX)",
          "FlightAware ADS-B(GPA / LGRX)",
          "FlightAware ADS-B(GPA / LGRX)",
          "FlightAware ADS-B(KIT / LGKC)",
          "FlightAware ADS-B(ATH / LGAV)",
          "FlightAware ADS-B(KIT / LGKC)",
          "FlightAware ADS-B(KIT / LGKC)",
          "FlightAware ADS-B(KIT / LGKC)",
          "FlightAware ADS-B(KIT / LGKC)",
          "FlightAware ADS-B(KIT / LGKC)",
          "FlightAware ADS-B(KIT / LGKC)",
          "FlightAware ADS-B(KIT / LGKC)",
          "FlightAware ADS-B(CHQ / LGSA)",
          "FlightAware ADS-B(LGTT)",
          "FlightAware ADS-B(ATH / LGAV)",
          "FlightAware ADS-B(ATH / LGAV)",
          "FlightAware ADS-B(SKU / LGSY)",
          "FlightAware ADS-B(SKU / LGSY)",
          "FlightAware ADS-B(ATH / LGAV)",
          "FlightAware ADS-B(GPA / LGRX)",
          "FlightAware ADS-B(ATH / LGAV)",
          "FlightAware ADS-B(ATH / LGAV)",
          "FlightAware ADS-B(GPA / LGRX)",
          "FlightAware ADS-B(LGEL)",
          "FlightAware ADS-B(LGEP)",
          "FlightAware ADS-B(LGEL)",
          "FlightAware ADS-B(LGEL)",
          "FlightAware ADS-B(KIT / LGKC)",
          "FlightAware ADS-B(KIT / LGKC)",
          "FlightAware ADS-B(KIT / LGKC)",
          "FlightAware ADS-B(GPA / LGRX)",
          "FlightAware ADS-B(GPA / LGRX)",
          "FlightAware ADS-B(GPA / LGRX)",
          "FlightAware ADS-B(GPA / LGRX)",
          "FlightAware ADS-B(ATH / LGAV)",
          "FlightAware ADS-B(ATH / LGAV)",
          "FlightAware ADS-B(ATH / LGAV)",
          "FlightAware ADS-B(ATH / LGAV)",
          "FlightAware ADS-B(ATH / LGAV)",
          "FlightAware ADS-B(ATH / LGAV)",
          "FlightAware ADS-B(ATH / LGAV)",
          "FlightAware ADS-B(ATH / LGAV)",
          "FlightAware ADS-B(ATH / LGAV)",
          "FlightAware ADS-B(ATH / LGAV)",
          "FlightAware ADS-B(ATH / LGAV)",
          "FlightAware ADS-B(RHO / LGRP)",
          "FlightAware ADS-B(ATH / LGAV)",
          "FlightAware ADS-B(RHO / LGRP)",
          "FlightAware ADS-B(RHO / LGRP)",
          "FlightAware ADS-B(RHO / LGRP)",
          "FlightAware ADS-B(CHQ / LGSA)",
          "FlightAware ADS-B(CHQ / LGSA)",
          "FlightAware ADS-B(CHQ / LGSA)",
          "FlightAware ADS-B(CHQ / LGSA)",
          "FlightAware ADS-B(CHQ / LGSA)",
          "FlightAware ADS-B(CHQ / LGSA)",
          "FlightAware ADS-B(CHQ / LGSA)",
          "FlightAware ADS-B(CHQ / LGSA)",
          "FlightAware ADS-B(CHQ / LGSA)",
          "FlightAware ADS-B(CHQ / LGSA)",
          "FlightAware ADS-B(CHQ / LGSA)",
          "FlightAware ADS-B(JKH / LGHI)",
          "FlightAware ADS-B(JKH / LGHI)",
          "FlightAware ADS-B(KGS / LGKO)",
          "FlightAware ADS-B(KGS / LGKO)",
          "FlightAware ADS-B(ADB / LTBJ)",
          "FlightAware ADS-B(LTFA)",
          "FlightAware ADS-B(USQ / LTBO)",
          "FlightAware ADS-B(DLM / LTBS)",
          "FlightAware ADS-B(RHO / LGRP)",
          "FlightAware ADS-B(CHQ / LGSA)",
          "FlightAware ADS-B(JKH / LGHI)",
          "FlightAware ADS-B(JKH / LGHI)",
          "FlightAware ADS-B(HER / LGIR)",
          "FlightAware ADS-B(JKH / LGHI)",
          "FlightAware ADS-B(JKH / LGHI)",
          "FlightAware ADS-B(JKH / LGHI)",
          "FlightAware ADS-B(USQ / LTBO)",
          "FlightAware ADS-B(JKH / LGHI)",
          "FlightAware ADS-B(JKH / LGHI)",
          "FlightAware ADS-B(LTBD)",
          "FlightAware ADS-B(DLM / LTBS)",
          "FlightAware ADS-B(DLM / LTBS)",
          "FlightAware ADS-B(GZP / LTFG)",
          "FlightAware ADS-B(DLM / LTBS)",
          "FlightAware ADS-B(GZP / LTFG)",
          "FlightAware ADS-B(GZP / LTFG)",
          "FlightAware ADS-B(GZP / LTFG)",
          "FlightAware ADS-B(DLM / LTBS)",
          "FlightAware ADS-B(GZP / LTFG)",
          "FlightAware ADS-B(GZP / LTFG)",
          "FlightAware ADS-B(JKH / LGHI)",
          "FlightAware ADS-B(RHO / LGRP)",
          "FlightAware ADS-B(RHO / LGRP)",
          "FlightAware ADS-B(DLM / LTBS)",
          "FlightAware ADS-B(DLM / LTBS)",
          "FlightAware ADS-B(DLM / LTBS)",
          "FlightAware ADS-B(DLM / LTBS)",
          "FlightAware ADS-B(GZP / LTFG)",
          "FlightAware ADS-B(AYT / LTAI)",
          "FlightAware ADS-B(AYT / LTAI)",
          "FlightAware ADS-B(NIC / LCNC)",
          "FlightAware ADS-B(AYT / LTAI)",
          "FlightAware ADS-B(ECN / LCEN)",
          "FlightAware ADS-B(AYT / LTAI)",
          "FlightAware ADS-B(GZP / LTFG)",
          "FlightAware ADS-B(AYT / LTAI)",
          "FlightAware ADS-B(GZP / LTFG)",
          "FlightAware ADS-B(GZP / LTFG)",
          "FlightAware ADS-B(ECN / LCEN)",
          "FlightAware ADS-B(GZP / LTFG)",
          "FlightAware ADS-B(AYT / LTAI)",
          "FlightAware ADS-B(ECN / LCEN)",
          "FlightAware ADS-B(AYT / LTAI)",
          "FlightAware ADS-B(AYT / LTAI)",
          "FlightAware ADS-B(AYT / LTAI)",
          "FlightAware ADS-B(AYT / LTAI)",
          "FlightAware ADS-B(AYT / LTAI)",
          "FlightAware ADS-B(AYT / LTAI)",
          "FlightAware ADS-B(AYT / LTAI)",
          "FlightAware ADS-B(AYT / LTAI)",
          "FlightAware ADS-B(GZP / LTFG)",
          "FlightAware ADS-B(AYT / LTAI)",
          "FlightAware ADS-B(AYT / LTAI)",
          "FlightAware ADS-B(AYT / LTAI)",
          "FlightAware ADS-B(AYT / LTAI)",
          "FlightAware ADS-B(AYT / LTAI)",
          "FlightAware ADS-B(AYT / LTAI)",
          "FlightAware ADS-B(AYT / LTAI)",
          "FlightAware ADS-B(AYT / LTAI)",
          "FlightAware ADS-B(GZP / LTFG)",
          "FlightAware ADS-B(AYT / LTAI)",
          "FlightAware ADS-B(AYT / LTAI)",
          "FlightAware ADS-B(AYT / LTAI)",
          "FlightAware ADS-B(AYT / LTAI)",
          "FlightAware ADS-B(AYT / LTAI)",
          "FlightAware ADS-B(GZP / LTFG)",
          "FlightAware ADS-B(AYT / LTAI)",
          "FlightAware ADS-B(AYT / LTAI)",
          "FlightAware ADS-B(NIC / LCNC)",
          "FlightAware ADS-B(NIC / LCNC)",
          "FlightAware ADS-B(AYT / LTAI)",
          "FlightAware ADS-B(AYT / LTAI)",
          "FlightAware ADS-B(AYT / LTAI)",
          "FlightAware ADS-B(NIC / LCNC)",
          "FlightAware ADS-B(GZP / LTFG)",
          "FlightAware ADS-B(AYT / LTAI)",
          "FlightAware ADS-B(NIC / LCNC)",
          "FlightAware ADS-B(AYT / LTAI)",
          "FlightAware ADS-B(AYT / LTAI)",
          "FlightAware ADS-B(GZP / LTFG)",
          "FlightAware ADS-B(AYT / LTAI)",
          "FlightAware ADS-B(AYT / LTAI)",
          "FlightAware ADS-B(AYT / LTAI)",
          "FlightAware ADS-B(NIC / LCNC)",
          "FlightAware ADS-B(NIC / LCNC)",
          "FlightAware ADS-B(AYT / LTAI)",
          "FlightAware ADS-B(AYT / LTAI)",
          "FlightAware ADS-B(AYT / LTAI)",
          "FlightAware ADS-B(AYT / LTAI)",
          "FlightAware ADS-B(AYT / LTAI)",
          "FlightAware ADS-B(AYT / LTAI)",
          "FlightAware ADS-B(AYT / LTAI)",
          "Surface and Near-Surface",
          "FlightAware ADS-B(AYT / LTAI)",
          "FlightAware ADS-B(AYT / LTAI)",
          "FlightAware ADS-B(AYT / LTAI)",
          "FlightAware ADS-B(GZP / LTFG)",
          "FlightAware ADS-B(AYT / LTAI)"
        ]
      }
    }
  ]
}