{
  "type": "FeatureCollection",
  "features": [
    {
      "type": "Feature",
      "geometry": {
        "type": "LineString",
        "coordinates": [
          [
            -5.8896,
            37.4179
          ],
          [
            -5.8896,
            37.4179
          ],
          [
            -5.8777,
            37.4177
          ],
          [
            -5.8618,
            37.4174
          ],
          [
            -5.8428,
            37.4174
          ],
          [
            -5.8246,
            37.4176
          ],
          [
            -5.8073,
            37.4108
          ],
          [
            -5.8023,
            37.3952
          ],
          [
            -5.8142,
            37.3816
          ],
          [
            -5.8235,
            37.3729
          ],
          [
            -5.8449,
            37.3532
          ],
          [
            -5.8699,
            37.3297
          ],
          [
            -5.8991,
            37.3021
          ],
          [
            -5.933,
            37.27
          ],
          [
            -5.9712,
            37.2333
          ],
          [
            -6.0103,
            37.1944
          ],
          [
            -6.0545,
            37.1505
          ],
          [
            -6.0881,
            37.1211
          ],
          [
            -6.1305,
            37.105
          ],
          [
            -6.1836,
            37.0982
          ],
          [
            -6.2698,
            37.0987
          ],
          [
            -6.3386,
            37.1018
          ],
          [
            -6.41,
            37.1037
          ],
          [
            -6.4588,
            37.0977
          ],
          [
            -6.546,
            37.0723
          ],
          [
            -6.6133,
            37.0508
          ],
          [
            -6.6813,
            37.0303
          ],
          [
            -6.7495,
            37.0097
          ],
          [
            -6.8195,
            36.9884
          ],
          [
            -6.8858,
            36.9684
          ],
          [
            -6.9524,
            36.9483
          ],
          [
            -7.0211,
            36.9274
          ],
          [
            -7.0906,
            36.9062
          ],
          [
            -7.1571,
            36.886
          ],
          [
            -7.2278,
            36.8643
          ],
          [
            -7.2961,
            36.8434
          ],
          [
            -7.3651,
            36.8223
          ],
          [
            -7.4515,
            36.7852
          ],
          [
            -7.5177,
            36.753
          ],
          [
            -7.5816,
            36.7223
          ],
          [
            -7.6433,
            36.6928
          ],
          [
            -7.7073,
            36.663
          ],
          [
            -7.7677,
            36.6358
          ],
          [
            -7.8097,
            36.6171
          ],
          [
            -7.8891,
            36.5623
          ],
          [
            -7.9406,
            36.5206
          ],
          [
            -7.992,
            36.4794
          ],
          [
            -8.0453,
            36.4375
          ],
          [
            -8.0975,
            36.3961
          ],
          [
            -8.15,
            36.3544
          ],
          [
            -8.2035,
            36.3121
          ],
          [
            -8.2552,
            36.271
          ],
          [
            -8.3089,
            36.2283
          ],
          [
            -8.3622,
            36.1859
          ],
          [
            -8.4166,
            36.1425
          ],
          [
            -8.4661,
            36.103
          ],
          [
            -8.5184,
            36.0612
          ],
          [
            -8.5711,
            36.019
          ],
          [
            -8.6211,
            35.9788
          ],
          [
            -8.6753,
            35.9353
          ],
          [
            -8.7265,
            35.894
          ],
          [
            -8.7769,
            35.8535
          ],
          [
            -8.8307,
            35.81
          ],
          [
            -8.8826,
            35.768
          ],
          [
            -8.9344,
            35.726
          ],
          [
            -8.9869,
            35.6835
          ],
          [
            -9.0418,
            35.6388
          ],
          [
            -9.0948,
            35.5957
          ],
          [
            -9.1458,
            35.5541
          ],
          [
            -9.2011,
            35.509
          ],
          [
            -9.2574,
            35.463
          ],
          [
            -9.3123,
            35.418
          ],
          [
            -9.3662,
            35.3737
          ],
          [
            -9.4184,
            35.3307
          ],
          [
            -9.4675,
            35.2904
          ],
          [
            -9.5194,
            35.2474
          ],
          [
            -9.5711,
            35.2049
          ],
          [
            -9.6236,
            35.1614
          ],
          [
            -9.6758,
            35.1182
          ],
          [
            -9.7276,
            35.0752
          ],
          [
            -9.7797,
            35.0319
          ],
          [
            -9.8377,
            34.9835
          ],
          [
            -9.8892,
            34.9406
          ],
          [
            -9.9406,
            34.8976
          ],
          [
            -9.9984,
            34.8493
          ],
          [
            -10.0497,
            34.8064
          ],
          [
            -10.0993,
            34.7647
          ],
          [
            -10.152,
            34.7204
          ],
          [
            -10.203,
            34.6775
          ],
          [
            -10.2546,
            34.634
          ],
          [
            -10.3041,
            34.5922
          ],
          [
            -10.3567,
            34.5477
          ],
          [
            -10.4085,
            34.5038
          ],
          [
            -10.4583,
            34.4616
          ],
          [
            -10.51,
            34.4177
          ],
          [
            -10.588,
            34.3512
          ],
          [
            -10.6451,
            34.3025
          ],
          [
            -10.7063,
            34.2503
          ],
          [
            -10.7637,
            34.2011
          ],
          [
            -10.8157,
            34.1565
          ],
          [
            -10.8666,
            34.1128
          ],
          [
            -10.9542,
            34.0375
          ],
          [
            -11.004,
            33.9945
          ],
          [
            -11.0534,
            33.9517
          ],
          [
            -11.1035,
            33.9086
          ],
          [
            -11.2034,
            33.8219
          ],
          [
            -11.26,
            33.7728
          ],
          [
            -11.3537,
            33.6912
          ],
          [
            -11.402724752475248,
            33.64803415841585
          ],
          [
            -11.451749504950495,
            33.604868316831684
          ],
          [
            -11.500774257425743,
            33.56170247524753
          ],
          [
            -11.54979900990099,
            33.518536633663366
          ],
          [
            -11.598823762376238,
            33.47537079207921
          ],
          [
            -11.647848514851486,
            33.432204950495056
          ],
          [
            -11.696873267326733,
            33.38903910891089
          ],
          [
            -11.74589801980198,
            33.34587326732674
          ],
          [
            -11.794922772277227,
            33.302707425742575
          ],
          [
            -11.843947524752474,
            33.25954158415842
          ],
          [
            -11.892972277227722,
            33.21637574257426
          ],
          [
            -11.94199702970297,
            33.1732099009901
          ],
          [
            -11.991021782178217,
            33.13004405940595
          ],
          [
            -12.0139,
            33.1099
          ],
          [
            -12.062126415094339,
            33.06688113207547
          ],
          [
            -12.11035283018868,
            33.02386226415095
          ],
          [
            -12.158579245283018,
            32.98084339622642
          ],
          [
            -12.20680566037736,
            32.93782452830189
          ],
          [
            -12.255032075471698,
            32.89480566037736
          ],
          [
            -12.2695,
            32.8819
          ],
          [
            -12.317795336787565,
            32.83845440414508
          ],
          [
            -12.36609067357513,
            32.795008808290156
          ],
          [
            -12.414386010362694,
            32.75156321243524
          ],
          [
            -12.462681347150259,
            32.70811761658031
          ],
          [
            -12.510976683937823,
            32.66467202072539
          ],
          [
            -12.559272020725388,
            32.62122642487047
          ],
          [
            -12.5802,
            32.6024
          ],
          [
            -12.7271,
            32.4693
          ],
          [
            -12.8143,
            32.39
          ],
          [
            -12.9223,
            32.2917
          ],
          [
            -13.0158,
            32.2062
          ],
          [
            -13.0678,
            32.1586
          ],
          [
            -13.1166,
            32.1139
          ],
          [
            -13.1654,
            32.0691
          ],
          [
            -13.2141,
            32.0242
          ],
          [
            -13.2763,
            31.9668
          ],
          [
            -13.3595,
            31.8901
          ],
          [
            -13.4085,
            31.8448
          ],
          [
            -13.4823,
            31.7763
          ],
          [
            -13.5304,
            31.7318
          ],
          [
            -13.5799,
            31.6857
          ],
          [
            -13.6285,
            31.6406
          ],
          [
            -13.6773,
            31.5951
          ],
          [
            -13.7247,
            31.5507
          ],
          [
            -13.7734,
            31.5053
          ],
          [
            -13.822,
            31.4599
          ],
          [
            -13.8688,
            31.4159
          ],
          [
            -13.9324,
            31.3563
          ],
          [
            -13.9926,
            31.2996
          ],
          [
            -14.0467,
            31.2488
          ],
          [
            -14.1031,
            31.1957
          ],
          [
            -14.1504,
            31.1508
          ],
          [
            -14.1974,
            31.1064
          ],
          [
            -14.2446,
            31.0617
          ],
          [
            -14.2918,
            31.0169
          ],
          [
            -14.336,
            30.975
          ],
          [
            -14.3849,
            30.9285
          ],
          [
            -14.4366,
            30.8742
          ],
          [
            -14.4812,
            30.8189
          ],
          [
            -14.5198,
            30.7695
          ],
          [
            -14.5612,
            30.7184
          ],
          [
            -14.602,
            30.6679
          ],
          [
            -14.6424,
            30.6175
          ],
          [
            -14.6826,
            30.5676
          ],
          [
            -14.7219,
            30.5184
          ],
          [
            -14.7635,
            30.4664
          ],
          [
            -14.8043,
            30.4153
          ],
          [
            -14.8441,
            30.3656
          ],
          [
            -14.884,
            30.3153
          ],
          [
            -14.9277,
            30.2603
          ],
          [
            -14.9681,
            30.2098
          ],
          [
            -15.0093,
            30.1583
          ],
          [
            -15.0498,
            30.1075
          ],
          [
            -15.0925,
            30.0537
          ],
          [
            -15.1354,
            29.9999
          ],
          [
            -15.1847,
            29.9382
          ],
          [
            -15.2258,
            29.8869
          ],
          [
            -15.263,
            29.8387
          ],
          [
            -15.3026,
            29.7879
          ],
          [
            -15.3419,
            29.7377
          ],
          [
            -15.3795,
            29.6893
          ],
          [
            -15.4164,
            29.6419
          ],
          [
            -15.455,
            29.5925
          ],
          [
            -15.4916,
            29.5451
          ],
          [
            -15.529,
            29.4971
          ],
          [
            -15.5671,
            29.4481
          ],
          [
            -15.6057,
            29.398
          ],
          [
            -15.6451,
            29.347
          ],
          [
            -15.6844,
            29.2964
          ],
          [
            -15.7235,
            29.2462
          ],
          [
            -15.764,
            29.1939
          ],
          [
            -15.8037,
            29.1494
          ],
          [
            -15.8588,
            29.1097
          ],
          [
            -15.9068,
            29.0788
          ],
          [
            -15.9571,
            29.0455
          ],
          [
            -16.0088,
            29.0109
          ],
          [
            -16.06,
            28.9766
          ],
          [
            -16.1131,
            28.9406
          ],
          [
            -16.1622,
            28.9074
          ],
          [
            -16.2138,
            28.8726
          ],
          [
            -16.2639,
            28.8386
          ],
          [
            -16.3126,
            28.8055
          ],
          [
            -16.3599,
            28.7734
          ],
          [
            -16.3867,
            28.7551
          ],
          [
            -16.4278,
            28.7271
          ],
          [
            -16.4699,
            28.6985
          ],
          [
            -16.5073,
            28.673
          ],
          [
            -16.5418,
            28.6495
          ],
          [
            -16.5565,
            28.6358
          ],
          [
            -16.5598,
            28.6153
          ],
          [
            -16.5521,
            28.5957
          ],
          [
            -16.5362,
            28.5666
          ],
          [
            -16.5171,
            28.5471
          ],
          [
            -16.5022,
            28.5366
          ],
          [
            -16.4712,
            28.5256
          ],
          [
            -16.4426,
            28.5162
          ],
          [
            -16.416,
            28.5073
          ],
          [
            -16.4019,
            28.5027
          ],
          [
            -16.3901,
            28.4987
          ],
          [
            -16.379,
            28.495
          ],
          [
            -16.3666,
            28.4909
          ]
        ]
      },
      "properties": {
        "time_europe_berlin": [
          "09.12.2025 08:37:10",
          "09.12.2025 08:37:10",
          "09.12.2025 08:37:23",
          "09.12.2025 08:37:39",
          "09.12.2025 08:37:55",
          "09.12.2025 08:38:11",
          "09.12.2025 08:38:29",
          "09.12.2025 08:38:48",
          "09.12.2025 08:39:08",
          "09.12.2025 08:39:24",
          "09.12.2025 08:39:54",
          "09.12.2025 08:40:24",
          "09.12.2025 08:40:54",
          "09.12.2025 08:41:24",
          "09.12.2025 08:41:54",
          "09.12.2025 08:42:24",
          "09.12.2025 08:42:54",
          "09.12.2025 08:43:15",
          "09.12.2025 08:43:36",
          "09.12.2025 08:43:59",
          "09.12.2025 08:44:37",
          "09.12.2025 08:45:07",
          "09.12.2025 08:45:37",
          "09.12.2025 08:45:58",
          "09.12.2025 08:46:38",
          "09.12.2025 08:47:08",
          "09.12.2025 08:47:38",
          "09.12.2025 08:48:08",
          "09.12.2025 08:48:38",
          "09.12.2025 08:49:08",
          "09.12.2025 08:49:38",
          "09.12.2025 08:50:08",
          "09.12.2025 08:50:38",
          "09.12.2025 08:51:08",
          "09.12.2025 08:51:38",
          "09.12.2025 08:52:08",
          "09.12.2025 08:52:38",
          "09.12.2025 08:53:17",
          "09.12.2025 08:53:47",
          "09.12.2025 08:54:18",
          "09.12.2025 08:54:48",
          "09.12.2025 08:55:18",
          "09.12.2025 08:55:48",
          "09.12.2025 08:56:07",
          "09.12.2025 08:56:51",
          "09.12.2025 08:57:22",
          "09.12.2025 08:57:52",
          "09.12.2025 08:58:22",
          "09.12.2025 08:58:52",
          "09.12.2025 08:59:22",
          "09.12.2025 08:59:52",
          "09.12.2025 09:00:22",
          "09.12.2025 09:00:52",
          "09.12.2025 09:01:22",
          "09.12.2025 09:01:52",
          "09.12.2025 09:02:22",
          "09.12.2025 09:02:52",
          "09.12.2025 09:03:22",
          "09.12.2025 09:03:52",
          "09.12.2025 09:04:23",
          "09.12.2025 09:04:54",
          "09.12.2025 09:05:24",
          "09.12.2025 09:05:54",
          "09.12.2025 09:06:24",
          "09.12.2025 09:06:54",
          "09.12.2025 09:07:24",
          "09.12.2025 09:07:55",
          "09.12.2025 09:08:25",
          "09.12.2025 09:08:55",
          "09.12.2025 09:09:26",
          "09.12.2025 09:09:57",
          "09.12.2025 09:10:27",
          "09.12.2025 09:10:58",
          "09.12.2025 09:11:28",
          "09.12.2025 09:11:58",
          "09.12.2025 09:12:28",
          "09.12.2025 09:12:58",
          "09.12.2025 09:13:28",
          "09.12.2025 09:13:58",
          "09.12.2025 09:14:28",
          "09.12.2025 09:14:58",
          "09.12.2025 09:15:32",
          "09.12.2025 09:16:03",
          "09.12.2025 09:16:33",
          "09.12.2025 09:17:06",
          "09.12.2025 09:17:36",
          "09.12.2025 09:18:06",
          "09.12.2025 09:18:36",
          "09.12.2025 09:19:06",
          "09.12.2025 09:19:36",
          "09.12.2025 09:20:06",
          "09.12.2025 09:20:37",
          "09.12.2025 09:21:07",
          "09.12.2025 09:21:37",
          "09.12.2025 09:22:07",
          "09.12.2025 09:22:54",
          "09.12.2025 09:23:27",
          "09.12.2025 09:24:04",
          "09.12.2025 09:24:38",
          "09.12.2025 09:25:08",
          "09.12.2025 09:25:38",
          "09.12.2025 09:26:31",
          "09.12.2025 09:27:01",
          "09.12.2025 09:27:31",
          "09.12.2025 09:28:01",
          "09.12.2025 09:29:01",
          "09.12.2025 09:29:35",
          "09.12.2025 09:30:31",
          "09.12.2025 09:31:01",
          "09.12.2025 09:31:31",
          "09.12.2025 09:32:01",
          "09.12.2025 09:32:31",
          "09.12.2025 09:33:01",
          "09.12.2025 09:33:31",
          "09.12.2025 09:34:01",
          "09.12.2025 09:34:31",
          "09.12.2025 09:35:01",
          "09.12.2025 09:35:31",
          "09.12.2025 09:36:01",
          "09.12.2025 09:36:31",
          "09.12.2025 09:37:01",
          "09.12.2025 09:37:15",
          "09.12.2025 09:37:45",
          "09.12.2025 09:38:15",
          "09.12.2025 09:38:45",
          "09.12.2025 09:39:15",
          "09.12.2025 09:39:45",
          "09.12.2025 09:39:54",
          "09.12.2025 09:40:24",
          "09.12.2025 09:40:54",
          "09.12.2025 09:41:24",
          "09.12.2025 09:41:54",
          "09.12.2025 09:42:24",
          "09.12.2025 09:42:54",
          "09.12.2025 09:43:07",
          "09.12.2025 09:44:38",
          "09.12.2025 09:45:32",
          "09.12.2025 09:46:38",
          "09.12.2025 09:47:37",
          "09.12.2025 09:48:09",
          "09.12.2025 09:48:39",
          "09.12.2025 09:49:09",
          "09.12.2025 09:49:39",
          "09.12.2025 09:50:18",
          "09.12.2025 09:51:10",
          "09.12.2025 09:51:40",
          "09.12.2025 09:52:26",
          "09.12.2025 09:52:56",
          "09.12.2025 09:53:26",
          "09.12.2025 09:53:56",
          "09.12.2025 09:54:27",
          "09.12.2025 09:54:57",
          "09.12.2025 09:55:27",
          "09.12.2025 09:55:57",
          "09.12.2025 09:56:27",
          "09.12.2025 09:57:07",
          "09.12.2025 09:57:45",
          "09.12.2025 09:58:19",
          "09.12.2025 09:58:55",
          "09.12.2025 09:59:25",
          "09.12.2025 09:59:55",
          "09.12.2025 10:00:25",
          "09.12.2025 10:00:55",
          "09.12.2025 10:01:25",
          "09.12.2025 10:01:55",
          "09.12.2025 10:02:29",
          "09.12.2025 10:03:02",
          "09.12.2025 10:03:32",
          "09.12.2025 10:04:03",
          "09.12.2025 10:04:33",
          "09.12.2025 10:05:03",
          "09.12.2025 10:05:33",
          "09.12.2025 10:06:03",
          "09.12.2025 10:06:33",
          "09.12.2025 10:07:03",
          "09.12.2025 10:07:33",
          "09.12.2025 10:08:03",
          "09.12.2025 10:08:34",
          "09.12.2025 10:09:04",
          "09.12.2025 10:09:34",
          "09.12.2025 10:10:04",
          "09.12.2025 10:10:36",
          "09.12.2025 10:11:08",
          "09.12.2025 10:11:44",
          "09.12.2025 10:12:15",
          "09.12.2025 10:12:45",
          "09.12.2025 10:13:16",
          "09.12.2025 10:13:46",
          "09.12.2025 10:14:16",
          "09.12.2025 10:14:46",
          "09.12.2025 10:15:17",
          "09.12.2025 10:15:47",
          "09.12.2025 10:16:17",
          "09.12.2025 10:16:47",
          "09.12.2025 10:17:17",
          "09.12.2025 10:17:47",
          "09.12.2025 10:18:17",
          "09.12.2025 10:18:47",
          "09.12.2025 10:19:17",
          "09.12.2025 10:19:46",
          "09.12.2025 10:20:17",
          "09.12.2025 10:20:47",
          "09.12.2025 10:21:17",
          "09.12.2025 10:21:47",
          "09.12.2025 10:22:17",
          "09.12.2025 10:22:47",
          "09.12.2025 10:23:18",
          "09.12.2025 10:23:48",
          "09.12.2025 10:24:18",
          "09.12.2025 10:24:48",
          "09.12.2025 10:25:18",
          "09.12.2025 10:25:35",
          "09.12.2025 10:26:05",
          "09.12.2025 10:26:35",
          "09.12.2025 10:27:05",
          "09.12.2025 10:27:35",
          "09.12.2025 10:27:51",
          "09.12.2025 10:28:09",
          "09.12.2025 10:28:27",
          "09.12.2025 10:28:57",
          "09.12.2025 10:29:21",
          "09.12.2025 10:29:37",
          "09.12.2025 10:30:07",
          "09.12.2025 10:30:37",
          "09.12.2025 10:31:05",
          "09.12.2025 10:31:22",
          "09.12.2025 10:31:38",
          "09.12.2025 10:31:55",
          "09.12.2025 10:32:13"
        ],
        "course_deg_clockwise_from_north": [
          91,
          91,
          91,
          91,
          89,
          95,
          137,
          192,
          222,
          220,
          221,
          220,
          220,
          220,
          219,
          219,
          219,
          232,
          254,
          266,
          273,
          273,
          271,
          255,
          248,
          249,
          250,
          249,
          249,
          249,
          250,
          249,
          249,
          249,
          249,
          249,
          249,
          239,
          239,
          239,
          240,
          240,
          242,
          240,
          226,
          225,
          226,
          226,
          226,
          226,
          226,
          226,
          226,
          226,
          226,
          226,
          226,
          225,
          225,
          225,
          225,
          225,
          225,
          225,
          225,
          225,
          225,
          225,
          225,
          225,
          225,
          225,
          225,
          225,
          225,
          225,
          225,
          225,
          225,
          225,
          225,
          225,
          224,
          224,
          225,
          224,
          224,
          224,
          224,
          224,
          224,
          224,
          224,
          224,
          224,
          224,
          224,
          224,
          224,
          224,
          224,
          224,
          224,
          224,
          224,
          224,
          224,
          224,
          224,
          224,
          224,
          224,
          224,
          224,
          223,
          223,
          223,
          223,
          223,
          223,
          223,
          223,
          223,
          223,
          224,
          224,
          224,
          224,
          224,
          224,
          224,
          223,
          223,
          223,
          223,
          223,
          223,
          223,
          223,
          223,
          223,
          223,
          223,
          223,
          223,
          223,
          223,
          223,
          223,
          223,
          222,
          223,
          223,
          223,
          222,
          222,
          222,
          222,
          222,
          222,
          222,
          222,
          222,
          222,
          222,
          216,
          214,
          214,
          215,
          215,
          215,
          215,
          215,
          215,
          215,
          215,
          215,
          215,
          215,
          215,
          215,
          215,
          215,
          215,
          214,
          214,
          214,
          214,
          214,
          214,
          214,
          214,
          215,
          214,
          214,
          214,
          214,
          214,
          214,
          226,
          233,
          234,
          232,
          233,
          232,
          233,
          233,
          233,
          232,
          232,
          232,
          232,
          232,
          232,
          232,
          232,
          208,
          168,
          158,
          151,
          134,
          120,
          110,
          111,
          111,
          111,
          111,
          111,
          110
        ],
        "speed_kts": [
          150,
          150,
          163,
          183,
          197,
          200,
          190,
          178,
          169,
          170,
          203,
          240,
          281,
          319,
          355,
          386,
          399,
          401,
          399,
          397,
          392,
          401,
          406,
          408,
          413,
          417,
          420,
          422,
          421,
          420,
          422,
          424,
          426,
          424,
          423,
          427,
          432,
          436,
          435,
          428,
          420,
          413,
          407,
          412,
          419,
          423,
          426,
          428,
          431,
          432,
          434,
          434,
          434,
          432,
          431,
          428,
          425,
          424,
          422,
          420,
          419,
          424,
          427,
          430,
          433,
          436,
          439,
          441,
          443,
          443,
          441,
          440,
          438,
          437,
          436,
          436,
          436,
          435,
          435,
          435,
          435,
          434,
          434,
          434,
          434,
          433,
          433,
          433,
          434,
          434,
          434,
          434,
          433,
          434,
          434,
          434,
          434,
          435,
          435,
          436,
          434,
          434,
          434,
          433,
          431,
          431,
          431,
          429,
          429,
          429,
          429,
          429,
          429,
          429,
          428,
          428,
          428,
          428,
          428,
          428,
          428,
          428,
          428,
          428,
          429,
          429,
          429,
          429,
          429,
          430,
          430,
          430,
          431,
          431,
          431,
          434,
          434,
          436,
          437,
          436,
          437,
          437,
          437,
          437,
          437,
          438,
          440,
          439,
          440,
          439,
          439,
          439,
          439,
          438,
          437,
          436,
          435,
          435,
          434,
          433,
          432,
          432,
          433,
          434,
          435,
          438,
          439,
          440,
          441,
          441,
          441,
          442,
          442,
          444,
          444,
          445,
          446,
          446,
          445,
          445,
          444,
          444,
          444,
          443,
          436,
          434,
          428,
          425,
          418,
          414,
          412,
          411,
          419,
          431,
          438,
          442,
          444,
          442,
          442,
          429,
          398,
          397,
          404,
          406,
          408,
          407,
          408,
          402,
          390,
          378,
          369,
          364,
          339,
          313,
          287,
          267,
          259,
          247,
          239,
          230,
          223,
          226,
          206,
          190,
          172,
          164,
          151,
          139,
          140
        ],
        "speed_mph": [
          173.0,
          173.0,
          188.0,
          211.0,
          227.0,
          230.0,
          219.0,
          205.0,
          194.0,
          196.0,
          234.0,
          276.0,
          323.0,
          367.0,
          409.0,
          444.0,
          459.0,
          461.0,
          459.0,
          457.0,
          451.0,
          461.0,
          467.0,
          470.0,
          475.0,
          480.0,
          483.0,
          486.0,
          484.0,
          483.0,
          486.0,
          488.0,
          490.0,
          488.0,
          487.0,
          491.0,
          497.0,
          502.0,
          501.0,
          493.0,
          483.0,
          475.0,
          468.0,
          474.0,
          482.0,
          487.0,
          490.0,
          493.0,
          496.0,
          497.0,
          499.0,
          499.0,
          499.0,
          497.0,
          496.0,
          493.0,
          489.0,
          488.0,
          486.0,
          483.0,
          482.0,
          488.0,
          491.0,
          495.0,
          498.0,
          502.0,
          505.0,
          507.0,
          510.0,
          510.0,
          507.0,
          506.0,
          504.0,
          503.0,
          502.0,
          502.0,
          502.0,
          501.0,
          501.0,
          501.0,
          501.0,
          499.0,
          499.0,
          499.0,
          499.0,
          498.0,
          498.0,
          498.0,
          499.0,
          499.0,
          499.0,
          499.0,
          498.0,
          499.0,
          499.0,
          499.0,
          499.0,
          501.0,
          501.0,
          502.0,
          499.0,
          499.0,
          499.0,
          498.0,
          496.0,
          496.0,
          496.0,
          494.0,
          494.0,
          494.0,
          494.0,
          494.0,
          494.0,
          494.0,
          493.0,
          493.0,
          493.0,
          493.0,
          493.0,
          493.0,
          493.0,
          493.0,
          493.0,
          493.0,
          494.0,
          494.0,
          494.0,
          494.0,
          494.0,
          495.0,
          495.0,
          495.0,
          496.0,
          496.0,
          496.0,
          499.0,
          499.0,
          502.0,
          503.0,
          502.0,
          503.0,
          503.0,
          503.0,
          503.0,
          503.0,
          504.0,
          506.0,
          505.0,
          506.0,
          505.0,
          505.0,
          505.0,
          505.0,
          504.0,
          503.0,
          502.0,
          501.0,
          501.0,
          499.0,
          498.0,
          497.0,
          497.0,
          498.0,
          499.0,
          501.0,
          504.0,
          505.0,
          506.0,
          507.0,
          507.0,
          507.0,
          509.0,
          509.0,
          511.0,
          511.0,
          512.0,
          513.0,
          513.0,
          512.0,
          512.0,
          511.0,
          511.0,
          511.0,
          510.0,
          502.0,
          499.0,
          493.0,
          489.0,
          481.0,
          476.0,
          474.0,
          473.0,
          482.0,
          496.0,
          504.0,
          509.0,
          511.0,
          509.0,
          509.0,
          494.0,
          458.0,
          457.0,
          465.0,
          467.0,
          470.0,
          468.0,
          470.0,
          463.0,
          449.0,
          435.0,
          425.0,
          419.0,
          390.0,
          360.0,
          330.0,
          307.0,
          298.0,
          284.0,
          275.0,
          265.0,
          257.0,
          260.0,
          237.0,
          219.0,
          198.0,
          189.0,
          174.0,
          160.0,
          161.0
        ],
        "altitude_ft": [
          250,
          250,
          825,
          1450,
          2175,
          2975,
          3925,
          4975,
          6250,
          7150,
          8500,
          9800,
          11075,
          12375,
          13600,
          14850,
          16475,
          17625,
          19100,
          20575,
          22900,
          24150,
          25400,
          26275,
          27800,
          28775,
          29750,
          30750,
          31750,
          32725,
          33550,
          34300,
          35050,
          35750,
          36525,
          36975,
          37000,
          37000,
          37425,
          38175,
          38900,
          39675,
          40375,
          40500,
          40900,
          41175,
          41400,
          41650,
          41925,
          42175,
          42425,
          42700,
          42950,
          43200,
          43475,
          43725,
          43975,
          44225,
          44475,
          44750,
          44975,
          45000,
          45000,
          45000,
          45000,
          45000,
          45000,
          45000,
          45000,
          45000,
          45000,
          45000,
          45000,
          45000,
          45000,
          45000,
          45000,
          45000,
          45000,
          45000,
          45000,
          45000,
          45000,
          45000,
          45000,
          45000,
          45000,
          45000,
          45000,
          45000,
          45000,
          45000,
          45000,
          45000,
          45000,
          45000,
          45000,
          45000,
          45000,
          45000,
          45000,
          45000,
          45000,
          45000,
          45000,
          45000,
          45000,
          45000,
          45000,
          45000,
          45000,
          45000,
          45000,
          45000,
          45000,
          45000,
          45000,
          45000,
          45000,
          45000,
          45000,
          45000,
          45000,
          45000,
          45000,
          45000,
          45000,
          45000,
          45000,
          45000,
          45000,
          45000,
          45000,
          45000,
          45000,
          45000,
          45000,
          45000,
          45000,
          45000,
          45000,
          45000,
          45000,
          45000,
          45000,
          45000,
          45000,
          45000,
          45000,
          45000,
          45000,
          45000,
          45000,
          45000,
          45000,
          45000,
          45000,
          45000,
          45000,
          45000,
          45000,
          45000,
          45000,
          45000,
          45000,
          45000,
          45000,
          45000,
          45000,
          45000,
          45000,
          45000,
          45000,
          45000,
          45000,
          45000,
          45000,
          45000,
          45000,
          45000,
          45000,
          45000,
          45000,
          44750,
          43525,
          42350,
          41050,
          39750,
          38500,
          37225,
          35750,
          34375,
          33075,
          31800,
          30575,
          29300,
          28050,
          26825,
          25525,
          24750,
          23175,
          21825,
          20650,
          19375,
          18100,
          16975,
          15675,
          14450,
          13175,
          11950,
          10700,
          10025,
          8825,
          7700,
          6900,
          6150,
          5775,
          5400,
          4950,
          4200,
          3750,
          3700,
          3700,
          3350,
          2900,
          2600,
          2425,
          2250,
          2000
        ],
        "vertical_rate_fpm": [
          0.0,
          2654.0,
          2483.0,
          2531.0,
          2859.0,
          3088.0,
          3243.0,
          3577.0,
          3625.0,
          2935.0,
          2650.0,
          2575.0,
          2575.0,
          2525.0,
          2475.0,
          2875.0,
          3265.0,
          3750.0,
          4023.0,
          3738.0,
          3154.0,
          2500.0,
          2500.0,
          2361.0,
          2143.0,
          1950.0,
          1975.0,
          2000.0,
          1975.0,
          1800.0,
          1575.0,
          1500.0,
          1450.0,
          1475.0,
          1225.0,
          475.0,
          22.0,
          370.0,
          1156.0,
          1451.0,
          1500.0,
          1475.0,
          1010.0,
          500.0,
          540.0,
          492.0,
          475.0,
          525.0,
          525.0,
          500.0,
          525.0,
          525.0,
          500.0,
          525.0,
          525.0,
          500.0,
          500.0,
          500.0,
          516.0,
          484.0,
          246.0,
          25.0,
          0.0,
          0.0,
          0.0,
          0.0,
          0.0,
          0.0,
          0.0,
          0.0,
          0.0,
          0.0,
          0.0,
          0.0,
          0.0,
          0.0,
          0.0,
          0.0,
          0.0,
          0.0,
          0.0,
          0.0,
          0.0,
          0.0,
          0.0,
          0.0,
          0.0,
          0.0,
          0.0,
          0.0,
          0.0,
          0.0,
          0.0,
          0.0,
          0.0,
          0.0,
          0.0,
          0.0,
          0.0,
          0.0,
          0.0,
          0.0,
          0.0,
          0.0,
          0.0,
          0.0,
          0.0,
          0.0,
          0.0,
          0.0,
          0.0,
          0.0,
          0.0,
          0.0,
          0.0,
          0.0,
          0.0,
          0.0,
          0.0,
          0.0,
          0.0,
          0.0,
          0.0,
          0.0,
          0.0,
          0.0,
          0.0,
          0.0,
          0.0,
          0.0,
          0.0,
          0.0,
          0.0,
          0.0,
          0.0,
          0.0,
          0.0,
          0.0,
          0.0,
          0.0,
          0.0,
          0.0,
          0.0,
          0.0,
          0.0,
          0.0,
          0.0,
          0.0,
          0.0,
          0.0,
          0.0,
          0.0,
          0.0,
          0.0,
          0.0,
          0.0,
          0.0,
          0.0,
          0.0,
          0.0,
          0.0,
          0.0,
          0.0,
          0.0,
          0.0,
          0.0,
          0.0,
          0.0,
          0.0,
          0.0,
          0.0,
          0.0,
          0.0,
          0.0,
          0.0,
          0.0,
          0.0,
          0.0,
          0.0,
          0.0,
          0.0,
          0.0,
          -221.0,
          -1321.0,
          -2361.0,
          -2434.0,
          -2557.0,
          -2550.0,
          -2525.0,
          -2705.0,
          -2803.0,
          -2675.0,
          -2575.0,
          -2500.0,
          -2500.0,
          -2525.0,
          -2475.0,
          -2525.0,
          -2110.0,
          -2350.0,
          -2877.0,
          -2525.0,
          -2450.0,
          -2550.0,
          -2400.0,
          -2385.0,
          -2484.0,
          -2500.0,
          -2500.0,
          -2475.0,
          -2457.0,
          -2394.0,
          -2325.0,
          -1925.0,
          -1550.0,
          -1467.0,
          -1324.0,
          -1375.0,
          -1500.0,
          -1333.0,
          -750.0,
          -65.0,
          -350.0,
          -828.0,
          -1000.0,
          -864.0,
          -636.0,
          -729.0,
          -833.0
        ]
      }
    }
  ]
}