{
  "type": "FeatureCollection",
  "features": [
    {
      "type": "Feature",
      "geometry": {
        "type": "LineString",
        "coordinates": [
          [
            11.7516,
            48.3411
          ],
          [
            11.7516,
            48.3411
          ],
          [
            11.7363,
            48.3397
          ],
          [
            11.7173,
            48.3388
          ],
          [
            11.7015,
            48.3329
          ],
          [
            11.6912,
            48.3155
          ],
          [
            11.6945,
            48.2958
          ],
          [
            11.7037,
            48.2731
          ],
          [
            11.7421,
            48.2168
          ],
          [
            11.7386,
            48.1804
          ],
          [
            11.7411,
            48.1384
          ],
          [
            11.7455,
            48.0946
          ],
          [
            11.7517,
            48.0442
          ],
          [
            11.7569,
            47.9933
          ],
          [
            11.7619,
            47.9452
          ],
          [
            11.7662,
            47.9034
          ],
          [
            11.771,
            47.8505
          ],
          [
            11.7768,
            47.7993
          ],
          [
            11.7825,
            47.7491
          ],
          [
            11.7898,
            47.6988
          ],
          [
            11.7943,
            47.6403
          ],
          [
            11.7983,
            47.5854
          ],
          [
            11.8057,
            47.5264
          ],
          [
            11.8112,
            47.4694
          ],
          [
            11.8177,
            47.4042
          ],
          [
            11.8226,
            47.3427
          ],
          [
            11.8305,
            47.2796
          ],
          [
            11.8371,
            47.2216
          ],
          [
            11.8421,
            47.1637
          ],
          [
            11.8497,
            47.0985
          ],
          [
            11.8554,
            47.035
          ],
          [
            11.8528,
            46.9669
          ],
          [
            11.8276,
            46.9068
          ],
          [
            11.8041,
            46.8489
          ],
          [
            11.7859,
            46.7915
          ],
          [
            11.7672,
            46.7349
          ],
          [
            11.7494,
            46.676
          ],
          [
            11.7249,
            46.616
          ],
          [
            11.6653,
            46.5634
          ],
          [
            11.6246,
            46.5338
          ],
          [
            11.5755,
            46.4868
          ],
          [
            11.5312,
            46.4448
          ],
          [
            11.483,
            46.4004
          ],
          [
            11.4355,
            46.3553
          ],
          [
            11.3834,
            46.306
          ],
          [
            11.334,
            46.2697
          ],
          [
            11.2767,
            46.2327
          ],
          [
            11.2182,
            46.1925
          ],
          [
            11.1728,
            46.1493
          ],
          [
            11.1242,
            46.0983
          ],
          [
            11.0807,
            46.0555
          ],
          [
            11.0354,
            46.012
          ],
          [
            10.9903,
            45.9676
          ],
          [
            10.9442,
            45.9223
          ],
          [
            10.8993,
            45.878
          ],
          [
            10.8521,
            45.8322
          ],
          [
            10.8047,
            45.7852
          ],
          [
            10.7572,
            45.7396
          ],
          [
            10.7048,
            45.6909
          ],
          [
            10.6577,
            45.642
          ],
          [
            10.6083,
            45.5916
          ],
          [
            10.5565,
            45.5399
          ],
          [
            10.5096,
            45.4928
          ],
          [
            10.4611,
            45.4446
          ],
          [
            10.4132,
            45.397
          ],
          [
            10.3638,
            45.3476
          ],
          [
            10.3134,
            45.3
          ],
          [
            10.2633,
            45.2468
          ],
          [
            10.2133,
            45.1956
          ],
          [
            10.1583,
            45.1398
          ],
          [
            10.1037,
            45.0841
          ],
          [
            10.0517,
            45.0324
          ],
          [
            10.0003,
            44.9798
          ],
          [
            9.9512,
            44.9299
          ],
          [
            9.8984,
            44.8759
          ],
          [
            9.8443,
            44.8222
          ],
          [
            9.798,
            44.7723
          ],
          [
            9.7512,
            44.7241
          ],
          [
            9.7024,
            44.6743
          ],
          [
            9.6558,
            44.6254
          ],
          [
            9.603,
            44.5714
          ],
          [
            9.554,
            44.5207
          ],
          [
            9.5035,
            44.4668
          ],
          [
            9.4544,
            44.4142
          ],
          [
            9.4047,
            44.3646
          ],
          [
            9.353,
            44.3107
          ],
          [
            9.3059,
            44.2611
          ],
          [
            9.2574,
            44.2097
          ],
          [
            9.2106,
            44.16
          ],
          [
            9.164,
            44.112
          ],
          [
            9.1167,
            44.0603
          ],
          [
            9.0865,
            44.0292
          ],
          [
            9.0353,
            43.975
          ],
          [
            8.9911,
            43.9281
          ],
          [
            8.9481,
            43.8813
          ],
          [
            8.9057,
            43.8366
          ],
          [
            8.8621,
            43.7907
          ],
          [
            8.8218,
            43.744
          ],
          [
            8.7805,
            43.7027
          ],
          [
            8.7374,
            43.6543
          ],
          [
            8.7191,
            43.6209
          ],
          [
            8.7003,
            43.57
          ],
          [
            8.6836,
            43.5422
          ],
          [
            8.6413,
            43.5165
          ],
          [
            8.5877,
            43.4762
          ],
          [
            8.5346,
            43.4321
          ],
          [
            8.4823,
            43.3899
          ],
          [
            8.384,
            43.3078
          ],
          [
            8.3314,
            43.2649
          ],
          [
            8.2846,
            43.2239
          ],
          [
            8.2272,
            43.1624
          ],
          [
            8.2036,
            43.1278
          ],
          [
            8.1344,
            43.0887
          ],
          [
            8.0993,
            43.0743
          ],
          [
            8.0526,
            43.0315
          ],
          [
            8.0082,
            42.9867
          ],
          [
            7.9551,
            42.9482
          ],
          [
            7.9052,
            42.9067
          ],
          [
            7.8575,
            42.8632
          ],
          [
            7.8081,
            42.8232
          ],
          [
            7.7627,
            42.7847
          ],
          [
            7.7165,
            42.7458
          ],
          [
            7.6672,
            42.703
          ],
          [
            7.6171,
            42.6607
          ],
          [
            7.5702,
            42.6198
          ],
          [
            7.524,
            42.5788
          ],
          [
            7.4738,
            42.5381
          ],
          [
            7.4062,
            42.491
          ],
          [
            7.3543,
            42.4516
          ],
          [
            7.3056,
            42.4149
          ],
          [
            7.2555,
            42.3778
          ],
          [
            7.2066,
            42.342
          ],
          [
            7.1589,
            42.3057
          ],
          [
            7.1083,
            42.2686
          ],
          [
            7.0589,
            42.2316
          ],
          [
            7.0095,
            42.1948
          ],
          [
            6.959,
            42.1569
          ],
          [
            6.9047,
            42.1163
          ],
          [
            6.8541,
            42.0776
          ],
          [
            6.8049,
            42.0414
          ],
          [
            6.7556,
            42.0043
          ],
          [
            6.7008,
            41.9627
          ],
          [
            6.6494,
            41.9241
          ],
          [
            6.6007,
            41.8867
          ],
          [
            6.5427,
            41.8428
          ],
          [
            6.4862,
            41.8001
          ],
          [
            6.4329,
            41.7591
          ],
          [
            6.3794,
            41.7175
          ],
          [
            6.3251,
            41.6763
          ],
          [
            6.2663,
            41.6318
          ],
          [
            6.2068,
            41.5856
          ],
          [
            6.1524,
            41.5441
          ],
          [
            6.0957,
            41.5001
          ],
          [
            6.0403,
            41.4573
          ],
          [
            5.9845,
            41.4146
          ],
          [
            5.9238,
            41.3673
          ],
          [
            5.8706,
            41.3256
          ],
          [
            5.8175,
            41.284
          ],
          [
            5.7648,
            41.2431
          ],
          [
            5.7055,
            41.1978
          ],
          [
            5.6514,
            41.157
          ],
          [
            5.5964,
            41.1095
          ],
          [
            5.5392,
            41.0644
          ],
          [
            5.4819,
            41.0211
          ],
          [
            5.4268,
            40.9794
          ],
          [
            5.3735,
            40.9358
          ],
          [
            5.318,
            40.8919
          ],
          [
            5.2662,
            40.8503
          ],
          [
            5.2121,
            40.8071
          ],
          [
            5.1606,
            40.7666
          ],
          [
            5.1041,
            40.7213
          ],
          [
            5.0546,
            40.6816
          ],
          [
            5.0034,
            40.6399
          ],
          [
            4.9537,
            40.5999
          ],
          [
            4.901,
            40.5577
          ],
          [
            4.8508,
            40.517
          ],
          [
            4.8,
            40.4763
          ],
          [
            4.746,
            40.4343
          ],
          [
            4.7068,
            40.4099
          ],
          [
            4.6396,
            40.377
          ],
          [
            4.5854,
            40.3473
          ],
          [
            4.5294,
            40.3147
          ],
          [
            4.4702,
            40.282
          ],
          [
            4.4112,
            40.2498
          ],
          [
            4.349,
            40.2145
          ],
          [
            4.2936,
            40.1842
          ],
          [
            4.2348,
            40.1514
          ],
          [
            4.1798,
            40.1205
          ],
          [
            4.124,
            40.0882
          ],
          [
            4.0709,
            40.0588
          ],
          [
            4.0189,
            40.0295
          ],
          [
            3.9657,
            39.9993
          ],
          [
            3.9104,
            39.9682
          ],
          [
            3.8599,
            39.9395
          ],
          [
            3.8111,
            39.9123
          ],
          [
            3.7556,
            39.8818
          ],
          [
            3.7069,
            39.8532
          ],
          [
            3.6545,
            39.8232
          ],
          [
            3.6073,
            39.7972
          ],
          [
            3.5689,
            39.7737
          ],
          [
            3.529,
            39.7561
          ],
          [
            3.504,
            39.7522
          ],
          [
            3.4644,
            39.7531
          ],
          [
            3.4406,
            39.7524
          ],
          [
            3.3961,
            39.7468
          ],
          [
            3.3507,
            39.7386
          ],
          [
            3.3298,
            39.7341
          ],
          [
            3.3097,
            39.7284
          ],
          [
            3.2893,
            39.7235
          ],
          [
            3.2498,
            39.7146
          ],
          [
            3.2264,
            39.7094
          ],
          [
            3.2043,
            39.7046
          ],
          [
            3.1822,
            39.699
          ],
          [
            3.161,
            39.6942
          ],
          [
            3.1234,
            39.6855
          ],
          [
            3.1017,
            39.681
          ],
          [
            3.0799,
            39.6761
          ],
          [
            3.0539,
            39.6698
          ],
          [
            3.0324,
            39.6646
          ],
          [
            3.0119,
            39.6603
          ],
          [
            2.9732,
            39.6513
          ],
          [
            2.9552,
            39.6447
          ],
          [
            2.934,
            39.6351
          ],
          [
            2.905,
            39.6232
          ],
          [
            2.8786,
            39.6107
          ],
          [
            2.8656,
            39.6046
          ],
          [
            2.8529,
            39.5985
          ],
          [
            2.841,
            39.5927
          ],
          [
            2.8254,
            39.5842
          ],
          [
            2.8131,
            39.5785
          ],
          [
            2.8018,
            39.5733
          ],
          [
            2.7905,
            39.5681
          ]
        ]
      },
      "properties": {
        "time_europe_berlin": [
          "23.10.2025 12:56:25",
          "23.10.2025 12:56:25",
          "23.10.2025 12:56:41",
          "23.10.2025 12:57:00",
          "23.10.2025 12:57:17",
          "23.10.2025 12:57:35",
          "23.10.2025 12:57:53",
          "23.10.2025 12:58:12",
          "23.10.2025 12:59:07",
          "23.10.2025 12:59:37",
          "23.10.2025 13:00:07",
          "23.10.2025 13:00:37",
          "23.10.2025 13:01:10",
          "23.10.2025 13:01:43",
          "23.10.2025 13:02:14",
          "23.10.2025 13:02:41",
          "23.10.2025 13:03:15",
          "23.10.2025 13:03:45",
          "23.10.2025 13:04:15",
          "23.10.2025 13:04:45",
          "23.10.2025 13:05:18",
          "23.10.2025 13:05:48",
          "23.10.2025 13:06:21",
          "23.10.2025 13:06:51",
          "23.10.2025 13:07:25",
          "23.10.2025 13:07:57",
          "23.10.2025 13:08:29",
          "23.10.2025 13:08:59",
          "23.10.2025 13:09:29",
          "23.10.2025 13:10:03",
          "23.10.2025 13:10:35",
          "23.10.2025 13:11:09",
          "23.10.2025 13:11:42",
          "23.10.2025 13:12:13",
          "23.10.2025 13:12:44",
          "23.10.2025 13:13:15",
          "23.10.2025 13:13:47",
          "23.10.2025 13:14:19",
          "23.10.2025 13:14:55",
          "23.10.2025 13:15:17",
          "23.10.2025 13:15:49",
          "23.10.2025 13:16:19",
          "23.10.2025 13:16:50",
          "23.10.2025 13:17:21",
          "23.10.2025 13:17:55",
          "23.10.2025 13:18:24",
          "23.10.2025 13:18:55",
          "23.10.2025 13:19:27",
          "23.10.2025 13:19:57",
          "23.10.2025 13:20:31",
          "23.10.2025 13:21:01",
          "23.10.2025 13:21:32",
          "23.10.2025 13:22:03",
          "23.10.2025 13:22:35",
          "23.10.2025 13:23:05",
          "23.10.2025 13:23:36",
          "23.10.2025 13:24:07",
          "23.10.2025 13:24:37",
          "23.10.2025 13:25:08",
          "23.10.2025 13:25:38",
          "23.10.2025 13:26:09",
          "23.10.2025 13:26:41",
          "23.10.2025 13:27:11",
          "23.10.2025 13:27:42",
          "23.10.2025 13:28:12",
          "23.10.2025 13:28:43",
          "23.10.2025 13:29:13",
          "23.10.2025 13:29:46",
          "23.10.2025 13:30:17",
          "23.10.2025 13:30:51",
          "23.10.2025 13:31:25",
          "23.10.2025 13:31:57",
          "23.10.2025 13:32:29",
          "23.10.2025 13:33:00",
          "23.10.2025 13:33:33",
          "23.10.2025 13:34:06",
          "23.10.2025 13:34:37",
          "23.10.2025 13:35:07",
          "23.10.2025 13:35:38",
          "23.10.2025 13:36:09",
          "23.10.2025 13:36:43",
          "23.10.2025 13:37:15",
          "23.10.2025 13:37:49",
          "23.10.2025 13:38:20",
          "23.10.2025 13:38:51",
          "23.10.2025 13:39:24",
          "23.10.2025 13:39:54",
          "23.10.2025 13:40:25",
          "23.10.2025 13:40:56",
          "23.10.2025 13:41:26",
          "23.10.2025 13:41:57",
          "23.10.2025 13:42:17",
          "23.10.2025 13:42:51",
          "23.10.2025 13:43:22",
          "23.10.2025 13:43:52",
          "23.10.2025 13:44:22",
          "23.10.2025 13:44:53",
          "23.10.2025 13:45:23",
          "23.10.2025 13:45:53",
          "23.10.2025 13:46:26",
          "23.10.2025 13:46:46",
          "23.10.2025 13:47:14",
          "23.10.2025 13:47:31",
          "23.10.2025 13:47:53",
          "23.10.2025 13:48:25",
          "23.10.2025 13:48:57",
          "23.10.2025 13:49:29",
          "23.10.2025 13:50:30",
          "23.10.2025 13:51:02",
          "23.10.2025 13:51:32",
          "23.10.2025 13:52:13",
          "23.10.2025 13:52:35",
          "23.10.2025 13:53:08",
          "23.10.2025 13:53:26",
          "23.10.2025 13:53:57",
          "23.10.2025 13:54:29",
          "23.10.2025 13:54:59",
          "23.10.2025 13:55:30",
          "23.10.2025 13:56:02",
          "23.10.2025 13:56:33",
          "23.10.2025 13:57:03",
          "23.10.2025 13:57:33",
          "23.10.2025 13:58:05",
          "23.10.2025 13:58:37",
          "23.10.2025 13:59:10",
          "23.10.2025 13:59:41",
          "23.10.2025 14:00:11",
          "23.10.2025 14:00:51",
          "23.10.2025 14:01:23",
          "23.10.2025 14:01:54",
          "23.10.2025 14:02:24",
          "23.10.2025 14:02:54",
          "23.10.2025 14:03:24",
          "23.10.2025 14:03:55",
          "23.10.2025 14:04:25",
          "23.10.2025 14:04:55",
          "23.10.2025 14:05:26",
          "23.10.2025 14:06:00",
          "23.10.2025 14:06:31",
          "23.10.2025 14:07:01",
          "23.10.2025 14:07:31",
          "23.10.2025 14:08:05",
          "23.10.2025 14:08:36",
          "23.10.2025 14:09:06",
          "23.10.2025 14:09:40",
          "23.10.2025 14:10:13",
          "23.10.2025 14:10:43",
          "23.10.2025 14:11:14",
          "23.10.2025 14:11:44",
          "23.10.2025 14:12:16",
          "23.10.2025 14:12:48",
          "23.10.2025 14:13:18",
          "23.10.2025 14:13:50",
          "23.10.2025 14:14:21",
          "23.10.2025 14:14:51",
          "23.10.2025 14:15:25",
          "23.10.2025 14:15:55",
          "23.10.2025 14:16:25",
          "23.10.2025 14:16:55",
          "23.10.2025 14:17:28",
          "23.10.2025 14:17:58",
          "23.10.2025 14:18:30",
          "23.10.2025 14:19:02",
          "23.10.2025 14:19:33",
          "23.10.2025 14:20:03",
          "23.10.2025 14:20:34",
          "23.10.2025 14:21:07",
          "23.10.2025 14:21:38",
          "23.10.2025 14:22:10",
          "23.10.2025 14:22:40",
          "23.10.2025 14:23:14",
          "23.10.2025 14:23:44",
          "23.10.2025 14:24:15",
          "23.10.2025 14:24:45",
          "23.10.2025 14:25:17",
          "23.10.2025 14:25:47",
          "23.10.2025 14:26:17",
          "23.10.2025 14:26:47",
          "23.10.2025 14:27:08",
          "23.10.2025 14:27:42",
          "23.10.2025 14:28:12",
          "23.10.2025 14:28:43",
          "23.10.2025 14:29:15",
          "23.10.2025 14:29:46",
          "23.10.2025 14:30:20",
          "23.10.2025 14:30:50",
          "23.10.2025 14:31:22",
          "23.10.2025 14:31:52",
          "23.10.2025 14:32:23",
          "23.10.2025 14:32:53",
          "23.10.2025 14:33:23",
          "23.10.2025 14:33:54",
          "23.10.2025 14:34:27",
          "23.10.2025 14:34:58",
          "23.10.2025 14:35:28",
          "23.10.2025 14:36:01",
          "23.10.2025 14:36:31",
          "23.10.2025 14:37:02",
          "23.10.2025 14:37:33",
          "23.10.2025 14:38:03",
          "23.10.2025 14:38:33",
          "23.10.2025 14:38:50",
          "23.10.2025 14:39:16",
          "23.10.2025 14:39:32",
          "23.10.2025 14:40:02",
          "23.10.2025 14:40:34",
          "23.10.2025 14:40:50",
          "23.10.2025 14:41:06",
          "23.10.2025 14:41:22",
          "23.10.2025 14:41:52",
          "23.10.2025 14:42:09",
          "23.10.2025 14:42:25",
          "23.10.2025 14:42:43",
          "23.10.2025 14:42:59",
          "23.10.2025 14:43:29",
          "23.10.2025 14:43:46",
          "23.10.2025 14:44:03",
          "23.10.2025 14:44:22",
          "23.10.2025 14:44:39",
          "23.10.2025 14:44:55",
          "23.10.2025 14:45:26",
          "23.10.2025 14:45:42",
          "23.10.2025 14:46:03",
          "23.10.2025 14:46:34",
          "23.10.2025 14:47:04",
          "23.10.2025 14:47:20",
          "23.10.2025 14:47:36",
          "23.10.2025 14:47:53",
          "23.10.2025 14:48:16",
          "23.10.2025 14:48:33",
          "23.10.2025 14:48:50",
          "23.10.2025 14:49:08"
        ],
        "course_deg_clockwise_from_north": [
          "264",
          "264",
          "264",
          "235",
          "198",
          "184",
          "170",
          "148",
          "179",
          "177",
          "176",
          "175",
          "176",
          "176",
          "176",
          "176",
          "176",
          "176",
          "176",
          "176",
          "176",
          "176",
          "176",
          "176",
          "176",
          "176",
          "176",
          "176",
          "176",
          "176",
          "179",
          "191",
          "193",
          "192",
          "192",
          "192",
          "192",
          "212",
          "218",
          "217",
          "216",
          "217",
          "216",
          "216",
          "217",
          "227",
          "225",
          "219",
          "215",
          "215",
          "216",
          "216",
          "215",
          "216",
          "215",
          "215",
          "216",
          "215",
          "215",
          "215",
          "215",
          "215",
          "215",
          "215",
          "215",
          "215",
          "215",
          "215",
          "215",
          "215",
          "215",
          "215",
          "215",
          "215",
          "215",
          "215",
          "215",
          "215",
          "215",
          "215",
          "215",
          "215",
          "215",
          "215",
          "214",
          "214",
          "214",
          "215",
          "214",
          "214",
          "214",
          "214",
          "214",
          "214",
          "214",
          "214",
          "214",
          "214",
          "214",
          "206",
          "194",
          "209",
          "219",
          "223",
          "223",
          "221",
          "221",
          "221",
          "221",
          "222",
          "222",
          "220",
          "221",
          "221",
          "221",
          "221",
          "221",
          "221",
          "221",
          "221",
          "220",
          "221",
          "220",
          "220",
          "221",
          "221",
          "225",
          "225",
          "225",
          "225",
          "225",
          "224",
          "225",
          "225",
          "225",
          "225",
          "225",
          "225",
          "225",
          "224",
          "225",
          "225",
          "225",
          "224",
          "224",
          "225",
          "225",
          "225",
          "225",
          "225",
          "225",
          "223",
          "224",
          "224",
          "225",
          "224",
          "224",
          "224",
          "224",
          "224",
          "225",
          "224",
          "224",
          "224",
          "224",
          "224",
          "224",
          "223",
          "224",
          "224",
          "223",
          "224",
          "223",
          "223",
          "223",
          "224",
          "223",
          "231",
          "234",
          "235",
          "234",
          "233",
          "234",
          "234",
          "234",
          "234",
          "234",
          "233",
          "233",
          "234",
          "234",
          "234",
          "234",
          "234",
          "234",
          "233",
          "234",
          "233",
          "233",
          "234",
          "251",
          "262",
          "264",
          "261",
          "261",
          "256",
          "253",
          "252",
          "252",
          "254",
          "254",
          "253",
          "253",
          "254",
          "253",
          "254",
          "254",
          "253",
          "254",
          "253",
          "254",
          "252",
          "240",
          "241",
          "238",
          "239",
          "238",
          "237",
          "239",
          "239",
          "239",
          "238"
        ],
        "speed_kts": [
          "132",
          "132",
          "140",
          "170",
          "186",
          "198",
          "240",
          "244",
          "252",
          "276",
          "298",
          "328",
          "330",
          "332",
          "334",
          "342",
          "356",
          "364",
          "364",
          "378",
          "380",
          "394",
          "400",
          "412",
          "418",
          "422",
          "420",
          "420",
          "418",
          "418",
          "426",
          "422",
          "420",
          "414",
          "410",
          "408",
          "406",
          "398",
          "402",
          "404",
          "386",
          "380",
          "388",
          "390",
          "382",
          "376",
          "382",
          "390",
          "388",
          "380",
          "376",
          "376",
          "380",
          "384",
          "392",
          "398",
          "404",
          "416",
          "426",
          "432",
          "424",
          "420",
          "416",
          "418",
          "420",
          "422",
          "426",
          "430",
          "430",
          "432",
          "430",
          "430",
          "430",
          "428",
          "428",
          "424",
          "422",
          "420",
          "422",
          "420",
          "416",
          "418",
          "424",
          "428",
          "434",
          "434",
          "432",
          "426",
          "426",
          "424",
          "418",
          "416",
          "410",
          "404",
          "396",
          "390",
          "386",
          "384",
          "380",
          "384",
          "398",
          "386",
          "378",
          "378",
          "386",
          "392",
          "398",
          "382",
          "386",
          "388",
          "386",
          "386",
          "380",
          "378",
          "378",
          "378",
          "378",
          "380",
          "380",
          "378",
          "378",
          "378",
          "376",
          "378",
          "378",
          "374",
          "370",
          "370",
          "370",
          "370",
          "370",
          "370",
          "370",
          "370",
          "370",
          "370",
          "370",
          "370",
          "372",
          "374",
          "374",
          "376",
          "376",
          "380",
          "396",
          "400",
          "404",
          "412",
          "420",
          "426",
          "420",
          "420",
          "420",
          "420",
          "420",
          "422",
          "420",
          "416",
          "418",
          "416",
          "414",
          "426",
          "426",
          "418",
          "416",
          "412",
          "408",
          "406",
          "404",
          "400",
          "400",
          "391",
          "396",
          "396",
          "395",
          "400",
          "410",
          "420",
          "392",
          "380",
          "378",
          "376",
          "377",
          "382",
          "374",
          "376",
          "378",
          "377",
          "374",
          "366",
          "358",
          "354",
          "349",
          "338",
          "336",
          "340",
          "343",
          "352",
          "315",
          "274",
          "274",
          "251",
          "243",
          "243",
          "249",
          "235",
          "229",
          "224",
          "226",
          "226",
          "236",
          "239",
          "223",
          "223",
          "217",
          "220",
          "222",
          "229",
          "222",
          "220",
          "210",
          "207",
          "193",
          "180",
          "168",
          "162",
          "158",
          "143",
          "138",
          "140",
          "134",
          "128"
        ],
        "speed_mph": [
          "152",
          "152",
          "161",
          "196",
          "214",
          "228",
          "276",
          "281",
          "290",
          "318",
          "343",
          "377",
          "380",
          "382",
          "384",
          "394",
          "410",
          "419",
          "419",
          "435",
          "437",
          "453",
          "460",
          "474",
          "481",
          "486",
          "483",
          "483",
          "481",
          "481",
          "490",
          "486",
          "483",
          "476",
          "472",
          "470",
          "467",
          "458",
          "463",
          "465",
          "444",
          "437",
          "447",
          "449",
          "440",
          "433",
          "440",
          "449",
          "447",
          "437",
          "433",
          "433",
          "437",
          "442",
          "451",
          "458",
          "465",
          "479",
          "490",
          "497",
          "488",
          "483",
          "479",
          "481",
          "483",
          "486",
          "490",
          "495",
          "495",
          "497",
          "495",
          "495",
          "495",
          "493",
          "493",
          "488",
          "486",
          "483",
          "486",
          "483",
          "479",
          "481",
          "488",
          "493",
          "499",
          "499",
          "497",
          "490",
          "490",
          "488",
          "481",
          "479",
          "472",
          "465",
          "456",
          "449",
          "444",
          "442",
          "437",
          "442",
          "458",
          "444",
          "435",
          "435",
          "444",
          "451",
          "458",
          "440",
          "444",
          "447",
          "444",
          "444",
          "437",
          "435",
          "435",
          "435",
          "435",
          "437",
          "437",
          "435",
          "435",
          "435",
          "433",
          "435",
          "435",
          "430",
          "426",
          "426",
          "426",
          "426",
          "426",
          "426",
          "426",
          "426",
          "426",
          "426",
          "426",
          "426",
          "428",
          "430",
          "430",
          "433",
          "433",
          "437",
          "456",
          "460",
          "465",
          "474",
          "483",
          "490",
          "483",
          "483",
          "483",
          "483",
          "483",
          "486",
          "483",
          "479",
          "481",
          "479",
          "476",
          "490",
          "490",
          "481",
          "479",
          "474",
          "470",
          "467",
          "465",
          "460",
          "460",
          "450",
          "456",
          "456",
          "455",
          "460",
          "472",
          "483",
          "451",
          "437",
          "435",
          "433",
          "434",
          "440",
          "430",
          "433",
          "435",
          "434",
          "430",
          "421",
          "412",
          "407",
          "402",
          "389",
          "387",
          "391",
          "395",
          "405",
          "362",
          "315",
          "315",
          "289",
          "280",
          "280",
          "287",
          "270",
          "264",
          "258",
          "260",
          "260",
          "272",
          "275",
          "257",
          "257",
          "250",
          "253",
          "255",
          "264",
          "255",
          "253",
          "242",
          "238",
          "222",
          "207",
          "193",
          "186",
          "182",
          "165",
          "159",
          "161",
          "154",
          "147"
        ],
        "altitude_ft": [
          "3850",
          "3850",
          "4550",
          "5350",
          "6175",
          "6900",
          "7100",
          "8275",
          "11850",
          "13475",
          "14625",
          "15500",
          "17250",
          "19225",
          "20875",
          "22250",
          "23625",
          "24800",
          "26425",
          "27225",
          "28525",
          "29250",
          "30000",
          "29975",
          "30000",
          "30000",
          "30000",
          "30000",
          "30000",
          "30475",
          "30950",
          "31000",
          "31000",
          "31000",
          "31000",
          "31000",
          "31000",
          "31000",
          "31000",
          "31000",
          "32600",
          "33575",
          "34025",
          "33975",
          "34525",
          "35475",
          "35975",
          "36000",
          "36575",
          "37700",
          "38425",
          "39125",
          "39600",
          "40075",
          "40425",
          "40750",
          "40975",
          "41000",
          "41000",
          "41000",
          "41000",
          "41000",
          "41000",
          "41000",
          "41000",
          "41000",
          "41000",
          "41000",
          "41000",
          "41000",
          "41000",
          "41000",
          "41000",
          "41000",
          "41000",
          "41000",
          "41000",
          "41000",
          "41000",
          "41000",
          "41000",
          "41000",
          "41000",
          "41000",
          "41000",
          "41000",
          "41000",
          "41000",
          "41025",
          "41000",
          "41000",
          "41000",
          "41000",
          "41000",
          "41000",
          "41000",
          "41000",
          "41000",
          "41000",
          "41000",
          "41000",
          "41000",
          "41000",
          "41000",
          "41000",
          "41000",
          "41000",
          "41000",
          "41000",
          "41000",
          "41000",
          "41000",
          "41000",
          "41000",
          "41000",
          "41000",
          "41000",
          "41000",
          "41000",
          "41000",
          "41000",
          "41000",
          "41000",
          "41000",
          "41000",
          "41000",
          "41000",
          "41000",
          "41000",
          "41000",
          "41000",
          "41000",
          "41000",
          "41000",
          "41000",
          "41000",
          "41000",
          "41000",
          "41000",
          "41000",
          "41000",
          "41000",
          "40600",
          "40125",
          "39550",
          "39000",
          "38500",
          "37925",
          "37425",
          "36900",
          "36350",
          "35875",
          "35325",
          "35000",
          "35000",
          "35000",
          "35000",
          "35000",
          "35000",
          "35000",
          "34325",
          "33650",
          "32775",
          "32075",
          "31300",
          "30575",
          "29700",
          "28950",
          "28150",
          "27425",
          "26525",
          "25725",
          "25000",
          "24300",
          "23625",
          "23050",
          "23050",
          "22975",
          "22950",
          "22975",
          "22600",
          "22150",
          "21575",
          "20925",
          "20000",
          "19150",
          "18050",
          "17200",
          "16650",
          "15975",
          "15075",
          "14250",
          "13625",
          "12975",
          "12475",
          "12000",
          "11325",
          "10675",
          "9975",
          "9225",
          "8525",
          "8200",
          "7750",
          "7650",
          "7225",
          "6850",
          "6600",
          "6450",
          "6225",
          "5875",
          "5600",
          "5400",
          "5175",
          "5000",
          "4700",
          "4450",
          "4300",
          "3875",
          "3650",
          "3275",
          "3100",
          "3100",
          "3125",
          "2650",
          "2250",
          "1950",
          "1725",
          "1550",
          "1225",
          "1100",
          "875",
          "700"
        ],
        "vertical_rate_fpm": [
          "",
          "2625",
          "2571",
          "2708",
          "2657",
          "1542",
          "2230",
          "3851",
          "3671",
          "2775",
          "2025",
          "2500",
          "3386",
          "3398",
          "3129",
          "2705",
          "2391",
          "2800",
          "2425",
          "2000",
          "1929",
          "1405",
          "690",
          "",
          "23",
          "",
          "",
          "",
          "445",
          "864",
          "477",
          "45",
          "",
          "",
          "",
          "",
          "",
          "",
          "",
          "1778",
          "2492",
          "1402",
          "387",
          "462",
          "1429",
          "1450",
          "500",
          "581",
          "1594",
          "1734",
          "1402",
          "1137",
          "905",
          "798",
          "664",
          "532",
          "246",
          "25",
          "",
          "",
          "",
          "",
          "",
          "",
          "",
          "",
          "",
          "",
          "",
          "",
          "",
          "",
          "",
          "",
          "",
          "",
          "",
          "",
          "",
          "",
          "",
          "",
          "",
          "",
          "",
          "",
          "",
          "24",
          "",
          "-25",
          "",
          "",
          "",
          "",
          "",
          "",
          "",
          "",
          "",
          "",
          "",
          "",
          "",
          "",
          "",
          "",
          "",
          "",
          "",
          "",
          "",
          "",
          "",
          "",
          "",
          "",
          "",
          "",
          "",
          "",
          "",
          "",
          "",
          "",
          "",
          "",
          "",
          "",
          "",
          "",
          "",
          "",
          "",
          "",
          "",
          "",
          "",
          "",
          "",
          "",
          "",
          "-369",
          "-861",
          "-984",
          "-1007",
          "-1000",
          "-1057",
          "-1057",
          "-992",
          "-1008",
          "-992",
          "-992",
          "-833",
          "-320",
          "",
          "",
          "",
          "",
          "",
          "-643",
          "-1306",
          "-1453",
          "-1500",
          "-1451",
          "-1475",
          "-1500",
          "-1523",
          "-1476",
          "-1476",
          "-1523",
          "-1594",
          "-1500",
          "-1402",
          "-1331",
          "-1210",
          "-575",
          "-75",
          "-118",
          "",
          "-328",
          "-811",
          "-976",
          "-1167",
          "-1454",
          "-1664",
          "-1887",
          "-1887",
          "-1377",
          "-1205",
          "-1575",
          "-1697",
          "-1359",
          "-1195",
          "-1131",
          "-929",
          "-1095",
          "-1303",
          "-1306",
          "-1426",
          "-1450",
          "-1309",
          "-1081",
          "-786",
          "-685",
          "-774",
          "-781",
          "-750",
          "-703",
          "-750",
          "-798",
          "-864",
          "-750",
          "-706",
          "-620",
          "-702",
          "-706",
          "-958",
          "-1083",
          "-1091",
          "-702",
          "-223",
          "41",
          "-519",
          "-861",
          "-913",
          "-984",
          "-727",
          "-750",
          "-675",
          "-618",
          "-686",
          "-583"
        ],
        "reporting_facility": [
          "FlightAware MLAT(10 sites)",
          "FlightAware MLAT(10 sites)",
          "FlightAware MLAT(7 sites)",
          "FlightAware MLAT(12 sites)",
          "FlightAware MLAT(6 sites)",
          "FlightAware MLAT(8 sites)",
          "FlightAware MLAT(9 sites)",
          "FlightAware MLAT(5 sites)",
          "FlightAware MLAT(10 sites)",
          "FlightAware MLAT(10 sites)",
          "FlightAware MLAT(10 sites)",
          "FlightAware MLAT(6 sites)",
          "FlightAware MLAT(13 sites)",
          "FlightAware MLAT(10 sites)",
          "FlightAware MLAT(10 sites)",
          "FlightAware MLAT(8 sites)",
          "FlightAware MLAT(9 sites)",
          "FlightAware MLAT(13 sites)",
          "FlightAware MLAT(8 sites)",
          "FlightAware MLAT(6 sites)",
          "FlightAware MLAT(4 sites)",
          "FlightAware MLAT(10 sites)",
          "FlightAware MLAT(4 sites)",
          "FlightAware MLAT(8 sites)",
          "FlightAware MLAT(5 sites)",
          "FlightAware MLAT(4 sites)",
          "FlightAware MLAT(5 sites)",
          "FlightAware MLAT(6 sites)",
          "FlightAware MLAT(8 sites)",
          "FlightAware MLAT(5 sites)",
          "FlightAware MLAT(8 sites)",
          "FlightAware MLAT(4 sites)",
          "FlightAware MLAT(5 sites)",
          "FlightAware MLAT(7 sites)",
          "FlightAware MLAT(6 sites)",
          "FlightAware MLAT(7 sites)",
          "FlightAware MLAT(6 sites)",
          "FlightAware MLAT(6 sites)",
          "FlightAware MLAT(6 sites)",
          "FlightAware MLAT(7 sites)",
          "FlightAware MLAT(8 sites)",
          "FlightAware MLAT(7 sites)",
          "FlightAware MLAT(10 sites)",
          "FlightAware MLAT(8 sites)",
          "FlightAware MLAT(6 sites)",
          "FlightAware MLAT(5 sites)",
          "FlightAware MLAT(7 sites)",
          "FlightAware MLAT(8 sites)",
          "FlightAware MLAT(6 sites)",
          "FlightAware MLAT(6 sites)",
          "FlightAware MLAT(4 sites)",
          "FlightAware MLAT(4 sites)",
          "FlightAware MLAT(4 sites)",
          "FlightAware MLAT(5 sites)",
          "FlightAware MLAT(9 sites)",
          "FlightAware MLAT(6 sites)",
          "FlightAware MLAT(6 sites)",
          "FlightAware MLAT(7 sites)",
          "FlightAware MLAT(4 sites)",
          "FlightAware MLAT(12 sites)",
          "FlightAware MLAT(9 sites)",
          "FlightAware MLAT(4 sites)",
          "FlightAware MLAT(7 sites)",
          "FlightAware MLAT(7 sites)",
          "FlightAware MLAT(9 sites)",
          "FlightAware MLAT(9 sites)",
          "FlightAware MLAT(6 sites)",
          "FlightAware MLAT(9 sites)",
          "FlightAware MLAT(10 sites)",
          "FlightAware MLAT(4 sites)",
          "FlightAware MLAT(8 sites)",
          "FlightAware MLAT(9 sites)",
          "FlightAware MLAT(4 sites)",
          "FlightAware MLAT(9 sites)",
          "FlightAware MLAT(5 sites)",
          "FlightAware MLAT(7 sites)",
          "FlightAware MLAT(7 sites)",
          "FlightAware MLAT(10 sites)",
          "FlightAware MLAT(10 sites)",
          "FlightAware MLAT(4 sites)",
          "FlightAware MLAT(6 sites)",
          "FlightAware MLAT(4 sites)",
          "FlightAware MLAT(4 sites)",
          "FlightAware MLAT(7 sites)",
          "FlightAware MLAT(8 sites)",
          "FlightAware MLAT(6 sites)",
          "FlightAware MLAT(10 sites)",
          "FlightAware MLAT(10 sites)",
          "FlightAware MLAT(9 sites)",
          "FlightAware MLAT(6 sites)",
          "FlightAware MLAT(8 sites)",
          "FlightAware MLAT(8 sites)",
          "FlightAware MLAT(6 sites)",
          "FlightAware MLAT(4 sites)",
          "FlightAware MLAT(12 sites)",
          "FlightAware MLAT(10 sites)",
          "FlightAware MLAT(6 sites)",
          "FlightAware MLAT(5 sites)",
          "FlightAware MLAT(11 sites)",
          "FlightAware MLAT(8 sites)",
          "FlightAware MLAT(9 sites)",
          "FlightAware MLAT(10 sites)",
          "FlightAware MLAT(8 sites)",
          "FlightAware MLAT(8 sites)",
          "FlightAware MLAT(6 sites)",
          "FlightAware MLAT(4 sites)",
          "FlightAware MLAT(5 sites)",
          "FlightAware MLAT(7 sites)",
          "FlightAware MLAT(6 sites)",
          "FlightAware MLAT(6 sites)",
          "FlightAware MLAT(5 sites)",
          "FlightAware MLAT(5 sites)",
          "FlightAware MLAT(6 sites)",
          "FlightAware MLAT(5 sites)",
          "FlightAware MLAT(6 sites)",
          "FlightAware MLAT(6 sites)",
          "FlightAware MLAT(8 sites)",
          "FlightAware MLAT(7 sites)",
          "FlightAware MLAT(8 sites)",
          "FlightAware MLAT(7 sites)",
          "FlightAware MLAT(8 sites)",
          "FlightAware MLAT(5 sites)",
          "FlightAware MLAT(10 sites)",
          "FlightAware MLAT(10 sites)",
          "FlightAware MLAT(10 sites)",
          "FlightAware MLAT(6 sites)",
          "FlightAware MLAT(12 sites)",
          "FlightAware MLAT(5 sites)",
          "FlightAware MLAT(7 sites)",
          "FlightAware MLAT(9 sites)",
          "FlightAware MLAT(5 sites)",
          "FlightAware MLAT(12 sites)",
          "FlightAware MLAT(10 sites)",
          "FlightAware MLAT(4 sites)",
          "FlightAware MLAT(8 sites)",
          "FlightAware MLAT(7 sites)",
          "FlightAware MLAT(12 sites)",
          "FlightAware MLAT(5 sites)",
          "FlightAware MLAT(7 sites)",
          "FlightAware MLAT(5 sites)",
          "FlightAware MLAT(10 sites)",
          "FlightAware MLAT(4 sites)",
          "FlightAware MLAT(4 sites)",
          "FlightAware MLAT(9 sites)",
          "FlightAware MLAT(7 sites)",
          "FlightAware MLAT(5 sites)",
          "FlightAware MLAT(9 sites)",
          "FlightAware MLAT(7 sites)",
          "FlightAware MLAT(11 sites)",
          "FlightAware MLAT(9 sites)",
          "FlightAware MLAT(7 sites)",
          "FlightAware MLAT(4 sites)",
          "FlightAware MLAT(4 sites)",
          "FlightAware MLAT(10 sites)",
          "FlightAware MLAT(6 sites)",
          "FlightAware MLAT(5 sites)",
          "FlightAware MLAT(5 sites)",
          "FlightAware MLAT(9 sites)",
          "FlightAware MLAT(10 sites)",
          "FlightAware MLAT(6 sites)",
          "FlightAware MLAT(7 sites)",
          "FlightAware MLAT(4 sites)",
          "FlightAware MLAT(5 sites)",
          "FlightAware MLAT(6 sites)",
          "FlightAware MLAT(5 sites)",
          "FlightAware MLAT(9 sites)",
          "FlightAware MLAT(9 sites)",
          "FlightAware MLAT(8 sites)",
          "FlightAware MLAT(4 sites)",
          "FlightAware MLAT(4 sites)",
          "FlightAware MLAT(4 sites)",
          "FlightAware MLAT(8 sites)",
          "FlightAware MLAT(9 sites)",
          "FlightAware MLAT(10 sites)",
          "FlightAware MLAT(6 sites)",
          "FlightAware MLAT(6 sites)",
          "FlightAware MLAT(9 sites)",
          "FlightAware MLAT(6 sites)",
          "FlightAware MLAT(8 sites)",
          "FlightAware MLAT(5 sites)",
          "FlightAware MLAT(6 sites)",
          "FlightAware MLAT(5 sites)",
          "FlightAware MLAT(5 sites)",
          "FlightAware MLAT(8 sites)",
          "FlightAware MLAT(7 sites)",
          "FlightAware MLAT(8 sites)",
          "FlightAware MLAT(8 sites)",
          "FlightAware MLAT(4 sites)",
          "FlightAware MLAT(6 sites)",
          "FlightAware MLAT(8 sites)",
          "FlightAware MLAT(6 sites)",
          "FlightAware MLAT(6 sites)",
          "FlightAware MLAT(4 sites)",
          "FlightAware MLAT(8 sites)",
          "FlightAware MLAT(6 sites)",
          "FlightAware MLAT(5 sites)",
          "FlightAware MLAT(7 sites)",
          "FlightAware MLAT(10 sites)",
          "FlightAware MLAT(8 sites)",
          "FlightAware MLAT(5 sites)",
          "FlightAware MLAT(7 sites)",
          "FlightAware MLAT(8 sites)",
          "FlightAware MLAT(11 sites)",
          "FlightAware MLAT(11 sites)",
          "FlightAware MLAT(6 sites)",
          "FlightAware MLAT(9 sites)",
          "FlightAware MLAT(8 sites)",
          "FlightAware MLAT(9 sites)",
          "FlightAware MLAT(11 sites)",
          "FlightAware MLAT(8 sites)",
          "FlightAware MLAT(8 sites)",
          "FlightAware MLAT(9 sites)",
          "FlightAware MLAT(6 sites)",
          "FlightAware MLAT(6 sites)",
          "FlightAware MLAT(7 sites)",
          "FlightAware MLAT(4 sites)",
          "FlightAware MLAT(6 sites)",
          "FlightAware MLAT(6 sites)",
          "FlightAware MLAT(4 sites)",
          "FlightAware MLAT(5 sites)",
          "FlightAware MLAT(7 sites)",
          "FlightAware MLAT(7 sites)",
          "FlightAware MLAT(6 sites)",
          "FlightAware MLAT(5 sites)",
          "FlightAware MLAT(8 sites)",
          "FlightAware MLAT(7 sites)",
          "FlightAware MLAT(5 sites)",
          "FlightAware MLAT(8 sites)",
          "FlightAware MLAT(7 sites)",
          "FlightAware MLAT(5 sites)",
          "FlightAware MLAT(6 sites)",
          "FlightAware MLAT(5 sites)"
        ]
      }
    }
  ]
}