{
  "type": "FeatureCollection",
  "features": [
    {
      "type": "Feature",
      "geometry": {
        "type": "LineString",
        "coordinates": [
          [
            2.6945,
            39.5402
          ],
          [
            2.6945,
            39.5402
          ],
          [
            2.6792,
            39.5338
          ],
          [
            2.6429,
            39.5154
          ],
          [
            2.6286,
            39.5062
          ],
          [
            2.617,
            39.4957
          ],
          [
            2.6453,
            39.4471
          ],
          [
            2.6637,
            39.4233
          ],
          [
            2.6969,
            39.413
          ],
          [
            2.7294,
            39.4102
          ],
          [
            2.8541,
            39.4307
          ],
          [
            2.9236,
            39.4529
          ],
          [
            2.9885,
            39.4754
          ],
          [
            3.0539,
            39.4998
          ],
          [
            3.1328,
            39.5256
          ],
          [
            3.1931,
            39.5527
          ],
          [
            3.2379,
            39.5881
          ],
          [
            3.2882,
            39.6334
          ],
          [
            3.3413,
            39.6801
          ],
          [
            3.3969,
            39.7262
          ],
          [
            3.4538,
            39.7706
          ],
          [
            3.5129,
            39.8178
          ],
          [
            3.5694,
            39.8651
          ],
          [
            3.6273,
            39.9121
          ],
          [
            3.685,
            39.9592
          ],
          [
            3.7506,
            40.0114
          ],
          [
            3.807,
            40.0566
          ],
          [
            3.8521,
            40.1146
          ],
          [
            3.8854,
            40.187
          ],
          [
            3.911,
            40.2432
          ],
          [
            3.938,
            40.3004
          ],
          [
            3.9667,
            40.3582
          ],
          [
            3.9938,
            40.4146
          ],
          [
            4.0266,
            40.4801
          ],
          [
            4.0556,
            40.5366
          ],
          [
            4.0839,
            40.5933
          ],
          [
            4.1162,
            40.6584
          ],
          [
            4.1451,
            40.7157
          ],
          [
            4.1738,
            40.7728
          ],
          [
            4.2075,
            40.8393
          ],
          [
            4.2366,
            40.8982
          ],
          [
            4.2679,
            40.9596
          ],
          [
            4.2997,
            41.0202
          ],
          [
            4.3292,
            41.0785
          ],
          [
            4.3583,
            41.1371
          ],
          [
            4.3701,
            41.1745
          ],
          [
            4.427,
            41.2577
          ],
          [
            4.4685,
            41.3151
          ],
          [
            4.5167,
            41.3761
          ],
          [
            4.5613,
            41.4378
          ],
          [
            4.61,
            41.5051
          ],
          [
            4.655,
            41.5641
          ],
          [
            4.7005,
            41.6279
          ],
          [
            4.7463,
            41.6908
          ],
          [
            4.792,
            41.7521
          ],
          [
            4.8388,
            41.8154
          ],
          [
            4.8819,
            41.875
          ],
          [
            4.9274,
            41.9355
          ],
          [
            4.9708,
            41.9941
          ],
          [
            5.0154,
            42.0537
          ],
          [
            5.0633,
            42.1183
          ],
          [
            5.1103,
            42.1806
          ],
          [
            5.1559,
            42.2415
          ],
          [
            5.2006,
            42.3019
          ],
          [
            5.2457,
            42.3616
          ],
          [
            5.2916,
            42.4211
          ],
          [
            5.335,
            42.4799
          ],
          [
            5.3819,
            42.5418
          ],
          [
            5.4287,
            42.6029
          ],
          [
            5.4751,
            42.6636
          ],
          [
            5.5232,
            42.7262
          ],
          [
            5.5733,
            42.7923
          ],
          [
            5.6177,
            42.8501
          ],
          [
            5.6667,
            42.9148
          ],
          [
            5.7167,
            42.9784
          ],
          [
            5.7617,
            43.0425
          ],
          [
            5.7862,
            43.0874
          ],
          [
            5.8184,
            43.1501
          ],
          [
            5.8543,
            43.2142
          ],
          [
            5.8913,
            43.2765
          ],
          [
            5.9257,
            43.3386
          ],
          [
            5.9616,
            43.3995
          ],
          [
            6.002,
            43.4688
          ],
          [
            6.0405,
            43.5351
          ],
          [
            6.0765,
            43.5982
          ],
          [
            6.1125,
            43.6598
          ],
          [
            6.1479,
            43.7218
          ],
          [
            6.1841,
            43.784
          ],
          [
            6.2245,
            43.8523
          ],
          [
            6.2652,
            43.9217
          ],
          [
            6.3019,
            43.9832
          ],
          [
            6.3395,
            44.0471
          ],
          [
            6.3774,
            44.1103
          ],
          [
            6.4167,
            44.1759
          ],
          [
            6.4533,
            44.2361
          ],
          [
            6.4865,
            44.2953
          ],
          [
            6.5208,
            44.3564
          ],
          [
            6.5537,
            44.4157
          ],
          [
            6.5851,
            44.4766
          ],
          [
            6.624,
            44.5362
          ],
          [
            6.6623,
            44.5955
          ],
          [
            6.7026,
            44.6566
          ],
          [
            6.7415,
            44.7147
          ],
          [
            6.7794,
            44.7713
          ],
          [
            6.8188,
            44.8323
          ],
          [
            6.8615,
            44.8954
          ],
          [
            6.9039,
            44.9597
          ],
          [
            6.9467,
            45.0228
          ],
          [
            6.9897,
            45.0884
          ],
          [
            7.0279,
            45.145
          ],
          [
            7.0668,
            45.2036
          ],
          [
            7.1065,
            45.2617
          ],
          [
            7.146,
            45.3205
          ],
          [
            7.1884,
            45.3845
          ],
          [
            7.228,
            45.4419
          ],
          [
            7.2696,
            45.5027
          ],
          [
            7.3091,
            45.5608
          ],
          [
            7.3535,
            45.6276
          ],
          [
            7.3966,
            45.6888
          ],
          [
            7.4379,
            45.749
          ],
          [
            7.4774,
            45.8093
          ],
          [
            7.5213,
            45.8707
          ],
          [
            7.5662,
            45.935
          ],
          [
            7.6097,
            45.9988
          ],
          [
            7.6556,
            46.064
          ],
          [
            7.6964,
            46.1238
          ],
          [
            7.7419,
            46.1885
          ],
          [
            7.7863,
            46.252
          ],
          [
            7.8319,
            46.316
          ],
          [
            7.8761,
            46.3792
          ],
          [
            7.9185,
            46.4413
          ],
          [
            7.9605,
            46.499
          ],
          [
            8.0038,
            46.5604
          ],
          [
            8.0465,
            46.6201
          ],
          [
            8.092,
            46.6844
          ],
          [
            8.1406,
            46.7522
          ],
          [
            8.1852,
            46.8128
          ],
          [
            8.2264,
            46.8728
          ],
          [
            8.2719,
            46.9342
          ],
          [
            8.3157,
            46.9949
          ],
          [
            8.3618,
            47.0602
          ],
          [
            8.4072,
            47.1231
          ],
          [
            8.4541,
            47.1862
          ],
          [
            8.5023,
            47.2541
          ],
          [
            8.5465,
            47.3144
          ],
          [
            8.5927,
            47.3775
          ],
          [
            8.6432,
            47.4455
          ],
          [
            8.6875,
            47.5048
          ],
          [
            8.7326,
            47.5661
          ],
          [
            8.7764,
            47.6253
          ],
          [
            8.8238,
            47.6873
          ],
          [
            8.8686,
            47.7492
          ],
          [
            8.9023,
            47.8125
          ],
          [
            8.9321,
            47.878
          ],
          [
            8.9571,
            47.9444
          ],
          [
            8.991,
            48.0157
          ],
          [
            9.0213,
            48.0808
          ],
          [
            9.053,
            48.15
          ],
          [
            9.0832,
            48.2159
          ],
          [
            9.1153,
            48.2845
          ],
          [
            9.1482,
            48.3529
          ],
          [
            9.1782,
            48.4176
          ],
          [
            9.21,
            48.4825
          ],
          [
            9.242,
            48.5554
          ],
          [
            9.2725,
            48.6198
          ],
          [
            9.304,
            48.6853
          ],
          [
            9.3364,
            48.7527
          ],
          [
            9.3683,
            48.8191
          ],
          [
            9.3993,
            48.8823
          ],
          [
            9.4304,
            48.9493
          ],
          [
            9.4648,
            49.0228
          ],
          [
            9.4977,
            49.0888
          ],
          [
            9.5323,
            49.1575
          ],
          [
            9.5628,
            49.2232
          ],
          [
            9.5973,
            49.2913
          ],
          [
            9.655,
            49.3736
          ],
          [
            9.7042,
            49.4341
          ],
          [
            9.7485,
            49.4981
          ],
          [
            9.792,
            49.5593
          ],
          [
            9.8391,
            49.6237
          ],
          [
            9.8846,
            49.685
          ],
          [
            9.9302,
            49.7529
          ],
          [
            9.9778,
            49.8147
          ],
          [
            10.0295,
            49.8809
          ],
          [
            10.0808,
            49.9503
          ],
          [
            10.1288,
            50.0146
          ],
          [
            10.1793,
            50.0823
          ],
          [
            10.2336,
            50.1567
          ],
          [
            10.2814,
            50.2222
          ],
          [
            10.338,
            50.2915
          ],
          [
            10.3919,
            50.3645
          ],
          [
            10.4443,
            50.4342
          ],
          [
            10.5017,
            50.5015
          ],
          [
            10.5423,
            50.5381
          ],
          [
            10.5942,
            50.5667
          ],
          [
            10.6438,
            50.5934
          ],
          [
            10.7681,
            50.6273
          ],
          [
            10.8697,
            50.6619
          ],
          [
            10.9555,
            50.6945
          ],
          [
            11.0087,
            50.7158
          ],
          [
            11.0882,
            50.7471
          ],
          [
            11.1741,
            50.7788
          ],
          [
            11.2584,
            50.8124
          ],
          [
            11.3367,
            50.8422
          ],
          [
            11.4095,
            50.8697
          ],
          [
            11.4828,
            50.8974
          ],
          [
            11.564,
            50.9277
          ],
          [
            11.6393,
            50.9562
          ],
          [
            11.7169,
            50.9862
          ],
          [
            11.7589,
            51.002
          ],
          [
            11.802,
            51.0182
          ],
          [
            11.8827,
            51.0484
          ],
          [
            11.9615,
            51.0782
          ],
          [
            12.0337,
            51.105
          ],
          [
            12.1087,
            51.133
          ],
          [
            12.1478,
            51.1475
          ],
          [
            12.1868,
            51.1619
          ],
          [
            12.2238,
            51.1752
          ],
          [
            12.2593,
            51.1882
          ],
          [
            12.298,
            51.2024
          ],
          [
            12.3313,
            51.2142
          ],
          [
            12.3592,
            51.2251
          ],
          [
            12.39,
            51.2365
          ],
          [
            12.4279,
            51.2505
          ],
          [
            12.4765,
            51.2718
          ],
          [
            12.4988,
            51.2848
          ],
          [
            12.521,
            51.298
          ],
          [
            12.5715,
            51.328
          ],
          [
            12.5932,
            51.3422
          ],
          [
            12.5975,
            51.3616
          ],
          [
            12.6029,
            51.3815
          ],
          [
            12.5895,
            51.4014
          ],
          [
            12.5854,
            51.4196
          ],
          [
            12.5649,
            51.4333
          ],
          [
            12.5341,
            51.429
          ],
          [
            12.5134,
            51.4334
          ],
          [
            12.4945,
            51.4309
          ],
          [
            12.4599,
            51.424
          ],
          [
            12.4395,
            51.4228
          ],
          [
            12.4218,
            51.4218
          ],
          [
            12.3995,
            51.4206
          ],
          [
            12.3623,
            51.4189
          ],
          [
            12.3455,
            51.4182
          ],
          [
            12.3287,
            51.4174
          ],
          [
            12.3141,
            51.4165
          ],
          [
            12.2999,
            51.4136
          ],
          [
            12.2844,
            51.4127
          ],
          [
            12.2598,
            51.413
          ]
        ]
      },
      "properties": {
        "time_europe_berlin": [
          "23.10.2025 17:36:00",
          "23.10.2025 17:36:00",
          "23.10.2025 17:36:17",
          "23.10.2025 17:36:59",
          "23.10.2025 17:37:16",
          "23.10.2025 17:37:33",
          "23.10.2025 17:38:20",
          "23.10.2025 17:38:40",
          "23.10.2025 17:39:00",
          "23.10.2025 17:39:18",
          "23.10.2025 17:40:12",
          "23.10.2025 17:40:44",
          "23.10.2025 17:41:14",
          "23.10.2025 17:41:44",
          "23.10.2025 17:42:18",
          "23.10.2025 17:42:46",
          "23.10.2025 17:43:11",
          "23.10.2025 17:43:41",
          "23.10.2025 17:44:12",
          "23.10.2025 17:44:43",
          "23.10.2025 17:45:13",
          "23.10.2025 17:45:44",
          "23.10.2025 17:46:14",
          "23.10.2025 17:46:44",
          "23.10.2025 17:47:14",
          "23.10.2025 17:47:48",
          "23.10.2025 17:48:18",
          "23.10.2025 17:48:52",
          "23.10.2025 17:49:31",
          "23.10.2025 17:50:02",
          "23.10.2025 17:50:32",
          "23.10.2025 17:51:03",
          "23.10.2025 17:51:33",
          "23.10.2025 17:52:08",
          "23.10.2025 17:52:38",
          "23.10.2025 17:53:08",
          "23.10.2025 17:53:42",
          "23.10.2025 17:54:12",
          "23.10.2025 17:54:42",
          "23.10.2025 17:55:16",
          "23.10.2025 17:55:46",
          "23.10.2025 17:56:17",
          "23.10.2025 17:56:48",
          "23.10.2025 17:57:18",
          "23.10.2025 17:57:48",
          "23.10.2025 17:58:06",
          "23.10.2025 17:58:53",
          "23.10.2025 17:59:23",
          "23.10.2025 17:59:54",
          "23.10.2025 18:00:26",
          "23.10.2025 18:01:00",
          "23.10.2025 18:01:30",
          "23.10.2025 18:02:02",
          "23.10.2025 18:02:33",
          "23.10.2025 18:03:04",
          "23.10.2025 18:03:36",
          "23.10.2025 18:04:06",
          "23.10.2025 18:04:37",
          "23.10.2025 18:05:07",
          "23.10.2025 18:05:37",
          "23.10.2025 18:06:09",
          "23.10.2025 18:06:42",
          "23.10.2025 18:07:12",
          "23.10.2025 18:07:43",
          "23.10.2025 18:08:13",
          "23.10.2025 18:08:43",
          "23.10.2025 18:09:13",
          "23.10.2025 18:09:44",
          "23.10.2025 18:10:15",
          "23.10.2025 18:10:46",
          "23.10.2025 18:11:17",
          "23.10.2025 18:11:51",
          "23.10.2025 18:12:22",
          "23.10.2025 18:12:56",
          "23.10.2025 18:13:29",
          "23.10.2025 18:14:02",
          "23.10.2025 18:14:24",
          "23.10.2025 18:14:54",
          "23.10.2025 18:15:25",
          "23.10.2025 18:15:56",
          "23.10.2025 18:16:26",
          "23.10.2025 18:16:56",
          "23.10.2025 18:17:30",
          "23.10.2025 18:18:02",
          "23.10.2025 18:18:33",
          "23.10.2025 18:19:03",
          "23.10.2025 18:19:33",
          "23.10.2025 18:20:03",
          "23.10.2025 18:20:36",
          "23.10.2025 18:21:10",
          "23.10.2025 18:21:40",
          "23.10.2025 18:22:11",
          "23.10.2025 18:22:42",
          "23.10.2025 18:23:15",
          "23.10.2025 18:23:45",
          "23.10.2025 18:24:15",
          "23.10.2025 18:24:46",
          "23.10.2025 18:25:16",
          "23.10.2025 18:25:46",
          "23.10.2025 18:26:17",
          "23.10.2025 18:26:48",
          "23.10.2025 18:27:21",
          "23.10.2025 18:27:51",
          "23.10.2025 18:28:21",
          "23.10.2025 18:28:53",
          "23.10.2025 18:29:25",
          "23.10.2025 18:29:57",
          "23.10.2025 18:30:29",
          "23.10.2025 18:31:03",
          "23.10.2025 18:31:33",
          "23.10.2025 18:32:03",
          "23.10.2025 18:32:34",
          "23.10.2025 18:33:05",
          "23.10.2025 18:33:39",
          "23.10.2025 18:34:09",
          "23.10.2025 18:34:41",
          "23.10.2025 18:35:12",
          "23.10.2025 18:35:46",
          "23.10.2025 18:36:17",
          "23.10.2025 18:36:47",
          "23.10.2025 18:37:17",
          "23.10.2025 18:37:49",
          "23.10.2025 18:38:22",
          "23.10.2025 18:38:54",
          "23.10.2025 18:39:27",
          "23.10.2025 18:39:57",
          "23.10.2025 18:40:29",
          "23.10.2025 18:41:01",
          "23.10.2025 18:41:34",
          "23.10.2025 18:42:05",
          "23.10.2025 18:42:36",
          "23.10.2025 18:43:06",
          "23.10.2025 18:43:36",
          "23.10.2025 18:44:06",
          "23.10.2025 18:44:39",
          "23.10.2025 18:45:13",
          "23.10.2025 18:45:44",
          "23.10.2025 18:46:14",
          "23.10.2025 18:46:45",
          "23.10.2025 18:47:15",
          "23.10.2025 18:47:48",
          "23.10.2025 18:48:20",
          "23.10.2025 18:48:52",
          "23.10.2025 18:49:25",
          "23.10.2025 18:49:56",
          "23.10.2025 18:50:28",
          "23.10.2025 18:51:02",
          "23.10.2025 18:51:32",
          "23.10.2025 18:52:03",
          "23.10.2025 18:52:33",
          "23.10.2025 18:53:04",
          "23.10.2025 18:53:35",
          "23.10.2025 18:54:05",
          "23.10.2025 18:54:35",
          "23.10.2025 18:55:05",
          "23.10.2025 18:55:38",
          "23.10.2025 18:56:08",
          "23.10.2025 18:56:40",
          "23.10.2025 18:57:11",
          "23.10.2025 18:57:43",
          "23.10.2025 18:58:15",
          "23.10.2025 18:58:45",
          "23.10.2025 18:59:15",
          "23.10.2025 18:59:49",
          "23.10.2025 19:00:19",
          "23.10.2025 19:00:50",
          "23.10.2025 19:01:21",
          "23.10.2025 19:01:52",
          "23.10.2025 19:02:22",
          "23.10.2025 19:02:53",
          "23.10.2025 19:03:27",
          "23.10.2025 19:03:58",
          "23.10.2025 19:04:30",
          "23.10.2025 19:05:00",
          "23.10.2025 19:05:32",
          "23.10.2025 19:06:12",
          "23.10.2025 19:06:43",
          "23.10.2025 19:07:14",
          "23.10.2025 19:07:44",
          "23.10.2025 19:08:15",
          "23.10.2025 19:08:45",
          "23.10.2025 19:09:17",
          "23.10.2025 19:09:47",
          "23.10.2025 19:10:19",
          "23.10.2025 19:10:51",
          "23.10.2025 19:11:21",
          "23.10.2025 19:11:52",
          "23.10.2025 19:12:26",
          "23.10.2025 19:12:56",
          "23.10.2025 19:13:28",
          "23.10.2025 19:14:01",
          "23.10.2025 19:14:31",
          "23.10.2025 19:15:01",
          "23.10.2025 19:15:18",
          "23.10.2025 19:15:35",
          "23.10.2025 19:15:51",
          "23.10.2025 19:16:26",
          "23.10.2025 19:16:58",
          "23.10.2025 19:17:28",
          "23.10.2025 19:17:48",
          "23.10.2025 19:18:18",
          "23.10.2025 19:18:51",
          "23.10.2025 19:19:23",
          "23.10.2025 19:19:54",
          "23.10.2025 19:20:24",
          "23.10.2025 19:20:55",
          "23.10.2025 19:21:28",
          "23.10.2025 19:21:58",
          "23.10.2025 19:22:29",
          "23.10.2025 19:22:46",
          "23.10.2025 19:23:04",
          "23.10.2025 19:23:37",
          "23.10.2025 19:24:09",
          "23.10.2025 19:24:39",
          "23.10.2025 19:25:10",
          "23.10.2025 19:25:26",
          "23.10.2025 19:25:42",
          "23.10.2025 19:25:59",
          "23.10.2025 19:26:15",
          "23.10.2025 19:26:33",
          "23.10.2025 19:26:49",
          "23.10.2025 19:27:05",
          "23.10.2025 19:27:21",
          "23.10.2025 19:27:41",
          "23.10.2025 19:28:11",
          "23.10.2025 19:28:27",
          "23.10.2025 19:28:43",
          "23.10.2025 19:29:16",
          "23.10.2025 19:29:33",
          "23.10.2025 19:29:51",
          "23.10.2025 19:30:09",
          "23.10.2025 19:30:28",
          "23.10.2025 19:30:46",
          "23.10.2025 19:31:02",
          "23.10.2025 19:31:23",
          "23.10.2025 19:31:40",
          "23.10.2025 19:31:58",
          "23.10.2025 19:32:29",
          "23.10.2025 19:32:46",
          "23.10.2025 19:33:03",
          "23.10.2025 19:33:20",
          "23.10.2025 19:33:52",
          "23.10.2025 19:34:08",
          "23.10.2025 19:34:26",
          "23.10.2025 19:34:42",
          "23.10.2025 19:34:58",
          "23.10.2025 19:35:14",
          "23.10.2025 19:35:39"
        ],
        "course_deg_clockwise_from_north": [
          "239",
          "239",
          "241",
          "235",
          "233",
          "233",
          "149",
          "124",
          "90",
          "87",
          "77",
          "67",
          "66",
          "67",
          "68",
          "49",
          "45",
          "42",
          "42",
          "43",
          "43",
          "43",
          "43",
          "44",
          "44",
          "44",
          "40",
          "24",
          "20",
          "20",
          "21",
          "21",
          "21",
          "21",
          "21",
          "21",
          "21",
          "21",
          "21",
          "21",
          "21",
          "21",
          "21",
          "21",
          "21",
          "21",
          "29",
          "29",
          "29",
          "29",
          "29",
          "29",
          "29",
          "29",
          "29",
          "29",
          "29",
          "29",
          "29",
          "29",
          "29",
          "29",
          "29",
          "29",
          "29",
          "29",
          "29",
          "29",
          "29",
          "29",
          "29",
          "30",
          "29",
          "30",
          "29",
          "23",
          "22",
          "22",
          "23",
          "23",
          "23",
          "23",
          "23",
          "23",
          "23",
          "23",
          "23",
          "23",
          "23",
          "23",
          "23",
          "23",
          "24",
          "24",
          "23",
          "22",
          "22",
          "21",
          "21",
          "26",
          "25",
          "25",
          "25",
          "25",
          "25",
          "25",
          "25",
          "25",
          "25",
          "26",
          "25",
          "25",
          "25",
          "26",
          "25",
          "26",
          "26",
          "26",
          "26",
          "26",
          "26",
          "26",
          "26",
          "26",
          "26",
          "26",
          "26",
          "222",
          "26",
          "26",
          "26",
          "26",
          "26",
          "26",
          "26",
          "26",
          "26",
          "26",
          "26",
          "27",
          "26",
          "27",
          "26",
          "27",
          "26",
          "222",
          "27",
          "27",
          "27",
          "26",
          "27",
          "22",
          "17",
          "16",
          "17",
          "17",
          "17",
          "17",
          "17",
          "17",
          "17",
          "17",
          "18",
          "18",
          "17",
          "17",
          "18",
          "17",
          "17",
          "17",
          "18",
          "18",
          "17",
          "17",
          "22",
          "27",
          "25",
          "25",
          "26",
          "25",
          "25",
          "26",
          "26",
          "25",
          "26",
          "26",
          "26",
          "26",
          "26",
          "26",
          "26",
          "26",
          "38",
          "48",
          "55",
          "57",
          "59",
          "58",
          "58",
          "59",
          "59",
          "59",
          "59",
          "59",
          "59",
          "59",
          "59",
          "59",
          "59",
          "59",
          "59",
          "59",
          "59",
          "59",
          "59",
          "59",
          "60",
          "59",
          "59",
          "59",
          "60",
          "60",
          "222",
          "60",
          "47",
          "48",
          "47",
          "48",
          "21",
          "6",
          "4",
          "339",
          "316",
          "308",
          "290",
          "263",
          "262",
          "265",
          "265",
          "266",
          "265",
          "265",
          "265",
          "265",
          "266",
          "266",
          "267",
          "267"
        ],
        "speed_kts": [
          "162",
          "162",
          "172",
          "169",
          "180",
          "180",
          "291",
          "298",
          "285",
          "282",
          "382",
          "384",
          "396",
          "407",
          "426",
          "420",
          "422",
          "426",
          "432",
          "442",
          "452",
          "454",
          "462",
          "468",
          "466",
          "460",
          "450",
          "436",
          "422",
          "428",
          "432",
          "434",
          "434",
          "436",
          "436",
          "438",
          "438",
          "442",
          "448",
          "454",
          "460",
          "458",
          "450",
          "446",
          "442",
          "444",
          "466",
          "474",
          "478",
          "484",
          "488",
          "490",
          "492",
          "492",
          "490",
          "488",
          "488",
          "486",
          "488",
          "488",
          "488",
          "488",
          "488",
          "490",
          "490",
          "490",
          "490",
          "490",
          "492",
          "496",
          "494",
          "478",
          "466",
          "474",
          "480",
          "476",
          "476",
          "480",
          "482",
          "480",
          "480",
          "480",
          "480",
          "480",
          "482",
          "482",
          "484",
          "484",
          "484",
          "482",
          "482",
          "478",
          "476",
          "474",
          "470",
          "464",
          "462",
          "460",
          "458",
          "460",
          "456",
          "452",
          "454",
          "456",
          "464",
          "474",
          "480",
          "466",
          "460",
          "458",
          "458",
          "456",
          "454",
          "454",
          "454",
          "454",
          "462",
          "470",
          "482",
          "476",
          "470",
          "470",
          "472",
          "476",
          "480",
          "482",
          "482",
          "392",
          "480",
          "480",
          "480",
          "392",
          "476",
          "476",
          "478",
          "478",
          "478",
          "478",
          "478",
          "478",
          "480",
          "480",
          "482",
          "480",
          "480",
          "390",
          "480",
          "480",
          "480",
          "480",
          "486",
          "484",
          "488",
          "492",
          "496",
          "496",
          "486",
          "482",
          "486",
          "488",
          "488",
          "488",
          "486",
          "488",
          "488",
          "486",
          "486",
          "486",
          "488",
          "486",
          "488",
          "488",
          "488",
          "488",
          "488",
          "490",
          "486",
          "488",
          "492",
          "494",
          "496",
          "502",
          "506",
          "510",
          "518",
          "520",
          "518",
          "524",
          "524",
          "524",
          "552",
          "552",
          "554",
          "548",
          "534",
          "528",
          "520",
          "482",
          "452",
          "438",
          "424",
          "418",
          "410",
          "396",
          "384",
          "386",
          "398",
          "398",
          "394",
          "390",
          "390",
          "390",
          "386",
          "382",
          "386",
          "384",
          "372",
          "352",
          "324",
          "318",
          "316",
          "310",
          "204",
          "290",
          "268",
          "258",
          "262",
          "266",
          "252",
          "236",
          "214",
          "212",
          "196",
          "174",
          "162",
          "152",
          "156",
          "150",
          "152",
          "154",
          "162",
          "144",
          "140",
          "134",
          "128",
          "126",
          "124",
          "130"
        ],
        "speed_mph": [
          "186",
          "186",
          "198",
          "194",
          "207",
          "207",
          "335",
          "343",
          "328",
          "325",
          "440",
          "442",
          "456",
          "468",
          "490",
          "483",
          "486",
          "490",
          "497",
          "509",
          "520",
          "522",
          "532",
          "539",
          "536",
          "529",
          "518",
          "502",
          "486",
          "493",
          "497",
          "499",
          "499",
          "502",
          "502",
          "504",
          "504",
          "509",
          "516",
          "522",
          "529",
          "527",
          "518",
          "513",
          "509",
          "511",
          "536",
          "545",
          "550",
          "557",
          "562",
          "564",
          "566",
          "566",
          "564",
          "562",
          "562",
          "559",
          "562",
          "562",
          "562",
          "562",
          "562",
          "564",
          "564",
          "564",
          "564",
          "564",
          "566",
          "571",
          "568",
          "550",
          "536",
          "545",
          "552",
          "548",
          "548",
          "552",
          "555",
          "552",
          "552",
          "552",
          "552",
          "552",
          "555",
          "555",
          "557",
          "557",
          "557",
          "555",
          "555",
          "550",
          "548",
          "545",
          "541",
          "534",
          "532",
          "529",
          "527",
          "529",
          "525",
          "520",
          "522",
          "525",
          "534",
          "545",
          "552",
          "536",
          "529",
          "527",
          "527",
          "525",
          "522",
          "522",
          "522",
          "522",
          "532",
          "541",
          "555",
          "548",
          "541",
          "541",
          "543",
          "548",
          "552",
          "555",
          "555",
          "451",
          "552",
          "552",
          "552",
          "451",
          "548",
          "548",
          "550",
          "550",
          "550",
          "550",
          "550",
          "550",
          "552",
          "552",
          "555",
          "552",
          "552",
          "449",
          "552",
          "552",
          "552",
          "552",
          "559",
          "557",
          "562",
          "566",
          "571",
          "571",
          "559",
          "555",
          "559",
          "562",
          "562",
          "562",
          "559",
          "562",
          "562",
          "559",
          "559",
          "559",
          "562",
          "559",
          "562",
          "562",
          "562",
          "562",
          "562",
          "564",
          "559",
          "562",
          "566",
          "568",
          "571",
          "578",
          "582",
          "587",
          "596",
          "598",
          "596",
          "603",
          "603",
          "603",
          "635",
          "635",
          "638",
          "631",
          "615",
          "608",
          "598",
          "555",
          "520",
          "504",
          "488",
          "481",
          "472",
          "456",
          "442",
          "444",
          "458",
          "458",
          "453",
          "449",
          "449",
          "449",
          "444",
          "440",
          "444",
          "442",
          "428",
          "405",
          "373",
          "366",
          "364",
          "357",
          "235",
          "334",
          "308",
          "297",
          "302",
          "306",
          "290",
          "272",
          "246",
          "244",
          "226",
          "200",
          "186",
          "175",
          "180",
          "173",
          "175",
          "177",
          "186",
          "166",
          "161",
          "154",
          "147",
          "145",
          "143",
          "150"
        ],
        "altitude_ft": [
          "1925",
          "1925",
          "2675",
          "5000",
          "6075",
          "6600",
          "8650",
          "9825",
          "10750",
          "11100",
          "13900",
          "15825",
          "17550",
          "19175",
          "20900",
          "22075",
          "23075",
          "24250",
          "25325",
          "26525",
          "27525",
          "28600",
          "29250",
          "30000",
          "30975",
          "32200",
          "33275",
          "34100",
          "34900",
          "35425",
          "35975",
          "36425",
          "36950",
          "37475",
          "38050",
          "38500",
          "39075",
          "39375",
          "39600",
          "39875",
          "40000",
          "40000",
          "40000",
          "40000",
          "40000",
          "40000",
          "40000",
          "40000",
          "40000",
          "40000",
          "40000",
          "40000",
          "40000",
          "40000",
          "40000",
          "40000",
          "40000",
          "40000",
          "40000",
          "40000",
          "40000",
          "40000",
          "40000",
          "40000",
          "40000",
          "40000",
          "40000",
          "40000",
          "40000",
          "40000",
          "40000",
          "40000",
          "40000",
          "40000",
          "40000",
          "40000",
          "40000",
          "40000",
          "40000",
          "40000",
          "40000",
          "40000",
          "40000",
          "40000",
          "40000",
          "40000",
          "40000",
          "40000",
          "40000",
          "40000",
          "40000",
          "40000",
          "40000",
          "40000",
          "40000",
          "40000",
          "40000",
          "40000",
          "40000",
          "40000",
          "40000",
          "40000",
          "40000",
          "40000",
          "40000",
          "40000",
          "40000",
          "40000",
          "40000",
          "40000",
          "40000",
          "40000",
          "40000",
          "40000",
          "40000",
          "40000",
          "40000",
          "40000",
          "40000",
          "40000",
          "40000",
          "40000",
          "39975",
          "40000",
          "40000",
          "40000",
          "40000",
          "40000",
          "40000",
          "40000",
          "40000",
          "40000",
          "40000",
          "40000",
          "40000",
          "40000",
          "40000",
          "40000",
          "40000",
          "40000",
          "40000",
          "40000",
          "40000",
          "40000",
          "40000",
          "40000",
          "40000",
          "40000",
          "40000",
          "40000",
          "40000",
          "40000",
          "40000",
          "40000",
          "40000",
          "40000",
          "40000",
          "40000",
          "40000",
          "40000",
          "40000",
          "40000",
          "40000",
          "40000",
          "40000",
          "40000",
          "40000",
          "40000",
          "40000",
          "40000",
          "40000",
          "40000",
          "40000",
          "40000",
          "40000",
          "40000",
          "39900",
          "39475",
          "38975",
          "38325",
          "37625",
          "36875",
          "36125",
          "35275",
          "34200",
          "33375",
          "33025",
          "33000",
          "32625",
          "31450",
          "30100",
          "28800",
          "27625",
          "26875",
          "26200",
          "25550",
          "24200",
          "22850",
          "21550",
          "20800",
          "19525",
          "18225",
          "16825",
          "15550",
          "14300",
          "13125",
          "11725",
          "10800",
          "10075",
          "10000",
          "10000",
          "10000",
          "10000",
          "10000",
          "10000",
          "9925",
          "9550",
          "8775",
          "8200",
          "7625",
          "7150",
          "6725",
          "6375",
          "6050",
          "5700",
          "5675",
          "5425",
          "4725",
          "4125",
          "3800",
          "3700",
          "3700",
          "3675",
          "3675",
          "3675",
          "3700",
          "3700",
          "3625",
          "3400",
          "3200",
          "2925",
          "2525",
          "2300",
          "2100",
          "1950",
          "1725",
          "1550",
          "1300"
        ],
        "vertical_rate_fpm": [
          "",
          "2647",
          "3127",
          "3458",
          "2824",
          "2414",
          "2888",
          "3150",
          "2013",
          "2625",
          "3297",
          "3532",
          "3350",
          "3141",
          "2806",
          "2462",
          "2373",
          "2213",
          "2202",
          "2164",
          "2041",
          "1697",
          "1400",
          "1725",
          "2063",
          "2156",
          "1781",
          "1336",
          "1136",
          "1057",
          "984",
          "959",
          "969",
          "1015",
          "1025",
          "961",
          "820",
          "525",
          "469",
          "375",
          "123",
          "",
          "",
          "",
          "",
          "",
          "",
          "",
          "",
          "",
          "",
          "",
          "",
          "",
          "",
          "",
          "",
          "",
          "",
          "",
          "",
          "",
          "",
          "",
          "",
          "",
          "",
          "",
          "",
          "",
          "",
          "",
          "",
          "",
          "",
          "",
          "",
          "",
          "",
          "",
          "",
          "",
          "",
          "",
          "",
          "",
          "",
          "",
          "",
          "",
          "",
          "",
          "",
          "",
          "",
          "",
          "",
          "",
          "",
          "",
          "",
          "",
          "",
          "",
          "",
          "",
          "",
          "",
          "",
          "",
          "",
          "",
          "",
          "",
          "",
          "",
          "",
          "",
          "",
          "",
          "",
          "-23",
          "",
          "23",
          "",
          "",
          "",
          "",
          "",
          "",
          "",
          "",
          "",
          "",
          "",
          "",
          "",
          "",
          "",
          "",
          "",
          "",
          "",
          "",
          "",
          "",
          "",
          "",
          "",
          "",
          "",
          "",
          "",
          "",
          "",
          "",
          "",
          "",
          "",
          "",
          "",
          "",
          "",
          "",
          "",
          "",
          "",
          "",
          "",
          "",
          "",
          "",
          "",
          "",
          "",
          "-85",
          "-508",
          "-910",
          "-1131",
          "-1328",
          "-1403",
          "-1452",
          "-1548",
          "-1805",
          "-1839",
          "-1156",
          "-346",
          "-375",
          "-1500",
          "-2331",
          "-2524",
          "-2475",
          "-2457",
          "-2515",
          "-2409",
          "-2353",
          "-2418",
          "-2565",
          "-2460",
          "-2430",
          "-2452",
          "-2492",
          "-2548",
          "-2484",
          "-2385",
          "-2414",
          "-2214",
          "-1623",
          "-1000",
          "-129",
          "",
          "",
          "",
          "",
          "-96",
          "-844",
          "-2091",
          "-2455",
          "-2029",
          "-1853",
          "-1688",
          "-1453",
          "-1125",
          "-810",
          "-489",
          "-516",
          "-1163",
          "-1560",
          "-1586",
          "-708",
          "-162",
          "-41",
          "-44",
          "",
          "39",
          "43",
          "-92",
          "-375",
          "-750",
          "-838",
          "-827",
          "-781",
          "-750",
          "-618",
          "-703",
          "-750",
          "-622",
          "-600"
        ],
        "reporting_facility": [
          "FlightAware MLAT(6 sites)",
          "FlightAware MLAT(6 sites)",
          "FlightAware MLAT(5 sites)",
          "FlightAware MLAT(7 sites)",
          "FlightAware MLAT(5 sites)",
          "FlightAware MLAT(9 sites)",
          "FlightAware MLAT(10 sites)",
          "FlightAware MLAT(12 sites)",
          "FlightAware MLAT(11 sites)",
          "FlightAware MLAT(11 sites)",
          "FlightAware MLAT(7 sites)",
          "FlightAware MLAT(7 sites)",
          "FlightAware MLAT(9 sites)",
          "FlightAware MLAT(10 sites)",
          "FlightAware MLAT(10 sites)",
          "FlightAware MLAT(10 sites)",
          "FlightAware MLAT(13 sites)",
          "FlightAware MLAT(5 sites)",
          "FlightAware MLAT(9 sites)",
          "FlightAware MLAT(10 sites)",
          "FlightAware MLAT(12 sites)",
          "FlightAware MLAT(9 sites)",
          "FlightAware MLAT(13 sites)",
          "FlightAware MLAT(11 sites)",
          "FlightAware MLAT(12 sites)",
          "FlightAware MLAT(9 sites)",
          "FlightAware MLAT(10 sites)",
          "FlightAware MLAT(10 sites)",
          "FlightAware MLAT(5 sites)",
          "FlightAware MLAT(9 sites)",
          "FlightAware MLAT(10 sites)",
          "FlightAware MLAT(7 sites)",
          "FlightAware MLAT(7 sites)",
          "FlightAware MLAT(7 sites)",
          "FlightAware MLAT(6 sites)",
          "FlightAware MLAT(4 sites)",
          "FlightAware MLAT(8 sites)",
          "FlightAware MLAT(7 sites)",
          "FlightAware MLAT(5 sites)",
          "FlightAware MLAT(6 sites)",
          "FlightAware MLAT(5 sites)",
          "FlightAware MLAT(7 sites)",
          "FlightAware MLAT(4 sites)",
          "FlightAware MLAT(6 sites)",
          "FlightAware MLAT(6 sites)",
          "FlightAware MLAT(7 sites)",
          "FlightAware MLAT(6 sites)",
          "FlightAware MLAT(4 sites)",
          "FlightAware MLAT(4 sites)",
          "FlightAware MLAT(9 sites)",
          "FlightAware MLAT(4 sites)",
          "FlightAware MLAT(8 sites)",
          "FlightAware MLAT(6 sites)",
          "FlightAware MLAT(8 sites)",
          "FlightAware MLAT(4 sites)",
          "FlightAware MLAT(4 sites)",
          "FlightAware MLAT(7 sites)",
          "FlightAware MLAT(8 sites)",
          "FlightAware MLAT(10 sites)",
          "FlightAware MLAT(11 sites)",
          "FlightAware MLAT(10 sites)",
          "FlightAware MLAT(4 sites)",
          "FlightAware MLAT(13 sites)",
          "FlightAware MLAT(9 sites)",
          "FlightAware MLAT(10 sites)",
          "FlightAware MLAT(12 sites)",
          "FlightAware MLAT(8 sites)",
          "FlightAware MLAT(9 sites)",
          "FlightAware MLAT(4 sites)",
          "FlightAware MLAT(12 sites)",
          "FlightAware MLAT(13 sites)",
          "FlightAware MLAT(10 sites)",
          "FlightAware MLAT(4 sites)",
          "FlightAware MLAT(6 sites)",
          "FlightAware MLAT(6 sites)",
          "FlightAware MLAT(11 sites)",
          "FlightAware MLAT(7 sites)",
          "FlightAware MLAT(11 sites)",
          "FlightAware MLAT(5 sites)",
          "FlightAware MLAT(11 sites)",
          "FlightAware MLAT(7 sites)",
          "FlightAware MLAT(7 sites)",
          "FlightAware MLAT(5 sites)",
          "FlightAware MLAT(9 sites)",
          "FlightAware MLAT(9 sites)",
          "FlightAware MLAT(4 sites)",
          "FlightAware MLAT(4 sites)",
          "FlightAware MLAT(11 sites)",
          "FlightAware MLAT(8 sites)",
          "FlightAware MLAT(6 sites)",
          "FlightAware MLAT(10 sites)",
          "FlightAware MLAT(5 sites)",
          "FlightAware MLAT(7 sites)",
          "FlightAware MLAT(5 sites)",
          "FlightAware MLAT(5 sites)",
          "FlightAware MLAT(5 sites)",
          "FlightAware MLAT(8 sites)",
          "FlightAware MLAT(6 sites)",
          "FlightAware MLAT(9 sites)",
          "FlightAware MLAT(11 sites)",
          "FlightAware MLAT(7 sites)",
          "FlightAware MLAT(5 sites)",
          "FlightAware MLAT(5 sites)",
          "FlightAware MLAT(14 sites)",
          "FlightAware MLAT(9 sites)",
          "FlightAware MLAT(8 sites)",
          "FlightAware MLAT(13 sites)",
          "FlightAware MLAT(9 sites)",
          "FlightAware MLAT(7 sites)",
          "FlightAware MLAT(5 sites)",
          "FlightAware MLAT(5 sites)",
          "FlightAware MLAT(9 sites)",
          "FlightAware MLAT(9 sites)",
          "FlightAware MLAT(4 sites)",
          "FlightAware MLAT(9 sites)",
          "FlightAware MLAT(11 sites)",
          "FlightAware MLAT(4 sites)",
          "FlightAware MLAT(5 sites)",
          "FlightAware MLAT(10 sites)",
          "FlightAware MLAT(8 sites)",
          "FlightAware MLAT(12 sites)",
          "FlightAware MLAT(7 sites)",
          "FlightAware MLAT(5 sites)",
          "FlightAware MLAT(7 sites)",
          "FlightAware MLAT(6 sites)",
          "FlightAware MLAT(13 sites)",
          "FlightAware MLAT(7 sites)",
          "FlightAware MLAT(12 sites)",
          "FlightAware MLAT(6 sites)",
          "FlightAware MLAT(12 sites)",
          "FlightAware MLAT(5 sites)",
          "FlightAware MLAT(5 sites)",
          "FlightAware MLAT(10 sites)",
          "FlightAware MLAT(4 sites)",
          "FlightAware MLAT(13 sites)",
          "FlightAware MLAT(4 sites)",
          "FlightAware MLAT(12 sites)",
          "FlightAware MLAT(15 sites)",
          "FlightAware MLAT(7 sites)",
          "FlightAware MLAT(15 sites)",
          "FlightAware MLAT(5 sites)",
          "FlightAware MLAT(8 sites)",
          "FlightAware MLAT(5 sites)",
          "FlightAware MLAT(12 sites)",
          "FlightAware MLAT(6 sites)",
          "FlightAware MLAT(5 sites)",
          "FlightAware MLAT(15 sites)",
          "FlightAware MLAT(7 sites)",
          "FlightAware MLAT(12 sites)",
          "FlightAware MLAT(10 sites)",
          "FlightAware MLAT(13 sites)",
          "FlightAware MLAT(4 sites)",
          "FlightAware MLAT(9 sites)",
          "FlightAware MLAT(13 sites)",
          "FlightAware MLAT(12 sites)",
          "FlightAware MLAT(4 sites)",
          "FlightAware MLAT(11 sites)",
          "FlightAware MLAT(11 sites)",
          "FlightAware MLAT(7 sites)",
          "FlightAware MLAT(14 sites)",
          "FlightAware MLAT(7 sites)",
          "FlightAware MLAT(10 sites)",
          "FlightAware MLAT(14 sites)",
          "FlightAware MLAT(6 sites)",
          "FlightAware MLAT(5 sites)",
          "FlightAware MLAT(7 sites)",
          "FlightAware MLAT(13 sites)",
          "FlightAware MLAT(4 sites)",
          "FlightAware MLAT(9 sites)",
          "FlightAware MLAT(10 sites)",
          "FlightAware MLAT(12 sites)",
          "FlightAware MLAT(9 sites)",
          "FlightAware MLAT(5 sites)",
          "FlightAware MLAT(10 sites)",
          "FlightAware MLAT(8 sites)",
          "FlightAware MLAT(9 sites)",
          "FlightAware MLAT(4 sites)",
          "FlightAware MLAT(8 sites)",
          "FlightAware MLAT(5 sites)",
          "FlightAware MLAT(11 sites)",
          "FlightAware MLAT(8 sites)",
          "FlightAware MLAT(5 sites)",
          "FlightAware MLAT(7 sites)",
          "FlightAware MLAT(4 sites)",
          "FlightAware MLAT(8 sites)",
          "FlightAware MLAT(10 sites)",
          "FlightAware MLAT(13 sites)",
          "FlightAware MLAT(4 sites)",
          "FlightAware MLAT(13 sites)",
          "FlightAware MLAT(6 sites)",
          "FlightAware MLAT(7 sites)",
          "FlightAware MLAT(13 sites)",
          "FlightAware MLAT(13 sites)",
          "FlightAware MLAT(13 sites)",
          "FlightAware MLAT(11 sites)",
          "FlightAware MLAT(15 sites)",
          "FlightAware MLAT(13 sites)",
          "FlightAware MLAT(6 sites)",
          "FlightAware MLAT(11 sites)",
          "FlightAware MLAT(11 sites)",
          "FlightAware MLAT(10 sites)",
          "FlightAware MLAT(7 sites)",
          "FlightAware MLAT(11 sites)",
          "FlightAware MLAT(11 sites)",
          "FlightAware MLAT(7 sites)",
          "FlightAware MLAT(9 sites)",
          "FlightAware MLAT(5 sites)",
          "FlightAware MLAT(8 sites)",
          "FlightAware MLAT(9 sites)",
          "FlightAware MLAT(9 sites)",
          "FlightAware MLAT(5 sites)",
          "FlightAware MLAT(13 sites)",
          "FlightAware MLAT(5 sites)",
          "FlightAware MLAT(5 sites)",
          "FlightAware MLAT(9 sites)",
          "FlightAware MLAT(7 sites)",
          "FlightAware MLAT(8 sites)",
          "FlightAware MLAT(8 sites)",
          "FlightAware MLAT(6 sites)",
          "FlightAware MLAT(5 sites)",
          "FlightAware MLAT(6 sites)",
          "FlightAware MLAT(9 sites)",
          "FlightAware MLAT(9 sites)",
          "FlightAware MLAT(4 sites)",
          "FlightAware MLAT(9 sites)",
          "FlightAware MLAT(7 sites)",
          "FlightAware MLAT(10 sites)",
          "FlightAware MLAT(6 sites)",
          "FlightAware MLAT(4 sites)",
          "FlightAware MLAT(5 sites)",
          "FlightAware MLAT(8 sites)",
          "FlightAware MLAT(10 sites)",
          "FlightAware MLAT(7 sites)",
          "FlightAware MLAT(10 sites)",
          "FlightAware MLAT(11 sites)",
          "FlightAware MLAT(5 sites)",
          "FlightAware MLAT(4 sites)",
          "FlightAware MLAT(6 sites)",
          "FlightAware MLAT(10 sites)",
          "FlightAware MLAT(9 sites)",
          "FlightAware MLAT(7 sites)",
          "FlightAware MLAT(6 sites)",
          "FlightAware MLAT(5 sites)",
          "FlightAware MLAT(4 sites)",
          "FlightAware MLAT(4 sites)",
          "FlightAware MLAT(4 sites)",
          "FlightAware MLAT(4 sites)",
          "FlightAware MLAT(4 sites)"
        ]
      }
    }
  ]
}