{
  "type": "FeatureCollection",
  "features": [
    {
      "type": "Feature",
      "geometry": {
        "type": "LineString",
        "coordinates": [
          [
            5.5157,
            52.4538
          ],
          [
            5.5194,
            52.4559
          ],
          [
            5.5273,
            52.4602
          ],
          [
            5.5399,
            52.4671
          ],
          [
            5.553,
            52.4742
          ],
          [
            5.5669,
            52.4818
          ],
          [
            5.5832,
            52.491
          ],
          [
            5.5979,
            52.4998
          ],
          [
            5.6134,
            52.5098
          ],
          [
            5.6323,
            52.5246
          ],
          [
            5.6475,
            52.538
          ],
          [
            5.6704,
            52.5451
          ],
          [
            5.6979,
            52.5381
          ],
          [
            5.711,
            52.5217
          ],
          [
            5.7263,
            52.4874
          ],
          [
            5.7393,
            52.4563
          ],
          [
            5.7537,
            52.421
          ],
          [
            5.7703,
            52.3815
          ],
          [
            5.7816,
            52.3552
          ],
          [
            5.7929,
            52.3294
          ],
          [
            5.8067,
            52.3053
          ],
          [
            5.8354,
            52.289
          ],
          [
            5.8724,
            52.283
          ],
          [
            5.9255,
            52.2694
          ],
          [
            5.9579,
            52.2586
          ],
          [
            6.0083,
            52.2413
          ],
          [
            6.1033,
            52.2102
          ],
          [
            6.15,
            52.193
          ],
          [
            6.1803,
            52.1696
          ],
          [
            6.2321,
            52.1185
          ],
          [
            6.3121,
            52.0462
          ],
          [
            6.3539,
            52.0117
          ],
          [
            6.4454,
            51.9366
          ],
          [
            6.4782,
            51.9093
          ],
          [
            6.5308,
            51.8657
          ],
          [
            6.6013,
            51.8067
          ],
          [
            6.6524,
            51.7642
          ],
          [
            6.7283,
            51.7003
          ],
          [
            6.7683,
            51.667
          ],
          [
            6.7968,
            51.6426
          ],
          [
            6.8196,
            51.6229
          ],
          [
            6.8579,
            51.5909
          ],
          [
            6.8893,
            51.5642
          ],
          [
            6.9258,
            51.5332
          ],
          [
            6.9588,
            51.5052
          ],
          [
            6.9922,
            51.4768
          ],
          [
            7.011,
            51.4605
          ],
          [
            7.0172,
            51.4419
          ],
          [
            7.007,
            51.4241
          ],
          [
            6.9906,
            51.3991
          ],
          [
            6.972,
            51.3845
          ],
          [
            6.945,
            51.371
          ],
          [
            6.9118,
            51.3556
          ],
          [
            6.8801,
            51.3405
          ],
          [
            6.8608,
            51.3314
          ],
          [
            6.8476,
            51.325
          ],
          [
            6.8348,
            51.319
          ],
          [
            6.8218,
            51.3129
          ],
          [
            6.8113,
            51.3079
          ],
          [
            6.7983,
            51.3017
          ],
          [
            6.7864,
            51.2961
          ]
        ]
      },
      "properties": {
        "time_europe_berlin": [
          "16.10.2025 09:46:41",
          "16.10.2025 09:46:47",
          "16.10.2025 09:46:57",
          "16.10.2025 09:47:13",
          "16.10.2025 09:47:29",
          "16.10.2025 09:47:45",
          "16.10.2025 09:48:01",
          "16.10.2025 09:48:17",
          "16.10.2025 09:48:33",
          "16.10.2025 09:48:55",
          "16.10.2025 09:49:15",
          "16.10.2025 09:49:33",
          "16.10.2025 09:49:51",
          "16.10.2025 09:50:09",
          "16.10.2025 09:50:39",
          "16.10.2025 09:51:09",
          "16.10.2025 09:51:39",
          "16.10.2025 09:52:09",
          "16.10.2025 09:52:28",
          "16.10.2025 09:52:48",
          "16.10.2025 09:53:06",
          "16.10.2025 09:53:24",
          "16.10.2025 09:53:43",
          "16.10.2025 09:54:08",
          "16.10.2025 09:54:24",
          "16.10.2025 09:54:46",
          "16.10.2025 09:55:25",
          "16.10.2025 09:55:43",
          "16.10.2025 09:55:59",
          "16.10.2025 09:56:30",
          "16.10.2025 09:57:19",
          "16.10.2025 09:57:42",
          "16.10.2025 09:58:33",
          "16.10.2025 09:58:52",
          "16.10.2025 09:59:22",
          "16.10.2025 10:00:03",
          "16.10.2025 10:00:33",
          "16.10.2025 10:01:22",
          "16.10.2025 10:01:52",
          "16.10.2025 10:02:14",
          "16.10.2025 10:02:32",
          "16.10.2025 10:03:02",
          "16.10.2025 10:03:27",
          "16.10.2025 10:03:57",
          "16.10.2025 10:04:27",
          "16.10.2025 10:04:57",
          "16.10.2025 10:05:17",
          "16.10.2025 10:05:35",
          "16.10.2025 10:05:53",
          "16.10.2025 10:06:18",
          "16.10.2025 10:06:38",
          "16.10.2025 10:07:02",
          "16.10.2025 10:07:32",
          "16.10.2025 10:08:02",
          "16.10.2025 10:08:24",
          "16.10.2025 10:08:40",
          "16.10.2025 10:08:56",
          "16.10.2025 10:09:12",
          "16.10.2025 10:09:28",
          "16.10.2025 10:09:44",
          "16.10.2025 10:10:00"
        ],
        "course_deg_clockwise_from_north": [
          "48",
          "48",
          "48",
          "48",
          "49",
          "48",
          "46",
          "45",
          "41",
          "35",
          "38",
          "82",
          "135",
          "163",
          "165",
          "166",
          "166",
          "165",
          "165",
          "165",
          "150",
          "120",
          "105",
          "117",
          "119",
          "119",
          "116",
          "132",
          "146",
          "148",
          "144",
          "143",
          "144",
          "144",
          "144",
          "143",
          "144",
          "143",
          "144",
          "144",
          "144",
          "144",
          "144",
          "144",
          "144",
          "144",
          "148",
          "192",
          "202",
          "204",
          "228",
          "234",
          "233",
          "233",
          "233",
          "233",
          "233",
          "233",
          "233",
          "233",
          "232"
        ],
        "speed_kts": [
          "137",
          "133",
          "127",
          "140",
          "149",
          "171",
          "177",
          "178",
          "179",
          "178",
          "188",
          "208",
          "229",
          "239",
          "241",
          "252",
          "269",
          "297",
          "307",
          "307",
          "304",
          "294",
          "277",
          "303",
          "320",
          "351",
          "395",
          "403",
          "406",
          "404",
          "399",
          "398",
          "396",
          "392",
          "390",
          "387",
          "382",
          "315",
          "302",
          "297",
          "291",
          "288",
          "286",
          "262",
          "245",
          "236",
          "232",
          "232",
          "228",
          "223",
          "202",
          "197",
          "185",
          "161",
          "146",
          "138",
          "131",
          "130",
          "128",
          "126",
          "126"
        ],
        "speed_mph": [
          "158",
          "153",
          "146",
          "161",
          "171",
          "197",
          "204",
          "205",
          "206",
          "205",
          "216",
          "239",
          "264",
          "275",
          "277",
          "290",
          "310",
          "342",
          "353",
          "353",
          "350",
          "338",
          "319",
          "349",
          "368",
          "404",
          "455",
          "464",
          "467",
          "465",
          "459",
          "458",
          "456",
          "451",
          "449",
          "445",
          "440",
          "362",
          "348",
          "342",
          "335",
          "331",
          "329",
          "302",
          "282",
          "272",
          "267",
          "267",
          "262",
          "257",
          "232",
          "227",
          "213",
          "185",
          "168",
          "159",
          "151",
          "150",
          "147",
          "145",
          "145"
        ],
        "altitude_ft": [
          "",
          "175",
          "875",
          "1725",
          "2500",
          "2650",
          "2675",
          "2675",
          "2675",
          "2725",
          "3225",
          "3700",
          "4175",
          "4600",
          "5375",
          "5975",
          "7175",
          "8800",
          "8975",
          "9000",
          "9000",
          "9025",
          "9800",
          "10975",
          "11700",
          "12425",
          "13000",
          "13000",
          "13000",
          "13000",
          "13000",
          "13000",
          "13000",
          "12625",
          "11850",
          "10800",
          "10100",
          "10000",
          "9400",
          "9050",
          "8725",
          "7975",
          "7275",
          "6350",
          "5500",
          "4375",
          "3700",
          "3075",
          "2725",
          "2675",
          "2675",
          "2400",
          "1875",
          "1375",
          "1075",
          "875",
          "675",
          "475",
          "300",
          "100",
          ""
        ],
        "vertical_rate_fpm": [
          "",
          "3938",
          "3577",
          "3047",
          "1734",
          "328",
          "47",
          "",
          "79",
          "786",
          "1539",
          "1583",
          "1500",
          "1500",
          "1375",
          "1800",
          "2825",
          "2204",
          "308",
          "39",
          "42",
          "1297",
          "2659",
          "2780",
          "2289",
          "1279",
          "605",
          "",
          "",
          "",
          "",
          "",
          "-321",
          "-1408",
          "-1542",
          "-1479",
          "-608",
          "-532",
          "-1096",
          "-1013",
          "-1344",
          "-1582",
          "-1773",
          "-1775",
          "-1975",
          "-2160",
          "-2053",
          "-1625",
          "-558",
          "-67",
          "-375",
          "-889",
          "-1025",
          "-923",
          "-789",
          "-750",
          "-750",
          "-703",
          "-703",
          "-703",
          "-656"
        ],
        "reporting_facility": [
          "FlightAware ADS-B(LEY / EHLE)",
          "Surface and Near-Surface",
          "FlightAware ADS-B(LEY / EHLE)",
          "FlightAware ADS-B(AMS / EHAM)",
          "FlightAware ADS-B(EHHV)",
          "FlightAware ADS-B(LEY / EHLE)",
          "FlightAware ADS-B(LEY / EHLE)",
          "FlightAware ADS-B(UTC / EHSB)",
          "FlightAware ADS-B(GRQ / EHGG)",
          "FlightAware ADS-B(DHR / EHKD)",
          "FlightAware ADS-B(LEY / EHLE)",
          "FlightAware ADS-B(EHDB)",
          "FlightAware ADS-B(EHTE)",
          "FlightAware ADS-B(AMS / EHAM)",
          "FlightAware ADS-B(ETWM)",
          "FlightAware ADS-B(EDLS)",
          "FlightAware ADS-B(AMS / EHAM)",
          "FlightAware ADS-B(EHTE)",
          "FlightAware ADS-B(DHR / EHKD)",
          "FlightAware ADS-B(EHTL)",
          "FlightAware ADS-B(AMS / EHAM)",
          "FlightAware ADS-B(ETWM)",
          "FlightAware ADS-B(DHR / EHKD)",
          "FlightAware ADS-B(EBCV)",
          "FlightAware ADS-B(LEY / EHLE)",
          "FlightAware ADS-B(GRQ / EHGG)",
          "FlightAware ADS-B(ENS / EHTW)",
          "FlightAware ADS-B(EHDL)",
          "FlightAware ADS-B(UDE / EHVK)",
          "FlightAware ADS-B(GRQ / EHGG)",
          "FlightAware ADS-B(EDLS)",
          "FlightAware ADS-B(UTC / EHSB)",
          "FlightAware ADS-B(LEY / EHLE)",
          "FlightAware ADS-B(EHHV)",
          "FlightAware ADS-B(UDE / EHVK)",
          "FlightAware ADS-B(DTM / EDLW)",
          "FlightAware ADS-B(EHDL)",
          "FlightAware ADS-B(ENS / EHTW)",
          "FlightAware ADS-B(ENS / EHTW)",
          "FlightAware ADS-B(DTM / EDLW)",
          "FlightAware ADS-B(MGL / EDLN)",
          "FlightAware ADS-B(RTM / EHRD)",
          "FlightAware ADS-B(EHHV)",
          "FlightAware ADS-B(DUS / EDDL)",
          "FlightAware ADS-B(DTM / EDLW)",
          "FlightAware ADS-B(EDLM)",
          "FlightAware ADS-B(DTM / EDLW)",
          "FlightAware ADS-B(GLZ / EHGR)",
          "FlightAware ADS-B(EDLD)",
          "FlightAware ADS-B(DUS / EDDL)",
          "FlightAware ADS-B(DUS / EDDL)",
          "FlightAware ADS-B(DTM / EDLW)",
          "FlightAware ADS-B(ESS / EDLE)",
          "FlightAware ADS-B(EDLD)",
          "Surface and Near-Surface",
          "FlightAware ADS-B(MGL / EDLN)",
          "FlightAware ADS-B(DUS / EDDL)",
          "FlightAware ADS-B(DUS / EDDL)",
          "FlightAware ADS-B(DUS / EDDL)",
          "FlightAware ADS-B(DUS / EDDL)",
          "FlightAware ADS-B(DUS / EDDL)"
        ]
      }
    }
  ]
}