{
  "type": "FeatureCollection",
  "features": [
    {
      "type": "Feature",
      "geometry": {
        "type": "LineString",
        "coordinates": [
          [
            9.393349,
            51.419147
          ],
          [
            9.393927803088804,
            51.41929642084942
          ],
          [
            9.394506606177607,
            51.419445841698845
          ],
          [
            9.39508540926641,
            51.41959526254826
          ],
          [
            9.395664212355213,
            51.41974468339768
          ],
          [
            9.396243015444016,
            51.419894104247106
          ],
          [
            9.39682181853282,
            51.420043525096524
          ],
          [
            9.397400621621621,
            51.42019294594595
          ],
          [
            9.397979424710424,
            51.42034236679537
          ],
          [
            9.398346,
            51.420437
          ],
          [
            9.406433,
            51.420017
          ],
          [
            9.415729,
            51.41954
          ],
          [
            9.426193,
            51.419041
          ],
          [
            9.436035,
            51.418621
          ],
          [
            9.438934,
            51.418762
          ],
          [
            9.441833,
            51.419182
          ],
          [
            9.444234,
            51.419724
          ],
          [
            9.446564,
            51.420532
          ],
          [
            9.448547,
            51.421417
          ],
          [
            9.45076,
            51.422626
          ],
          [
            9.452438,
            51.42379
          ],
          [
            9.454193,
            51.425278
          ],
          [
            9.45549,
            51.426628
          ],
          [
            9.456711,
            51.428307
          ],
          [
            9.45755,
            51.429794
          ],
          [
            9.45816,
            51.431332
          ],
          [
            9.458542,
            51.432869
          ],
          [
            9.458634,
            51.434967
          ],
          [
            9.458412,
            51.43689
          ],
          [
            9.457967,
            51.438171
          ],
          [
            9.457169,
            51.439896
          ],
          [
            9.456177,
            51.441433
          ],
          [
            9.454422,
            51.443436
          ],
          [
            9.452896,
            51.444786
          ],
          [
            9.451218,
            51.446041
          ],
          [
            9.448929,
            51.447392
          ],
          [
            9.446793,
            51.448418
          ],
          [
            9.444122,
            51.44944
          ],
          [
            9.442007,
            51.450073
          ],
          [
            9.439316,
            51.450699
          ],
          [
            9.435994,
            51.451263
          ],
          [
            9.43399,
            51.451538
          ],
          [
            9.430872,
            51.451904
          ],
          [
            9.428274,
            51.452133
          ],
          [
            9.425156,
            51.452271
          ],
          [
            9.422409,
            51.452316
          ],
          [
            9.419708,
            51.452374
          ],
          [
            9.417881,
            51.452454
          ],
          [
            9.413986,
            51.452511
          ],
          [
            9.411469,
            51.452606
          ],
          [
            9.408603,
            51.452637
          ],
          [
            9.406004,
            51.452728
          ],
          [
            9.403763,
            51.452744
          ],
          [
            9.400436,
            51.45282
          ],
          [
            9.397659,
            51.452885
          ],
          [
            9.395218,
            51.45293
          ],
          [
            9.392319,
            51.452976
          ],
          [
            9.384155,
            51.453026
          ],
          [
            9.374159,
            51.45314
          ],
          [
            9.364166,
            51.45335
          ],
          [
            9.354248,
            51.453583
          ],
          [
            9.344177,
            51.453815
          ],
          [
            9.336597,
            51.45401
          ],
          [
            9.329248,
            51.453918
          ],
          [
            9.327022,
            51.45369
          ],
          [
            9.32518,
            51.453445
          ],
          [
            9.322205,
            51.452744
          ],
          [
            9.320221,
            51.452141
          ],
          [
            9.31839,
            51.451347
          ],
          [
            9.316711,
            51.450512
          ],
          [
            9.315186,
            51.449532
          ],
          [
            9.313889,
            51.448463
          ],
          [
            9.312398,
            51.44696
          ],
          [
            9.311582,
            51.44577
          ],
          [
            9.310989,
            51.444645
          ],
          [
            9.310455,
            51.442829
          ],
          [
            9.310379,
            51.441525
          ],
          [
            9.310468,
            51.440094
          ],
          [
            9.310913,
            51.438686
          ],
          [
            9.3116,
            51.437199
          ],
          [
            9.312286,
            51.435986
          ],
          [
            9.313126,
            51.434822
          ],
          [
            9.313956,
            51.433777
          ],
          [
            9.315414,
            51.432308
          ],
          [
            9.316559,
            51.431286
          ],
          [
            9.317891,
            51.430252
          ],
          [
            9.319227,
            51.429291
          ],
          [
            9.320934,
            51.428238
          ],
          [
            9.322586,
            51.427326
          ],
          [
            9.324497,
            51.426498
          ],
          [
            9.32576,
            51.425995
          ],
          [
            9.328003,
            51.425278
          ],
          [
            9.32999,
            51.42485
          ],
          [
            9.332733,
            51.424442
          ],
          [
            9.334742,
            51.424255
          ],
          [
            9.336777,
            51.424023
          ],
          [
            9.340668,
            51.423557
          ],
          [
            9.341867,
            51.423431
          ],
          [
            9.345551,
            51.423233
          ],
          [
            9.34845,
            51.423092
          ],
          [
            9.351501,
            51.423
          ],
          [
            9.35716,
            51.422745
          ]
        ]
      },
      "properties": {
        "time_europe_berlin": [
          "01.10.2025 10:09:40",
          "01.10.2025 10:10:10",
          "01.10.2025 10:10:40",
          "01.10.2025 10:11:10",
          "01.10.2025 10:11:40",
          "01.10.2025 10:12:10",
          "01.10.2025 10:12:40",
          "01.10.2025 10:13:10",
          "01.10.2025 10:13:40",
          "01.10.2025 10:13:59",
          "01.10.2025 10:14:06",
          "01.10.2025 10:14:15",
          "01.10.2025 10:14:24",
          "01.10.2025 10:14:32",
          "01.10.2025 10:14:35",
          "01.10.2025 10:14:37",
          "01.10.2025 10:14:39",
          "01.10.2025 10:14:41",
          "01.10.2025 10:14:43",
          "01.10.2025 10:14:46",
          "01.10.2025 10:14:48",
          "01.10.2025 10:14:50",
          "01.10.2025 10:14:52",
          "01.10.2025 10:14:54",
          "01.10.2025 10:14:56",
          "01.10.2025 10:14:59",
          "01.10.2025 10:15:01",
          "01.10.2025 10:15:03",
          "01.10.2025 10:15:05",
          "01.10.2025 10:15:07",
          "01.10.2025 10:15:09",
          "01.10.2025 10:15:12",
          "01.10.2025 10:15:14",
          "01.10.2025 10:15:16",
          "01.10.2025 10:15:18",
          "01.10.2025 10:15:20",
          "01.10.2025 10:15:22",
          "01.10.2025 10:15:25",
          "01.10.2025 10:15:27",
          "01.10.2025 10:15:29",
          "01.10.2025 10:15:31",
          "01.10.2025 10:15:33",
          "01.10.2025 10:15:35",
          "01.10.2025 10:15:38",
          "01.10.2025 10:15:40",
          "01.10.2025 10:15:42",
          "01.10.2025 10:15:44",
          "01.10.2025 10:15:46",
          "01.10.2025 10:15:48",
          "01.10.2025 10:15:50",
          "01.10.2025 10:15:53",
          "01.10.2025 10:15:55",
          "01.10.2025 10:15:57",
          "01.10.2025 10:15:59",
          "01.10.2025 10:16:01",
          "01.10.2025 10:16:04",
          "01.10.2025 10:16:06",
          "01.10.2025 10:16:12",
          "01.10.2025 10:16:21",
          "01.10.2025 10:16:30",
          "01.10.2025 10:16:38",
          "01.10.2025 10:16:47",
          "01.10.2025 10:16:53",
          "01.10.2025 10:17:00",
          "01.10.2025 10:17:02",
          "01.10.2025 10:17:04",
          "01.10.2025 10:17:06",
          "01.10.2025 10:17:08",
          "01.10.2025 10:17:10",
          "01.10.2025 10:17:12",
          "01.10.2025 10:17:14",
          "01.10.2025 10:17:17",
          "01.10.2025 10:17:19",
          "01.10.2025 10:17:21",
          "01.10.2025 10:17:23",
          "01.10.2025 10:17:25",
          "01.10.2025 10:17:28",
          "01.10.2025 10:17:30",
          "01.10.2025 10:17:32",
          "01.10.2025 10:17:34",
          "01.10.2025 10:17:36",
          "01.10.2025 10:17:39",
          "01.10.2025 10:17:41",
          "01.10.2025 10:17:43",
          "01.10.2025 10:17:45",
          "01.10.2025 10:17:47",
          "01.10.2025 10:17:50",
          "01.10.2025 10:17:52",
          "01.10.2025 10:17:54",
          "01.10.2025 10:17:56",
          "01.10.2025 10:17:58",
          "01.10.2025 10:18:00",
          "01.10.2025 10:18:03",
          "01.10.2025 10:18:05",
          "01.10.2025 10:18:07",
          "01.10.2025 10:18:10",
          "01.10.2025 10:18:14",
          "01.10.2025 10:18:16",
          "01.10.2025 10:18:19",
          "01.10.2025 10:18:24",
          "01.10.2025 10:18:26",
          "01.10.2025 10:18:33"
        ],
        "course_deg_clockwise_from_north": [
          275,
          254,
          233,
          212,
          192,
          171,
          150,
          129,
          108,
          95,
          94,
          95,
          94,
          89,
          84,
          74,
          65,
          59,
          52,
          46,
          38,
          36,
          28,
          23,
          18,
          12,
          7,
          358,
          352,
          347,
          341,
          336,
          330,
          322,
          317,
          312,
          306,
          300,
          292,
          288,
          284,
          281,
          279,
          276,
          274,
          272,
          271,
          271,
          271,
          272,
          272,
          271,
          271,
          271,
          271,
          271,
          271,
          270,
          271,
          271,
          272,
          272,
          271,
          265,
          261,
          253,
          247,
          241,
          235,
          229,
          222,
          217,
          210,
          200,
          194,
          188,
          182,
          176,
          167,
          162,
          158,
          155,
          152,
          148,
          145,
          139,
          136,
          133,
          130,
          126,
          119,
          113,
          106,
          101,
          99,
          100,
          100,
          97,
          97,
          93,
          92,
          95
        ],
        "speed_kts": [
          0,
          15,
          31,
          46,
          61,
          76,
          92,
          107,
          122,
          132,
          141,
          151,
          161,
          165,
          162,
          163,
          164,
          165,
          166,
          166,
          167,
          168,
          168,
          169,
          169,
          170,
          171,
          173,
          174,
          176,
          178,
          178,
          178,
          178,
          178,
          177,
          177,
          176,
          177,
          176,
          177,
          177,
          177,
          176,
          176,
          176,
          176,
          175,
          174,
          174,
          174,
          173,
          172,
          170,
          169,
          166,
          164,
          161,
          156,
          159,
          158,
          154,
          154,
          153,
          152,
          151,
          151,
          150,
          148,
          146,
          145,
          145,
          144,
          143,
          142,
          141,
          141,
          140,
          140,
          140,
          139,
          139,
          139,
          138,
          137,
          136,
          136,
          135,
          136,
          135,
          133,
          131,
          128,
          126,
          125,
          124,
          121,
          119,
          119,
          118,
          117,
          117
        ],
        "speed_mph": [
          0.0,
          17.0,
          36.0,
          53.0,
          70.0,
          87.0,
          106.0,
          123.0,
          140.0,
          152.0,
          162.0,
          174.0,
          185.0,
          190.0,
          186.0,
          188.0,
          189.0,
          190.0,
          191.0,
          191.0,
          192.0,
          193.0,
          193.0,
          194.0,
          194.0,
          196.0,
          197.0,
          199.0,
          200.0,
          203.0,
          205.0,
          205.0,
          205.0,
          205.0,
          205.0,
          204.0,
          204.0,
          203.0,
          204.0,
          203.0,
          204.0,
          204.0,
          204.0,
          203.0,
          203.0,
          203.0,
          203.0,
          201.0,
          200.0,
          200.0,
          200.0,
          199.0,
          198.0,
          196.0,
          194.0,
          191.0,
          189.0,
          185.0,
          180.0,
          183.0,
          182.0,
          177.0,
          177.0,
          176.0,
          175.0,
          174.0,
          174.0,
          173.0,
          170.0,
          168.0,
          167.0,
          167.0,
          166.0,
          165.0,
          163.0,
          162.0,
          162.0,
          161.0,
          161.0,
          161.0,
          160.0,
          160.0,
          160.0,
          159.0,
          158.0,
          157.0,
          157.0,
          155.0,
          157.0,
          155.0,
          153.0,
          151.0,
          147.0,
          145.0,
          144.0,
          143.0,
          139.0,
          137.0,
          137.0,
          136.0,
          135.0,
          135.0
        ],
        "altitude_ft": [
          0,
          90,
          180,
          269,
          359,
          449,
          539,
          628,
          718,
          775,
          1050,
          1300,
          1425,
          1425,
          1450,
          1475,
          1475,
          1450,
          1450,
          1425,
          1425,
          1425,
          1450,
          1425,
          1450,
          1425,
          1425,
          1425,
          1400,
          1400,
          1375,
          1375,
          1375,
          1400,
          1400,
          1400,
          1425,
          1425,
          1400,
          1400,
          1375,
          1375,
          1350,
          1350,
          1350,
          1350,
          1325,
          1325,
          1325,
          1300,
          1300,
          1300,
          1300,
          1325,
          1350,
          1375,
          1400,
          1425,
          1500,
          1475,
          1450,
          1425,
          1400,
          1350,
          1350,
          1350,
          1325,
          1300,
          1300,
          1275,
          1275,
          1275,
          1250,
          1250,
          1250,
          1225,
          1225,
          1200,
          1200,
          1175,
          1150,
          1150,
          1150,
          1150,
          1150,
          1150,
          1150,
          1150,
          1125,
          1100,
          1075,
          1050,
          1025,
          975,
          950,
          900,
          850,
          825,
          775,
          725,
          700,
          625
        ],
        "vertical_rate_fpm": [
          0.0,
          0.0,
          0.0,
          0.0,
          0.0,
          0.0,
          0.0,
          0.0,
          0.0,
          0.0,
          0.0,
          0.0,
          0.0,
          0.0,
          0.0,
          0.0,
          0.0,
          0.0,
          0.0,
          0.0,
          0.0,
          0.0,
          0.0,
          0.0,
          0.0,
          0.0,
          0.0,
          0.0,
          0.0,
          0.0,
          0.0,
          0.0,
          0.0,
          0.0,
          0.0,
          0.0,
          0.0,
          0.0,
          0.0,
          0.0,
          0.0,
          0.0,
          0.0,
          0.0,
          0.0,
          0.0,
          0.0,
          0.0,
          0.0,
          0.0,
          0.0,
          0.0,
          0.0,
          0.0,
          0.0,
          0.0,
          0.0,
          0.0,
          0.0,
          0.0,
          0.0,
          0.0,
          0.0,
          0.0,
          0.0,
          0.0,
          0.0,
          0.0,
          0.0,
          0.0,
          0.0,
          0.0,
          0.0,
          0.0,
          0.0,
          0.0,
          0.0,
          0.0,
          0.0,
          0.0,
          0.0,
          0.0,
          0.0,
          0.0,
          0.0,
          0.0,
          0.0,
          0.0,
          0.0,
          0.0,
          0.0,
          0.0,
          0.0,
          0.0,
          0.0,
          0.0,
          0.0,
          0.0,
          0.0,
          0.0,
          0.0,
          0.0
        ]
      }
    }
  ]
}