{
  "type": "FeatureCollection",
  "features": [
    {
      "type": "Feature",
      "geometry": {
        "type": "LineString",
        "coordinates": [
          [
            7.1223,
            50.8699
          ],
          [
            7.1104,
            50.8786
          ],
          [
            7.101,
            50.8903
          ],
          [
            7.1034,
            50.9029
          ],
          [
            7.1118,
            50.9145
          ],
          [
            7.1229,
            50.9255
          ],
          [
            7.1376,
            50.9365
          ],
          [
            7.1603,
            50.9453
          ],
          [
            7.1886,
            50.9531
          ],
          [
            7.2179,
            50.9609
          ],
          [
            7.2505,
            50.9707
          ],
          [
            7.2761,
            50.976
          ],
          [
            7.3013,
            50.9696
          ],
          [
            7.3221,
            50.9506
          ],
          [
            7.3499,
            50.9027
          ],
          [
            7.3678,
            50.8726
          ],
          [
            7.4159,
            50.8006
          ],
          [
            7.4326,
            50.775
          ],
          [
            7.462,
            50.7305
          ],
          [
            7.487,
            50.6938
          ],
          [
            7.5169,
            50.6482
          ],
          [
            7.548,
            50.6014
          ],
          [
            7.5948,
            50.5314
          ],
          [
            7.6129,
            50.5037
          ],
          [
            7.6461,
            50.4542
          ],
          [
            7.66,
            50.4283
          ],
          [
            7.6939,
            50.3524
          ],
          [
            7.7102,
            50.3165
          ],
          [
            7.7586,
            50.2124
          ],
          [
            7.7849,
            50.1551
          ],
          [
            7.8022,
            50.1179
          ],
          [
            7.8199,
            50.0799
          ],
          [
            7.8556,
            50.0014
          ],
          [
            7.8833,
            49.9419
          ],
          [
            7.9099,
            49.8835
          ],
          [
            7.9381,
            49.821
          ],
          [
            7.9646,
            49.7625
          ],
          [
            7.9845,
            49.7199
          ],
          [
            8.0116,
            49.6591
          ],
          [
            8.0391,
            49.599
          ],
          [
            8.056,
            49.5614
          ],
          [
            8.0825,
            49.5018
          ],
          [
            8.1096,
            49.4417
          ],
          [
            8.1367,
            49.3812
          ],
          [
            8.1633,
            49.3212
          ],
          [
            8.1911,
            49.2587
          ],
          [
            8.2181,
            49.199
          ],
          [
            8.2362,
            49.1578
          ],
          [
            8.2611,
            49.1003
          ],
          [
            8.289,
            49.0393
          ],
          [
            8.3037,
            49.0033
          ],
          [
            8.3126,
            48.966
          ],
          [
            8.3185,
            48.9232
          ],
          [
            8.3217,
            48.886
          ],
          [
            8.326,
            48.8287
          ],
          [
            8.331,
            48.7787
          ],
          [
            8.3374,
            48.7189
          ],
          [
            8.3463,
            48.6282
          ],
          [
            8.3529,
            48.5615
          ],
          [
            8.3597,
            48.4949
          ],
          [
            8.3661,
            48.4293
          ],
          [
            8.3727,
            48.3594
          ],
          [
            8.379,
            48.2944
          ],
          [
            8.386,
            48.2251
          ],
          [
            8.3914,
            48.1656
          ],
          [
            8.3978,
            48.1
          ],
          [
            8.4044,
            48.0517
          ],
          [
            8.412,
            48.0031
          ],
          [
            8.4231,
            47.9203
          ],
          [
            8.4285,
            47.8817
          ],
          [
            8.4374,
            47.8168
          ],
          [
            8.4428,
            47.7779
          ],
          [
            8.4497,
            47.7246
          ],
          [
            8.4606,
            47.6463
          ],
          [
            8.4697,
            47.5797
          ],
          [
            8.4784,
            47.5139
          ],
          [
            8.4873,
            47.4485
          ],
          [
            8.4957,
            47.3905
          ],
          [
            8.5043,
            47.3237
          ],
          [
            8.5125,
            47.2602
          ],
          [
            8.519,
            47.2138
          ],
          [
            8.5281,
            47.1466
          ],
          [
            8.5371,
            47.0809
          ],
          [
            8.5474,
            46.9989
          ],
          [
            8.5567,
            46.9319
          ],
          [
            8.5633,
            46.8821
          ],
          [
            8.5717,
            46.818
          ],
          [
            8.5805,
            46.7508
          ],
          [
            8.5891,
            46.6854
          ],
          [
            8.5978,
            46.6204
          ],
          [
            8.6061,
            46.5562
          ],
          [
            8.6152,
            46.4871
          ],
          [
            8.6234,
            46.4239
          ],
          [
            8.6313,
            46.3636
          ],
          [
            8.6405,
            46.292
          ],
          [
            8.6507,
            46.2122
          ],
          [
            8.6593,
            46.1553
          ],
          [
            8.6706,
            46.1226
          ],
          [
            8.7021,
            46.0708
          ],
          [
            8.7256,
            46.0413
          ],
          [
            8.7591,
            46.0039
          ],
          [
            8.8264,
            45.9348
          ],
          [
            8.8764,
            45.8831
          ],
          [
            8.9265,
            45.8291
          ],
          [
            8.9756,
            45.7775
          ],
          [
            9.0189,
            45.7319
          ],
          [
            9.0529,
            45.695
          ],
          [
            9.0777,
            45.6636
          ],
          [
            9.1012,
            45.6253
          ],
          [
            9.1401,
            45.554
          ],
          [
            9.1708,
            45.4961
          ],
          [
            9.2005,
            45.4395
          ],
          [
            9.2301,
            45.3828
          ],
          [
            9.2527,
            45.3424
          ],
          [
            9.279,
            45.3113
          ],
          [
            9.3396,
            45.2547
          ],
          [
            9.3938,
            45.207
          ],
          [
            9.444,
            45.1608
          ],
          [
            9.4727,
            45.1337
          ],
          [
            9.4973,
            45.1033
          ],
          [
            9.5499,
            45.0227
          ],
          [
            9.5853,
            44.968
          ],
          [
            9.6218,
            44.9133
          ],
          [
            9.6574,
            44.8585
          ],
          [
            9.6939,
            44.8035
          ],
          [
            9.7297,
            44.7485
          ],
          [
            9.7696,
            44.6639
          ],
          [
            9.7949,
            44.6051
          ],
          [
            9.8207,
            44.547
          ],
          [
            9.8428,
            44.5117
          ],
          [
            9.8887,
            44.4549
          ],
          [
            9.9253,
            44.4103
          ],
          [
            9.9637,
            44.3607
          ],
          [
            9.9983,
            44.3163
          ],
          [
            10.0333,
            44.2721
          ],
          [
            10.0607,
            44.2366
          ],
          [
            10.0707,
            44.2115
          ],
          [
            10.0743,
            44.1824
          ],
          [
            10.0743,
            44.1458
          ],
          [
            10.0722,
            44.1001
          ],
          [
            10.0708,
            44.0553
          ],
          [
            10.0705,
            44.0163
          ],
          [
            10.0704,
            43.9774
          ],
          [
            10.0709,
            43.9555
          ],
          [
            10.0713,
            43.9208
          ],
          [
            10.071,
            43.8847
          ],
          [
            10.0716,
            43.846
          ],
          [
            10.0718,
            43.809
          ],
          [
            10.0718,
            43.7694
          ],
          [
            10.072,
            43.7354
          ],
          [
            10.0721,
            43.6949
          ],
          [
            10.0722,
            43.6603
          ],
          [
            10.0721,
            43.6225
          ],
          [
            10.0726,
            43.5986
          ],
          [
            10.0845,
            43.581
          ],
          [
            10.1051,
            43.5711
          ],
          [
            10.1301,
            43.5645
          ],
          [
            10.1746,
            43.5573
          ],
          [
            10.1975,
            43.554
          ],
          [
            10.2382,
            43.548
          ],
          [
            10.259,
            43.5473
          ],
          [
            10.2717,
            43.5568
          ],
          [
            10.2794,
            43.5709
          ],
          [
            10.2971,
            43.5894
          ],
          [
            10.3081,
            43.6
          ],
          [
            10.3272,
            43.6186
          ],
          [
            10.3347,
            43.626
          ],
          [
            10.3364,
            43.6276
          ],
          [
            10.3457,
            43.6368
          ],
          [
            10.3534,
            43.6441
          ],
          [
            10.3614,
            43.6518
          ],
          [
            10.3693,
            43.6595
          ],
          [
            10.377,
            43.667
          ],
          [
            10.3844,
            43.6742
          ]
        ]
      },
      "properties": {
        "time_europe_berlin": [
          "10.10.2025 10:41:53",
          "10.10.2025 10:42:09",
          "10.10.2025 10:42:25",
          "10.10.2025 10:42:41",
          "10.10.2025 10:42:57",
          "10.10.2025 10:43:13",
          "10.10.2025 10:43:30",
          "10.10.2025 10:43:49",
          "10.10.2025 10:44:12",
          "10.10.2025 10:44:33",
          "10.10.2025 10:44:59",
          "10.10.2025 10:45:18",
          "10.10.2025 10:45:35",
          "10.10.2025 10:45:55",
          "10.10.2025 10:46:34",
          "10.10.2025 10:46:58",
          "10.10.2025 10:47:49",
          "10.10.2025 10:48:06",
          "10.10.2025 10:48:36",
          "10.10.2025 10:48:59",
          "10.10.2025 10:49:29",
          "10.10.2025 10:49:59",
          "10.10.2025 10:50:43",
          "10.10.2025 10:51:01",
          "10.10.2025 10:51:31",
          "10.10.2025 10:51:47",
          "10.10.2025 10:52:31",
          "10.10.2025 10:52:52",
          "10.10.2025 10:53:49",
          "10.10.2025 10:54:19",
          "10.10.2025 10:54:37",
          "10.10.2025 10:54:58",
          "10.10.2025 10:55:37",
          "10.10.2025 10:56:07",
          "10.10.2025 10:56:37",
          "10.10.2025 10:57:07",
          "10.10.2025 10:57:37",
          "10.10.2025 10:57:57",
          "10.10.2025 10:58:27",
          "10.10.2025 10:58:57",
          "10.10.2025 10:59:15",
          "10.10.2025 10:59:45",
          "10.10.2025 11:00:15",
          "10.10.2025 11:00:45",
          "10.10.2025 11:01:15",
          "10.10.2025 11:01:45",
          "10.10.2025 11:02:15",
          "10.10.2025 11:02:34",
          "10.10.2025 11:03:04",
          "10.10.2025 11:03:34",
          "10.10.2025 11:03:51",
          "10.10.2025 11:04:09",
          "10.10.2025 11:04:29",
          "10.10.2025 11:04:46",
          "10.10.2025 11:05:12",
          "10.10.2025 11:05:35",
          "10.10.2025 11:06:01",
          "10.10.2025 11:06:42",
          "10.10.2025 11:07:12",
          "10.10.2025 11:07:42",
          "10.10.2025 11:08:12",
          "10.10.2025 11:08:42",
          "10.10.2025 11:09:12",
          "10.10.2025 11:09:42",
          "10.10.2025 11:10:10",
          "10.10.2025 11:10:40",
          "10.10.2025 11:11:02",
          "10.10.2025 11:11:26",
          "10.10.2025 11:12:04",
          "10.10.2025 11:12:21",
          "10.10.2025 11:12:51",
          "10.10.2025 11:13:09",
          "10.10.2025 11:13:33",
          "10.10.2025 11:14:11",
          "10.10.2025 11:14:41",
          "10.10.2025 11:15:11",
          "10.10.2025 11:15:41",
          "10.10.2025 11:16:08",
          "10.10.2025 11:16:38",
          "10.10.2025 11:17:08",
          "10.10.2025 11:17:31",
          "10.10.2025 11:18:01",
          "10.10.2025 11:18:31",
          "10.10.2025 11:19:10",
          "10.10.2025 11:19:40",
          "10.10.2025 11:20:03",
          "10.10.2025 11:20:33",
          "10.10.2025 11:21:03",
          "10.10.2025 11:21:33",
          "10.10.2025 11:22:03",
          "10.10.2025 11:22:33",
          "10.10.2025 11:23:03",
          "10.10.2025 11:23:33",
          "10.10.2025 11:24:03",
          "10.10.2025 11:24:33",
          "10.10.2025 11:25:10",
          "10.10.2025 11:25:35",
          "10.10.2025 11:25:53",
          "10.10.2025 11:26:18",
          "10.10.2025 11:26:35",
          "10.10.2025 11:26:55",
          "10.10.2025 11:27:35",
          "10.10.2025 11:28:05",
          "10.10.2025 11:28:35",
          "10.10.2025 11:29:05",
          "10.10.2025 11:29:35",
          "10.10.2025 11:29:57",
          "10.10.2025 11:30:15",
          "10.10.2025 11:30:36",
          "10.10.2025 11:31:15",
          "10.10.2025 11:31:45",
          "10.10.2025 11:32:15",
          "10.10.2025 11:32:45",
          "10.10.2025 11:33:06",
          "10.10.2025 11:33:25",
          "10.10.2025 11:34:01",
          "10.10.2025 11:34:31",
          "10.10.2025 11:35:01",
          "10.10.2025 11:35:19",
          "10.10.2025 11:35:37",
          "10.10.2025 11:36:21",
          "10.10.2025 11:36:51",
          "10.10.2025 11:37:21",
          "10.10.2025 11:37:51",
          "10.10.2025 11:38:21",
          "10.10.2025 11:38:51",
          "10.10.2025 11:39:36",
          "10.10.2025 11:40:06",
          "10.10.2025 11:40:36",
          "10.10.2025 11:40:56",
          "10.10.2025 11:41:32",
          "10.10.2025 11:42:02",
          "10.10.2025 11:42:32",
          "10.10.2025 11:43:02",
          "10.10.2025 11:43:32",
          "10.10.2025 11:43:56",
          "10.10.2025 11:44:12",
          "10.10.2025 11:44:30",
          "10.10.2025 11:44:54",
          "10.10.2025 11:45:24",
          "10.10.2025 11:45:55",
          "10.10.2025 11:46:25",
          "10.10.2025 11:46:55",
          "10.10.2025 11:47:12",
          "10.10.2025 11:47:42",
          "10.10.2025 11:48:12",
          "10.10.2025 11:48:42",
          "10.10.2025 11:49:12",
          "10.10.2025 11:49:43",
          "10.10.2025 11:50:13",
          "10.10.2025 11:50:44",
          "10.10.2025 11:51:14",
          "10.10.2025 11:51:46",
          "10.10.2025 11:52:06",
          "10.10.2025 11:52:24",
          "10.10.2025 11:52:41",
          "10.10.2025 11:52:58",
          "10.10.2025 11:53:29",
          "10.10.2025 11:53:45",
          "10.10.2025 11:54:17",
          "10.10.2025 11:54:33",
          "10.10.2025 11:54:51",
          "10.10.2025 11:55:09",
          "10.10.2025 11:55:39",
          "10.10.2025 11:55:55",
          "10.10.2025 11:56:25",
          "10.10.2025 11:56:38",
          "10.10.2025 11:56:41",
          "10.10.2025 11:56:58",
          "10.10.2025 11:57:14",
          "10.10.2025 11:57:30",
          "10.10.2025 11:57:46",
          "10.10.2025 11:58:02",
          "10.10.2025 11:58:18"
        ],
        "course_deg_clockwise_from_north": [
          317,
          322,
          349,
          18,
          29,
          34,
          52,
          63,
          68,
          66,
          64,
          90,
          130,
          154,
          161,
          158,
          157,
          157,
          157,
          156,
          158,
          157,
          157,
          157,
          159,
          162,
          165,
          163,
          164,
          163,
          163,
          163,
          164,
          163,
          164,
          164,
          163,
          163,
          164,
          163,
          164,
          164,
          163,
          164,
          164,
          164,
          163,
          165,
          164,
          164,
          168,
          173,
          176,
          178,
          177,
          176,
          176,
          177,
          176,
          177,
          176,
          176,
          176,
          177,
          176,
          176,
          174,
          175,
          174,
          175,
          174,
          175,
          174,
          174,
          175,
          175,
          174,
          175,
          175,
          175,
          175,
          175,
          175,
          174,
          175,
          175,
          175,
          175,
          175,
          175,
          175,
          175,
          174,
          175,
          175,
          175,
          171,
          162,
          153,
          150,
          147,
          145,
          146,
          147,
          146,
          147,
          149,
          154,
          158,
          159,
          160,
          160,
          160,
          154,
          146,
          141,
          141,
          142,
          146,
          153,
          156,
          155,
          155,
          155,
          155,
          156,
          163,
          163,
          162,
          152,
          149,
          151,
          151,
          151,
          151,
          155,
          171,
          178,
          181,
          182,
          181,
          180,
          180,
          179,
          180,
          180,
          179,
          181,
          180,
          180,
          179,
          180,
          180,
          175,
          134,
          116,
          107,
          101,
          102,
          101,
          71,
          21,
          27,
          38,
          37,
          37,
          37,
          37,
          36,
          38,
          36,
          37,
          36,
          37
        ],
        "speed_kts": [
          154,
          169,
          177,
          179,
          176,
          175,
          182,
          187,
          191,
          196,
          196,
          212,
          234,
          257,
          295,
          314,
          347,
          352,
          359,
          361,
          366,
          368,
          371,
          370,
          377,
          382,
          398,
          407,
          427,
          434,
          439,
          442,
          448,
          451,
          454,
          457,
          457,
          457,
          456,
          456,
          456,
          453,
          453,
          456,
          458,
          459,
          458,
          459,
          457,
          458,
          462,
          467,
          473,
          477,
          479,
          481,
          481,
          483,
          484,
          485,
          483,
          483,
          483,
          481,
          476,
          473,
          473,
          473,
          471,
          471,
          470,
          471,
          471,
          470,
          470,
          469,
          468,
          469,
          468,
          470,
          470,
          471,
          472,
          473,
          474,
          474,
          474,
          474,
          475,
          475,
          474,
          475,
          474,
          474,
          475,
          474,
          470,
          465,
          458,
          456,
          453,
          457,
          465,
          441,
          428,
          421,
          421,
          425,
          426,
          429,
          437,
          441,
          443,
          439,
          431,
          425,
          422,
          423,
          429,
          430,
          437,
          435,
          435,
          434,
          434,
          435,
          438,
          438,
          430,
          418,
          397,
          386,
          379,
          370,
          360,
          355,
          351,
          344,
          334,
          318,
          290,
          291,
          269,
          259,
          260,
          266,
          271,
          269,
          265,
          264,
          261,
          260,
          255,
          248,
          240,
          241,
          240,
          230,
          220,
          194,
          182,
          174,
          166,
          173,
          174,
          157,
          151,
          150,
          139,
          130,
          130,
          128,
          129,
          123
        ],
        "speed_mph": [
          177.0,
          194.0,
          204.0,
          206.0,
          203.0,
          201.0,
          209.0,
          215.0,
          220.0,
          226.0,
          226.0,
          244.0,
          269.0,
          296.0,
          339.0,
          361.0,
          399.0,
          405.0,
          413.0,
          415.0,
          421.0,
          423.0,
          427.0,
          426.0,
          434.0,
          440.0,
          458.0,
          468.0,
          491.0,
          499.0,
          505.0,
          509.0,
          516.0,
          519.0,
          522.0,
          526.0,
          526.0,
          526.0,
          525.0,
          525.0,
          525.0,
          521.0,
          521.0,
          525.0,
          527.0,
          528.0,
          527.0,
          528.0,
          526.0,
          527.0,
          532.0,
          537.0,
          544.0,
          549.0,
          551.0,
          554.0,
          554.0,
          556.0,
          557.0,
          558.0,
          556.0,
          556.0,
          556.0,
          554.0,
          548.0,
          544.0,
          544.0,
          544.0,
          542.0,
          542.0,
          541.0,
          542.0,
          542.0,
          541.0,
          541.0,
          540.0,
          539.0,
          540.0,
          539.0,
          541.0,
          541.0,
          542.0,
          543.0,
          544.0,
          545.0,
          545.0,
          545.0,
          545.0,
          547.0,
          547.0,
          545.0,
          547.0,
          545.0,
          545.0,
          547.0,
          545.0,
          541.0,
          535.0,
          527.0,
          525.0,
          521.0,
          526.0,
          535.0,
          507.0,
          493.0,
          484.0,
          484.0,
          489.0,
          490.0,
          494.0,
          503.0,
          507.0,
          510.0,
          505.0,
          496.0,
          489.0,
          486.0,
          487.0,
          494.0,
          495.0,
          503.0,
          501.0,
          501.0,
          499.0,
          499.0,
          501.0,
          504.0,
          504.0,
          495.0,
          481.0,
          457.0,
          444.0,
          436.0,
          426.0,
          414.0,
          409.0,
          404.0,
          396.0,
          384.0,
          366.0,
          334.0,
          335.0,
          310.0,
          298.0,
          299.0,
          306.0,
          312.0,
          310.0,
          305.0,
          304.0,
          300.0,
          299.0,
          293.0,
          285.0,
          276.0,
          277.0,
          276.0,
          265.0,
          253.0,
          223.0,
          209.0,
          200.0,
          191.0,
          199.0,
          200.0,
          181.0,
          174.0,
          173.0,
          160.0,
          150.0,
          150.0,
          147.0,
          148.0,
          142.0
        ],
        "altitude_ft": [
          475,
          475,
          1300,
          2300,
          3300,
          4175,
          5100,
          6175,
          7400,
          8550,
          9900,
          10775,
          11475,
          12200,
          13525,
          14300,
          16025,
          16700,
          17925,
          18900,
          20100,
          21350,
          23175,
          23900,
          24975,
          25525,
          26750,
          27250,
          28675,
          29400,
          29875,
          30350,
          31325,
          32075,
          32800,
          33550,
          34275,
          34775,
          35525,
          36250,
          36700,
          37400,
          37975,
          38450,
          38925,
          39425,
          39875,
          40200,
          40650,
          40975,
          41000,
          41000,
          41000,
          41000,
          41000,
          41000,
          41000,
          41000,
          41000,
          41000,
          41000,
          41000,
          41000,
          41000,
          41000,
          41000,
          41000,
          41000,
          41000,
          41000,
          41000,
          41000,
          41000,
          41000,
          41000,
          41000,
          41000,
          41000,
          41000,
          41000,
          41000,
          41000,
          41000,
          41000,
          41000,
          41000,
          41000,
          41000,
          41000,
          41000,
          41000,
          41000,
          41000,
          41000,
          41000,
          41000,
          41000,
          41000,
          41000,
          41000,
          41000,
          40600,
          39925,
          39175,
          39000,
          39000,
          39000,
          38950,
          38400,
          37425,
          37025,
          36550,
          35750,
          35125,
          34575,
          33425,
          32450,
          31475,
          31075,
          30900,
          29825,
          29075,
          28300,
          27525,
          26725,
          25850,
          24425,
          23350,
          22075,
          21350,
          20325,
          19150,
          17800,
          16575,
          15325,
          14275,
          13625,
          12850,
          11875,
          11050,
          11000,
          10575,
          10025,
          9975,
          9325,
          8625,
          7725,
          6775,
          5800,
          5125,
          4325,
          3725,
          3675,
          3500,
          3350,
          3225,
          3075,
          2875,
          2700,
          2425,
          2275,
          2175,
          2175,
          1725,
          1475,
          1050,
          875,
          825,
          625,
          450,
          300,
          100,
          100,
          100
        ],
        "vertical_rate_fpm": [
          0.0,
          2719.0,
          3422.0,
          3750.0,
          3516.0,
          3273.0,
          3333.0,
          3286.0,
          3239.0,
          3191.0,
          2967.0,
          2625.0,
          2311.0,
          2085.0,
          2000.0,
          2000.0,
          2118.0,
          2426.0,
          2491.0,
          2462.0,
          2450.0,
          2493.0,
          2468.0,
          2250.0,
          2120.0,
          1775.0,
          1592.0,
          1481.0,
          1483.0,
          1500.0,
          1462.0,
          1450.0,
          1500.0,
          1475.0,
          1475.0,
          1475.0,
          1470.0,
          1500.0,
          1475.0,
          1469.0,
          1438.0,
          1275.0,
          1050.0,
          950.0,
          975.0,
          950.0,
          949.0,
          949.0,
          775.0,
          447.0,
          43.0,
          0.0,
          0.0,
          0.0,
          0.0,
          0.0,
          0.0,
          0.0,
          0.0,
          0.0,
          0.0,
          0.0,
          0.0,
          0.0,
          0.0,
          0.0,
          0.0,
          0.0,
          0.0,
          0.0,
          0.0,
          0.0,
          0.0,
          0.0,
          0.0,
          0.0,
          0.0,
          0.0,
          0.0,
          0.0,
          0.0,
          0.0,
          0.0,
          0.0,
          0.0,
          0.0,
          0.0,
          0.0,
          0.0,
          0.0,
          0.0,
          0.0,
          0.0,
          0.0,
          0.0,
          0.0,
          0.0,
          0.0,
          0.0,
          0.0,
          -400.0,
          -921.0,
          -1425.0,
          -925.0,
          -175.0,
          0.0,
          -75.0,
          -923.0,
          -1525.0,
          -1196.0,
          -875.0,
          -1275.0,
          -1676.0,
          -1763.0,
          -1855.0,
          -1932.0,
          -1950.0,
          -1719.0,
          -958.0,
          -1210.0,
          -1480.0,
          -1525.0,
          -1550.0,
          -1575.0,
          -1675.0,
          -1840.0,
          -2000.0,
          -2350.0,
          -2400.0,
          -1875.0,
          -2000.0,
          -2525.0,
          -2575.0,
          -2475.0,
          -2556.0,
          -2550.0,
          -2515.0,
          -2500.0,
          -2000.0,
          -861.0,
          -467.0,
          -975.0,
          -766.0,
          -894.0,
          -1350.0,
          -1600.0,
          -1850.0,
          -1893.0,
          -1623.0,
          -1451.0,
          -1377.0,
          -629.0,
          -260.0,
          -513.0,
          -471.0,
          -485.0,
          -438.0,
          -479.0,
          -563.0,
          -531.0,
          -441.0,
          -167.0,
          -563.0,
          -913.0,
          -880.0,
          -837.0,
          -844.0,
          -750.0,
          -682.0,
          -609.0,
          -656.0,
          -750.0,
          -750.0,
          0.0
        ]
      }
    }
  ]
}