{
  "type": "FeatureCollection",
  "features": [
    {
      "type": "Feature",
      "geometry": {
        "type": "LineString",
        "coordinates": [
          [
            -5.8833,
            54.609
          ],
          [
            -5.8934,
            54.6
          ],
          [
            -5.9042,
            54.5906
          ],
          [
            -5.9163,
            54.5803
          ],
          [
            -5.9273,
            54.57
          ],
          [
            -5.9388,
            54.5593
          ],
          [
            -5.9506,
            54.5485
          ],
          [
            -5.9601,
            54.5371
          ],
          [
            -5.953,
            54.5239
          ],
          [
            -5.9186,
            54.5086
          ],
          [
            -5.8681,
            54.4944
          ],
          [
            -5.807,
            54.4759
          ],
          [
            -5.7429,
            54.455
          ],
          [
            -5.6823,
            54.4349
          ],
          [
            -5.6145,
            54.4128
          ],
          [
            -5.5432,
            54.3876
          ],
          [
            -5.4498,
            54.3491
          ],
          [
            -5.3812,
            54.3209
          ],
          [
            -5.3075,
            54.2912
          ],
          [
            -5.2493,
            54.2666
          ],
          [
            -5.1787,
            54.2327
          ],
          [
            -5.1073,
            54.1973
          ],
          [
            -5.0345,
            54.1621
          ],
          [
            -4.9585,
            54.1255
          ],
          [
            -4.8813,
            54.0884
          ],
          [
            -4.8036,
            54.0503
          ],
          [
            -4.6978,
            54.0022
          ],
          [
            -4.6125,
            53.9652
          ],
          [
            -4.5412,
            53.9333
          ],
          [
            -4.4579,
            53.8946
          ],
          [
            -4.3759,
            53.8681
          ],
          [
            -4.2747,
            53.8475
          ],
          [
            -4.1706,
            53.8306
          ],
          [
            -4.067,
            53.8136
          ],
          [
            -3.98,
            53.7984
          ],
          [
            -3.9191,
            53.779
          ],
          [
            -3.7897,
            53.7226
          ],
          [
            -3.7282,
            53.6952
          ],
          [
            -3.6484,
            53.6602
          ],
          [
            -3.5873,
            53.641
          ],
          [
            -3.5056,
            53.6252
          ],
          [
            -3.4179,
            53.614
          ],
          [
            -3.3007,
            53.6008
          ],
          [
            -3.209,
            53.5896
          ],
          [
            -3.1299,
            53.5802
          ],
          [
            -3.0571,
            53.5705
          ],
          [
            -2.9439,
            53.5566
          ],
          [
            -2.8308,
            53.5416
          ],
          [
            -2.7186,
            53.5274
          ],
          [
            -2.6125,
            53.5137
          ],
          [
            -2.5059,
            53.4995
          ],
          [
            -2.397,
            53.485
          ],
          [
            -2.2879,
            53.4702
          ],
          [
            -2.2035,
            53.459
          ],
          [
            -2.1051,
            53.4458
          ],
          [
            -2.0015,
            53.4315
          ],
          [
            -1.8939,
            53.4168
          ],
          [
            -1.7816,
            53.4015
          ],
          [
            -1.6782,
            53.3866
          ],
          [
            -1.5694,
            53.3719
          ],
          [
            -1.5021,
            53.362
          ],
          [
            -1.3957,
            53.347
          ],
          [
            -1.2907,
            53.332
          ],
          [
            -1.2181,
            53.3227
          ],
          [
            -1.052,
            53.3019
          ],
          [
            -0.9483,
            53.2882
          ],
          [
            -0.8408,
            53.2741
          ],
          [
            -0.7345,
            53.2606
          ],
          [
            -0.6242,
            53.2458
          ],
          [
            -0.519,
            53.2321
          ],
          [
            -0.4124,
            53.2175
          ],
          [
            -0.3342,
            53.2074
          ],
          [
            -0.2301,
            53.1929
          ],
          [
            -0.1396,
            53.1807
          ],
          [
            -0.0367,
            53.1667
          ],
          [
            0.0723,
            53.1513
          ],
          [
            0.1223,
            53.1446
          ],
          [
            0.1812,
            53.138
          ],
          [
            0.2874,
            53.1287
          ],
          [
            0.3944,
            53.1202
          ],
          [
            0.5029,
            53.1114
          ],
          [
            0.6079,
            53.1028
          ],
          [
            0.7171,
            53.0934
          ],
          [
            0.827,
            53.0844
          ],
          [
            0.9296,
            53.0763
          ],
          [
            1.07,
            53.0649
          ],
          [
            1.201,
            53.0539
          ],
          [
            1.3093,
            53.045
          ],
          [
            1.4114,
            53.0362
          ],
          [
            1.5196,
            53.0272
          ],
          [
            1.6097,
            53.0145
          ],
          [
            1.711,
            52.9951
          ],
          [
            1.8177,
            52.9742
          ],
          [
            1.9183,
            52.9546
          ],
          [
            2.0189,
            52.9355
          ],
          [
            2.1265,
            52.9156
          ],
          [
            2.2144,
            52.8987
          ],
          [
            2.3206,
            52.8778
          ],
          [
            2.4236,
            52.8573
          ],
          [
            2.5277,
            52.8364
          ],
          [
            2.6322,
            52.8151
          ],
          [
            2.7335,
            52.7947
          ],
          [
            2.8078,
            52.7811
          ],
          [
            2.9176,
            52.7629
          ],
          [
            3.022,
            52.7453
          ],
          [
            3.1234,
            52.7276
          ],
          [
            3.2272,
            52.7092
          ],
          [
            3.3315,
            52.6908
          ],
          [
            3.4358,
            52.6728
          ],
          [
            3.4909,
            52.6626
          ],
          [
            3.5921,
            52.6442
          ],
          [
            3.6936,
            52.6263
          ],
          [
            3.8014,
            52.6064
          ],
          [
            3.9045,
            52.588
          ],
          [
            4.0112,
            52.5683
          ],
          [
            4.0625,
            52.5589
          ],
          [
            4.1478,
            52.543
          ],
          [
            4.2016,
            52.533
          ],
          [
            4.3484,
            52.5057
          ],
          [
            4.4459,
            52.4872
          ],
          [
            4.5494,
            52.468
          ],
          [
            4.6506,
            52.4485
          ],
          [
            4.7518,
            52.4292
          ],
          [
            4.8402,
            52.4124
          ],
          [
            4.9406,
            52.3929
          ],
          [
            5.0149,
            52.3781
          ],
          [
            5.0775,
            52.3508
          ],
          [
            5.1237,
            52.3246
          ],
          [
            5.1585,
            52.298
          ],
          [
            5.1975,
            52.2621
          ],
          [
            5.2544,
            52.2061
          ],
          [
            5.3062,
            52.1559
          ],
          [
            5.3399,
            52.1238
          ],
          [
            5.4033,
            52.0618
          ],
          [
            5.4459,
            52.0206
          ],
          [
            5.488,
            51.9782
          ],
          [
            5.5428,
            51.9258
          ],
          [
            5.5739,
            51.8957
          ],
          [
            5.5991,
            51.8701
          ],
          [
            5.6331,
            51.8361
          ],
          [
            5.6638,
            51.8068
          ],
          [
            5.7156,
            51.7548
          ],
          [
            5.7627,
            51.7091
          ],
          [
            5.7909,
            51.6805
          ],
          [
            5.8426,
            51.63
          ],
          [
            5.8826,
            51.5901
          ],
          [
            5.9308,
            51.5418
          ],
          [
            5.9776,
            51.494
          ],
          [
            6.0299,
            51.4427
          ],
          [
            6.0774,
            51.3941
          ],
          [
            6.1107,
            51.3616
          ],
          [
            6.1531,
            51.3176
          ],
          [
            6.1974,
            51.2737
          ],
          [
            6.2325,
            51.2373
          ],
          [
            6.273,
            51.1965
          ],
          [
            6.305,
            51.1635
          ],
          [
            6.332,
            51.1359
          ],
          [
            6.374,
            51.1085
          ],
          [
            6.4205,
            51.0819
          ],
          [
            6.4643,
            51.0637
          ],
          [
            6.4931,
            51.0555
          ],
          [
            6.5454,
            51.0409
          ],
          [
            6.6006,
            51.025
          ],
          [
            6.6536,
            51.0096
          ],
          [
            6.7051,
            50.9949
          ],
          [
            6.7339,
            50.9892
          ],
          [
            6.7657,
            50.9922
          ],
          [
            6.8002,
            51.0001
          ],
          [
            6.83,
            51.008
          ],
          [
            6.8664,
            51.0173
          ],
          [
            6.8929,
            51.0173
          ],
          [
            6.9163,
            51.0099
          ],
          [
            6.9359,
            50.9996
          ],
          [
            6.9521,
            50.9883
          ],
          [
            6.9659,
            50.9781
          ],
          [
            6.9826,
            50.9663
          ],
          [
            6.9999,
            50.9542
          ],
          [
            7.0138,
            50.9446
          ],
          [
            7.0285,
            50.9343
          ],
          [
            7.0535,
            50.9171
          ],
          [
            7.0658,
            50.9086
          ],
          [
            7.0766,
            50.901
          ],
          [
            7.0876,
            50.8936
          ],
          [
            7.098,
            50.8864
          ],
          [
            7.1089,
            50.8789
          ],
          [
            7.1184,
            50.8725
          ]
        ]
      },
      "properties": {
        "time_europe_berlin": [
          "10.10.2025 17:42:36",
          "10.10.2025 17:42:52",
          "10.10.2025 17:43:08",
          "10.10.2025 17:43:24",
          "10.10.2025 17:43:40",
          "10.10.2025 17:43:56",
          "10.10.2025 17:44:14",
          "10.10.2025 17:44:30",
          "10.10.2025 17:44:48",
          "10.10.2025 17:45:14",
          "10.10.2025 17:45:42",
          "10.10.2025 17:46:12",
          "10.10.2025 17:46:42",
          "10.10.2025 17:47:12",
          "10.10.2025 17:47:42",
          "10.10.2025 17:48:12",
          "10.10.2025 17:48:52",
          "10.10.2025 17:49:22",
          "10.10.2025 17:49:52",
          "10.10.2025 17:50:15",
          "10.10.2025 17:50:45",
          "10.10.2025 17:51:15",
          "10.10.2025 17:51:45",
          "10.10.2025 17:52:15",
          "10.10.2025 17:52:45",
          "10.10.2025 17:53:15",
          "10.10.2025 17:53:54",
          "10.10.2025 17:54:24",
          "10.10.2025 17:54:49",
          "10.10.2025 17:55:19",
          "10.10.2025 17:55:44",
          "10.10.2025 17:56:14",
          "10.10.2025 17:56:44",
          "10.10.2025 17:57:14",
          "10.10.2025 17:57:39",
          "10.10.2025 17:57:58",
          "10.10.2025 17:58:41",
          "10.10.2025 17:59:03",
          "10.10.2025 17:59:27",
          "10.10.2025 17:59:46",
          "10.10.2025 18:00:08",
          "10.10.2025 18:00:32",
          "10.10.2025 18:01:02",
          "10.10.2025 18:01:27",
          "10.10.2025 18:01:48",
          "10.10.2025 18:02:08",
          "10.10.2025 18:02:38",
          "10.10.2025 18:03:08",
          "10.10.2025 18:03:38",
          "10.10.2025 18:04:08",
          "10.10.2025 18:04:38",
          "10.10.2025 18:05:08",
          "10.10.2025 18:05:38",
          "10.10.2025 18:06:01",
          "10.10.2025 18:06:30",
          "10.10.2025 18:07:00",
          "10.10.2025 18:07:30",
          "10.10.2025 18:08:00",
          "10.10.2025 18:08:30",
          "10.10.2025 18:09:00",
          "10.10.2025 18:09:19",
          "10.10.2025 18:09:47",
          "10.10.2025 18:10:17",
          "10.10.2025 18:10:36",
          "10.10.2025 18:11:21",
          "10.10.2025 18:11:51",
          "10.10.2025 18:12:21",
          "10.10.2025 18:12:51",
          "10.10.2025 18:13:21",
          "10.10.2025 18:13:51",
          "10.10.2025 18:14:21",
          "10.10.2025 18:14:42",
          "10.10.2025 18:15:12",
          "10.10.2025 18:15:37",
          "10.10.2025 18:16:07",
          "10.10.2025 18:16:37",
          "10.10.2025 18:16:53",
          "10.10.2025 18:17:09",
          "10.10.2025 18:17:39",
          "10.10.2025 18:18:09",
          "10.10.2025 18:18:39",
          "10.10.2025 18:19:09",
          "10.10.2025 18:19:39",
          "10.10.2025 18:20:09",
          "10.10.2025 18:20:39",
          "10.10.2025 18:21:18",
          "10.10.2025 18:21:55",
          "10.10.2025 18:22:25",
          "10.10.2025 18:22:55",
          "10.10.2025 18:23:25",
          "10.10.2025 18:23:50",
          "10.10.2025 18:24:20",
          "10.10.2025 18:24:50",
          "10.10.2025 18:25:20",
          "10.10.2025 18:25:50",
          "10.10.2025 18:26:20",
          "10.10.2025 18:26:47",
          "10.10.2025 18:27:17",
          "10.10.2025 18:27:47",
          "10.10.2025 18:28:17",
          "10.10.2025 18:28:47",
          "10.10.2025 18:29:17",
          "10.10.2025 18:29:39",
          "10.10.2025 18:30:09",
          "10.10.2025 18:30:39",
          "10.10.2025 18:31:09",
          "10.10.2025 18:31:39",
          "10.10.2025 18:32:09",
          "10.10.2025 18:32:39",
          "10.10.2025 18:32:55",
          "10.10.2025 18:33:25",
          "10.10.2025 18:33:55",
          "10.10.2025 18:34:25",
          "10.10.2025 18:34:55",
          "10.10.2025 18:35:25",
          "10.10.2025 18:35:41",
          "10.10.2025 18:36:06",
          "10.10.2025 18:36:22",
          "10.10.2025 18:37:06",
          "10.10.2025 18:37:36",
          "10.10.2025 18:38:06",
          "10.10.2025 18:38:36",
          "10.10.2025 18:39:06",
          "10.10.2025 18:39:31",
          "10.10.2025 18:40:01",
          "10.10.2025 18:40:24",
          "10.10.2025 18:40:44",
          "10.10.2025 18:41:04",
          "10.10.2025 18:41:20",
          "10.10.2025 18:41:39",
          "10.10.2025 18:42:09",
          "10.10.2025 18:42:37",
          "10.10.2025 18:42:55",
          "10.10.2025 18:43:30",
          "10.10.2025 18:43:54",
          "10.10.2025 18:44:18",
          "10.10.2025 18:44:48",
          "10.10.2025 18:45:06",
          "10.10.2025 18:45:22",
          "10.10.2025 18:45:41",
          "10.10.2025 18:45:59",
          "10.10.2025 18:46:29",
          "10.10.2025 18:46:56",
          "10.10.2025 18:47:13",
          "10.10.2025 18:47:43",
          "10.10.2025 18:48:06",
          "10.10.2025 18:48:36",
          "10.10.2025 18:49:06",
          "10.10.2025 18:49:39",
          "10.10.2025 18:50:09",
          "10.10.2025 18:50:32",
          "10.10.2025 18:51:02",
          "10.10.2025 18:51:32",
          "10.10.2025 18:51:59",
          "10.10.2025 18:52:29",
          "10.10.2025 18:52:54",
          "10.10.2025 18:53:17",
          "10.10.2025 18:53:45",
          "10.10.2025 18:54:15",
          "10.10.2025 18:54:40",
          "10.10.2025 18:54:56",
          "10.10.2025 18:55:26",
          "10.10.2025 18:55:56",
          "10.10.2025 18:56:26",
          "10.10.2025 18:56:56",
          "10.10.2025 18:57:14",
          "10.10.2025 18:57:31",
          "10.10.2025 18:57:51",
          "10.10.2025 18:58:10",
          "10.10.2025 18:58:31",
          "10.10.2025 18:58:47",
          "10.10.2025 18:59:03",
          "10.10.2025 18:59:19",
          "10.10.2025 18:59:35",
          "10.10.2025 18:59:51",
          "10.10.2025 19:00:07",
          "10.10.2025 19:00:23",
          "10.10.2025 19:00:39",
          "10.10.2025 19:00:55",
          "10.10.2025 19:01:25",
          "10.10.2025 19:01:41",
          "10.10.2025 19:01:57",
          "10.10.2025 19:02:13",
          "10.10.2025 19:02:29",
          "10.10.2025 19:02:45",
          "10.10.2025 19:03:01"
        ],
        "course_deg_clockwise_from_north": [
          214,
          214,
          215,
          212,
          212,
          212,
          213,
          198,
          143,
          119,
          116,
          119,
          120,
          119,
          120,
          123,
          126,
          126,
          125,
          128,
          131,
          131,
          129,
          130,
          129,
          130,
          126,
          127,
          128,
          127,
          113,
          106,
          104,
          107,
          109,
          125,
          127,
          127,
          124,
          114,
          104,
          101,
          102,
          101,
          102,
          103,
          102,
          102,
          102,
          103,
          103,
          102,
          103,
          103,
          103,
          102,
          103,
          103,
          103,
          103,
          104,
          104,
          103,
          101,
          103,
          102,
          102,
          103,
          103,
          102,
          102,
          102,
          103,
          103,
          103,
          103,
          102,
          99,
          98,
          98,
          98,
          98,
          98,
          98,
          98,
          98,
          98,
          98,
          98,
          98,
          107,
          108,
          108,
          108,
          107,
          107,
          108,
          108,
          108,
          109,
          108,
          108,
          106,
          106,
          106,
          106,
          106,
          106,
          106,
          107,
          107,
          106,
          107,
          107,
          106,
          108,
          107,
          108,
          107,
          108,
          107,
          107,
          107,
          108,
          107,
          113,
          132,
          135,
          146,
          148,
          149,
          147,
          148,
          147,
          148,
          148,
          147,
          148,
          149,
          147,
          147,
          148,
          148,
          149,
          147,
          149,
          147,
          149,
          149,
          147,
          149,
          148,
          149,
          148,
          148,
          148,
          146,
          133,
          132,
          116,
          113,
          114,
          114,
          114,
          115,
          92,
          75,
          68,
          68,
          72,
          106,
          125,
          134,
          140,
          138,
          138,
          138,
          138,
          138,
          137,
          138,
          137,
          137,
          137,
          136,
          137
        ],
        "speed_kts": [
          149,
          151,
          163,
          166,
          164,
          163,
          163,
          164,
          193,
          231,
          274,
          291,
          301,
          315,
          340,
          355,
          364,
          369,
          382,
          385,
          392,
          397,
          409,
          418,
          427,
          433,
          445,
          450,
          456,
          461,
          462,
          463,
          465,
          466,
          465,
          462,
          482,
          488,
          493,
          496,
          493,
          493,
          494,
          495,
          496,
          496,
          498,
          491,
          484,
          477,
          476,
          474,
          472,
          469,
          465,
          468,
          475,
          480,
          482,
          482,
          483,
          482,
          482,
          482,
          483,
          482,
          478,
          477,
          475,
          474,
          474,
          473,
          472,
          471,
          470,
          471,
          470,
          469,
          470,
          469,
          470,
          471,
          471,
          469,
          469,
          469,
          470,
          471,
          471,
          469,
          469,
          470,
          471,
          468,
          470,
          468,
          477,
          486,
          478,
          481,
          478,
          475,
          472,
          472,
          474,
          477,
          479,
          474,
          472,
          471,
          473,
          474,
          476,
          476,
          474,
          473,
          471,
          470,
          457,
          457,
          466,
          470,
          471,
          473,
          471,
          470,
          470,
          470,
          467,
          465,
          464,
          464,
          463,
          458,
          454,
          441,
          431,
          432,
          433,
          435,
          436,
          432,
          433,
          432,
          426,
          422,
          415,
          406,
          397,
          388,
          383,
          377,
          360,
          344,
          327,
          313,
          305,
          298,
          291,
          271,
          265,
          265,
          266,
          262,
          252,
          246,
          241,
          248,
          244,
          245,
          239,
          224,
          207,
          202,
          200,
          206,
          198,
          191,
          180,
          159,
          138,
          137,
          137,
          133,
          129,
          123
        ],
        "speed_mph": [
          171.0,
          174.0,
          188.0,
          191.0,
          189.0,
          188.0,
          188.0,
          189.0,
          222.0,
          266.0,
          315.0,
          335.0,
          346.0,
          362.0,
          391.0,
          409.0,
          419.0,
          425.0,
          440.0,
          443.0,
          451.0,
          457.0,
          471.0,
          481.0,
          491.0,
          498.0,
          512.0,
          518.0,
          525.0,
          531.0,
          532.0,
          533.0,
          535.0,
          536.0,
          535.0,
          532.0,
          555.0,
          562.0,
          567.0,
          571.0,
          567.0,
          567.0,
          568.0,
          570.0,
          571.0,
          571.0,
          573.0,
          565.0,
          557.0,
          549.0,
          548.0,
          545.0,
          543.0,
          540.0,
          535.0,
          539.0,
          547.0,
          552.0,
          555.0,
          555.0,
          556.0,
          555.0,
          555.0,
          555.0,
          556.0,
          555.0,
          550.0,
          549.0,
          547.0,
          545.0,
          545.0,
          544.0,
          543.0,
          542.0,
          541.0,
          542.0,
          541.0,
          540.0,
          541.0,
          540.0,
          541.0,
          542.0,
          542.0,
          540.0,
          540.0,
          540.0,
          541.0,
          542.0,
          542.0,
          540.0,
          540.0,
          541.0,
          542.0,
          539.0,
          541.0,
          539.0,
          549.0,
          559.0,
          550.0,
          554.0,
          550.0,
          547.0,
          543.0,
          543.0,
          545.0,
          549.0,
          551.0,
          545.0,
          543.0,
          542.0,
          544.0,
          545.0,
          548.0,
          548.0,
          545.0,
          544.0,
          542.0,
          541.0,
          526.0,
          526.0,
          536.0,
          541.0,
          542.0,
          544.0,
          542.0,
          541.0,
          541.0,
          541.0,
          537.0,
          535.0,
          534.0,
          534.0,
          533.0,
          527.0,
          522.0,
          507.0,
          496.0,
          497.0,
          498.0,
          501.0,
          502.0,
          497.0,
          498.0,
          497.0,
          490.0,
          486.0,
          478.0,
          467.0,
          457.0,
          447.0,
          441.0,
          434.0,
          414.0,
          396.0,
          376.0,
          360.0,
          351.0,
          343.0,
          335.0,
          312.0,
          305.0,
          305.0,
          306.0,
          302.0,
          290.0,
          283.0,
          277.0,
          285.0,
          281.0,
          282.0,
          275.0,
          258.0,
          238.0,
          232.0,
          230.0,
          237.0,
          228.0,
          220.0,
          207.0,
          183.0,
          159.0,
          158.0,
          158.0,
          153.0,
          148.0,
          142.0
        ],
        "altitude_ft": [
          25,
          925,
          1700,
          2150,
          2375,
          2750,
          3300,
          3775,
          4525,
          5450,
          6425,
          7875,
          9600,
          10925,
          11900,
          12975,
          14700,
          15975,
          17050,
          18000,
          19025,
          20275,
          21125,
          22000,
          22925,
          23900,
          24850,
          25750,
          26450,
          27175,
          27875,
          28725,
          29500,
          30325,
          31125,
          31850,
          32000,
          32000,
          32000,
          32000,
          32000,
          32000,
          32000,
          32000,
          32000,
          32000,
          32000,
          32800,
          33850,
          34775,
          35550,
          36350,
          37150,
          37775,
          38525,
          38975,
          39000,
          39000,
          39000,
          39000,
          39000,
          39000,
          39000,
          39000,
          39000,
          39000,
          39000,
          39000,
          39000,
          39000,
          39000,
          39000,
          39000,
          39000,
          39000,
          39000,
          39000,
          39000,
          39000,
          39000,
          39000,
          39000,
          39000,
          39000,
          39000,
          39000,
          39000,
          39000,
          39000,
          39000,
          39000,
          39000,
          39000,
          39000,
          38425,
          37700,
          37050,
          36300,
          35575,
          35025,
          35000,
          35000,
          35000,
          35000,
          35000,
          35000,
          35000,
          35000,
          35000,
          35000,
          35000,
          35000,
          35000,
          35000,
          35000,
          35000,
          35000,
          35000,
          33975,
          33000,
          31975,
          31000,
          30025,
          29200,
          28250,
          27500,
          26825,
          26225,
          25700,
          25050,
          24050,
          23150,
          22550,
          21525,
          21150,
          21000,
          21000,
          21000,
          21000,
          21000,
          21000,
          20775,
          20125,
          19700,
          18950,
          18350,
          17625,
          16875,
          16075,
          15275,
          14725,
          14000,
          13100,
          12025,
          10850,
          10025,
          9225,
          8350,
          7350,
          7025,
          7000,
          7000,
          7000,
          6925,
          6250,
          5825,
          5325,
          4550,
          3925,
          3100,
          2725,
          2475,
          2425,
          2425,
          2425,
          2225,
          1925,
          1625,
          1400,
          925,
          725,
          525,
          300,
          100,
          100,
          100
        ],
        "vertical_rate_fpm": [
          0.0,
          3141.0,
          2297.0,
          1266.0,
          1125.0,
          1632.0,
          1809.0,
          2162.0,
          2284.0,
          2111.0,
          2509.0,
          3175.0,
          3050.0,
          2300.0,
          2050.0,
          2400.0,
          2571.0,
          2350.0,
          2292.0,
          2236.0,
          2275.0,
          2100.0,
          1725.0,
          1800.0,
          1900.0,
          1674.0,
          1609.0,
          1745.0,
          1555.0,
          1555.0,
          1691.0,
          1625.0,
          1600.0,
          1773.0,
          2080.0,
          847.0,
          138.0,
          0.0,
          0.0,
          0.0,
          0.0,
          0.0,
          0.0,
          0.0,
          0.0,
          0.0,
          800.0,
          1850.0,
          1975.0,
          1700.0,
          1575.0,
          1600.0,
          1613.0,
          1587.0,
          1220.0,
          475.0,
          25.0,
          0.0,
          0.0,
          0.0,
          0.0,
          0.0,
          0.0,
          0.0,
          0.0,
          0.0,
          0.0,
          0.0,
          0.0,
          0.0,
          0.0,
          0.0,
          0.0,
          0.0,
          0.0,
          0.0,
          0.0,
          0.0,
          0.0,
          0.0,
          0.0,
          0.0,
          0.0,
          0.0,
          0.0,
          0.0,
          0.0,
          0.0,
          0.0,
          0.0,
          0.0,
          0.0,
          0.0,
          -575.0,
          -1300.0,
          -1447.0,
          -1474.0,
          -1475.0,
          -1275.0,
          -575.0,
          -25.0,
          0.0,
          0.0,
          0.0,
          0.0,
          0.0,
          0.0,
          0.0,
          0.0,
          0.0,
          0.0,
          0.0,
          0.0,
          0.0,
          0.0,
          0.0,
          0.0,
          -1025.0,
          -1622.0,
          -2000.0,
          -2000.0,
          -1950.0,
          -1964.0,
          -1936.0,
          -1925.0,
          -1988.0,
          -1913.0,
          -1875.0,
          -2014.0,
          -2020.0,
          -1966.0,
          -1957.0,
          -1840.0,
          -1424.0,
          -656.0,
          -167.0,
          0.0,
          0.0,
          0.0,
          0.0,
          -281.0,
          -921.0,
          -1466.0,
          -1500.0,
          -1528.0,
          -1500.0,
          -1475.0,
          -1476.0,
          -1524.0,
          -1528.0,
          -1443.0,
          -1625.0,
          -2079.0,
          -2368.0,
          -2182.0,
          -2031.0,
          -1971.0,
          -1940.0,
          -1445.0,
          -512.0,
          -33.0,
          0.0,
          -75.0,
          -750.0,
          -1375.0,
          -1586.0,
          -2068.0,
          -2154.0,
          -2175.0,
          -1946.0,
          -1172.0,
          -563.0,
          -94.0,
          0.0,
          -375.0,
          -938.0,
          -1125.0,
          -984.0,
          -913.0,
          -880.0,
          -750.0,
          -797.0,
          -797.0,
          -750.0,
          -750.0,
          0.0
        ]
      }
    }
  ]
}