{
  "type": "FeatureCollection",
  "features": [
    {
      "type": "Feature",
      "geometry": {
        "type": "LineString",
        "coordinates": [
          [
            4.4341,
            50.4549
          ],
          [
            4.4176,
            50.4511
          ],
          [
            4.4028,
            50.4477
          ],
          [
            4.3874,
            50.4433
          ],
          [
            4.3684,
            50.4376
          ],
          [
            4.3497,
            50.432
          ],
          [
            4.3303,
            50.4264
          ],
          [
            4.2844,
            50.4126
          ],
          [
            4.2544,
            50.4094
          ],
          [
            4.2096,
            50.4123
          ],
          [
            4.1311,
            50.4174
          ],
          [
            4.0589,
            50.419
          ],
          [
            4.0174,
            50.4214
          ],
          [
            3.9713,
            50.4382
          ],
          [
            3.9419,
            50.4603
          ],
          [
            3.9096,
            50.497
          ],
          [
            3.881,
            50.5394
          ],
          [
            3.8467,
            50.5954
          ],
          [
            3.8111,
            50.6506
          ],
          [
            3.773,
            50.709
          ],
          [
            3.7315,
            50.7736
          ],
          [
            3.6956,
            50.8294
          ],
          [
            3.6588,
            50.8855
          ],
          [
            3.6236,
            50.94
          ],
          [
            3.5791,
            51.0082
          ],
          [
            3.5428,
            51.0635
          ],
          [
            3.5216,
            51.0959
          ],
          [
            3.4914,
            51.142
          ],
          [
            3.4544,
            51.1988
          ],
          [
            3.3997,
            51.2811
          ],
          [
            3.3723,
            51.3185
          ],
          [
            3.3373,
            51.3424
          ],
          [
            3.2883,
            51.3623
          ],
          [
            3.2172,
            51.3827
          ],
          [
            3.1459,
            51.3998
          ],
          [
            3.0581,
            51.4196
          ],
          [
            2.9153,
            51.4523
          ],
          [
            2.8292,
            51.4724
          ],
          [
            2.7637,
            51.4876
          ],
          [
            2.677,
            51.5075
          ],
          [
            2.553,
            51.5361
          ],
          [
            2.4669,
            51.556
          ],
          [
            2.4087,
            51.5691
          ],
          [
            2.36,
            51.5784
          ],
          [
            2.3027,
            51.5806
          ],
          [
            2.224,
            51.5806
          ],
          [
            2.1372,
            51.5802
          ],
          [
            2.0882,
            51.5801
          ],
          [
            2.0448,
            51.5817
          ],
          [
            1.9735,
            51.5765
          ],
          [
            1.8974,
            51.5673
          ],
          [
            1.8227,
            51.5579
          ],
          [
            1.7447,
            51.5483
          ],
          [
            1.6747,
            51.54
          ],
          [
            1.6061,
            51.5318
          ],
          [
            1.5421,
            51.5246
          ],
          [
            1.5147,
            51.5192
          ],
          [
            1.4824,
            51.5061
          ],
          [
            1.4346,
            51.4853
          ],
          [
            1.3891,
            51.4653
          ],
          [
            1.3555,
            51.4512
          ],
          [
            1.3052,
            51.4379
          ],
          [
            1.2517,
            51.4286
          ],
          [
            1.1986,
            51.4187
          ],
          [
            1.1467,
            51.4093
          ],
          [
            1.1201,
            51.4048
          ],
          [
            1.0914,
            51.4045
          ],
          [
            1.0509,
            51.4082
          ],
          [
            1.0165,
            51.4112
          ],
          [
            0.9846,
            51.4139
          ],
          [
            0.9366,
            51.4183
          ],
          [
            0.8873,
            51.4225
          ],
          [
            0.8385,
            51.4266
          ],
          [
            0.7919,
            51.4309
          ],
          [
            0.7388,
            51.4329
          ],
          [
            0.6907,
            51.4345
          ],
          [
            0.6426,
            51.4358
          ],
          [
            0.5946,
            51.4367
          ],
          [
            0.5452,
            51.4376
          ],
          [
            0.4946,
            51.4381
          ],
          [
            0.4459,
            51.4385
          ],
          [
            0.4014,
            51.4389
          ],
          [
            0.3749,
            51.4393
          ],
          [
            0.3323,
            51.4399
          ],
          [
            0.2882,
            51.4408
          ],
          [
            0.2443,
            51.4417
          ],
          [
            0.1755,
            51.4436
          ],
          [
            0.1434,
            51.4397
          ],
          [
            0.1196,
            51.4361
          ],
          [
            0.1068,
            51.4286
          ],
          [
            0.084,
            51.3985
          ],
          [
            0.0773,
            51.3896
          ],
          [
            0.0709,
            51.3812
          ],
          [
            0.0648,
            51.3733
          ],
          [
            0.059,
            51.3655
          ],
          [
            0.0532,
            51.3581
          ],
          [
            0.0474,
            51.3506
          ],
          [
            0.0415,
            51.3428
          ]
        ]
      },
      "properties": {
        "time_europe_berlin": [
          "20.10.2025 18:34:14",
          "20.10.2025 18:34:30",
          "20.10.2025 18:34:46",
          "20.10.2025 18:35:02",
          "20.10.2025 18:35:18",
          "20.10.2025 18:35:34",
          "20.10.2025 18:35:50",
          "20.10.2025 18:36:20",
          "20.10.2025 18:36:38",
          "20.10.2025 18:37:00",
          "20.10.2025 18:37:34",
          "20.10.2025 18:38:05",
          "20.10.2025 18:38:23",
          "20.10.2025 18:38:41",
          "20.10.2025 18:38:58",
          "20.10.2025 18:39:19",
          "20.10.2025 18:39:41",
          "20.10.2025 18:40:11",
          "20.10.2025 18:40:41",
          "20.10.2025 18:41:11",
          "20.10.2025 18:41:43",
          "20.10.2025 18:42:13",
          "20.10.2025 18:42:43",
          "20.10.2025 18:43:11",
          "20.10.2025 18:43:49",
          "20.10.2025 18:44:19",
          "20.10.2025 18:44:35",
          "20.10.2025 18:45:00",
          "20.10.2025 18:45:30",
          "20.10.2025 18:46:13",
          "20.10.2025 18:46:33",
          "20.10.2025 18:46:49",
          "20.10.2025 18:47:08",
          "20.10.2025 18:47:33",
          "20.10.2025 18:47:58",
          "20.10.2025 18:48:28",
          "20.10.2025 18:49:18",
          "20.10.2025 18:49:48",
          "20.10.2025 18:50:11",
          "20.10.2025 18:50:41",
          "20.10.2025 18:51:24",
          "20.10.2025 18:51:54",
          "20.10.2025 18:52:14",
          "20.10.2025 18:52:31",
          "20.10.2025 18:52:52",
          "20.10.2025 18:53:22",
          "20.10.2025 18:53:52",
          "20.10.2025 18:54:10",
          "20.10.2025 18:54:26",
          "20.10.2025 18:54:51",
          "20.10.2025 18:55:19",
          "20.10.2025 18:55:49",
          "20.10.2025 18:56:19",
          "20.10.2025 18:56:47",
          "20.10.2025 18:57:18",
          "20.10.2025 18:57:47",
          "20.10.2025 18:58:03",
          "20.10.2025 18:58:24",
          "20.10.2025 18:58:54",
          "20.10.2025 18:59:24",
          "20.10.2025 18:59:46",
          "20.10.2025 19:00:14",
          "20.10.2025 19:00:42",
          "20.10.2025 19:01:12",
          "20.10.2025 19:01:42",
          "20.10.2025 19:02:00",
          "20.10.2025 19:02:16",
          "20.10.2025 19:02:42",
          "20.10.2025 19:03:03",
          "20.10.2025 19:03:22",
          "20.10.2025 19:03:50",
          "20.10.2025 19:04:20",
          "20.10.2025 19:04:50",
          "20.10.2025 19:05:20",
          "20.10.2025 19:05:50",
          "20.10.2025 19:06:20",
          "20.10.2025 19:06:50",
          "20.10.2025 19:07:20",
          "20.10.2025 19:07:50",
          "20.10.2025 19:08:20",
          "20.10.2025 19:08:50",
          "20.10.2025 19:09:18",
          "20.10.2025 19:09:36",
          "20.10.2025 19:10:02",
          "20.10.2025 19:10:32",
          "20.10.2025 19:11:02",
          "20.10.2025 19:11:53",
          "20.10.2025 19:12:20",
          "20.10.2025 19:12:38",
          "20.10.2025 19:12:54",
          "20.10.2025 19:13:41",
          "20.10.2025 19:13:57",
          "20.10.2025 19:14:13",
          "20.10.2025 19:14:29",
          "20.10.2025 19:14:45",
          "20.10.2025 19:15:01",
          "20.10.2025 19:15:17",
          "20.10.2025 19:15:33"
        ],
        "course_deg_clockwise_from_north": [
          "248",
          "252",
          "248",
          "245",
          "245",
          "245",
          "246",
          "245",
          "276",
          "276",
          "273",
          "272",
          "288",
          "311",
          "325",
          "334",
          "338",
          "338",
          "338",
          "338",
          "338",
          "338",
          "338",
          "338",
          "338",
          "338",
          "338",
          "338",
          "338",
          "338",
          "327",
          "309",
          "299",
          "292",
          "290",
          "290",
          "290",
          "291",
          "290",
          "290",
          "290",
          "290",
          "290",
          "281",
          "271",
          "269",
          "270",
          "271",
          "269",
          "260",
          "259",
          "258",
          "259",
          "259",
          "259",
          "260",
          "243",
          "236",
          "235",
          "236",
          "236",
          "255",
          "254",
          "254",
          "254",
          "257",
          "275",
          "278",
          "277",
          "278",
          "278",
          "278",
          "278",
          "277",
          "273",
          "273",
          "272",
          "271",
          "271",
          "271",
          "271",
          "271",
          "271",
          "271",
          "272",
          "272",
          "270",
          "257",
          "252",
          "213",
          "205",
          "205",
          "206",
          "206",
          "204",
          "206",
          "206",
          "206"
        ],
        "speed_kts": [
          "146",
          "146",
          "143",
          "156",
          "173",
          "191",
          "208",
          "239",
          "269",
          "287",
          "319",
          "342",
          "368",
          "395",
          "412",
          "429",
          "437",
          "437",
          "446",
          "454",
          "464",
          "443",
          "442",
          "437",
          "432",
          "436",
          "441",
          "444",
          "446",
          "448",
          "443",
          "430",
          "422",
          "418",
          "416",
          "416",
          "415",
          "414",
          "414",
          "414",
          "413",
          "413",
          "408",
          "385",
          "369",
          "373",
          "376",
          "376",
          "373",
          "368",
          "368",
          "361",
          "347",
          "332",
          "296",
          "269",
          "261",
          "261",
          "253",
          "249",
          "255",
          "269",
          "260",
          "247",
          "228",
          "223",
          "222",
          "219",
          "225",
          "230",
          "228",
          "223",
          "226",
          "221",
          "226",
          "223",
          "216",
          "218",
          "222",
          "222",
          "219",
          "213",
          "210",
          "211",
          "206",
          "187",
          "174",
          "170",
          "167",
          "151",
          "150",
          "136",
          "124",
          "115",
          "113",
          "113",
          "116",
          "118"
        ],
        "speed_mph": [
          "168",
          "168",
          "165",
          "180",
          "199",
          "220",
          "239",
          "275",
          "310",
          "330",
          "367",
          "394",
          "423",
          "455",
          "474",
          "494",
          "503",
          "503",
          "513",
          "522",
          "534",
          "510",
          "509",
          "503",
          "497",
          "502",
          "507",
          "511",
          "513",
          "516",
          "510",
          "495",
          "486",
          "481",
          "479",
          "479",
          "478",
          "476",
          "476",
          "476",
          "475",
          "475",
          "470",
          "443",
          "425",
          "429",
          "433",
          "433",
          "429",
          "423",
          "423",
          "415",
          "399",
          "382",
          "341",
          "310",
          "300",
          "300",
          "291",
          "287",
          "293",
          "310",
          "299",
          "284",
          "262",
          "257",
          "255",
          "252",
          "259",
          "265",
          "262",
          "257",
          "260",
          "254",
          "260",
          "257",
          "249",
          "251",
          "255",
          "255",
          "252",
          "245",
          "242",
          "243",
          "237",
          "215",
          "200",
          "196",
          "192",
          "174",
          "173",
          "157",
          "143",
          "132",
          "130",
          "130",
          "133",
          "136"
        ],
        "altitude_ft": [
          "1775",
          "2750",
          "3625",
          "4300",
          "5075",
          "5775",
          "6400",
          "7750",
          "8450",
          "9400",
          "10950",
          "12275",
          "12975",
          "13875",
          "14725",
          "15975",
          "17425",
          "19325",
          "19950",
          "20000",
          "20000",
          "20000",
          "20000",
          "20000",
          "20000",
          "20000",
          "20000",
          "20000",
          "20000",
          "20000",
          "19975",
          "20000",
          "20000",
          "20000",
          "20000",
          "20000",
          "20000",
          "20000",
          "20000",
          "20000",
          "20000",
          "20000",
          "19500",
          "18950",
          "18325",
          "17525",
          "16650",
          "16150",
          "15650",
          "15000",
          "13900",
          "12775",
          "11825",
          "10925",
          "10475",
          "9975",
          "9650",
          "9225",
          "9000",
          "9000",
          "9000",
          "9000",
          "9000",
          "8650",
          "8300",
          "8100",
          "7925",
          "7625",
          "7400",
          "7175",
          "6825",
          "6525",
          "6025",
          "5800",
          "5375",
          "4925",
          "4775",
          "4775",
          "4775",
          "4775",
          "4775",
          "4775",
          "4625",
          "4200",
          "3800",
          "3775",
          "3425",
          "2975",
          "2650",
          "2625",
          "2575",
          "2450",
          "2275",
          "2100",
          "1925",
          "1775",
          "1600",
          "1425"
        ],
        "vertical_rate_fpm": [
          "",
          "3469",
          "2906",
          "2719",
          "2766",
          "2484",
          "2576",
          "2563",
          "2475",
          "2679",
          "2654",
          "2480",
          "2667",
          "3000",
          "3316",
          "3767",
          "3865",
          "2525",
          "675",
          "48",
          "",
          "",
          "",
          "",
          "",
          "",
          "",
          "",
          "",
          "-24",
          "",
          "43",
          "",
          "",
          "",
          "",
          "",
          "",
          "",
          "",
          "",
          "-600",
          "-1703",
          "-1855",
          "-1676",
          "-1675",
          "-1719",
          "-1765",
          "-1683",
          "-1981",
          "-2302",
          "-2075",
          "-1914",
          "-1373",
          "-950",
          "-1100",
          "-1216",
          "-765",
          "-225",
          "",
          "",
          "",
          "-362",
          "-700",
          "-688",
          "-662",
          "-679",
          "-670",
          "-675",
          "-734",
          "-672",
          "-800",
          "-725",
          "-650",
          "-875",
          "-600",
          "-150",
          "",
          "",
          "",
          "",
          "-196",
          "-784",
          "-884",
          "-425",
          "-278",
          "-615",
          "-1033",
          "-618",
          "-71",
          "-167",
          "-563",
          "-656",
          "-656",
          "-609",
          "-609",
          "-656",
          "-656"
        ],
        "reporting_facility": [
          "FlightAware ADS-B(EBCF)",
          "FlightAware ADS-B(ANR / EBAW)",
          "FlightAware ADS-B(MST / EHBK)",
          "FlightAware ADS-B(EBGB)",
          "FlightAware ADS-B(EBGB)",
          "FlightAware ADS-B(EBBZ)",
          "FlightAware ADS-B(BRU / EBBR)",
          "FlightAware ADS-B(EBGB)",
          "FlightAware ADS-B(LFAG)",
          "FlightAware ADS-B(OBL / EBZR)",
          "FlightAware ADS-B(EBGB)",
          "FlightAware ADS-B(EBNM)",
          "FlightAware ADS-B(KJK / EBKT)",
          "FlightAware ADS-B(EBNM)",
          "FlightAware ADS-B(ANR / EBAW)",
          "FlightAware ADS-B(GKE / ETNG)",
          "FlightAware ADS-B(BRU / EBBR)",
          "FlightAware ADS-B(EBAM)",
          "FlightAware ADS-B(EBEU)",
          "FlightAware ADS-B(SEN / EGMC)",
          "FlightAware ADS-B(EBGB)",
          "FlightAware ADS-B(LFQO)",
          "FlightAware ADS-B(CGN / EDDK)",
          "FlightAware ADS-B(RTM / EHRD)",
          "FlightAware ADS-B(EBHN)",
          "FlightAware ADS-B(MSE / EGMH)",
          "FlightAware ADS-B(EBUL)",
          "FlightAware ADS-B(BRU / EBBR)",
          "FlightAware ADS-B(BRU / EBBR)",
          "FlightAware ADS-B(GLZ / EHGR)",
          "FlightAware ADS-B(EBGB)",
          "FlightAware ADS-B(MSE / EGMH)",
          "FlightAware ADS-B(ENS / EHTW)",
          "FlightAware ADS-B(FMO / EDDG)",
          "FlightAware ADS-B(EIN / EHEH)",
          "FlightAware ADS-B(EBBY)",
          "FlightAware ADS-B(EBUL)",
          "FlightAware ADS-B(EBHN)",
          "FlightAware ADS-B(EBFN)",
          "FlightAware ADS-B(EGSV)",
          "FlightAware ADS-B(EGSQ)",
          "FlightAware ADS-B(EBME)",
          "FlightAware ADS-B(EGTR)",
          "FlightAware ADS-B(BRU / EBBR)",
          "FlightAware ADS-B(LFIS)",
          "FlightAware ADS-B(LCY / EGLC)",
          "FlightAware ADS-B(MSE / EGMH)",
          "FlightAware ADS-B(EGSQ)",
          "FlightAware ADS-B(EGTH)",
          "FlightAware ADS-B(BEQ / EGXH)",
          "FlightAware ADS-B(STN / EGSS)",
          "FlightAware ADS-B(NWI / EGSH)",
          "FlightAware ADS-B(EGSQ)",
          "FlightAware ADS-B(LYX / EGMD)",
          "FlightAware ADS-B(RCS / EGTO)",
          "FlightAware ADS-B(LYX / EGMD)",
          "FlightAware ADS-B(EGSR)",
          "FlightAware ADS-B(EGLW)",
          "FlightAware ADS-B(MSE / EGMH)",
          "FlightAware ADS-B(EGSL)",
          "FlightAware ADS-B(EGLW)",
          "FlightAware ADS-B(MSE / EGMH)",
          "FlightAware ADS-B(MSE / EGMH)",
          "FlightAware ADS-B(LTN / EGGW)",
          "FlightAware ADS-B(LYX / EGMD)",
          "FlightAware ADS-B(EGSQ)",
          "FlightAware ADS-B(EGSB)",
          "FlightAware ADS-B(EGML)",
          "FlightAware ADS-B(EGLW)",
          "FlightAware ADS-B(MSE / EGMH)",
          "FlightAware ADS-B(MSE / EGMH)",
          "FlightAware ADS-B(KNF / EGYM)",
          "FlightAware ADS-B(EGKH)",
          "FlightAware ADS-B(EGKH)",
          "FlightAware ADS-B(BEQ / EGXH)",
          "FlightAware ADS-B(EBFN)",
          "FlightAware ADS-B(ESH / EGKA)",
          "FlightAware ADS-B(SEN / EGMC)",
          "FlightAware ADS-B(SEN / EGMC)",
          "FlightAware ADS-B(RCS / EGTO)",
          "FlightAware ADS-B(LCY / EGLC)",
          "FlightAware ADS-B(EGSG)",
          "FlightAware ADS-B(SEN / EGMC)",
          "FlightAware ADS-B(RCS / EGTO)",
          "FlightAware ADS-B(BQH / EGKB)",
          "FlightAware ADS-B(RCS / EGTO)",
          "FlightAware ADS-B(BQH / EGKB)",
          "FlightAware ADS-B(BQH / EGKB)",
          "FlightAware ADS-B(BQH / EGKB)",
          "FlightAware ADS-B(EGML)",
          "FlightAware ADS-B(SEN / EGMC)",
          "FlightAware ADS-B(LYX / EGMD)",
          "FlightAware ADS-B(LHR / EGLL)",
          "FlightAware ADS-B(EGLW)",
          "FlightAware ADS-B(RCS / EGTO)",
          "FlightAware ADS-B(EGLW)",
          "FlightAware ADS-B(EGLW)",
          "FlightAware ADS-B(EGLW)"
        ]
      }
    }
  ]
}