{
  "type": "FeatureCollection",
  "features": [
    {
      "type": "Feature",
      "geometry": {
        "type": "LineString",
        "coordinates": [
          [
            7.1223,
            50.8699
          ],
          [
            7.1104,
            50.8786
          ],
          [
            7.101,
            50.8903
          ],
          [
            7.1034,
            50.9029
          ],
          [
            7.1118,
            50.9145
          ],
          [
            7.1229,
            50.9255
          ],
          [
            7.1376,
            50.9365
          ],
          [
            7.1603,
            50.9453
          ],
          [
            7.1886,
            50.9531
          ],
          [
            7.2179,
            50.9609
          ],
          [
            7.2505,
            50.9707
          ],
          [
            7.2761,
            50.976
          ],
          [
            7.3013,
            50.9696
          ],
          [
            7.3221,
            50.9506
          ],
          [
            7.3499,
            50.9027
          ],
          [
            7.3678,
            50.8726
          ],
          [
            7.4159,
            50.8006
          ],
          [
            7.4326,
            50.775
          ],
          [
            7.462,
            50.7305
          ],
          [
            7.487,
            50.6938
          ],
          [
            7.5169,
            50.6482
          ],
          [
            7.548,
            50.6014
          ],
          [
            7.5948,
            50.5314
          ],
          [
            7.6129,
            50.5037
          ],
          [
            7.6461,
            50.4542
          ],
          [
            7.66,
            50.4283
          ],
          [
            7.6939,
            50.3524
          ],
          [
            7.7102,
            50.3165
          ],
          [
            7.7586,
            50.2124
          ],
          [
            7.7849,
            50.1551
          ],
          [
            7.8022,
            50.1179
          ],
          [
            7.8199,
            50.0799
          ],
          [
            7.8556,
            50.0014
          ],
          [
            7.8833,
            49.9419
          ],
          [
            7.9099,
            49.8835
          ],
          [
            7.9381,
            49.821
          ],
          [
            7.9646,
            49.7625
          ],
          [
            7.9845,
            49.7199
          ],
          [
            8.0116,
            49.6591
          ],
          [
            8.0391,
            49.599
          ],
          [
            8.056,
            49.5614
          ],
          [
            8.0825,
            49.5018
          ],
          [
            8.1096,
            49.4417
          ],
          [
            8.1367,
            49.3812
          ],
          [
            8.1633,
            49.3212
          ],
          [
            8.1911,
            49.2587
          ],
          [
            8.2181,
            49.199
          ],
          [
            8.2362,
            49.1578
          ],
          [
            8.2611,
            49.1003
          ],
          [
            8.289,
            49.0393
          ],
          [
            8.3037,
            49.0033
          ],
          [
            8.3126,
            48.966
          ],
          [
            8.3185,
            48.9232
          ],
          [
            8.3217,
            48.886
          ],
          [
            8.326,
            48.8287
          ],
          [
            8.331,
            48.7787
          ],
          [
            8.3374,
            48.7189
          ],
          [
            8.3463,
            48.6282
          ],
          [
            8.3529,
            48.5615
          ],
          [
            8.3597,
            48.4949
          ],
          [
            8.3661,
            48.4293
          ],
          [
            8.3727,
            48.3594
          ],
          [
            8.379,
            48.2944
          ],
          [
            8.386,
            48.2251
          ],
          [
            8.3914,
            48.1656
          ],
          [
            8.3978,
            48.1
          ],
          [
            8.4044,
            48.0517
          ],
          [
            8.412,
            48.0031
          ],
          [
            8.4231,
            47.9203
          ],
          [
            8.4285,
            47.8817
          ],
          [
            8.4374,
            47.8168
          ],
          [
            8.4428,
            47.7779
          ],
          [
            8.4497,
            47.7246
          ],
          [
            8.4606,
            47.6463
          ],
          [
            8.4697,
            47.5797
          ],
          [
            8.4784,
            47.5139
          ],
          [
            8.4873,
            47.4485
          ],
          [
            8.4957,
            47.3905
          ],
          [
            8.5043,
            47.3237
          ],
          [
            8.5125,
            47.2602
          ],
          [
            8.519,
            47.2138
          ],
          [
            8.5281,
            47.1466
          ],
          [
            8.5371,
            47.0809
          ],
          [
            8.5474,
            46.9989
          ],
          [
            8.5567,
            46.9319
          ],
          [
            8.5633,
            46.8821
          ],
          [
            8.5717,
            46.818
          ],
          [
            8.5805,
            46.7508
          ],
          [
            8.5891,
            46.6854
          ],
          [
            8.5978,
            46.6204
          ],
          [
            8.6061,
            46.5562
          ],
          [
            8.6152,
            46.4871
          ],
          [
            8.6234,
            46.4239
          ],
          [
            8.6313,
            46.3636
          ],
          [
            8.6405,
            46.292
          ],
          [
            8.6507,
            46.2122
          ],
          [
            8.6593,
            46.1553
          ],
          [
            8.6706,
            46.1226
          ],
          [
            8.7021,
            46.0708
          ],
          [
            8.7256,
            46.0413
          ],
          [
            8.7591,
            46.0039
          ],
          [
            8.8264,
            45.9348
          ],
          [
            8.8764,
            45.8831
          ],
          [
            8.9265,
            45.8291
          ],
          [
            8.9756,
            45.7775
          ],
          [
            9.0189,
            45.7319
          ],
          [
            9.0529,
            45.695
          ],
          [
            9.0777,
            45.6636
          ],
          [
            9.1012,
            45.6253
          ],
          [
            9.1401,
            45.554
          ],
          [
            9.1708,
            45.4961
          ],
          [
            9.2005,
            45.4395
          ],
          [
            9.2301,
            45.3828
          ],
          [
            9.2527,
            45.3424
          ],
          [
            9.279,
            45.3113
          ],
          [
            9.3396,
            45.2547
          ],
          [
            9.3938,
            45.207
          ],
          [
            9.444,
            45.1608
          ],
          [
            9.4727,
            45.1337
          ],
          [
            9.4973,
            45.1033
          ],
          [
            9.5499,
            45.0227
          ],
          [
            9.5853,
            44.968
          ],
          [
            9.6218,
            44.9133
          ],
          [
            9.6574,
            44.8585
          ],
          [
            9.6939,
            44.8035
          ],
          [
            9.7297,
            44.7485
          ],
          [
            9.7696,
            44.6639
          ],
          [
            9.7949,
            44.6051
          ],
          [
            9.8207,
            44.547
          ],
          [
            9.8428,
            44.5117
          ],
          [
            9.8887,
            44.4549
          ],
          [
            9.9253,
            44.4103
          ],
          [
            9.9637,
            44.3607
          ],
          [
            9.9983,
            44.3163
          ],
          [
            10.0333,
            44.2721
          ],
          [
            10.0607,
            44.2366
          ],
          [
            10.0707,
            44.2115
          ],
          [
            10.0743,
            44.1824
          ],
          [
            10.0743,
            44.1458
          ],
          [
            10.0722,
            44.1001
          ],
          [
            10.0708,
            44.0553
          ],
          [
            10.0705,
            44.0163
          ],
          [
            10.0704,
            43.9774
          ],
          [
            10.0709,
            43.9555
          ],
          [
            10.0713,
            43.9208
          ],
          [
            10.071,
            43.8847
          ],
          [
            10.0716,
            43.846
          ],
          [
            10.0718,
            43.809
          ],
          [
            10.0718,
            43.7694
          ],
          [
            10.072,
            43.7354
          ],
          [
            10.0721,
            43.6949
          ],
          [
            10.0722,
            43.6603
          ],
          [
            10.0721,
            43.6225
          ],
          [
            10.0726,
            43.5986
          ],
          [
            10.0845,
            43.581
          ],
          [
            10.1051,
            43.5711
          ],
          [
            10.1301,
            43.5645
          ],
          [
            10.1746,
            43.5573
          ],
          [
            10.1975,
            43.554
          ],
          [
            10.2382,
            43.548
          ],
          [
            10.259,
            43.5473
          ],
          [
            10.2717,
            43.5568
          ],
          [
            10.2794,
            43.5709
          ],
          [
            10.2971,
            43.5894
          ],
          [
            10.3081,
            43.6
          ],
          [
            10.3272,
            43.6186
          ],
          [
            10.3347,
            43.626
          ],
          [
            10.3364,
            43.6276
          ],
          [
            10.3457,
            43.6368
          ],
          [
            10.3534,
            43.6441
          ],
          [
            10.3614,
            43.6518
          ],
          [
            10.3693,
            43.6595
          ],
          [
            10.377,
            43.667
          ],
          [
            10.3844,
            43.6742
          ]
        ]
      },
      "properties": {
        "time_europe_berlin": [
          "10.10.2025 12:41:53",
          "10.10.2025 12:42:09",
          "10.10.2025 12:42:25",
          "10.10.2025 12:42:41",
          "10.10.2025 12:42:57",
          "10.10.2025 12:43:13",
          "10.10.2025 12:43:30",
          "10.10.2025 12:43:49",
          "10.10.2025 12:44:12",
          "10.10.2025 12:44:33",
          "10.10.2025 12:44:59",
          "10.10.2025 12:45:18",
          "10.10.2025 12:45:35",
          "10.10.2025 12:45:55",
          "10.10.2025 12:46:34",
          "10.10.2025 12:46:58",
          "10.10.2025 12:47:49",
          "10.10.2025 12:48:06",
          "10.10.2025 12:48:36",
          "10.10.2025 12:48:59",
          "10.10.2025 12:49:29",
          "10.10.2025 12:49:59",
          "10.10.2025 12:50:43",
          "10.10.2025 12:51:01",
          "10.10.2025 12:51:31",
          "10.10.2025 12:51:47",
          "10.10.2025 12:52:31",
          "10.10.2025 12:52:52",
          "10.10.2025 12:53:49",
          "10.10.2025 12:54:19",
          "10.10.2025 12:54:37",
          "10.10.2025 12:54:58",
          "10.10.2025 12:55:37",
          "10.10.2025 12:56:07",
          "10.10.2025 12:56:37",
          "10.10.2025 12:57:07",
          "10.10.2025 12:57:37",
          "10.10.2025 12:57:57",
          "10.10.2025 12:58:27",
          "10.10.2025 12:58:57",
          "10.10.2025 12:59:15",
          "10.10.2025 12:59:45",
          "10.10.2025 13:00:15",
          "10.10.2025 13:00:45",
          "10.10.2025 13:01:15",
          "10.10.2025 13:01:45",
          "10.10.2025 13:02:15",
          "10.10.2025 13:02:34",
          "10.10.2025 13:03:04",
          "10.10.2025 13:03:34",
          "10.10.2025 13:03:51",
          "10.10.2025 13:04:09",
          "10.10.2025 13:04:29",
          "10.10.2025 13:04:46",
          "10.10.2025 13:05:12",
          "10.10.2025 13:05:35",
          "10.10.2025 13:06:01",
          "10.10.2025 13:06:42",
          "10.10.2025 13:07:12",
          "10.10.2025 13:07:42",
          "10.10.2025 13:08:12",
          "10.10.2025 13:08:42",
          "10.10.2025 13:09:12",
          "10.10.2025 13:09:42",
          "10.10.2025 13:10:10",
          "10.10.2025 13:10:40",
          "10.10.2025 13:11:02",
          "10.10.2025 13:11:26",
          "10.10.2025 13:12:04",
          "10.10.2025 13:12:21",
          "10.10.2025 13:12:51",
          "10.10.2025 13:13:09",
          "10.10.2025 13:13:33",
          "10.10.2025 13:14:11",
          "10.10.2025 13:14:41",
          "10.10.2025 13:15:11",
          "10.10.2025 13:15:41",
          "10.10.2025 13:16:08",
          "10.10.2025 13:16:38",
          "10.10.2025 13:17:08",
          "10.10.2025 13:17:31",
          "10.10.2025 13:18:01",
          "10.10.2025 13:18:31",
          "10.10.2025 13:19:10",
          "10.10.2025 13:19:40",
          "10.10.2025 13:20:03",
          "10.10.2025 13:20:33",
          "10.10.2025 13:21:03",
          "10.10.2025 13:21:33",
          "10.10.2025 13:22:03",
          "10.10.2025 13:22:33",
          "10.10.2025 13:23:03",
          "10.10.2025 13:23:33",
          "10.10.2025 13:24:03",
          "10.10.2025 13:24:33",
          "10.10.2025 13:25:10",
          "10.10.2025 13:25:35",
          "10.10.2025 13:25:53",
          "10.10.2025 13:26:18",
          "10.10.2025 13:26:35",
          "10.10.2025 13:26:55",
          "10.10.2025 13:27:35",
          "10.10.2025 13:28:05",
          "10.10.2025 13:28:35",
          "10.10.2025 13:29:05",
          "10.10.2025 13:29:35",
          "10.10.2025 13:29:57",
          "10.10.2025 13:30:15",
          "10.10.2025 13:30:36",
          "10.10.2025 13:31:15",
          "10.10.2025 13:31:45",
          "10.10.2025 13:32:15",
          "10.10.2025 13:32:45",
          "10.10.2025 13:33:06",
          "10.10.2025 13:33:25",
          "10.10.2025 13:34:01",
          "10.10.2025 13:34:31",
          "10.10.2025 13:35:01",
          "10.10.2025 13:35:19",
          "10.10.2025 13:35:37",
          "10.10.2025 13:36:21",
          "10.10.2025 13:36:51",
          "10.10.2025 13:37:21",
          "10.10.2025 13:37:51",
          "10.10.2025 13:38:21",
          "10.10.2025 13:38:51",
          "10.10.2025 13:39:36",
          "10.10.2025 13:40:06",
          "10.10.2025 13:40:36",
          "10.10.2025 13:40:56",
          "10.10.2025 13:41:32",
          "10.10.2025 13:42:02",
          "10.10.2025 13:42:32",
          "10.10.2025 13:43:02",
          "10.10.2025 13:43:32",
          "10.10.2025 13:43:56",
          "10.10.2025 13:44:12",
          "10.10.2025 13:44:30",
          "10.10.2025 13:44:54",
          "10.10.2025 13:45:24",
          "10.10.2025 13:45:55",
          "10.10.2025 13:46:25",
          "10.10.2025 13:46:55",
          "10.10.2025 13:47:12",
          "10.10.2025 13:47:42",
          "10.10.2025 13:48:12",
          "10.10.2025 13:48:42",
          "10.10.2025 13:49:12",
          "10.10.2025 13:49:43",
          "10.10.2025 13:50:13",
          "10.10.2025 13:50:44",
          "10.10.2025 13:51:14",
          "10.10.2025 13:51:46",
          "10.10.2025 13:52:06",
          "10.10.2025 13:52:24",
          "10.10.2025 13:52:41",
          "10.10.2025 13:52:58",
          "10.10.2025 13:53:29",
          "10.10.2025 13:53:45",
          "10.10.2025 13:54:17",
          "10.10.2025 13:54:33",
          "10.10.2025 13:54:51",
          "10.10.2025 13:55:09",
          "10.10.2025 13:55:39",
          "10.10.2025 13:55:55",
          "10.10.2025 13:56:25",
          "10.10.2025 13:56:38",
          "10.10.2025 13:56:41",
          "10.10.2025 13:56:58",
          "10.10.2025 13:57:14",
          "10.10.2025 13:57:30",
          "10.10.2025 13:57:46",
          "10.10.2025 13:58:02",
          "10.10.2025 13:58:18"
        ],
        "course_deg_clockwise_from_north": [
          "317",
          "322",
          "349",
          "18",
          "29",
          "34",
          "52",
          "63",
          "68",
          "66",
          "64",
          "90",
          "130",
          "154",
          "161",
          "158",
          "157",
          "157",
          "157",
          "156",
          "158",
          "157",
          "157",
          "157",
          "159",
          "162",
          "165",
          "163",
          "164",
          "163",
          "163",
          "163",
          "164",
          "163",
          "164",
          "164",
          "163",
          "163",
          "164",
          "163",
          "164",
          "164",
          "163",
          "164",
          "164",
          "164",
          "163",
          "165",
          "164",
          "164",
          "168",
          "173",
          "176",
          "178",
          "177",
          "176",
          "176",
          "177",
          "176",
          "177",
          "176",
          "176",
          "176",
          "177",
          "176",
          "176",
          "174",
          "175",
          "174",
          "175",
          "174",
          "175",
          "174",
          "174",
          "175",
          "175",
          "174",
          "175",
          "175",
          "175",
          "175",
          "175",
          "175",
          "174",
          "175",
          "175",
          "175",
          "175",
          "175",
          "175",
          "175",
          "175",
          "174",
          "175",
          "175",
          "175",
          "171",
          "162",
          "153",
          "150",
          "147",
          "145",
          "146",
          "147",
          "146",
          "147",
          "149",
          "154",
          "158",
          "159",
          "160",
          "160",
          "160",
          "154",
          "146",
          "141",
          "141",
          "142",
          "146",
          "153",
          "156",
          "155",
          "155",
          "155",
          "155",
          "156",
          "163",
          "163",
          "162",
          "152",
          "149",
          "151",
          "151",
          "151",
          "151",
          "155",
          "171",
          "178",
          "181",
          "182",
          "181",
          "180",
          "180",
          "179",
          "180",
          "180",
          "179",
          "181",
          "180",
          "180",
          "179",
          "180",
          "180",
          "175",
          "134",
          "116",
          "107",
          "101",
          "102",
          "101",
          "71",
          "21",
          "27",
          "38",
          "37",
          "37",
          "37",
          "37",
          "36",
          "38",
          "36",
          "37",
          "36",
          "37"
        ],
        "speed_kts": [
          "154",
          "169",
          "177",
          "179",
          "176",
          "175",
          "182",
          "187",
          "191",
          "196",
          "196",
          "212",
          "234",
          "257",
          "295",
          "314",
          "347",
          "352",
          "359",
          "361",
          "366",
          "368",
          "371",
          "370",
          "377",
          "382",
          "398",
          "407",
          "427",
          "434",
          "439",
          "442",
          "448",
          "451",
          "454",
          "457",
          "457",
          "457",
          "456",
          "456",
          "456",
          "453",
          "453",
          "456",
          "458",
          "459",
          "458",
          "459",
          "457",
          "458",
          "462",
          "467",
          "473",
          "477",
          "479",
          "481",
          "481",
          "483",
          "484",
          "485",
          "483",
          "483",
          "483",
          "481",
          "476",
          "473",
          "473",
          "473",
          "471",
          "471",
          "470",
          "471",
          "471",
          "470",
          "470",
          "469",
          "468",
          "469",
          "468",
          "470",
          "470",
          "471",
          "472",
          "473",
          "474",
          "474",
          "474",
          "474",
          "475",
          "475",
          "474",
          "475",
          "474",
          "474",
          "475",
          "474",
          "470",
          "465",
          "458",
          "456",
          "453",
          "457",
          "465",
          "441",
          "428",
          "421",
          "421",
          "425",
          "426",
          "429",
          "437",
          "441",
          "443",
          "439",
          "431",
          "425",
          "422",
          "423",
          "429",
          "430",
          "437",
          "435",
          "435",
          "434",
          "434",
          "435",
          "438",
          "438",
          "430",
          "418",
          "397",
          "386",
          "379",
          "370",
          "360",
          "355",
          "351",
          "344",
          "334",
          "318",
          "290",
          "291",
          "269",
          "259",
          "260",
          "266",
          "271",
          "269",
          "265",
          "264",
          "261",
          "260",
          "255",
          "248",
          "240",
          "241",
          "240",
          "230",
          "220",
          "194",
          "182",
          "174",
          "166",
          "173",
          "174",
          "157",
          "151",
          "150",
          "139",
          "130",
          "130",
          "128",
          "129",
          "123"
        ],
        "speed_mph": [
          "177",
          "194",
          "204",
          "206",
          "203",
          "201",
          "209",
          "215",
          "220",
          "226",
          "226",
          "244",
          "269",
          "296",
          "339",
          "361",
          "399",
          "405",
          "413",
          "415",
          "421",
          "423",
          "427",
          "426",
          "434",
          "440",
          "458",
          "468",
          "491",
          "499",
          "505",
          "509",
          "516",
          "519",
          "522",
          "526",
          "526",
          "526",
          "525",
          "525",
          "525",
          "521",
          "521",
          "525",
          "527",
          "528",
          "527",
          "528",
          "526",
          "527",
          "532",
          "537",
          "544",
          "549",
          "551",
          "554",
          "554",
          "556",
          "557",
          "558",
          "556",
          "556",
          "556",
          "554",
          "548",
          "544",
          "544",
          "544",
          "542",
          "542",
          "541",
          "542",
          "542",
          "541",
          "541",
          "540",
          "539",
          "540",
          "539",
          "541",
          "541",
          "542",
          "543",
          "544",
          "545",
          "545",
          "545",
          "545",
          "547",
          "547",
          "545",
          "547",
          "545",
          "545",
          "547",
          "545",
          "541",
          "535",
          "527",
          "525",
          "521",
          "526",
          "535",
          "507",
          "493",
          "484",
          "484",
          "489",
          "490",
          "494",
          "503",
          "507",
          "510",
          "505",
          "496",
          "489",
          "486",
          "487",
          "494",
          "495",
          "503",
          "501",
          "501",
          "499",
          "499",
          "501",
          "504",
          "504",
          "495",
          "481",
          "457",
          "444",
          "436",
          "426",
          "414",
          "409",
          "404",
          "396",
          "384",
          "366",
          "334",
          "335",
          "310",
          "298",
          "299",
          "306",
          "312",
          "310",
          "305",
          "304",
          "300",
          "299",
          "293",
          "285",
          "276",
          "277",
          "276",
          "265",
          "253",
          "223",
          "209",
          "200",
          "191",
          "199",
          "200",
          "181",
          "174",
          "173",
          "160",
          "150",
          "150",
          "147",
          "148",
          "142"
        ],
        "altitude_ft": [
          "",
          "475",
          "1300",
          "2300",
          "3300",
          "4175",
          "5100",
          "6175",
          "7400",
          "8550",
          "9900",
          "10775",
          "11475",
          "12200",
          "13525",
          "14300",
          "16025",
          "16700",
          "17925",
          "18900",
          "20100",
          "21350",
          "23175",
          "23900",
          "24975",
          "25525",
          "26750",
          "27250",
          "28675",
          "29400",
          "29875",
          "30350",
          "31325",
          "32075",
          "32800",
          "33550",
          "34275",
          "34775",
          "35525",
          "36250",
          "36700",
          "37400",
          "37975",
          "38450",
          "38925",
          "39425",
          "39875",
          "40200",
          "40650",
          "40975",
          "41000",
          "41000",
          "41000",
          "41000",
          "41000",
          "41000",
          "41000",
          "41000",
          "41000",
          "41000",
          "41000",
          "41000",
          "41000",
          "41000",
          "41000",
          "41000",
          "41000",
          "41000",
          "41000",
          "41000",
          "41000",
          "41000",
          "41000",
          "41000",
          "41000",
          "41000",
          "41000",
          "41000",
          "41000",
          "41000",
          "41000",
          "41000",
          "41000",
          "41000",
          "41000",
          "41000",
          "41000",
          "41000",
          "41000",
          "41000",
          "41000",
          "41000",
          "41000",
          "41000",
          "41000",
          "41000",
          "41000",
          "41000",
          "41000",
          "41000",
          "41000",
          "40600",
          "39925",
          "39175",
          "39000",
          "39000",
          "39000",
          "38950",
          "38400",
          "37425",
          "37025",
          "36550",
          "35750",
          "35125",
          "34575",
          "33425",
          "32450",
          "31475",
          "31075",
          "30900",
          "29825",
          "29075",
          "28300",
          "27525",
          "26725",
          "25850",
          "24425",
          "23350",
          "22075",
          "21350",
          "20325",
          "19150",
          "17800",
          "16575",
          "15325",
          "14275",
          "13625",
          "12850",
          "11875",
          "11050",
          "11000",
          "10575",
          "10025",
          "9975",
          "9325",
          "8625",
          "7725",
          "6775",
          "5800",
          "5125",
          "4325",
          "3725",
          "3675",
          "3500",
          "3350",
          "3225",
          "3075",
          "2875",
          "2700",
          "2425",
          "2275",
          "2175",
          "2175",
          "1725",
          "1475",
          "1050",
          "875",
          "825",
          "625",
          "450",
          "300",
          "100",
          "",
          ""
        ],
        "vertical_rate_fpm": [
          "",
          "2719",
          "3422",
          "3750",
          "3516",
          "3273",
          "3333",
          "3286",
          "3239",
          "3191",
          "2967",
          "2625",
          "2311",
          "2085",
          "2000",
          "2000",
          "2118",
          "2426",
          "2491",
          "2462",
          "2450",
          "2493",
          "2468",
          "2250",
          "2120",
          "1775",
          "1592",
          "1481",
          "1483",
          "1500",
          "1462",
          "1450",
          "1500",
          "1475",
          "1475",
          "1475",
          "1470",
          "1500",
          "1475",
          "1469",
          "1438",
          "1275",
          "1050",
          "950",
          "975",
          "950",
          "949",
          "949",
          "775",
          "447",
          "43",
          "",
          "",
          "",
          "",
          "",
          "",
          "",
          "",
          "",
          "",
          "",
          "",
          "",
          "",
          "",
          "",
          "",
          "",
          "",
          "",
          "",
          "",
          "",
          "",
          "",
          "",
          "",
          "",
          "",
          "",
          "",
          "",
          "",
          "",
          "",
          "",
          "",
          "",
          "",
          "",
          "",
          "",
          "",
          "",
          "",
          "",
          "",
          "",
          "",
          "-400",
          "-921",
          "-1425",
          "-925",
          "-175",
          "",
          "-75",
          "-923",
          "-1525",
          "-1196",
          "-875",
          "-1275",
          "-1676",
          "-1763",
          "-1855",
          "-1932",
          "-1950",
          "-1719",
          "-958",
          "-1210",
          "-1480",
          "-1525",
          "-1550",
          "-1575",
          "-1675",
          "-1840",
          "-2000",
          "-2350",
          "-2400",
          "-1875",
          "-2000",
          "-2525",
          "-2575",
          "-2475",
          "-2556",
          "-2550",
          "-2515",
          "-2500",
          "-2000",
          "-861",
          "-467",
          "-975",
          "-766",
          "-894",
          "-1350",
          "-1600",
          "-1850",
          "-1893",
          "-1623",
          "-1451",
          "-1377",
          "-629",
          "-260",
          "-513",
          "-471",
          "-485",
          "-438",
          "-479",
          "-563",
          "-531",
          "-441",
          "-167",
          "-563",
          "-913",
          "-880",
          "-837",
          "-844",
          "-750",
          "-682",
          "-609",
          "-656",
          "-750",
          "-750",
          ""
        ],
        "reporting_facility": [
          "FlightAware ADS-B(CGN / EDDK)",
          "FlightAware ADS-B(CGN / EDDK)",
          "FlightAware ADS-B(CGN / EDDK)",
          "FlightAware ADS-B(AAH / EDKA)",
          "FlightAware ADS-B(DUS / EDDL)",
          "FlightAware ADS-B(EDKL)",
          "FlightAware ADS-B(DUS / EDDL)",
          "FlightAware ADS-B(EDLD)",
          "FlightAware ADS-B(CGN / EDDK)",
          "FlightAware ADS-B(CGN / EDDK)",
          "FlightAware ADS-B(DUS / EDDL)",
          "FlightAware ADS-B(ETOU)",
          "FlightAware ADS-B(CGN / EDDK)",
          "FlightAware ADS-B(CGN / EDDK)",
          "FlightAware ADS-B(MGL / EDLN)",
          "FlightAware ADS-B(MGL / EDLN)",
          "FlightAware ADS-B(EDKB)",
          "FlightAware ADS-B(EDEP)",
          "FlightAware ADS-B(AAH / EDKA)",
          "FlightAware ADS-B(EDKB)",
          "FlightAware ADS-B(CGN / EDDK)",
          "FlightAware ADS-B(UDE / EHVK)",
          "FlightAware ADS-B(CGN / EDDK)",
          "FlightAware ADS-B(EIN / EHEH)",
          "FlightAware ADS-B(DTM / EDLW)",
          "FlightAware ADS-B(SGE / EDGS)",
          "FlightAware ADS-B(DTM / EDLW)",
          "FlightAware ADS-B(EDKL)",
          "FlightAware ADS-B(FRA / EDDF)",
          "FlightAware ADS-B(MST / EHBK)",
          "FlightAware ADS-B(EDKB)",
          "FlightAware ADS-B(EDFP)",
          "FlightAware ADS-B(EAP / LFSB)",
          "FlightAware ADS-B(EDQC)",
          "FlightAware ADS-B(ELNT)",
          "FlightAware ADS-B(FRA / EDDF)",
          "FlightAware ADS-B(SCN / EDDR)",
          "FlightAware ADS-B(STR / EDDS)",
          "FlightAware ADS-B(EDFZ)",
          "FlightAware ADS-B(EDFZ)",
          "FlightAware ADS-B(EDFA)",
          "FlightAware ADS-B(EBBL)",
          "FlightAware ADS-B(EBBL)",
          "FlightAware ADS-B(EDFO)",
          "FlightAware ADS-B(SCN / EDDR)",
          "FlightAware ADS-B(EDGU)",
          "FlightAware ADS-B(EDRK)",
          "FlightAware ADS-B(EDGZ)",
          "FlightAware ADS-B(EDTC)",
          "FlightAware ADS-B(DIJ / LFSD)",
          "FlightAware ADS-B(EDRF)",
          "FlightAware ADS-B(RMS / ETAR)",
          "FlightAware ADS-B(ETOU)",
          "FlightAware ADS-B(EDGX)",
          "FlightAware ADS-B(EDTO)",
          "FlightAware ADS-B(EDTM)",
          "FlightAware ADS-B(RMS / ETAR)",
          "FlightAware ADS-B(EDTC)",
          "FlightAware ADS-B(FRA / EDDF)",
          "FlightAware ADS-B(SXB / LFST)",
          "FlightAware ADS-B(ETSA)",
          "FlightAware ADS-B(STR / EDDS)",
          "FlightAware ADS-B(LSPH)",
          "FlightAware ADS-B(STR / EDDS)",
          "FlightAware ADS-B(FDH / EDNY)",
          "FlightAware ADS-B(LSXT)",
          "FlightAware ADS-B(QEF / EDFE)",
          "FlightAware ADS-B(EDSA)",
          "FlightAware ADS-B(FKB / EDSB)",
          "FlightAware ADS-B(ZRH / LSZH)",
          "FlightAware ADS-B(LSZF)",
          "FlightAware ADS-B(ACH / LSZR)",
          "FlightAware ADS-B(LSPV)",
          "FlightAware ADS-B(OBF / EDMO)",
          "FlightAware ADS-B(LSXB)",
          "FlightAware ADS-B(LSXB)",
          "FlightAware ADS-B(BRN / LSZB)",
          "FlightAware ADS-B(LSZU)",
          "FlightAware ADS-B(LSZW)",
          "FlightAware ADS-B(EDMG)",
          "FlightAware ADS-B(FKB / EDSB)",
          "FlightAware ADS-B(EAP / LFSB)",
          "FlightAware ADS-B(BRN / LSZB)",
          "FlightAware ADS-B(BRN / LSZB)",
          "FlightAware ADS-B(LSME)",
          "FlightAware ADS-B(ZRH / LSZH)",
          "FlightAware ADS-B(ZRH / LSZH)",
          "FlightAware ADS-B(ZRH / LSZH)",
          "FlightAware ADS-B(ZRH / LSZH)",
          "FlightAware ADS-B(BRN / LSZB)",
          "FlightAware ADS-B(BXO / LSZC)",
          "FlightAware ADS-B(LSZW)",
          "FlightAware ADS-B(LSZN)",
          "FlightAware ADS-B(LSTB)",
          "FlightAware ADS-B(ZRH / LSZH)",
          "FlightAware ADS-B(LSHW)",
          "FlightAware ADS-B(ZRH / LSZH)",
          "FlightAware ADS-B(LSTB)",
          "FlightAware ADS-B(MHG / EDFM)",
          "FlightAware ADS-B(LSZF)",
          "FlightAware ADS-B(BLQ / LIPE)",
          "FlightAware ADS-B(LSPV)",
          "FlightAware ADS-B(LSMD)",
          "FlightAware ADS-B(LIN / LIML)",
          "FlightAware ADS-B(LSTB)",
          "FlightAware ADS-B(ETHL)",
          "FlightAware ADS-B(ZRH / LSZH)",
          "FlightAware ADS-B(PMF / LIMP)",
          "FlightAware ADS-B(LILC)",
          "FlightAware ADS-B(BGY / LIME)",
          "FlightAware ADS-B(MXP / LIMC)",
          "FlightAware ADS-B(LIN / LIML)",
          "FlightAware ADS-B(LUG / LSZA)",
          "FlightAware ADS-B(LIN / LIML)",
          "FlightAware ADS-B(BLQ / LIPE)",
          "FlightAware ADS-B(MXP / LIMC)",
          "FlightAware ADS-B(GOA / LIMJ)",
          "FlightAware ADS-B(GOA / LIMJ)",
          "FlightAware ADS-B(TRN / LIMF)",
          "FlightAware ADS-B(LIPS)",
          "FlightAware ADS-B(PMF / LIMP)",
          "FlightAware ADS-B(LIN / LIML)",
          "FlightAware ADS-B(PMF / LIMP)",
          "FlightAware ADS-B(FLR / LIRQ)",
          "FlightAware ADS-B(LILQ)",
          "FlightAware ADS-B(LIDU)",
          "FlightAware ADS-B(LIPC)",
          "FlightAware ADS-B(VRN / LIPX)",
          "FlightAware ADS-B(LILK)",
          "FlightAware ADS-B(PMF / LIMP)",
          "FlightAware ADS-B(LIPS)",
          "FlightAware ADS-B(PSA / LIRP)",
          "FlightAware ADS-B(BLQ / LIPE)",
          "FlightAware ADS-B(LIN / LIML)",
          "FlightAware ADS-B(PMF / LIMP)",
          "FlightAware ADS-B(TSF / LIPH)",
          "FlightAware ADS-B(LIPM)",
          "FlightAware ADS-B(AVB / LIPA)",
          "FlightAware ADS-B(PSA / LIRP)",
          "FlightAware ADS-B(LIDU)",
          "FlightAware ADS-B(LIAT)",
          "FlightAware ADS-B(BLQ / LIPE)",
          "FlightAware ADS-B(FLR / LIRQ)",
          "FlightAware ADS-B(LIAT)",
          "FlightAware ADS-B(PSA / LIRP)",
          "FlightAware ADS-B(MCM / LNMC)",
          "FlightAware ADS-B(EBA / LIRJ)",
          "FlightAware ADS-B(GOA / LIMJ)",
          "FlightAware ADS-B(LILQ)",
          "FlightAware ADS-B(MCM / LNMC)",
          "FlightAware ADS-B(LILQ)",
          "FlightAware ADS-B(PSA / LIRP)",
          "FlightAware ADS-B(NCE / LFMN)",
          "FlightAware ADS-B(MCM / LNMC)",
          "FlightAware ADS-B(CEQ / LFMD)",
          "FlightAware ADS-B(PSA / LIRP)",
          "FlightAware ADS-B(MCM / LNMC)",
          "FlightAware ADS-B(PSA / LIRP)",
          "FlightAware ADS-B(PSA / LIRP)",
          "FlightAware ADS-B(PSA / LIRP)",
          "FlightAware ADS-B(EBA / LIRJ)",
          "FlightAware ADS-B(PSA / LIRP)",
          "FlightAware ADS-B(EBA / LIRJ)",
          "FlightAware ADS-B(PSA / LIRP)",
          "FlightAware ADS-B(FLR / LIRQ)",
          "FlightAware ADS-B(LIAO)",
          "Surface and Near-Surface",
          "FlightAware ADS-B(PSA / LIRP)",
          "FlightAware ADS-B(PSA / LIRP)",
          "FlightAware ADS-B(FLR / LIRQ)",
          "FlightAware ADS-B(PSA / LIRP)",
          "FlightAware ADS-B(PSA / LIRP)",
          "FlightAware ADS-B(PSA / LIRP)",
          "FlightAware ADS-B(PSA / LIRP)"
        ]
      }
    }
  ]
}