{
  "type": "FeatureCollection",
  "features": [
    {
      "type": "Feature",
      "geometry": {
        "type": "LineString",
        "coordinates": [
          [
            -0.0214,
            51.3285
          ],
          [
            0.0499,
            51.3387
          ],
          [
            0.0795,
            51.338
          ],
          [
            0.1064,
            51.3376
          ],
          [
            0.1433,
            51.3369
          ],
          [
            0.2012,
            51.3352
          ],
          [
            0.2329,
            51.3344
          ],
          [
            0.2697,
            51.3334
          ],
          [
            0.313,
            51.3318
          ],
          [
            0.3771,
            51.3288
          ],
          [
            0.418,
            51.3291
          ],
          [
            0.4577,
            51.3281
          ],
          [
            0.5349,
            51.3245
          ],
          [
            0.5778,
            51.3268
          ],
          [
            0.6334,
            51.3459
          ],
          [
            0.6658,
            51.3736
          ],
          [
            0.5936,
            51.3906
          ],
          [
            0.0842,
            51.5835
          ],
          [
            0.0266,
            51.6202
          ],
          [
            -0.0242,
            51.6624
          ],
          [
            -0.1817,
            51.785
          ],
          [
            -0.24,
            51.8278
          ],
          [
            -0.2929,
            51.8679
          ],
          [
            -0.3375,
            51.903
          ],
          [
            -0.3956,
            51.9467
          ],
          [
            -0.4456,
            51.985
          ],
          [
            -0.4947,
            52.0209
          ],
          [
            -0.5517,
            52.0652
          ],
          [
            -0.6035,
            52.1038
          ],
          [
            -0.6538,
            52.14
          ],
          [
            -0.699,
            52.1761
          ],
          [
            -0.748,
            52.2128
          ],
          [
            -0.7944,
            52.2475
          ],
          [
            -0.8416,
            52.2821
          ],
          [
            -0.8876,
            52.3171
          ],
          [
            -0.9314,
            52.3489
          ],
          [
            -0.9748,
            52.3815
          ],
          [
            -1.0052,
            52.4136
          ],
          [
            -1.0141,
            52.4318
          ],
          [
            -1.0135,
            52.455
          ],
          [
            -1.0055,
            52.4786
          ],
          [
            -1.0022,
            52.5001
          ],
          [
            -1.0024,
            52.5357
          ],
          [
            -1.003,
            52.5544
          ],
          [
            -1.0029,
            52.5767
          ],
          [
            -1.0027,
            52.5959
          ],
          [
            -1.0018,
            52.6125
          ],
          [
            -1.0009,
            52.629
          ],
          [
            -0.9998,
            52.6454
          ],
          [
            -0.9998,
            52.6645
          ],
          [
            -1.0042,
            52.6929
          ],
          [
            -1.0064,
            52.7087
          ],
          [
            -1.0093,
            52.7245
          ],
          [
            -1.0129,
            52.7407
          ],
          [
            -1.0173,
            52.7586
          ],
          [
            -1.0221,
            52.7876
          ],
          [
            -1.0247,
            52.8052
          ],
          [
            -1.0274,
            52.8208
          ],
          [
            -1.0372,
            52.8347
          ],
          [
            -1.0601,
            52.8397
          ],
          [
            -1.0832,
            52.8418
          ],
          [
            -1.1102,
            52.8398
          ],
          [
            -1.1496,
            52.8358
          ],
          [
            -1.1679,
            52.834
          ],
          [
            -1.1989,
            52.8324
          ],
          [
            -1.2132,
            52.8331
          ],
          [
            -1.2272,
            52.8329
          ],
          [
            -1.2431,
            52.8326
          ],
          [
            -1.2568,
            52.8325
          ],
          [
            -1.2704,
            52.8325
          ],
          [
            -1.2856,
            52.8319
          ],
          [
            -1.3037,
            52.8316
          ]
        ]
      },
      "properties": {
        "time_europe_berlin": [
          "28.10.2025 16:38:07",
          "28.10.2025 16:38:58",
          "28.10.2025 16:39:16",
          "28.10.2025 16:39:32",
          "28.10.2025 16:39:51",
          "28.10.2025 16:40:21",
          "28.10.2025 16:40:37",
          "28.10.2025 16:40:55",
          "28.10.2025 16:41:13",
          "28.10.2025 16:41:43",
          "28.10.2025 16:42:01",
          "28.10.2025 16:42:19",
          "28.10.2025 16:42:53",
          "28.10.2025 16:43:13",
          "28.10.2025 16:43:52",
          "28.10.2025 16:44:12",
          "28.10.2025 16:44:54",
          "28.10.2025 16:47:59",
          "28.10.2025 16:48:30",
          "28.10.2025 16:49:02",
          "28.10.2025 16:50:30",
          "28.10.2025 16:51:03",
          "28.10.2025 16:51:36",
          "28.10.2025 16:52:06",
          "28.10.2025 16:52:40",
          "28.10.2025 16:53:10",
          "28.10.2025 16:53:40",
          "28.10.2025 16:54:14",
          "28.10.2025 16:54:46",
          "28.10.2025 16:55:16",
          "28.10.2025 16:55:46",
          "28.10.2025 16:56:17",
          "28.10.2025 16:56:47",
          "28.10.2025 16:57:18",
          "28.10.2025 16:57:49",
          "28.10.2025 16:58:19",
          "28.10.2025 16:58:50",
          "28.10.2025 16:59:23",
          "28.10.2025 16:59:41",
          "28.10.2025 17:00:00",
          "28.10.2025 17:00:18",
          "28.10.2025 17:00:34",
          "28.10.2025 17:01:04",
          "28.10.2025 17:01:20",
          "28.10.2025 17:01:40",
          "28.10.2025 17:01:59",
          "28.10.2025 17:02:15",
          "28.10.2025 17:02:31",
          "28.10.2025 17:02:47",
          "28.10.2025 17:03:06",
          "28.10.2025 17:03:35",
          "28.10.2025 17:03:51",
          "28.10.2025 17:04:07",
          "28.10.2025 17:04:24",
          "28.10.2025 17:04:43",
          "28.10.2025 17:05:15",
          "28.10.2025 17:05:34",
          "28.10.2025 17:05:51",
          "28.10.2025 17:06:07",
          "28.10.2025 17:06:25",
          "28.10.2025 17:06:43",
          "28.10.2025 17:07:00",
          "28.10.2025 17:07:30",
          "28.10.2025 17:07:46",
          "28.10.2025 17:08:16",
          "28.10.2025 17:08:33",
          "28.10.2025 17:08:51",
          "28.10.2025 17:09:11",
          "28.10.2025 17:09:27",
          "28.10.2025 17:09:43",
          "28.10.2025 17:09:59",
          "28.10.2025 17:10:19"
        ],
        "course_deg_clockwise_from_north": [
          "13",
          "97",
          "91",
          "93",
          "93",
          "92",
          "93",
          "93",
          "92",
          "93",
          "93",
          "93",
          "88",
          "53",
          "343",
          "306",
          "290",
          "309",
          "322",
          "321",
          "321",
          "321",
          "321",
          "321",
          "321",
          "321",
          "321",
          "321",
          "320",
          "321",
          "321",
          "320",
          "321",
          "320",
          "320",
          "320",
          "320",
          "355",
          "2",
          "1",
          "360",
          "0",
          "0",
          "0",
          "359",
          "2",
          "2",
          "2",
          "0",
          "357",
          "355",
          "354",
          "353",
          "353",
          "353",
          "355",
          "354",
          "339",
          "310",
          "276",
          "267",
          "267",
          "268",
          "268",
          "268",
          "268",
          "269",
          "268",
          "269",
          "269",
          "267",
          "268"
        ],
        "speed_kts": [
          "196",
          "218",
          "234",
          "256",
          "262",
          "278",
          "284",
          "286",
          "288",
          "300",
          "302",
          "300",
          "312",
          "302",
          "278",
          "290",
          "342",
          "356",
          "366",
          "366",
          "366",
          "350",
          "334",
          "344",
          "356",
          "352",
          "350",
          "342",
          "344",
          "340",
          "332",
          "324",
          "320",
          "314",
          "308",
          "294",
          "264",
          "264",
          "268",
          "266",
          "262",
          "260",
          "250",
          "248",
          "236",
          "230",
          "224",
          "220",
          "218",
          "214",
          "216",
          "216",
          "208",
          "202",
          "202",
          "200",
          "204",
          "194",
          "186",
          "176",
          "170",
          "162",
          "150",
          "140",
          "130",
          "110",
          "110",
          "114",
          "112",
          "112",
          "118",
          "118"
        ],
        "speed_mph": [
          "226",
          "251",
          "269",
          "295",
          "302",
          "320",
          "327",
          "329",
          "331",
          "345",
          "348",
          "345",
          "359",
          "348",
          "320",
          "334",
          "394",
          "410",
          "421",
          "421",
          "421",
          "403",
          "384",
          "396",
          "410",
          "405",
          "403",
          "394",
          "396",
          "391",
          "382",
          "373",
          "368",
          "361",
          "354",
          "338",
          "304",
          "304",
          "308",
          "306",
          "302",
          "299",
          "288",
          "285",
          "272",
          "265",
          "258",
          "253",
          "251",
          "246",
          "249",
          "249",
          "239",
          "232",
          "232",
          "230",
          "235",
          "223",
          "214",
          "203",
          "196",
          "186",
          "173",
          "161",
          "150",
          "127",
          "127",
          "131",
          "129",
          "129",
          "136",
          "136"
        ],
        "altitude_ft": [
          "2850",
          "3100",
          "",
          "3200",
          "3525",
          "4075",
          "4150",
          "4175",
          "4200",
          "5550",
          "6275",
          "7200",
          "8875",
          "9925",
          "11700",
          "12225",
          "14000",
          "18000",
          "18000",
          "18000",
          "18000",
          "17475",
          "17025",
          "17000",
          "17000",
          "17000",
          "16975",
          "16125",
          "15300",
          "14475",
          "13650",
          "12800",
          "11975",
          "11125",
          "10475",
          "10050",
          "10000",
          "10175",
          "9675",
          "9100",
          "8625",
          "8175",
          "7275",
          "6875",
          "6475",
          "6050",
          "5725",
          "5400",
          "5100",
          "4725",
          "3875",
          "3450",
          "3275",
          "3250",
          "3250",
          "3250",
          "3250",
          "3200",
          "3000",
          "2875",
          "2700",
          "2575",
          "2475",
          "2275",
          "1925",
          "1725",
          "1575",
          "1375",
          "1200",
          "1075",
          "875",
          "650"
        ],
        "vertical_rate_fpm": [
          "",
          "294",
          "",
          "",
          "1071",
          "815",
          "176",
          "83",
          "1719",
          "2594",
          "2750",
          "3000",
          "3028",
          "2873",
          "2339",
          "2226",
          "1526",
          "1111",
          "",
          "",
          "-260",
          "-886",
          "-452",
          "-23",
          "",
          "-25",
          "-820",
          "-1523",
          "-1597",
          "-1650",
          "-1648",
          "-1648",
          "-1648",
          "-1452",
          "-1057",
          "-467",
          "117",
          "-382",
          "-1743",
          "-1703",
          "-1632",
          "-1761",
          "-1696",
          "-1333",
          "-1269",
          "-1286",
          "-1219",
          "-1172",
          "-1157",
          "-1531",
          "-1700",
          "-1125",
          "-364",
          "-42",
          "",
          "",
          "-83",
          "-455",
          "-574",
          "-500",
          "-514",
          "-287",
          "-391",
          "-717",
          "-702",
          "-600",
          "-553",
          "-625",
          "-563",
          "-609",
          "-708",
          "-675"
        ],
        "reporting_facility": [
          "Surface and Near-Surface",
          "FlightAware MLAT(5 sites)",
          "FlightAware MLAT(13 sites)",
          "FlightAware MLAT(9 sites)",
          "FlightAware MLAT(6 sites)",
          "FlightAware MLAT(8 sites)",
          "FlightAware MLAT(6 sites)",
          "FlightAware MLAT(5 sites)",
          "FlightAware MLAT(4 sites)",
          "FlightAware MLAT(8 sites)",
          "FlightAware MLAT(11 sites)",
          "FlightAware MLAT(7 sites)",
          "FlightAware MLAT(4 sites)",
          "FlightAware MLAT(6 sites)",
          "FlightAware MLAT(6 sites)",
          "FlightAware MLAT(6 sites)",
          "FlightAware MLAT(14 sites)",
          "FlightAware ADS-B(EGLW)",
          "FlightAware ADS-B(EGLW)",
          "FlightAware ADS-B(EGLW)",
          "FlightAware MLAT(14 sites)",
          "FlightAware MLAT(5 sites)",
          "FlightAware MLAT(4 sites)",
          "FlightAware MLAT(16 sites)",
          "FlightAware MLAT(4 sites)",
          "FlightAware MLAT(5 sites)",
          "FlightAware MLAT(4 sites)",
          "FlightAware MLAT(12 sites)",
          "FlightAware MLAT(10 sites)",
          "FlightAware MLAT(5 sites)",
          "FlightAware MLAT(7 sites)",
          "FlightAware MLAT(6 sites)",
          "FlightAware MLAT(5 sites)",
          "FlightAware MLAT(12 sites)",
          "FlightAware MLAT(4 sites)",
          "FlightAware MLAT(7 sites)",
          "FlightAware MLAT(4 sites)",
          "FlightAware MLAT(13 sites)",
          "FlightAware MLAT(14 sites)",
          "FlightAware MLAT(7 sites)",
          "FlightAware MLAT(6 sites)",
          "FlightAware MLAT(12 sites)",
          "FlightAware MLAT(11 sites)",
          "FlightAware MLAT(4 sites)",
          "FlightAware MLAT(9 sites)",
          "FlightAware MLAT(10 sites)",
          "FlightAware MLAT(10 sites)",
          "FlightAware MLAT(13 sites)",
          "FlightAware MLAT(7 sites)",
          "FlightAware MLAT(5 sites)",
          "FlightAware MLAT(11 sites)",
          "FlightAware MLAT(10 sites)",
          "FlightAware MLAT(4 sites)",
          "FlightAware MLAT(11 sites)",
          "FlightAware MLAT(4 sites)",
          "FlightAware MLAT(4 sites)",
          "FlightAware MLAT(4 sites)",
          "FlightAware MLAT(4 sites)",
          "FlightAware MLAT(10 sites)",
          "FlightAware MLAT(4 sites)",
          "FlightAware MLAT(8 sites)",
          "FlightAware MLAT(8 sites)",
          "FlightAware MLAT(9 sites)",
          "FlightAware MLAT(8 sites)",
          "FlightAware MLAT(12 sites)",
          "FlightAware MLAT(8 sites)",
          "FlightAware MLAT(6 sites)",
          "FlightAware MLAT(6 sites)",
          "FlightAware MLAT(6 sites)",
          "FlightAware MLAT(6 sites)",
          "FlightAware MLAT(7 sites)",
          "FlightAware MLAT(4 sites)"
        ]
      }
    }
  ]
}