{
  "type": "FeatureCollection",
  "features": [
    {
      "type": "Feature",
      "geometry": {
        "type": "LineString",
        "coordinates": [
          [
            9.4415,
            51.4175
          ],
          [
            9.4415,
            51.4175
          ],
          [
            9.4709,
            51.416
          ],
          [
            9.5015,
            51.4152
          ],
          [
            9.5387,
            51.4148
          ],
          [
            9.565,
            51.4186
          ],
          [
            9.577,
            51.4317
          ],
          [
            9.5683,
            51.4503
          ],
          [
            9.5426,
            51.4597
          ],
          [
            9.5128,
            51.4644
          ],
          [
            9.4796,
            51.4675
          ],
          [
            9.4212,
            51.4725
          ],
          [
            9.3759,
            51.4776
          ],
          [
            9.333,
            51.4823
          ],
          [
            9.2911,
            51.4789
          ],
          [
            9.2588,
            51.4708
          ],
          [
            9.2089,
            51.4555
          ],
          [
            9.1632,
            51.4424
          ],
          [
            9.1099,
            51.4282
          ],
          [
            9.0561,
            51.4134
          ],
          [
            9.0038,
            51.399
          ],
          [
            8.949,
            51.3841
          ],
          [
            8.8979,
            51.3701
          ],
          [
            8.8415,
            51.3546
          ],
          [
            8.7895,
            51.3403
          ],
          [
            8.7356,
            51.3254
          ],
          [
            8.6839,
            51.3111
          ],
          [
            8.6293,
            51.296
          ],
          [
            8.5774,
            51.2815
          ],
          [
            8.5246,
            51.2669
          ],
          [
            8.472,
            51.2522
          ],
          [
            8.4196,
            51.2376
          ],
          [
            8.3658,
            51.2225
          ],
          [
            8.3113,
            51.2072
          ],
          [
            8.2611,
            51.1931
          ],
          [
            8.2095,
            51.1785
          ],
          [
            8.1529,
            51.1625
          ],
          [
            8.1016,
            51.148
          ],
          [
            8.0481,
            51.1328
          ],
          [
            7.9952,
            51.1178
          ],
          [
            7.9439,
            51.1031
          ],
          [
            7.9105,
            51.0941
          ],
          [
            7.8749,
            51.0917
          ],
          [
            7.8233,
            51.0911
          ],
          [
            7.7655,
            51.0906
          ],
          [
            7.7081,
            51.0902
          ],
          [
            7.6647,
            51.0876
          ],
          [
            7.6273,
            51.084
          ],
          [
            7.57,
            51.0794
          ],
          [
            7.5143,
            51.0754
          ],
          [
            7.4635,
            51.0712
          ],
          [
            7.4046,
            51.0666
          ],
          [
            7.3602,
            51.063
          ],
          [
            7.3072,
            51.0588
          ],
          [
            7.2499,
            51.0541
          ],
          [
            7.1942,
            51.0495
          ],
          [
            7.154,
            51.0463
          ],
          [
            7.1131,
            51.043
          ],
          [
            7.0846,
            51.0406
          ],
          [
            7.057,
            51.0383
          ],
          [
            7.028,
            51.0359
          ],
          [
            7.0005,
            51.0337
          ],
          [
            6.9754,
            51.0318
          ],
          [
            6.954,
            51.0271
          ],
          [
            6.9435,
            51.0145
          ],
          [
            6.9454,
            51.0015
          ],
          [
            6.9537,
            50.9895
          ],
          [
            6.9659,
            50.9786
          ],
          [
            6.9788,
            50.969
          ],
          [
            6.9944,
            50.9582
          ],
          [
            7.0095,
            50.9475
          ],
          [
            7.0264,
            50.9357
          ],
          [
            7.0495,
            50.9198
          ],
          [
            7.0578,
            50.9141
          ],
          [
            7.0621,
            50.9112
          ],
          [
            7.0731,
            50.9036
          ],
          [
            7.0839,
            50.8962
          ],
          [
            7.0942,
            50.889
          ],
          [
            7.1042,
            50.8823
          ],
          [
            7.1136,
            50.8758
          ],
          [
            7.1235,
            50.8691
          ]
        ]
      },
      "properties": {
        "time_europe_berlin": [
          "01.10.2025 12:54:34",
          "01.10.2025 12:54:34",
          "01.10.2025 12:54:58",
          "01.10.2025 12:55:22",
          "01.10.2025 12:55:52",
          "01.10.2025 12:56:11",
          "01.10.2025 12:56:29",
          "01.10.2025 12:56:47",
          "01.10.2025 12:57:05",
          "01.10.2025 12:57:22",
          "01.10.2025 12:57:42",
          "01.10.2025 12:58:12",
          "01.10.2025 12:58:37",
          "01.10.2025 12:58:58",
          "01.10.2025 12:59:21",
          "01.10.2025 12:59:37",
          "01.10.2025 13:00:07",
          "01.10.2025 13:00:32",
          "01.10.2025 13:01:02",
          "01.10.2025 13:01:32",
          "01.10.2025 13:02:02",
          "01.10.2025 13:02:32",
          "01.10.2025 13:03:02",
          "01.10.2025 13:03:32",
          "01.10.2025 13:04:02",
          "01.10.2025 13:04:32",
          "01.10.2025 13:05:02",
          "01.10.2025 13:05:32",
          "01.10.2025 13:06:02",
          "01.10.2025 13:06:32",
          "01.10.2025 13:07:02",
          "01.10.2025 13:07:32",
          "01.10.2025 13:08:02",
          "01.10.2025 13:08:32",
          "01.10.2025 13:09:02",
          "01.10.2025 13:09:32",
          "01.10.2025 13:10:02",
          "01.10.2025 13:10:32",
          "01.10.2025 13:11:02",
          "01.10.2025 13:11:32",
          "01.10.2025 13:12:02",
          "01.10.2025 13:12:19",
          "01.10.2025 13:12:38",
          "01.10.2025 13:13:05",
          "01.10.2025 13:13:35",
          "01.10.2025 13:14:05",
          "01.10.2025 13:14:27",
          "01.10.2025 13:14:47",
          "01.10.2025 13:15:17",
          "01.10.2025 13:15:47",
          "01.10.2025 13:16:12",
          "01.10.2025 13:16:42",
          "01.10.2025 13:17:05",
          "01.10.2025 13:17:35",
          "01.10.2025 13:18:05",
          "01.10.2025 13:18:35",
          "01.10.2025 13:18:56",
          "01.10.2025 13:19:17",
          "01.10.2025 13:19:33",
          "01.10.2025 13:19:49",
          "01.10.2025 13:20:05",
          "01.10.2025 13:20:21",
          "01.10.2025 13:20:37",
          "01.10.2025 13:20:53",
          "01.10.2025 13:21:09",
          "01.10.2025 13:21:25",
          "01.10.2025 13:21:41",
          "01.10.2025 13:21:57",
          "01.10.2025 13:22:13",
          "01.10.2025 13:22:29",
          "01.10.2025 13:22:45",
          "01.10.2025 13:23:06",
          "01.10.2025 13:23:36",
          "01.10.2025 13:23:47",
          "01.10.2025 13:23:52",
          "01.10.2025 13:24:08",
          "01.10.2025 13:24:24",
          "01.10.2025 13:24:40",
          "01.10.2025 13:24:56",
          "01.10.2025 13:25:12",
          "01.10.2025 13:25:28"
        ],
        "course_deg_clockwise_from_north": [
          "96",
          "96",
          "93",
          "91",
          "93",
          "54",
          "8",
          "322",
          "289",
          "281",
          "277",
          "279",
          "281",
          "279",
          "253",
          "246",
          "244",
          "246",
          "247",
          "246",
          "246",
          "247",
          "246",
          "246",
          "246",
          "246",
          "246",
          "246",
          "246",
          "246",
          "246",
          "246",
          "246",
          "246",
          "246",
          "246",
          "246",
          "246",
          "246",
          "246",
          "246",
          "251",
          "268",
          "269",
          "269",
          "268",
          "262",
          "261",
          "264",
          "263",
          "263",
          "263",
          "263",
          "263",
          "263",
          "263",
          "263",
          "263",
          "263",
          "262",
          "263",
          "263",
          "263",
          "230",
          "189",
          "165",
          "150",
          "142",
          "138",
          "138",
          "138",
          "137",
          "138",
          "137",
          "137",
          "137",
          "138",
          "138",
          "137",
          "138",
          "137"
        ],
        "speed_kts": [
          "161",
          "161",
          "168",
          "165",
          "181",
          "195",
          "210",
          "230",
          "231",
          "236",
          "247",
          "261",
          "265",
          "266",
          "266",
          "267",
          "266",
          "265",
          "264",
          "263",
          "263",
          "263",
          "262",
          "262",
          "262",
          "262",
          "263",
          "263",
          "262",
          "261",
          "261",
          "262",
          "262",
          "262",
          "264",
          "263",
          "264",
          "264",
          "265",
          "265",
          "266",
          "265",
          "263",
          "262",
          "262",
          "263",
          "264",
          "264",
          "263",
          "263",
          "264",
          "266",
          "257",
          "256",
          "260",
          "258",
          "257",
          "255",
          "254",
          "250",
          "241",
          "226",
          "208",
          "196",
          "184",
          "180",
          "177",
          "176",
          "184",
          "187",
          "182",
          "168",
          "150",
          "153",
          "155",
          "145",
          "124",
          "125",
          "123",
          "123",
          "120"
        ],
        "speed_mph": [
          "185",
          "185",
          "193",
          "190",
          "208",
          "224",
          "242",
          "265",
          "266",
          "272",
          "284",
          "300",
          "305",
          "306",
          "306",
          "307",
          "306",
          "305",
          "304",
          "303",
          "303",
          "303",
          "302",
          "302",
          "302",
          "302",
          "303",
          "303",
          "302",
          "300",
          "300",
          "302",
          "302",
          "302",
          "304",
          "303",
          "304",
          "304",
          "305",
          "305",
          "306",
          "305",
          "303",
          "302",
          "302",
          "303",
          "304",
          "304",
          "303",
          "303",
          "304",
          "306",
          "296",
          "295",
          "299",
          "297",
          "296",
          "293",
          "292",
          "288",
          "277",
          "260",
          "239",
          "226",
          "212",
          "207",
          "204",
          "203",
          "212",
          "215",
          "209",
          "193",
          "173",
          "176",
          "178",
          "167",
          "143",
          "144",
          "142",
          "142",
          "138"
        ],
        "altitude_ft": [
          "3150",
          "3547",
          "4150",
          "5400",
          "6800",
          "7675",
          "8400",
          "8650",
          "8925",
          "9000",
          "9000",
          "9000",
          "9000",
          "9000",
          "9000",
          "9000",
          "9000",
          "9000",
          "9000",
          "9000",
          "9000",
          "9000",
          "9000",
          "9000",
          "9000",
          "9000",
          "9000",
          "9000",
          "9000",
          "9000",
          "9000",
          "9000",
          "9000",
          "9000",
          "9000",
          "9000",
          "9000",
          "9000",
          "9000",
          "9000",
          "9000",
          "8975",
          "9000",
          "9000",
          "8975",
          "9000",
          "9000",
          "9000",
          "9000",
          "9000",
          "8975",
          "8500",
          "8100",
          "7400",
          "6425",
          "5425",
          "4700",
          "4025",
          "3450",
          "2950",
          "2625",
          "2550",
          "2550",
          "2575",
          "2575",
          "2575",
          "2575",
          "2525",
          "2425",
          "2175",
          "1900",
          "1550",
          "1125",
          "1050",
          "925",
          "675",
          "475",
          "325",
          "125",
          "",
          ""
        ],
        "vertical_rate_fpm": [
          "",
          "2500",
          "2316",
          "2944",
          "2786",
          "2595",
          "1625",
          "875",
          "600",
          "122",
          "",
          "",
          "",
          "",
          "",
          "",
          "",
          "",
          "",
          "",
          "",
          "",
          "",
          "",
          "",
          "",
          "",
          "",
          "",
          "",
          "",
          "",
          "",
          "",
          "",
          "",
          "",
          "",
          "",
          "",
          "-32",
          "",
          "33",
          "-26",
          "",
          "29",
          "",
          "",
          "",
          "-27",
          "-545",
          "-991",
          "-1245",
          "-1675",
          "-1975",
          "-2029",
          "-2000",
          "-2027",
          "-2016",
          "-1547",
          "-750",
          "-141",
          "47",
          "47",
          "",
          "",
          "-94",
          "-281",
          "-656",
          "-984",
          "-1014",
          "-912",
          "-732",
          "-750",
          "-1071",
          "-844",
          "-656",
          "-656",
          "-703",
          "-609",
          "-563"
        ],
        "reporting_facility": [
          "FlightAware ADS-B(KSF / EDVK)",
          "FlightAware ADS-B(KSF / EDVK)",
          "FlightAware ADS-B(EDVG)",
          "FlightAware ADS-B(EDLS)",
          "FlightAware ADS-B(EDGQ)",
          "FlightAware ADS-B(EDVZ)",
          "FlightAware ADS-B(KSF / EDVK)",
          "FlightAware ADS-B(BWE / EDVE)",
          "FlightAware ADS-B(EDLZ)",
          "FlightAware ADS-B(EDEB)",
          "FlightAware ADS-B(FRZ / ETHF)",
          "FlightAware ADS-B(EDEB)",
          "FlightAware ADS-B(EDEN)",
          "FlightAware ADS-B(EDLR)",
          "FlightAware ADS-B(EDGQ)",
          "FlightAware ADS-B(BWE / EDVE)",
          "FlightAware ADS-B(ETHS)",
          "FlightAware ADS-B(EDHD)",
          "FlightAware ADS-B(EDHD)",
          "FlightAware ADS-B(HAJ / EDDV)",
          "FlightAware ADS-B(KSF / EDVK)",
          "FlightAware ADS-B(EDCO)",
          "FlightAware ADS-B(QEF / EDFE)",
          "FlightAware ADS-B(FMO / EDDG)",
          "FlightAware ADS-B(EDGQ)",
          "FlightAware ADS-B(EDVG)",
          "FlightAware ADS-B(FRA / EDDF)",
          "FlightAware ADS-B(CGN / EDDK)",
          "FlightAware ADS-B(PAD / EDLP)",
          "FlightAware ADS-B(DTM / EDLW)",
          "FlightAware ADS-B(EDLZ)",
          "FlightAware ADS-B(FRZ / ETHF)",
          "FlightAware ADS-B(FMO / EDDG)",
          "FlightAware ADS-B(EDLR)",
          "FlightAware ADS-B(EDLS)",
          "FlightAware ADS-B(SGE / EDGS)",
          "FlightAware ADS-B(EDLZ)",
          "FlightAware ADS-B(SGE / EDGS)",
          "FlightAware ADS-B(CGN / EDDK)",
          "FlightAware ADS-B(DTM / EDLW)",
          "FlightAware ADS-B(EDLR)",
          "FlightAware ADS-B(EDLS)",
          "FlightAware ADS-B(FMO / EDDG)",
          "FlightAware ADS-B(EDLS)",
          "FlightAware ADS-B(EDKF)",
          "FlightAware ADS-B(EDKH)",
          "FlightAware ADS-B(EDKN)",
          "FlightAware ADS-B(EDFL)",
          "FlightAware ADS-B(EDFL)",
          "FlightAware ADS-B(EDFL)",
          "FlightAware ADS-B(CGN / EDDK)",
          "FlightAware ADS-B(DUS / EDDL)",
          "FlightAware ADS-B(CGN / EDDK)",
          "FlightAware ADS-B(EDKB)",
          "FlightAware ADS-B(DUS / EDDL)",
          "FlightAware ADS-B(DUS / EDDL)",
          "FlightAware ADS-B(CGN / EDDK)",
          "Surface and Near-Surface",
          "FlightAware ADS-B(DUS / EDDL)",
          "FlightAware ADS-B(DUS / EDDL)",
          "FlightAware ADS-B(CGN / EDDK)",
          "FlightAware ADS-B(EDKN)",
          "FlightAware ADS-B(CGN / EDDK)",
          "FlightAware ADS-B(CGN / EDDK)",
          "FlightAware ADS-B(CGN / EDDK)",
          "FlightAware ADS-B(CGN / EDDK)",
          "FlightAware ADS-B(MGL / EDLN)",
          "FlightAware ADS-B(EDKN)",
          "FlightAware ADS-B(CGN / EDDK)",
          "FlightAware ADS-B(CGN / EDDK)",
          "FlightAware ADS-B(EDKN)",
          "FlightAware ADS-B(EDKL)",
          "FlightAware ADS-B(CGN / EDDK)",
          "Surface and Near-Surface",
          "FlightAware ADS-B(CGN / EDDK)",
          "FlightAware ADS-B(CGN / EDDK)",
          "FlightAware ADS-B(CGN / EDDK)",
          "FlightAware ADS-B(CGN / EDDK)",
          "FlightAware ADS-B(CGN / EDDK)",
          "FlightAware ADS-B(CGN / EDDK)",
          "FlightAware ADS-B(CGN / EDDK)"
        ]
      }
    }
  ]
}