{
  "type": "FeatureCollection",
  "features": [
    {
      "type": "Feature",
      "geometry": {
        "type": "LineString",
        "coordinates": [
          [
            1.2046,
            41.1566
          ],
          [
            1.2046,
            41.1566
          ],
          [
            1.2143,
            41.1586
          ],
          [
            1.2323,
            41.1632
          ],
          [
            1.2514,
            41.1691
          ],
          [
            1.2715,
            41.1761
          ],
          [
            1.3051,
            41.1872
          ],
          [
            1.3215,
            41.1925
          ],
          [
            1.3406,
            41.2
          ],
          [
            1.3507,
            41.2141
          ],
          [
            1.3538,
            41.2381
          ],
          [
            1.3516,
            41.2764
          ],
          [
            1.3497,
            41.3176
          ],
          [
            1.3496,
            41.3435
          ],
          [
            1.3481,
            41.4091
          ],
          [
            1.344,
            41.4561
          ],
          [
            1.3395,
            41.5055
          ],
          [
            1.3355,
            41.5557
          ],
          [
            1.3311,
            41.6085
          ],
          [
            1.3262,
            41.6633
          ],
          [
            1.322,
            41.7171
          ],
          [
            1.3174,
            41.7716
          ],
          [
            1.3126,
            41.8262
          ],
          [
            1.3079,
            41.8833
          ],
          [
            1.3032,
            41.9392
          ],
          [
            1.2981,
            41.9976
          ],
          [
            1.2936,
            42.052
          ],
          [
            1.2885,
            42.1123
          ],
          [
            1.284,
            42.1616
          ],
          [
            1.2598,
            42.2463
          ],
          [
            1.2382,
            42.3049
          ],
          [
            1.2163,
            42.3623
          ],
          [
            1.1955,
            42.42
          ],
          [
            1.1744,
            42.479
          ],
          [
            1.1525,
            42.5391
          ],
          [
            1.132,
            42.5965
          ],
          [
            1.1103,
            42.6577
          ],
          [
            1.0885,
            42.7179
          ],
          [
            1.0672,
            42.7766
          ],
          [
            1.046,
            42.8356
          ],
          [
            1.0245,
            42.895
          ],
          [
            1.003,
            42.9542
          ],
          [
            0.9805,
            43.0164
          ],
          [
            0.9592,
            43.0748
          ],
          [
            0.9369,
            43.1359
          ],
          [
            0.9149,
            43.1961
          ],
          [
            0.8926,
            43.2568
          ],
          [
            0.8702,
            43.3181
          ],
          [
            0.8484,
            43.3779
          ],
          [
            0.8259,
            43.438
          ],
          [
            0.8038,
            43.4986
          ],
          [
            0.7814,
            43.5591
          ],
          [
            0.7583,
            43.6208
          ],
          [
            0.735,
            43.6839
          ],
          [
            0.7126,
            43.7442
          ],
          [
            0.6897,
            43.8053
          ],
          [
            0.6673,
            43.8653
          ],
          [
            0.6439,
            43.928
          ],
          [
            0.6212,
            43.9881
          ],
          [
            0.597,
            44.0525
          ],
          [
            0.5737,
            44.1146
          ],
          [
            0.5503,
            44.1758
          ],
          [
            0.5271,
            44.2379
          ],
          [
            0.5029,
            44.3007
          ],
          [
            0.4804,
            44.3607
          ],
          [
            0.4559,
            44.4243
          ],
          [
            0.433,
            44.4845
          ],
          [
            0.4084,
            44.5492
          ],
          [
            0.3847,
            44.6098
          ],
          [
            0.3607,
            44.6729
          ],
          [
            0.337,
            44.7348
          ],
          [
            0.3128,
            44.7966
          ],
          [
            0.2893,
            44.8576
          ],
          [
            0.2652,
            44.9201
          ],
          [
            0.242,
            44.979
          ],
          [
            0.2175,
            45.0427
          ],
          [
            0.1938,
            45.1027
          ],
          [
            0.1698,
            45.1646
          ],
          [
            0.1462,
            45.2244
          ],
          [
            0.1211,
            45.2882
          ],
          [
            0.0973,
            45.3487
          ],
          [
            0.0727,
            45.4099
          ],
          [
            0.0478,
            45.474
          ],
          [
            0.0212,
            45.5404
          ],
          [
            -0.0028,
            45.6008
          ],
          [
            -0.0273,
            45.6624
          ],
          [
            -0.0528,
            45.7257
          ],
          [
            -0.0773,
            45.7879
          ],
          [
            -0.1025,
            45.8492
          ],
          [
            -0.1288,
            45.9155
          ],
          [
            -0.1528,
            45.9749
          ],
          [
            -0.1743,
            46.0465
          ],
          [
            -0.188,
            46.1108
          ],
          [
            -0.205,
            46.1812
          ],
          [
            -0.2202,
            46.2432
          ],
          [
            -0.2354,
            46.3077
          ],
          [
            -0.2515,
            46.3748
          ],
          [
            -0.2672,
            46.4394
          ],
          [
            -0.2825,
            46.5035
          ],
          [
            -0.2982,
            46.5682
          ],
          [
            -0.3136,
            46.6312
          ],
          [
            -0.3286,
            46.6949
          ],
          [
            -0.3458,
            46.7629
          ],
          [
            -0.361,
            46.8264
          ],
          [
            -0.3774,
            46.8929
          ],
          [
            -0.393,
            46.9573
          ],
          [
            -0.4089,
            47.0207
          ],
          [
            -0.4244,
            47.0846
          ],
          [
            -0.4408,
            47.1504
          ],
          [
            -0.4566,
            47.2145
          ],
          [
            -0.4721,
            47.2777
          ],
          [
            -0.4883,
            47.3426
          ],
          [
            -0.505,
            47.4079
          ],
          [
            -0.5203,
            47.4715
          ],
          [
            -0.5369,
            47.5364
          ],
          [
            -0.5531,
            47.5996
          ],
          [
            -0.5689,
            47.6642
          ],
          [
            -0.5849,
            47.7272
          ],
          [
            -0.6019,
            47.7931
          ],
          [
            -0.617,
            47.854
          ],
          [
            -0.6345,
            47.9218
          ],
          [
            -0.6507,
            47.9853
          ],
          [
            -0.6669,
            48.0493
          ],
          [
            -0.6838,
            48.1149
          ],
          [
            -0.7007,
            48.1799
          ],
          [
            -0.7169,
            48.2428
          ],
          [
            -0.7335,
            48.3085
          ],
          [
            -0.7506,
            48.3718
          ],
          [
            -0.7667,
            48.436
          ],
          [
            -0.7833,
            48.4992
          ],
          [
            -0.7999,
            48.5619
          ],
          [
            -0.8168,
            48.6268
          ],
          [
            -0.8331,
            48.6894
          ],
          [
            -0.8504,
            48.7544
          ],
          [
            -0.8672,
            48.8183
          ],
          [
            -0.8898,
            48.9025
          ],
          [
            -0.9057,
            48.9646
          ],
          [
            -0.923,
            49.0282
          ],
          [
            -0.9395,
            49.0906
          ],
          [
            -0.9564,
            49.1538
          ],
          [
            -0.9739,
            49.2188
          ],
          [
            -0.9895,
            49.2766
          ],
          [
            -1.0063,
            49.339
          ],
          [
            -1.023,
            49.4008
          ],
          [
            -1.0394,
            49.4618
          ],
          [
            -1.0569,
            49.5255
          ],
          [
            -1.0741,
            49.5887
          ],
          [
            -1.0913,
            49.6524
          ],
          [
            -1.1086,
            49.7154
          ],
          [
            -1.1263,
            49.7797
          ],
          [
            -1.1426,
            49.8396
          ],
          [
            -1.16,
            49.9006
          ],
          [
            -1.1758,
            49.9599
          ],
          [
            -1.2063,
            50.0693
          ],
          [
            -1.2225,
            50.1262
          ],
          [
            -1.2366,
            50.178
          ],
          [
            -1.2503,
            50.2117
          ],
          [
            -1.2779,
            50.2673
          ],
          [
            -1.2921,
            50.2963
          ],
          [
            -1.3172,
            50.3488
          ],
          [
            -1.3427,
            50.4034
          ],
          [
            -1.3573,
            50.4372
          ],
          [
            -1.3536,
            50.4656
          ],
          [
            -1.332,
            50.5234
          ],
          [
            -1.3207,
            50.5528
          ],
          [
            -1.2998,
            50.5771
          ],
          [
            -1.2738,
            50.5983
          ],
          [
            -1.2104,
            50.6429
          ],
          [
            -1.1692,
            50.6718
          ],
          [
            -1.1308,
            50.6986
          ],
          [
            -1.0921,
            50.7255
          ],
          [
            -1.0526,
            50.7533
          ],
          [
            -1.0167,
            50.778
          ],
          [
            -0.9822,
            50.8022
          ],
          [
            -0.9485,
            50.8255
          ],
          [
            -0.9158,
            50.8482
          ],
          [
            -0.8843,
            50.8698
          ],
          [
            -0.8512,
            50.8928
          ],
          [
            -0.832,
            50.906
          ],
          [
            -0.8115,
            50.9202
          ],
          [
            -0.7966,
            50.9305
          ],
          [
            -0.7796,
            50.9433
          ],
          [
            -0.7747,
            50.96
          ],
          [
            -0.7806,
            50.9828
          ],
          [
            -0.7935,
            51.0095
          ],
          [
            -0.7961,
            51.0217
          ],
          [
            -0.7934,
            51.045
          ],
          [
            -0.786,
            51.0705
          ],
          [
            -0.7807,
            51.0909
          ],
          [
            -0.7859,
            51.1071
          ],
          [
            -0.8097,
            51.1231
          ],
          [
            -0.8358,
            51.1376
          ],
          [
            -0.857,
            51.1485
          ],
          [
            -0.8802,
            51.1579
          ],
          [
            -0.9032,
            51.1665
          ],
          [
            -0.9214,
            51.1733
          ],
          [
            -0.9369,
            51.1818
          ],
          [
            -0.9467,
            51.1921
          ],
          [
            -0.9496,
            51.2043
          ],
          [
            -0.9433,
            51.2157
          ],
          [
            -0.9371,
            51.2264
          ],
          [
            -0.9318,
            51.2356
          ],
          [
            -0.9144,
            51.2371
          ],
          [
            -0.8987,
            51.2375
          ],
          [
            -0.8849,
            51.2402
          ],
          [
            -0.871,
            51.244
          ],
          [
            -0.8572,
            51.2486
          ],
          [
            -0.8444,
            51.2529
          ],
          [
            -0.8327,
            51.257
          ],
          [
            -0.8184,
            51.2617
          ],
          [
            -0.807,
            51.2655
          ],
          [
            -0.7938,
            51.27
          ]
        ]
      },
      "properties": {
        "time_europe_berlin": [
          "15.10.2025 14:41:17",
          "15.10.2025 14:41:17",
          "15.10.2025 14:41:27",
          "15.10.2025 14:41:44",
          "15.10.2025 14:42:01",
          "15.10.2025 14:42:21",
          "15.10.2025 14:42:51",
          "15.10.2025 14:43:07",
          "15.10.2025 14:43:25",
          "15.10.2025 14:43:42",
          "15.10.2025 14:44:05",
          "15.10.2025 14:44:37",
          "15.10.2025 14:45:08",
          "15.10.2025 14:45:25",
          "15.10.2025 14:46:07",
          "15.10.2025 14:46:37",
          "15.10.2025 14:47:08",
          "15.10.2025 14:47:38",
          "15.10.2025 14:48:08",
          "15.10.2025 14:48:39",
          "15.10.2025 14:49:09",
          "15.10.2025 14:49:39",
          "15.10.2025 14:50:09",
          "15.10.2025 14:50:39",
          "15.10.2025 14:51:09",
          "15.10.2025 14:51:39",
          "15.10.2025 14:52:09",
          "15.10.2025 14:52:40",
          "15.10.2025 14:53:06",
          "15.10.2025 14:53:48",
          "15.10.2025 14:54:18",
          "15.10.2025 14:54:48",
          "15.10.2025 14:55:18",
          "15.10.2025 14:55:48",
          "15.10.2025 14:56:19",
          "15.10.2025 14:56:49",
          "15.10.2025 14:57:19",
          "15.10.2025 14:57:50",
          "15.10.2025 14:58:20",
          "15.10.2025 14:58:50",
          "15.10.2025 14:59:20",
          "15.10.2025 14:59:51",
          "15.10.2025 15:00:21",
          "15.10.2025 15:00:51",
          "15.10.2025 15:01:22",
          "15.10.2025 15:01:52",
          "15.10.2025 15:02:22",
          "15.10.2025 15:02:52",
          "15.10.2025 15:03:22",
          "15.10.2025 15:03:52",
          "15.10.2025 15:04:22",
          "15.10.2025 15:04:52",
          "15.10.2025 15:05:22",
          "15.10.2025 15:05:53",
          "15.10.2025 15:06:23",
          "15.10.2025 15:06:53",
          "15.10.2025 15:07:24",
          "15.10.2025 15:07:54",
          "15.10.2025 15:08:24",
          "15.10.2025 15:08:54",
          "15.10.2025 15:09:24",
          "15.10.2025 15:09:55",
          "15.10.2025 15:10:25",
          "15.10.2025 15:10:56",
          "15.10.2025 15:11:26",
          "15.10.2025 15:11:56",
          "15.10.2025 15:12:27",
          "15.10.2025 15:12:59",
          "15.10.2025 15:13:29",
          "15.10.2025 15:14:00",
          "15.10.2025 15:14:30",
          "15.10.2025 15:15:00",
          "15.10.2025 15:15:31",
          "15.10.2025 15:16:01",
          "15.10.2025 15:16:31",
          "15.10.2025 15:17:01",
          "15.10.2025 15:17:31",
          "15.10.2025 15:18:01",
          "15.10.2025 15:18:31",
          "15.10.2025 15:19:01",
          "15.10.2025 15:19:31",
          "15.10.2025 15:20:01",
          "15.10.2025 15:20:32",
          "15.10.2025 15:21:03",
          "15.10.2025 15:21:34",
          "15.10.2025 15:22:04",
          "15.10.2025 15:22:34",
          "15.10.2025 15:23:05",
          "15.10.2025 15:23:35",
          "15.10.2025 15:24:06",
          "15.10.2025 15:24:36",
          "15.10.2025 15:25:10",
          "15.10.2025 15:25:41",
          "15.10.2025 15:26:13",
          "15.10.2025 15:26:43",
          "15.10.2025 15:27:14",
          "15.10.2025 15:27:45",
          "15.10.2025 15:28:16",
          "15.10.2025 15:28:46",
          "15.10.2025 15:29:17",
          "15.10.2025 15:29:48",
          "15.10.2025 15:30:18",
          "15.10.2025 15:30:49",
          "15.10.2025 15:31:19",
          "15.10.2025 15:31:50",
          "15.10.2025 15:32:20",
          "15.10.2025 15:32:50",
          "15.10.2025 15:33:20",
          "15.10.2025 15:33:51",
          "15.10.2025 15:34:21",
          "15.10.2025 15:34:51",
          "15.10.2025 15:35:22",
          "15.10.2025 15:35:52",
          "15.10.2025 15:36:22",
          "15.10.2025 15:36:53",
          "15.10.2025 15:37:23",
          "15.10.2025 15:37:53",
          "15.10.2025 15:38:23",
          "15.10.2025 15:38:53",
          "15.10.2025 15:39:23",
          "15.10.2025 15:39:54",
          "15.10.2025 15:40:24",
          "15.10.2025 15:40:54",
          "15.10.2025 15:41:24",
          "15.10.2025 15:41:55",
          "15.10.2025 15:42:25",
          "15.10.2025 15:42:56",
          "15.10.2025 15:43:26",
          "15.10.2025 15:43:56",
          "15.10.2025 15:44:26",
          "15.10.2025 15:44:56",
          "15.10.2025 15:45:27",
          "15.10.2025 15:45:57",
          "15.10.2025 15:46:28",
          "15.10.2025 15:46:58",
          "15.10.2025 15:47:38",
          "15.10.2025 15:48:08",
          "15.10.2025 15:48:38",
          "15.10.2025 15:49:08",
          "15.10.2025 15:49:38",
          "15.10.2025 15:50:09",
          "15.10.2025 15:50:39",
          "15.10.2025 15:51:09",
          "15.10.2025 15:51:39",
          "15.10.2025 15:52:09",
          "15.10.2025 15:52:39",
          "15.10.2025 15:53:09",
          "15.10.2025 15:53:39",
          "15.10.2025 15:54:09",
          "15.10.2025 15:54:39",
          "15.10.2025 15:55:09",
          "15.10.2025 15:55:39",
          "15.10.2025 15:56:09",
          "15.10.2025 15:57:05",
          "15.10.2025 15:57:35",
          "15.10.2025 15:58:02",
          "15.10.2025 15:58:21",
          "15.10.2025 15:58:51",
          "15.10.2025 15:59:07",
          "15.10.2025 15:59:37",
          "15.10.2025 16:00:07",
          "15.10.2025 16:00:25",
          "15.10.2025 16:00:41",
          "15.10.2025 16:01:16",
          "15.10.2025 16:01:34",
          "15.10.2025 16:01:52",
          "15.10.2025 16:02:09",
          "15.10.2025 16:02:52",
          "15.10.2025 16:03:22",
          "15.10.2025 16:03:52",
          "15.10.2025 16:04:22",
          "15.10.2025 16:04:52",
          "15.10.2025 16:05:22",
          "15.10.2025 16:05:52",
          "15.10.2025 16:06:22",
          "15.10.2025 16:06:52",
          "15.10.2025 16:07:22",
          "15.10.2025 16:07:52",
          "15.10.2025 16:08:10",
          "15.10.2025 16:08:29",
          "15.10.2025 16:08:45",
          "15.10.2025 16:09:01",
          "15.10.2025 16:09:19",
          "15.10.2025 16:09:40",
          "15.10.2025 16:10:07",
          "15.10.2025 16:10:23",
          "15.10.2025 16:10:43",
          "15.10.2025 16:11:09",
          "15.10.2025 16:11:30",
          "15.10.2025 16:11:46",
          "15.10.2025 16:12:05",
          "15.10.2025 16:12:28",
          "15.10.2025 16:12:44",
          "15.10.2025 16:13:02",
          "15.10.2025 16:13:22",
          "15.10.2025 16:13:38",
          "15.10.2025 16:13:54",
          "15.10.2025 16:14:10",
          "15.10.2025 16:14:26",
          "15.10.2025 16:14:42",
          "15.10.2025 16:14:58",
          "15.10.2025 16:15:14",
          "15.10.2025 16:15:30",
          "15.10.2025 16:15:46",
          "15.10.2025 16:16:02",
          "15.10.2025 16:16:18",
          "15.10.2025 16:16:34",
          "15.10.2025 16:16:50",
          "15.10.2025 16:17:06",
          "15.10.2025 16:17:22",
          "15.10.2025 16:17:38",
          "15.10.2025 16:17:54"
        ],
        "course_deg_clockwise_from_north": [
          "76",
          "76",
          "74",
          "69",
          "66",
          "65",
          "67",
          "67",
          "48",
          "14",
          "360",
          "357",
          "359",
          "0",
          "357",
          "356",
          "357",
          "357",
          "357",
          "356",
          "356",
          "356",
          "356",
          "356",
          "356",
          "356",
          "357",
          "356",
          "355",
          "345",
          "344",
          "345",
          "345",
          "345",
          "345",
          "345",
          "345",
          "345",
          "345",
          "345",
          "345",
          "345",
          "345",
          "345",
          "345",
          "345",
          "345",
          "345",
          "345",
          "345",
          "345",
          "345",
          "345",
          "345",
          "345",
          "345",
          "345",
          "345",
          "345",
          "345",
          "345",
          "345",
          "345",
          "344",
          "345",
          "345",
          "345",
          "345",
          "345",
          "345",
          "344",
          "345",
          "345",
          "344",
          "345",
          "345",
          "344",
          "345",
          "344",
          "345",
          "344",
          "345",
          "344",
          "344",
          "345",
          "344",
          "345",
          "344",
          "344",
          "344",
          "344",
          "351",
          "351",
          "350",
          "350",
          "351",
          "351",
          "350",
          "350",
          "350",
          "351",
          "351",
          "351",
          "351",
          "350",
          "351",
          "350",
          "351",
          "350",
          "350",
          "351",
          "350",
          "350",
          "351",
          "350",
          "350",
          "351",
          "350",
          "350",
          "350",
          "350",
          "350",
          "350",
          "350",
          "350",
          "351",
          "350",
          "350",
          "350",
          "350",
          "350",
          "350",
          "350",
          "350",
          "350",
          "350",
          "351",
          "350",
          "350",
          "350",
          "350",
          "350",
          "350",
          "350",
          "350",
          "350",
          "350",
          "350",
          "350",
          "350",
          "350",
          "350",
          "350",
          "350",
          "350",
          "349",
          "343",
          "343",
          "343",
          "343",
          "343",
          "348",
          "13",
          "13",
          "20",
          "35",
          "40",
          "42",
          "42",
          "42",
          "42",
          "42",
          "42",
          "42",
          "42",
          "43",
          "42",
          "42",
          "43",
          "42",
          "43",
          "28",
          "360",
          "346",
          "344",
          "1",
          "8",
          "11",
          "7",
          "327",
          "313",
          "312",
          "305",
          "302",
          "300",
          "301",
          "326",
          "332",
          "12",
          "23",
          "7",
          "50",
          "92",
          "82",
          "71",
          "65",
          "61",
          "62",
          "61",
          "63",
          "62",
          "62"
        ],
        "speed_kts": [
          "162",
          "162",
          "174",
          "187",
          "190",
          "190",
          "194",
          "196",
          "202",
          "213",
          "237",
          "274",
          "312",
          "325",
          "340",
          "349",
          "358",
          "368",
          "376",
          "384",
          "393",
          "398",
          "403",
          "411",
          "409",
          "408",
          "407",
          "418",
          "433",
          "441",
          "438",
          "432",
          "429",
          "429",
          "441",
          "444",
          "443",
          "439",
          "439",
          "440",
          "441",
          "442",
          "444",
          "446",
          "448",
          "450",
          "451",
          "452",
          "453",
          "452",
          "452",
          "452",
          "453",
          "453",
          "454",
          "454",
          "455",
          "456",
          "456",
          "457",
          "458",
          "458",
          "458",
          "458",
          "458",
          "457",
          "457",
          "457",
          "457",
          "457",
          "457",
          "456",
          "457",
          "457",
          "457",
          "459",
          "459",
          "460",
          "459",
          "459",
          "459",
          "460",
          "461",
          "461",
          "461",
          "462",
          "462",
          "463",
          "463",
          "463",
          "464",
          "463",
          "463",
          "463",
          "463",
          "462",
          "462",
          "463",
          "463",
          "464",
          "465",
          "466",
          "467",
          "467",
          "468",
          "467",
          "467",
          "467",
          "466",
          "466",
          "465",
          "466",
          "466",
          "465",
          "466",
          "466",
          "466",
          "467",
          "468",
          "468",
          "468",
          "469",
          "468",
          "468",
          "467",
          "466",
          "465",
          "464",
          "463",
          "463",
          "463",
          "463",
          "463",
          "463",
          "463",
          "462",
          "460",
          "460",
          "460",
          "460",
          "448",
          "444",
          "445",
          "448",
          "457",
          "464",
          "467",
          "466",
          "461",
          "456",
          "448",
          "441",
          "436",
          "423",
          "418",
          "414",
          "414",
          "412",
          "410",
          "403",
          "398",
          "394",
          "384",
          "376",
          "360",
          "335",
          "324",
          "285",
          "268",
          "265",
          "258",
          "257",
          "244",
          "232",
          "220",
          "217",
          "219",
          "218",
          "218",
          "214",
          "213",
          "213",
          "222",
          "228",
          "222",
          "209",
          "213",
          "220",
          "223",
          "226",
          "226",
          "221",
          "214",
          "198",
          "182",
          "183",
          "168",
          "170",
          "168",
          "165",
          "150",
          "131",
          "144",
          "132",
          "125",
          "128",
          "126",
          "120",
          "125",
          "123",
          "122",
          "125"
        ],
        "speed_mph": [
          "186",
          "186",
          "200",
          "215",
          "219",
          "219",
          "223",
          "226",
          "232",
          "245",
          "273",
          "315",
          "359",
          "374",
          "391",
          "402",
          "412",
          "423",
          "433",
          "442",
          "452",
          "458",
          "464",
          "473",
          "471",
          "470",
          "468",
          "481",
          "498",
          "507",
          "504",
          "497",
          "494",
          "494",
          "507",
          "511",
          "510",
          "505",
          "505",
          "506",
          "507",
          "509",
          "511",
          "513",
          "516",
          "518",
          "519",
          "520",
          "521",
          "520",
          "520",
          "520",
          "521",
          "521",
          "522",
          "522",
          "524",
          "525",
          "525",
          "526",
          "527",
          "527",
          "527",
          "527",
          "527",
          "526",
          "526",
          "526",
          "526",
          "526",
          "526",
          "525",
          "526",
          "526",
          "526",
          "528",
          "528",
          "529",
          "528",
          "528",
          "528",
          "529",
          "531",
          "531",
          "531",
          "532",
          "532",
          "533",
          "533",
          "533",
          "534",
          "533",
          "533",
          "533",
          "533",
          "532",
          "532",
          "533",
          "533",
          "534",
          "535",
          "536",
          "537",
          "537",
          "539",
          "537",
          "537",
          "537",
          "536",
          "536",
          "535",
          "536",
          "536",
          "535",
          "536",
          "536",
          "536",
          "537",
          "539",
          "539",
          "539",
          "540",
          "539",
          "539",
          "537",
          "536",
          "535",
          "534",
          "533",
          "533",
          "533",
          "533",
          "533",
          "533",
          "533",
          "532",
          "529",
          "529",
          "529",
          "529",
          "516",
          "511",
          "512",
          "516",
          "526",
          "534",
          "537",
          "536",
          "531",
          "525",
          "516",
          "507",
          "502",
          "487",
          "481",
          "476",
          "476",
          "474",
          "472",
          "464",
          "458",
          "453",
          "442",
          "433",
          "414",
          "386",
          "373",
          "328",
          "308",
          "305",
          "297",
          "296",
          "281",
          "267",
          "253",
          "250",
          "252",
          "251",
          "251",
          "246",
          "245",
          "245",
          "255",
          "262",
          "255",
          "241",
          "245",
          "253",
          "257",
          "260",
          "260",
          "254",
          "246",
          "228",
          "209",
          "211",
          "193",
          "196",
          "193",
          "190",
          "173",
          "151",
          "166",
          "152",
          "144",
          "147",
          "145",
          "138",
          "144",
          "142",
          "140",
          "144"
        ],
        "altitude_ft": [
          "1700",
          "1700",
          "2000",
          "2625",
          "3525",
          "4550",
          "6200",
          "7000",
          "7875",
          "8600",
          "9575",
          "10975",
          "12150",
          "13150",
          "15925",
          "17725",
          "19450",
          "20950",
          "22450",
          "23800",
          "25000",
          "26225",
          "27350",
          "28275",
          "29425",
          "30500",
          "31500",
          "31975",
          "32000",
          "32000",
          "32000",
          "32550",
          "33275",
          "33950",
          "34000",
          "34000",
          "34000",
          "34000",
          "34000",
          "34000",
          "34000",
          "34000",
          "34000",
          "34000",
          "34000",
          "34000",
          "34000",
          "34000",
          "34000",
          "34000",
          "34000",
          "34000",
          "34000",
          "34000",
          "34000",
          "34000",
          "34000",
          "34000",
          "34000",
          "34000",
          "34000",
          "34000",
          "34000",
          "34000",
          "34000",
          "34000",
          "34000",
          "34000",
          "34000",
          "34000",
          "34000",
          "34000",
          "34000",
          "34000",
          "34000",
          "34000",
          "34000",
          "34000",
          "34000",
          "34000",
          "34000",
          "34000",
          "34000",
          "34000",
          "34000",
          "34000",
          "34000",
          "34000",
          "34000",
          "34000",
          "34000",
          "34000",
          "34000",
          "34000",
          "34000",
          "34000",
          "34000",
          "34000",
          "34000",
          "34000",
          "34000",
          "34000",
          "34000",
          "34000",
          "34000",
          "34000",
          "34000",
          "34000",
          "34000",
          "34000",
          "34000",
          "34000",
          "34000",
          "34000",
          "34000",
          "34000",
          "34000",
          "34000",
          "34000",
          "34000",
          "34000",
          "34000",
          "34000",
          "34000",
          "34000",
          "34000",
          "34000",
          "34000",
          "34000",
          "34000",
          "34000",
          "34000",
          "34000",
          "34000",
          "34000",
          "34000",
          "34000",
          "34000",
          "34000",
          "34000",
          "33700",
          "32850",
          "31875",
          "30975",
          "30000",
          "28975",
          "28025",
          "27000",
          "26075",
          "25000",
          "24100",
          "23150",
          "22175",
          "20475",
          "19550",
          "18725",
          "18200",
          "17350",
          "16825",
          "15875",
          "14900",
          "14275",
          "13850",
          "12700",
          "12200",
          "11700",
          "11250",
          "10300",
          "9700",
          "9150",
          "9000",
          "8575",
          "8000",
          "7400",
          "7025",
          "6975",
          "6575",
          "6075",
          "5800",
          "5575",
          "5575",
          "5450",
          "5150",
          "4775",
          "4575",
          "4550",
          "4475",
          "4175",
          "3950",
          "3700",
          "3325",
          "2900",
          "2600",
          "2575",
          "2575",
          "2575",
          "2550",
          "2575",
          "2500",
          "2275",
          "2075",
          "2025",
          "1675",
          "1550",
          "1475",
          "1250",
          "1000",
          "775",
          "575",
          "350",
          "175",
          ""
        ],
        "vertical_rate_fpm": [
          "",
          "1800",
          "2056",
          "2691",
          "3122",
          "3210",
          "3196",
          "2956",
          "2743",
          "2550",
          "2591",
          "2452",
          "2719",
          "3839",
          "3813",
          "3467",
          "3172",
          "3000",
          "2803",
          "2508",
          "2425",
          "2350",
          "2050",
          "2075",
          "2225",
          "2075",
          "1451",
          "526",
          "22",
          "",
          "550",
          "1275",
          "1400",
          "713",
          "49",
          "",
          "",
          "",
          "",
          "",
          "",
          "",
          "",
          "",
          "",
          "",
          "",
          "",
          "",
          "",
          "",
          "",
          "",
          "",
          "",
          "",
          "",
          "",
          "",
          "",
          "",
          "",
          "",
          "",
          "",
          "",
          "",
          "",
          "",
          "",
          "",
          "",
          "",
          "",
          "",
          "",
          "",
          "",
          "",
          "",
          "",
          "",
          "",
          "",
          "",
          "",
          "",
          "",
          "",
          "",
          "",
          "",
          "",
          "",
          "",
          "",
          "",
          "",
          "",
          "",
          "",
          "",
          "",
          "",
          "",
          "",
          "",
          "",
          "",
          "",
          "",
          "",
          "",
          "",
          "",
          "",
          "",
          "",
          "",
          "",
          "",
          "",
          "",
          "",
          "",
          "",
          "",
          "",
          "",
          "",
          "",
          "",
          "",
          "",
          "",
          "",
          "",
          "",
          "",
          "-295",
          "-1131",
          "-1825",
          "-1875",
          "-1875",
          "-2000",
          "-1975",
          "-1975",
          "-1950",
          "-2000",
          "-1975",
          "-1850",
          "-1925",
          "-1866",
          "-1831",
          "-1842",
          "-1761",
          "-1684",
          "-1793",
          "-1924",
          "-1925",
          "-2000",
          "-1853",
          "-1853",
          "-1868",
          "-1667",
          "-1629",
          "-1400",
          "-1274",
          "-1150",
          "-700",
          "-575",
          "-1000",
          "-1175",
          "-975",
          "-425",
          "-450",
          "-900",
          "-969",
          "-811",
          "-386",
          "-234",
          "-750",
          "-1038",
          "-719",
          "-314",
          "-167",
          "-489",
          "-670",
          "-770",
          "-1071",
          "-1143",
          "-1115",
          "-574",
          "-39",
          "",
          "-47",
          "",
          "-94",
          "-563",
          "-797",
          "-469",
          "-750",
          "-891",
          "-375",
          "-563",
          "-891",
          "-891",
          "-797",
          "-797",
          "-750",
          "-703",
          "-750"
        ],
        "reporting_facility": [
          "Surface and Near-Surface",
          "Surface and Near-Surface",
          "FlightAware ADS-B(REU / LERS)",
          "FlightAware ADS-B(LELL)",
          "FlightAware ADS-B(LELL)",
          "FlightAware ADS-B(LELL)",
          "FlightAware ADS-B(LELL)",
          "FlightAware ADS-B(LELL)",
          "FlightAware ADS-B(REU / LERS)",
          "FlightAware ADS-B(LELL)",
          "FlightAware ADS-B(REU / LERS)",
          "FlightAware ADS-B(ZAZ / LEZG)",
          "FlightAware ADS-B(BCN / LEBL)",
          "FlightAware ADS-B(BCN / LEBL)",
          "FlightAware ADS-B(BCN / LEBL)",
          "FlightAware ADS-B(LELL)",
          "FlightAware ADS-B(REU / LERS)",
          "FlightAware ADS-B(ZAZ / LEZG)",
          "FlightAware ADS-B(LEMN)",
          "FlightAware ADS-B(ZAZ / LEZG)",
          "FlightAware ADS-B(BCN / LEBL)",
          "FlightAware ADS-B(ZAZ / LEZG)",
          "FlightAware ADS-B(TLS / LFBO)",
          "FlightAware ADS-B(ZAZ / LEZG)",
          "FlightAware ADS-B(LEMN)",
          "FlightAware ADS-B(LEGS)",
          "FlightAware ADS-B(TLS / LFBO)",
          "FlightAware ADS-B(LELL)",
          "FlightAware ADS-B(LEAP)",
          "FlightAware ADS-B(ZAZ / LEZG)",
          "FlightAware ADS-B(LDE / LFBT)",
          "FlightAware ADS-B(LEPB)",
          "FlightAware ADS-B(LELL)",
          "FlightAware ADS-B(PGF / LFMP)",
          "FlightAware ADS-B(MRS / LFML)",
          "FlightAware ADS-B(LFDM)",
          "FlightAware ADS-B(TLS / LFBO)",
          "FlightAware ADS-B(MRS / LFML)",
          "FlightAware ADS-B(TLS / LFBO)",
          "FlightAware ADS-B(TLS / LFBO)",
          "FlightAware ADS-B(TLS / LFBO)",
          "FlightAware ADS-B(BIQ / LFBZ)",
          "FlightAware ADS-B(LFMW)",
          "FlightAware ADS-B(TLS / LFBO)",
          "FlightAware ADS-B(LFMW)",
          "FlightAware ADS-B(TLS / LFBO)",
          "FlightAware ADS-B(TLS / LFBO)",
          "FlightAware ADS-B(TLS / LFBO)",
          "FlightAware ADS-B(TLS / LFBO)",
          "FlightAware ADS-B(TLS / LFBO)",
          "FlightAware ADS-B(LFCQ)",
          "FlightAware ADS-B(LFMW)",
          "FlightAware ADS-B(LFCQ)",
          "FlightAware ADS-B(LFMW)",
          "FlightAware ADS-B(LFCQ)",
          "FlightAware ADS-B(LFCQ)",
          "FlightAware ADS-B(LFCQ)",
          "FlightAware ADS-B(LFMW)",
          "FlightAware ADS-B(LFMW)",
          "FlightAware ADS-B(LFCQ)",
          "FlightAware ADS-B(LFCQ)",
          "FlightAware ADS-B(LFCQ)",
          "FlightAware ADS-B(LFCQ)",
          "FlightAware ADS-B(LFCQ)",
          "FlightAware ADS-B(TLS / LFBO)",
          "FlightAware ADS-B(LFCQ)",
          "FlightAware ADS-B(BIQ / LFBZ)",
          "FlightAware ADS-B(LFDR)",
          "FlightAware ADS-B(TLS / LFBO)",
          "FlightAware ADS-B(LFDR)",
          "FlightAware ADS-B(LFDR)",
          "FlightAware ADS-B(LFDR)",
          "FlightAware ADS-B(LFDR)",
          "FlightAware ADS-B(LFDR)",
          "FlightAware ADS-B(TLS / LFBO)",
          "FlightAware ADS-B(LFDR)",
          "FlightAware ADS-B(TLS / LFBO)",
          "FlightAware ADS-B(TLS / LFBO)",
          "FlightAware ADS-B(LFDY)",
          "FlightAware ADS-B(LFDY)",
          "FlightAware ADS-B(LIG / LFBL)",
          "FlightAware ADS-B(LFEK)",
          "FlightAware ADS-B(LIG / LFBL)",
          "FlightAware ADS-B(LFCQ)",
          "FlightAware ADS-B(LFDY)",
          "FlightAware ADS-B(LFDY)",
          "FlightAware ADS-B(LFDR)",
          "FlightAware ADS-B(LFDR)",
          "FlightAware ADS-B(LFDR)",
          "FlightAware ADS-B(LFDY)",
          "FlightAware ADS-B(LFDR)",
          "FlightAware ADS-B(RNS / LFRN)",
          "FlightAware ADS-B(RNS / LFRN)",
          "FlightAware ADS-B(LFCQ)",
          "FlightAware ADS-B(LSO / LFOO)",
          "FlightAware ADS-B(LFCQ)",
          "FlightAware ADS-B(LFDY)",
          "FlightAware ADS-B(LFDY)",
          "FlightAware ADS-B(LFDY)",
          "FlightAware ADS-B(LFDY)",
          "FlightAware ADS-B(LFDY)",
          "FlightAware ADS-B(NTE / LFRS)",
          "FlightAware ADS-B(LFDY)",
          "FlightAware ADS-B(LFDY)",
          "FlightAware ADS-B(LFOG)",
          "FlightAware ADS-B(LFOG)",
          "FlightAware ADS-B(RNS / LFRN)",
          "FlightAware ADS-B(BOD / LFBD)",
          "FlightAware ADS-B(LFOG)",
          "FlightAware ADS-B(ESH / EGKA)",
          "FlightAware ADS-B(ANE / LFJR)",
          "FlightAware ADS-B(ESH / EGKA)",
          "FlightAware ADS-B(LFOG)",
          "FlightAware ADS-B(LFOG)",
          "FlightAware ADS-B(LFOG)",
          "FlightAware ADS-B(LFOG)",
          "FlightAware ADS-B(LFOG)",
          "FlightAware ADS-B(LRH / LFBH)",
          "FlightAware ADS-B(LFEH)",
          "FlightAware ADS-B(GFR / LFRF)",
          "FlightAware ADS-B(GFR / LFRF)",
          "FlightAware ADS-B(MXN / LFRU)",
          "FlightAware ADS-B(LFOQ)",
          "FlightAware ADS-B(LFOQ)",
          "FlightAware ADS-B(MXN / LFRU)",
          "FlightAware ADS-B(MXN / LFRU)",
          "FlightAware ADS-B(LFOG)",
          "FlightAware ADS-B(LFOG)",
          "FlightAware ADS-B(LFOG)",
          "FlightAware ADS-B(LFOG)",
          "FlightAware ADS-B(LFPP)",
          "FlightAware ADS-B(LFOG)",
          "FlightAware ADS-B(BZZ / EGVN)",
          "FlightAware ADS-B(EGKE)",
          "FlightAware ADS-B(LHR / EGLL)",
          "FlightAware ADS-B(LFAO)",
          "FlightAware ADS-B(LFAO)",
          "FlightAware ADS-B(LFPD)",
          "FlightAware ADS-B(LHR / EGLL)",
          "FlightAware ADS-B(LFPD)",
          "FlightAware ADS-B(EGDR)",
          "FlightAware ADS-B(FAB / EGLF)",
          "FlightAware ADS-B(ESH / EGKA)",
          "FlightAware ADS-B(BQH / EGKB)",
          "FlightAware ADS-B(BEX / EGUB)",
          "FlightAware ADS-B(EGHN)",
          "FlightAware ADS-B(EGWE)",
          "FlightAware ADS-B(BOH / EGHH)",
          "FlightAware ADS-B(GLO / EGBJ)",
          "FlightAware ADS-B(SEN / EGMC)",
          "FlightAware ADS-B(BOH / EGHH)",
          "FlightAware ADS-B(EXT / EGTE)",
          "FlightAware ADS-B(ESH / EGKA)",
          "FlightAware ADS-B(YEO / EGDY)",
          "FlightAware ADS-B(FAB / EGLF)",
          "FlightAware ADS-B(FAB / EGLF)",
          "FlightAware ADS-B(BBP / EGHJ)",
          "FlightAware ADS-B(EGHR)",
          "FlightAware ADS-B(EGDP)",
          "FlightAware ADS-B(BBS / EGLK)",
          "FlightAware ADS-B(ESH / EGKA)",
          "FlightAware ADS-B(EGHF)",
          "FlightAware ADS-B(FAB / EGLF)",
          "FlightAware ADS-B(CVT / EGBE)",
          "FlightAware ADS-B(EGLM)",
          "FlightAware ADS-B(LHR / EGLL)",
          "FlightAware ADS-B(BRS / EGGD)",
          "FlightAware ADS-B(EGUO)",
          "FlightAware ADS-B(OXF / EGTK)",
          "FlightAware ADS-B(BBS / EGLK)",
          "FlightAware ADS-B(CWL / EGFF)",
          "FlightAware ADS-B(EGHF)",
          "FlightAware ADS-B(FAB / EGLF)",
          "FlightAware ADS-B(ESH / EGKA)",
          "FlightAware ADS-B(SOU / EGHI)",
          "FlightAware ADS-B(LHR / EGLL)",
          "FlightAware ADS-B(BOH / EGHH)",
          "FlightAware ADS-B(LGW / EGKK)",
          "FlightAware ADS-B(EGUD)",
          "FlightAware ADS-B(STN / EGSS)",
          "FlightAware ADS-B(LGW / EGKK)",
          "FlightAware ADS-B(SOU / EGHI)",
          "FlightAware ADS-B(LGW / EGKK)",
          "FlightAware ADS-B(LHR / EGLL)",
          "FlightAware ADS-B(LHR / EGLL)",
          "FlightAware ADS-B(EGKH)",
          "FlightAware ADS-B(EGLD)",
          "FlightAware ADS-B(SOU / EGHI)",
          "FlightAware ADS-B(SOU / EGHI)",
          "FlightAware ADS-B(EGTF)",
          "FlightAware ADS-B(EGHG)",
          "FlightAware ADS-B(SOU / EGHI)",
          "FlightAware ADS-B(BBS / EGLK)",
          "FlightAware ADS-B(EGHF)",
          "Surface and Near-Surface",
          "FlightAware ADS-B(EGTD)",
          "FlightAware ADS-B(EGHO)",
          "FlightAware ADS-B(LHR / EGLL)",
          "FlightAware ADS-B(ODH / EGVO)",
          "FlightAware ADS-B(HYC / EGTB)",
          "FlightAware ADS-B(EGHP)",
          "FlightAware ADS-B(FAB / EGLF)",
          "FlightAware ADS-B(EGTF)",
          "FlightAware ADS-B(FAB / EGLF)",
          "FlightAware ADS-B(EGLM)",
          "FlightAware ADS-B(FAB / EGLF)",
          "FlightAware ADS-B(LHR / EGLL)",
          "FlightAware ADS-B(FAB / EGLF)",
          "FlightAware ADS-B(EGLM)",
          "FlightAware ADS-B(EGTF)",
          "FlightAware ADS-B(FAB / EGLF)",
          "FlightAware ADS-B(HYC / EGTB)"
        ]
      }
    }
  ]
}