{
  "type": "FeatureCollection",
  "features": [
    {
      "type": "Feature",
      "geometry": {
        "type": "LineString",
        "coordinates": [
          [
            -5.8833,
            54.609
          ],
          [
            -5.8934,
            54.6
          ],
          [
            -5.9042,
            54.5906
          ],
          [
            -5.9163,
            54.5803
          ],
          [
            -5.9273,
            54.57
          ],
          [
            -5.9388,
            54.5593
          ],
          [
            -5.9506,
            54.5485
          ],
          [
            -5.9601,
            54.5371
          ],
          [
            -5.953,
            54.5239
          ],
          [
            -5.9186,
            54.5086
          ],
          [
            -5.8681,
            54.4944
          ],
          [
            -5.807,
            54.4759
          ],
          [
            -5.7429,
            54.455
          ],
          [
            -5.6823,
            54.4349
          ],
          [
            -5.6145,
            54.4128
          ],
          [
            -5.5432,
            54.3876
          ],
          [
            -5.4498,
            54.3491
          ],
          [
            -5.3812,
            54.3209
          ],
          [
            -5.3075,
            54.2912
          ],
          [
            -5.2493,
            54.2666
          ],
          [
            -5.1787,
            54.2327
          ],
          [
            -5.1073,
            54.1973
          ],
          [
            -5.0345,
            54.1621
          ],
          [
            -4.9585,
            54.1255
          ],
          [
            -4.8813,
            54.0884
          ],
          [
            -4.8036,
            54.0503
          ],
          [
            -4.6978,
            54.0022
          ],
          [
            -4.6125,
            53.9652
          ],
          [
            -4.5412,
            53.9333
          ],
          [
            -4.4579,
            53.8946
          ],
          [
            -4.3759,
            53.8681
          ],
          [
            -4.2747,
            53.8475
          ],
          [
            -4.1706,
            53.8306
          ],
          [
            -4.067,
            53.8136
          ],
          [
            -3.98,
            53.7984
          ],
          [
            -3.9191,
            53.779
          ],
          [
            -3.7897,
            53.7226
          ],
          [
            -3.7282,
            53.6952
          ],
          [
            -3.6484,
            53.6602
          ],
          [
            -3.5873,
            53.641
          ],
          [
            -3.5056,
            53.6252
          ],
          [
            -3.4179,
            53.614
          ],
          [
            -3.3007,
            53.6008
          ],
          [
            -3.209,
            53.5896
          ],
          [
            -3.1299,
            53.5802
          ],
          [
            -3.0571,
            53.5705
          ],
          [
            -2.9439,
            53.5566
          ],
          [
            -2.8308,
            53.5416
          ],
          [
            -2.7186,
            53.5274
          ],
          [
            -2.6125,
            53.5137
          ],
          [
            -2.5059,
            53.4995
          ],
          [
            -2.397,
            53.485
          ],
          [
            -2.2879,
            53.4702
          ],
          [
            -2.2035,
            53.459
          ],
          [
            -2.1051,
            53.4458
          ],
          [
            -2.0015,
            53.4315
          ],
          [
            -1.8939,
            53.4168
          ],
          [
            -1.7816,
            53.4015
          ],
          [
            -1.6782,
            53.3866
          ],
          [
            -1.5694,
            53.3719
          ],
          [
            -1.5021,
            53.362
          ],
          [
            -1.3957,
            53.347
          ],
          [
            -1.2907,
            53.332
          ],
          [
            -1.2181,
            53.3227
          ],
          [
            -1.052,
            53.3019
          ],
          [
            -0.9483,
            53.2882
          ],
          [
            -0.8408,
            53.2741
          ],
          [
            -0.7345,
            53.2606
          ],
          [
            -0.6242,
            53.2458
          ],
          [
            -0.519,
            53.2321
          ],
          [
            -0.4124,
            53.2175
          ],
          [
            -0.3342,
            53.2074
          ],
          [
            -0.2301,
            53.1929
          ],
          [
            -0.1396,
            53.1807
          ],
          [
            -0.0367,
            53.1667
          ],
          [
            0.0723,
            53.1513
          ],
          [
            0.1223,
            53.1446
          ],
          [
            0.1812,
            53.138
          ],
          [
            0.2874,
            53.1287
          ],
          [
            0.3944,
            53.1202
          ],
          [
            0.5029,
            53.1114
          ],
          [
            0.6079,
            53.1028
          ],
          [
            0.7171,
            53.0934
          ],
          [
            0.827,
            53.0844
          ],
          [
            0.9296,
            53.0763
          ],
          [
            1.07,
            53.0649
          ],
          [
            1.201,
            53.0539
          ],
          [
            1.3093,
            53.045
          ],
          [
            1.4114,
            53.0362
          ],
          [
            1.5196,
            53.0272
          ],
          [
            1.6097,
            53.0145
          ],
          [
            1.711,
            52.9951
          ],
          [
            1.8177,
            52.9742
          ],
          [
            1.9183,
            52.9546
          ],
          [
            2.0189,
            52.9355
          ],
          [
            2.1265,
            52.9156
          ],
          [
            2.2144,
            52.8987
          ],
          [
            2.3206,
            52.8778
          ],
          [
            2.4236,
            52.8573
          ],
          [
            2.5277,
            52.8364
          ],
          [
            2.6322,
            52.8151
          ],
          [
            2.7335,
            52.7947
          ],
          [
            2.8078,
            52.7811
          ],
          [
            2.9176,
            52.7629
          ],
          [
            3.022,
            52.7453
          ],
          [
            3.1234,
            52.7276
          ],
          [
            3.2272,
            52.7092
          ],
          [
            3.3315,
            52.6908
          ],
          [
            3.4358,
            52.6728
          ],
          [
            3.4909,
            52.6626
          ],
          [
            3.5921,
            52.6442
          ],
          [
            3.6936,
            52.6263
          ],
          [
            3.8014,
            52.6064
          ],
          [
            3.9045,
            52.588
          ],
          [
            4.0112,
            52.5683
          ],
          [
            4.0625,
            52.5589
          ],
          [
            4.1478,
            52.543
          ],
          [
            4.2016,
            52.533
          ],
          [
            4.3484,
            52.5057
          ],
          [
            4.4459,
            52.4872
          ],
          [
            4.5494,
            52.468
          ],
          [
            4.6506,
            52.4485
          ],
          [
            4.7518,
            52.4292
          ],
          [
            4.8402,
            52.4124
          ],
          [
            4.9406,
            52.3929
          ],
          [
            5.0149,
            52.3781
          ],
          [
            5.0775,
            52.3508
          ],
          [
            5.1237,
            52.3246
          ],
          [
            5.1585,
            52.298
          ],
          [
            5.1975,
            52.2621
          ],
          [
            5.2544,
            52.2061
          ],
          [
            5.3062,
            52.1559
          ],
          [
            5.3399,
            52.1238
          ],
          [
            5.4033,
            52.0618
          ],
          [
            5.4459,
            52.0206
          ],
          [
            5.488,
            51.9782
          ],
          [
            5.5428,
            51.9258
          ],
          [
            5.5739,
            51.8957
          ],
          [
            5.5991,
            51.8701
          ],
          [
            5.6331,
            51.8361
          ],
          [
            5.6638,
            51.8068
          ],
          [
            5.7156,
            51.7548
          ],
          [
            5.7627,
            51.7091
          ],
          [
            5.7909,
            51.6805
          ],
          [
            5.8426,
            51.63
          ],
          [
            5.8826,
            51.5901
          ],
          [
            5.9308,
            51.5418
          ],
          [
            5.9776,
            51.494
          ],
          [
            6.0299,
            51.4427
          ],
          [
            6.0774,
            51.3941
          ],
          [
            6.1107,
            51.3616
          ],
          [
            6.1531,
            51.3176
          ],
          [
            6.1974,
            51.2737
          ],
          [
            6.2325,
            51.2373
          ],
          [
            6.273,
            51.1965
          ],
          [
            6.305,
            51.1635
          ],
          [
            6.332,
            51.1359
          ],
          [
            6.374,
            51.1085
          ],
          [
            6.4205,
            51.0819
          ],
          [
            6.4643,
            51.0637
          ],
          [
            6.4931,
            51.0555
          ],
          [
            6.5454,
            51.0409
          ],
          [
            6.6006,
            51.025
          ],
          [
            6.6536,
            51.0096
          ],
          [
            6.7051,
            50.9949
          ],
          [
            6.7339,
            50.9892
          ],
          [
            6.7657,
            50.9922
          ],
          [
            6.8002,
            51.0001
          ],
          [
            6.83,
            51.008
          ],
          [
            6.8664,
            51.0173
          ],
          [
            6.8929,
            51.0173
          ],
          [
            6.9163,
            51.0099
          ],
          [
            6.9359,
            50.9996
          ],
          [
            6.9521,
            50.9883
          ],
          [
            6.9659,
            50.9781
          ],
          [
            6.9826,
            50.9663
          ],
          [
            6.9999,
            50.9542
          ],
          [
            7.0138,
            50.9446
          ],
          [
            7.0285,
            50.9343
          ],
          [
            7.0535,
            50.9171
          ],
          [
            7.0658,
            50.9086
          ],
          [
            7.0766,
            50.901
          ],
          [
            7.0876,
            50.8936
          ],
          [
            7.098,
            50.8864
          ],
          [
            7.1089,
            50.8789
          ],
          [
            7.1184,
            50.8725
          ]
        ]
      },
      "properties": {
        "time_europe_berlin": [
          "10.10.2025 19:42:36",
          "10.10.2025 19:42:52",
          "10.10.2025 19:43:08",
          "10.10.2025 19:43:24",
          "10.10.2025 19:43:40",
          "10.10.2025 19:43:56",
          "10.10.2025 19:44:14",
          "10.10.2025 19:44:30",
          "10.10.2025 19:44:48",
          "10.10.2025 19:45:14",
          "10.10.2025 19:45:42",
          "10.10.2025 19:46:12",
          "10.10.2025 19:46:42",
          "10.10.2025 19:47:12",
          "10.10.2025 19:47:42",
          "10.10.2025 19:48:12",
          "10.10.2025 19:48:52",
          "10.10.2025 19:49:22",
          "10.10.2025 19:49:52",
          "10.10.2025 19:50:15",
          "10.10.2025 19:50:45",
          "10.10.2025 19:51:15",
          "10.10.2025 19:51:45",
          "10.10.2025 19:52:15",
          "10.10.2025 19:52:45",
          "10.10.2025 19:53:15",
          "10.10.2025 19:53:54",
          "10.10.2025 19:54:24",
          "10.10.2025 19:54:49",
          "10.10.2025 19:55:19",
          "10.10.2025 19:55:44",
          "10.10.2025 19:56:14",
          "10.10.2025 19:56:44",
          "10.10.2025 19:57:14",
          "10.10.2025 19:57:39",
          "10.10.2025 19:57:58",
          "10.10.2025 19:58:41",
          "10.10.2025 19:59:03",
          "10.10.2025 19:59:27",
          "10.10.2025 19:59:46",
          "10.10.2025 20:00:08",
          "10.10.2025 20:00:32",
          "10.10.2025 20:01:02",
          "10.10.2025 20:01:27",
          "10.10.2025 20:01:48",
          "10.10.2025 20:02:08",
          "10.10.2025 20:02:38",
          "10.10.2025 20:03:08",
          "10.10.2025 20:03:38",
          "10.10.2025 20:04:08",
          "10.10.2025 20:04:38",
          "10.10.2025 20:05:08",
          "10.10.2025 20:05:38",
          "10.10.2025 20:06:01",
          "10.10.2025 20:06:30",
          "10.10.2025 20:07:00",
          "10.10.2025 20:07:30",
          "10.10.2025 20:08:00",
          "10.10.2025 20:08:30",
          "10.10.2025 20:09:00",
          "10.10.2025 20:09:19",
          "10.10.2025 20:09:47",
          "10.10.2025 20:10:17",
          "10.10.2025 20:10:36",
          "10.10.2025 20:11:21",
          "10.10.2025 20:11:51",
          "10.10.2025 20:12:21",
          "10.10.2025 20:12:51",
          "10.10.2025 20:13:21",
          "10.10.2025 20:13:51",
          "10.10.2025 20:14:21",
          "10.10.2025 20:14:42",
          "10.10.2025 20:15:12",
          "10.10.2025 20:15:37",
          "10.10.2025 20:16:07",
          "10.10.2025 20:16:37",
          "10.10.2025 20:16:53",
          "10.10.2025 20:17:09",
          "10.10.2025 20:17:39",
          "10.10.2025 20:18:09",
          "10.10.2025 20:18:39",
          "10.10.2025 20:19:09",
          "10.10.2025 20:19:39",
          "10.10.2025 20:20:09",
          "10.10.2025 20:20:39",
          "10.10.2025 20:21:18",
          "10.10.2025 20:21:55",
          "10.10.2025 20:22:25",
          "10.10.2025 20:22:55",
          "10.10.2025 20:23:25",
          "10.10.2025 20:23:50",
          "10.10.2025 20:24:20",
          "10.10.2025 20:24:50",
          "10.10.2025 20:25:20",
          "10.10.2025 20:25:50",
          "10.10.2025 20:26:20",
          "10.10.2025 20:26:47",
          "10.10.2025 20:27:17",
          "10.10.2025 20:27:47",
          "10.10.2025 20:28:17",
          "10.10.2025 20:28:47",
          "10.10.2025 20:29:17",
          "10.10.2025 20:29:39",
          "10.10.2025 20:30:09",
          "10.10.2025 20:30:39",
          "10.10.2025 20:31:09",
          "10.10.2025 20:31:39",
          "10.10.2025 20:32:09",
          "10.10.2025 20:32:39",
          "10.10.2025 20:32:55",
          "10.10.2025 20:33:25",
          "10.10.2025 20:33:55",
          "10.10.2025 20:34:25",
          "10.10.2025 20:34:55",
          "10.10.2025 20:35:25",
          "10.10.2025 20:35:41",
          "10.10.2025 20:36:06",
          "10.10.2025 20:36:22",
          "10.10.2025 20:37:06",
          "10.10.2025 20:37:36",
          "10.10.2025 20:38:06",
          "10.10.2025 20:38:36",
          "10.10.2025 20:39:06",
          "10.10.2025 20:39:31",
          "10.10.2025 20:40:01",
          "10.10.2025 20:40:24",
          "10.10.2025 20:40:44",
          "10.10.2025 20:41:04",
          "10.10.2025 20:41:20",
          "10.10.2025 20:41:39",
          "10.10.2025 20:42:09",
          "10.10.2025 20:42:37",
          "10.10.2025 20:42:55",
          "10.10.2025 20:43:30",
          "10.10.2025 20:43:54",
          "10.10.2025 20:44:18",
          "10.10.2025 20:44:48",
          "10.10.2025 20:45:06",
          "10.10.2025 20:45:22",
          "10.10.2025 20:45:41",
          "10.10.2025 20:45:59",
          "10.10.2025 20:46:29",
          "10.10.2025 20:46:56",
          "10.10.2025 20:47:13",
          "10.10.2025 20:47:43",
          "10.10.2025 20:48:06",
          "10.10.2025 20:48:36",
          "10.10.2025 20:49:06",
          "10.10.2025 20:49:39",
          "10.10.2025 20:50:09",
          "10.10.2025 20:50:32",
          "10.10.2025 20:51:02",
          "10.10.2025 20:51:32",
          "10.10.2025 20:51:59",
          "10.10.2025 20:52:29",
          "10.10.2025 20:52:54",
          "10.10.2025 20:53:17",
          "10.10.2025 20:53:45",
          "10.10.2025 20:54:15",
          "10.10.2025 20:54:40",
          "10.10.2025 20:54:56",
          "10.10.2025 20:55:26",
          "10.10.2025 20:55:56",
          "10.10.2025 20:56:26",
          "10.10.2025 20:56:56",
          "10.10.2025 20:57:14",
          "10.10.2025 20:57:31",
          "10.10.2025 20:57:51",
          "10.10.2025 20:58:10",
          "10.10.2025 20:58:31",
          "10.10.2025 20:58:47",
          "10.10.2025 20:59:03",
          "10.10.2025 20:59:19",
          "10.10.2025 20:59:35",
          "10.10.2025 20:59:51",
          "10.10.2025 21:00:07",
          "10.10.2025 21:00:23",
          "10.10.2025 21:00:39",
          "10.10.2025 21:00:55",
          "10.10.2025 21:01:25",
          "10.10.2025 21:01:41",
          "10.10.2025 21:01:57",
          "10.10.2025 21:02:13",
          "10.10.2025 21:02:29",
          "10.10.2025 21:02:45",
          "10.10.2025 21:03:01"
        ],
        "course_deg_clockwise_from_north": [
          "214",
          "214",
          "215",
          "212",
          "212",
          "212",
          "213",
          "198",
          "143",
          "119",
          "116",
          "119",
          "120",
          "119",
          "120",
          "123",
          "126",
          "126",
          "125",
          "128",
          "131",
          "131",
          "129",
          "130",
          "129",
          "130",
          "126",
          "127",
          "128",
          "127",
          "113",
          "106",
          "104",
          "107",
          "109",
          "125",
          "127",
          "127",
          "124",
          "114",
          "104",
          "101",
          "102",
          "101",
          "102",
          "103",
          "102",
          "102",
          "102",
          "103",
          "103",
          "102",
          "103",
          "103",
          "103",
          "102",
          "103",
          "103",
          "103",
          "103",
          "104",
          "104",
          "103",
          "101",
          "103",
          "102",
          "102",
          "103",
          "103",
          "102",
          "102",
          "102",
          "103",
          "103",
          "103",
          "103",
          "102",
          "99",
          "98",
          "98",
          "98",
          "98",
          "98",
          "98",
          "98",
          "98",
          "98",
          "98",
          "98",
          "98",
          "107",
          "108",
          "108",
          "108",
          "107",
          "107",
          "108",
          "108",
          "108",
          "109",
          "108",
          "108",
          "106",
          "106",
          "106",
          "106",
          "106",
          "106",
          "106",
          "107",
          "107",
          "106",
          "107",
          "107",
          "106",
          "108",
          "107",
          "108",
          "107",
          "108",
          "107",
          "107",
          "107",
          "108",
          "107",
          "113",
          "132",
          "135",
          "146",
          "148",
          "149",
          "147",
          "148",
          "147",
          "148",
          "148",
          "147",
          "148",
          "149",
          "147",
          "147",
          "148",
          "148",
          "149",
          "147",
          "149",
          "147",
          "149",
          "149",
          "147",
          "149",
          "148",
          "149",
          "148",
          "148",
          "148",
          "146",
          "133",
          "132",
          "116",
          "113",
          "114",
          "114",
          "114",
          "115",
          "92",
          "75",
          "68",
          "68",
          "72",
          "106",
          "125",
          "134",
          "140",
          "138",
          "138",
          "138",
          "138",
          "138",
          "137",
          "138",
          "137",
          "137",
          "137",
          "136",
          "137"
        ],
        "speed_kts": [
          "149",
          "151",
          "163",
          "166",
          "164",
          "163",
          "163",
          "164",
          "193",
          "231",
          "274",
          "291",
          "301",
          "315",
          "340",
          "355",
          "364",
          "369",
          "382",
          "385",
          "392",
          "397",
          "409",
          "418",
          "427",
          "433",
          "445",
          "450",
          "456",
          "461",
          "462",
          "463",
          "465",
          "466",
          "465",
          "462",
          "482",
          "488",
          "493",
          "496",
          "493",
          "493",
          "494",
          "495",
          "496",
          "496",
          "498",
          "491",
          "484",
          "477",
          "476",
          "474",
          "472",
          "469",
          "465",
          "468",
          "475",
          "480",
          "482",
          "482",
          "483",
          "482",
          "482",
          "482",
          "483",
          "482",
          "478",
          "477",
          "475",
          "474",
          "474",
          "473",
          "472",
          "471",
          "470",
          "471",
          "470",
          "469",
          "470",
          "469",
          "470",
          "471",
          "471",
          "469",
          "469",
          "469",
          "470",
          "471",
          "471",
          "469",
          "469",
          "470",
          "471",
          "468",
          "470",
          "468",
          "477",
          "486",
          "478",
          "481",
          "478",
          "475",
          "472",
          "472",
          "474",
          "477",
          "479",
          "474",
          "472",
          "471",
          "473",
          "474",
          "476",
          "476",
          "474",
          "473",
          "471",
          "470",
          "457",
          "457",
          "466",
          "470",
          "471",
          "473",
          "471",
          "470",
          "470",
          "470",
          "467",
          "465",
          "464",
          "464",
          "463",
          "458",
          "454",
          "441",
          "431",
          "432",
          "433",
          "435",
          "436",
          "432",
          "433",
          "432",
          "426",
          "422",
          "415",
          "406",
          "397",
          "388",
          "383",
          "377",
          "360",
          "344",
          "327",
          "313",
          "305",
          "298",
          "291",
          "271",
          "265",
          "265",
          "266",
          "262",
          "252",
          "246",
          "241",
          "248",
          "244",
          "245",
          "239",
          "224",
          "207",
          "202",
          "200",
          "206",
          "198",
          "191",
          "180",
          "159",
          "138",
          "137",
          "137",
          "133",
          "129",
          "123"
        ],
        "speed_mph": [
          "171",
          "174",
          "188",
          "191",
          "189",
          "188",
          "188",
          "189",
          "222",
          "266",
          "315",
          "335",
          "346",
          "362",
          "391",
          "409",
          "419",
          "425",
          "440",
          "443",
          "451",
          "457",
          "471",
          "481",
          "491",
          "498",
          "512",
          "518",
          "525",
          "531",
          "532",
          "533",
          "535",
          "536",
          "535",
          "532",
          "555",
          "562",
          "567",
          "571",
          "567",
          "567",
          "568",
          "570",
          "571",
          "571",
          "573",
          "565",
          "557",
          "549",
          "548",
          "545",
          "543",
          "540",
          "535",
          "539",
          "547",
          "552",
          "555",
          "555",
          "556",
          "555",
          "555",
          "555",
          "556",
          "555",
          "550",
          "549",
          "547",
          "545",
          "545",
          "544",
          "543",
          "542",
          "541",
          "542",
          "541",
          "540",
          "541",
          "540",
          "541",
          "542",
          "542",
          "540",
          "540",
          "540",
          "541",
          "542",
          "542",
          "540",
          "540",
          "541",
          "542",
          "539",
          "541",
          "539",
          "549",
          "559",
          "550",
          "554",
          "550",
          "547",
          "543",
          "543",
          "545",
          "549",
          "551",
          "545",
          "543",
          "542",
          "544",
          "545",
          "548",
          "548",
          "545",
          "544",
          "542",
          "541",
          "526",
          "526",
          "536",
          "541",
          "542",
          "544",
          "542",
          "541",
          "541",
          "541",
          "537",
          "535",
          "534",
          "534",
          "533",
          "527",
          "522",
          "507",
          "496",
          "497",
          "498",
          "501",
          "502",
          "497",
          "498",
          "497",
          "490",
          "486",
          "478",
          "467",
          "457",
          "447",
          "441",
          "434",
          "414",
          "396",
          "376",
          "360",
          "351",
          "343",
          "335",
          "312",
          "305",
          "305",
          "306",
          "302",
          "290",
          "283",
          "277",
          "285",
          "281",
          "282",
          "275",
          "258",
          "238",
          "232",
          "230",
          "237",
          "228",
          "220",
          "207",
          "183",
          "159",
          "158",
          "158",
          "153",
          "148",
          "142"
        ],
        "altitude_ft": [
          "25",
          "925",
          "1700",
          "2150",
          "2375",
          "2750",
          "3300",
          "3775",
          "4525",
          "5450",
          "6425",
          "7875",
          "9600",
          "10925",
          "11900",
          "12975",
          "14700",
          "15975",
          "17050",
          "18000",
          "19025",
          "20275",
          "21125",
          "22000",
          "22925",
          "23900",
          "24850",
          "25750",
          "26450",
          "27175",
          "27875",
          "28725",
          "29500",
          "30325",
          "31125",
          "31850",
          "32000",
          "32000",
          "32000",
          "32000",
          "32000",
          "32000",
          "32000",
          "32000",
          "32000",
          "32000",
          "32000",
          "32800",
          "33850",
          "34775",
          "35550",
          "36350",
          "37150",
          "37775",
          "38525",
          "38975",
          "39000",
          "39000",
          "39000",
          "39000",
          "39000",
          "39000",
          "39000",
          "39000",
          "39000",
          "39000",
          "39000",
          "39000",
          "39000",
          "39000",
          "39000",
          "39000",
          "39000",
          "39000",
          "39000",
          "39000",
          "39000",
          "39000",
          "39000",
          "39000",
          "39000",
          "39000",
          "39000",
          "39000",
          "39000",
          "39000",
          "39000",
          "39000",
          "39000",
          "39000",
          "39000",
          "39000",
          "39000",
          "39000",
          "38425",
          "37700",
          "37050",
          "36300",
          "35575",
          "35025",
          "35000",
          "35000",
          "35000",
          "35000",
          "35000",
          "35000",
          "35000",
          "35000",
          "35000",
          "35000",
          "35000",
          "35000",
          "35000",
          "35000",
          "35000",
          "35000",
          "35000",
          "35000",
          "33975",
          "33000",
          "31975",
          "31000",
          "30025",
          "29200",
          "28250",
          "27500",
          "26825",
          "26225",
          "25700",
          "25050",
          "24050",
          "23150",
          "22550",
          "21525",
          "21150",
          "21000",
          "21000",
          "21000",
          "21000",
          "21000",
          "21000",
          "20775",
          "20125",
          "19700",
          "18950",
          "18350",
          "17625",
          "16875",
          "16075",
          "15275",
          "14725",
          "14000",
          "13100",
          "12025",
          "10850",
          "10025",
          "9225",
          "8350",
          "7350",
          "7025",
          "7000",
          "7000",
          "7000",
          "6925",
          "6250",
          "5825",
          "5325",
          "4550",
          "3925",
          "3100",
          "2725",
          "2475",
          "2425",
          "2425",
          "2425",
          "2225",
          "1925",
          "1625",
          "1400",
          "925",
          "725",
          "525",
          "300",
          "100",
          "",
          ""
        ],
        "vertical_rate_fpm": [
          "",
          "3141",
          "2297",
          "1266",
          "1125",
          "1632",
          "1809",
          "2162",
          "2284",
          "2111",
          "2509",
          "3175",
          "3050",
          "2300",
          "2050",
          "2400",
          "2571",
          "2350",
          "2292",
          "2236",
          "2275",
          "2100",
          "1725",
          "1800",
          "1900",
          "1674",
          "1609",
          "1745",
          "1555",
          "1555",
          "1691",
          "1625",
          "1600",
          "1773",
          "2080",
          "847",
          "138",
          "",
          "",
          "",
          "",
          "",
          "",
          "",
          "",
          "",
          "800",
          "1850",
          "1975",
          "1700",
          "1575",
          "1600",
          "1613",
          "1587",
          "1220",
          "475",
          "25",
          "",
          "",
          "",
          "",
          "",
          "",
          "",
          "",
          "",
          "",
          "",
          "",
          "",
          "",
          "",
          "",
          "",
          "",
          "",
          "",
          "",
          "",
          "",
          "",
          "",
          "",
          "",
          "",
          "",
          "",
          "",
          "",
          "",
          "",
          "",
          "",
          "-575",
          "-1300",
          "-1447",
          "-1474",
          "-1475",
          "-1275",
          "-575",
          "-25",
          "",
          "",
          "",
          "",
          "",
          "",
          "",
          "",
          "",
          "",
          "",
          "",
          "",
          "",
          "",
          "",
          "-1025",
          "-1622",
          "-2000",
          "-2000",
          "-1950",
          "-1964",
          "-1936",
          "-1925",
          "-1988",
          "-1913",
          "-1875",
          "-2014",
          "-2020",
          "-1966",
          "-1957",
          "-1840",
          "-1424",
          "-656",
          "-167",
          "",
          "",
          "",
          "",
          "-281",
          "-921",
          "-1466",
          "-1500",
          "-1528",
          "-1500",
          "-1475",
          "-1476",
          "-1524",
          "-1528",
          "-1443",
          "-1625",
          "-2079",
          "-2368",
          "-2182",
          "-2031",
          "-1971",
          "-1940",
          "-1445",
          "-512",
          "-33",
          "",
          "-75",
          "-750",
          "-1375",
          "-1586",
          "-2068",
          "-2154",
          "-2175",
          "-1946",
          "-1172",
          "-563",
          "-94",
          "",
          "-375",
          "-938",
          "-1125",
          "-984",
          "-913",
          "-880",
          "-750",
          "-797",
          "-797",
          "-750",
          "-750",
          ""
        ],
        "reporting_facility": [
          "FlightAware ADS-B(BHD / EGAC)",
          "FlightAware ADS-B(BHD / EGAC)",
          "FlightAware ADS-B(IOM / EGNS)",
          "FlightAware ADS-B(BFS / EGAA)",
          "FlightAware ADS-B(EGAL)",
          "FlightAware ADS-B(LDY / EGAE)",
          "FlightAware ADS-B(BFS / EGAA)",
          "FlightAware ADS-B(ENK / EGAB)",
          "FlightAware ADS-B(EGAD)",
          "FlightAware ADS-B(PIK / EGPK)",
          "FlightAware ADS-B(EIWT)",
          "FlightAware ADS-B(LDY / EGAE)",
          "FlightAware ADS-B(BFS / EGAA)",
          "FlightAware ADS-B(EGOQ)",
          "FlightAware ADS-B(ENK / EGAB)",
          "FlightAware ADS-B(ENK / EGAB)",
          "FlightAware ADS-B(BHD / EGAC)",
          "FlightAware ADS-B(EGOW)",
          "FlightAware ADS-B(NCL / EGNT)",
          "FlightAware ADS-B(GLA / EGPF)",
          "FlightAware ADS-B(CAX / EGNC)",
          "FlightAware ADS-B(EGOS)",
          "FlightAware ADS-B(BLK / EGNH)",
          "FlightAware ADS-B(BLK / EGNH)",
          "FlightAware ADS-B(EGCR)",
          "FlightAware ADS-B(ENK / EGAB)",
          "FlightAware ADS-B(MAN / EGCC)",
          "FlightAware ADS-B(NCL / EGNT)",
          "FlightAware ADS-B(HUY / EGNJ)",
          "FlightAware ADS-B(EGCK)",
          "FlightAware ADS-B(BFS / EGAA)",
          "FlightAware ADS-B(EGWN)",
          "FlightAware ADS-B(EGTU)",
          "FlightAware ADS-B(EGCR)",
          "FlightAware ADS-B(FFD / EGVA)",
          "FlightAware ADS-B(LTN / EGGW)",
          "FlightAware ADS-B(EGOW)",
          "FlightAware ADS-B(MAN / EGCC)",
          "FlightAware ADS-B(DUB / EIDW)",
          "FlightAware ADS-B(EGCW)",
          "FlightAware ADS-B(EDI / EGPH)",
          "FlightAware ADS-B(KKY / EIKK)",
          "FlightAware ADS-B(LPL / EGGP)",
          "FlightAware ADS-B(EGBW)",
          "FlightAware ADS-B(EGBS)",
          "FlightAware ADS-B(EGBS)",
          "FlightAware ADS-B(BHD / EGAC)",
          "FlightAware ADS-B(BHD / EGAC)",
          "FlightAware ADS-B(HUY / EGNJ)",
          "FlightAware ADS-B(LPL / EGGP)",
          "FlightAware ADS-B(MAN / EGCC)",
          "FlightAware ADS-B(BHX / EGBB)",
          "FlightAware ADS-B(LPL / EGGP)",
          "FlightAware ADS-B(LPL / EGGP)",
          "FlightAware ADS-B(BHX / EGBB)",
          "FlightAware ADS-B(EGNF)",
          "FlightAware ADS-B(MAN / EGCC)",
          "FlightAware ADS-B(BHD / EGAC)",
          "FlightAware ADS-B(EGXY)",
          "FlightAware ADS-B(MAN / EGCC)",
          "FlightAware ADS-B(ODH / EGVO)",
          "FlightAware ADS-B(EGMA)",
          "FlightAware ADS-B(EGWC)",
          "FlightAware ADS-B(EMA / EGNX)",
          "FlightAware ADS-B(WTN / EGXW)",
          "FlightAware ADS-B(QUY / EGUY)",
          "FlightAware ADS-B(EGCG)",
          "FlightAware ADS-B(EGAD)",
          "FlightAware ADS-B(EGAD)",
          "FlightAware ADS-B(FAB / EGLF)",
          "FlightAware ADS-B(ORM / EGBK)",
          "FlightAware ADS-B(EGXY)",
          "FlightAware ADS-B(HUY / EGNJ)",
          "FlightAware ADS-B(EMA / EGNX)",
          "FlightAware ADS-B(EGCG)",
          "FlightAware ADS-B(QUY / EGUY)",
          "FlightAware ADS-B(EGLW)",
          "FlightAware ADS-B(LBA / EGNM)",
          "FlightAware ADS-B(LHR / EGLL)",
          "FlightAware ADS-B(LHR / EGLL)",
          "FlightAware ADS-B(OKH / EGXJ)",
          "FlightAware ADS-B(EGOW)",
          "FlightAware ADS-B(MAN / EGCC)",
          "FlightAware ADS-B(EGST)",
          "FlightAware ADS-B(EMA / EGNX)",
          "FlightAware ADS-B(EGSM)",
          "FlightAware ADS-B(LBA / EGNM)",
          "FlightAware ADS-B(BQH / EGKB)",
          "FlightAware ADS-B(KNF / EGYM)",
          "FlightAware ADS-B(EGBS)",
          "FlightAware ADS-B(EGTR)",
          "FlightAware ADS-B(GRQ / EHGG)",
          "FlightAware ADS-B(MHZ / EGUN)",
          "FlightAware ADS-B(NWI / EGSH)",
          "FlightAware ADS-B(HUY / EGNJ)",
          "FlightAware ADS-B(EGNU)",
          "FlightAware ADS-B(EGUW)",
          "FlightAware ADS-B(EGSF)",
          "FlightAware ADS-B(RTM / EHRD)",
          "FlightAware ADS-B(KNF / EGYM)",
          "FlightAware ADS-B(NWI / EGSH)",
          "FlightAware ADS-B(HUY / EGNJ)",
          "FlightAware ADS-B(LEY / EHLE)",
          "FlightAware ADS-B(EGBD)",
          "FlightAware ADS-B(RCS / EGTO)",
          "FlightAware ADS-B(DHR / EHKD)",
          "FlightAware ADS-B(BBS / EGLK)",
          "FlightAware ADS-B(EGTR)",
          "FlightAware ADS-B(UDE / EHVK)",
          "FlightAware ADS-B(DUS / EDDL)",
          "FlightAware ADS-B(SEN / EGMC)",
          "FlightAware ADS-B(EBDT)",
          "FlightAware ADS-B(RCS / EGTO)",
          "FlightAware ADS-B(AMS / EHAM)",
          "FlightAware ADS-B(EHDB)",
          "FlightAware ADS-B(EHDB)",
          "FlightAware ADS-B(RTM / EHRD)",
          "FlightAware ADS-B(HUY / EGNJ)",
          "FlightAware ADS-B(EGSL)",
          "FlightAware ADS-B(LEY / EHLE)",
          "FlightAware ADS-B(RCS / EGTO)",
          "FlightAware ADS-B(EBBL)",
          "FlightAware ADS-B(GLZ / EHGR)",
          "FlightAware ADS-B(EHDL)",
          "FlightAware ADS-B(RTM / EHRD)",
          "FlightAware ADS-B(EHDR)",
          "FlightAware ADS-B(MST / EHBK)",
          "FlightAware ADS-B(NWI / EGSH)",
          "FlightAware ADS-B(EHDB)",
          "FlightAware ADS-B(EHHV)",
          "FlightAware ADS-B(RTM / EHRD)",
          "FlightAware ADS-B(EDLM)",
          "FlightAware ADS-B(BRU / EBBR)",
          "FlightAware ADS-B(EBFN)",
          "FlightAware ADS-B(EBLE)",
          "FlightAware ADS-B(EHHO)",
          "FlightAware ADS-B(EGSQ)",
          "FlightAware ADS-B(DUS / EDDL)",
          "FlightAware ADS-B(ESS / EDLE)",
          "FlightAware ADS-B(EHDR)",
          "FlightAware ADS-B(EHTL)",
          "FlightAware ADS-B(GKE / ETNG)",
          "FlightAware ADS-B(EHTE)",
          "FlightAware ADS-B(EHHO)",
          "FlightAware ADS-B(AMS / EHAM)",
          "FlightAware ADS-B(FMO / EDDG)",
          "FlightAware ADS-B(EHAK)",
          "FlightAware ADS-B(RTM / EHRD)",
          "FlightAware ADS-B(ETNN)",
          "FlightAware ADS-B(EHBD)",
          "FlightAware ADS-B(DUS / EDDL)",
          "FlightAware ADS-B(EHHV)",
          "FlightAware ADS-B(EHSE)",
          "FlightAware ADS-B(DUS / EDDL)",
          "FlightAware ADS-B(GKE / ETNG)",
          "FlightAware ADS-B(ESS / EDLE)",
          "FlightAware ADS-B(MGL / EDLN)",
          "FlightAware ADS-B(DUS / EDDL)",
          "FlightAware ADS-B(DUS / EDDL)",
          "FlightAware ADS-B(CGN / EDDK)",
          "FlightAware ADS-B(DUS / EDDL)",
          "FlightAware ADS-B(DUS / EDDL)",
          "FlightAware ADS-B(FMO / EDDG)",
          "FlightAware ADS-B(EBZW)",
          "FlightAware ADS-B(EDKN)",
          "FlightAware ADS-B(MGL / EDLN)",
          "FlightAware ADS-B(DUS / EDDL)",
          "FlightAware ADS-B(DUS / EDDL)",
          "FlightAware ADS-B(GKE / ETNG)",
          "FlightAware ADS-B(AAH / EDKA)",
          "Surface and Near-Surface",
          "FlightAware ADS-B(CGN / EDDK)",
          "FlightAware ADS-B(AAH / EDKA)",
          "FlightAware ADS-B(MGL / EDLN)",
          "FlightAware ADS-B(EDKB)",
          "FlightAware ADS-B(CGN / EDDK)",
          "FlightAware ADS-B(MGL / EDLN)",
          "FlightAware ADS-B(DUS / EDDL)",
          "FlightAware ADS-B(CGN / EDDK)",
          "FlightAware ADS-B(EDKL)",
          "FlightAware ADS-B(CGN / EDDK)",
          "FlightAware ADS-B(CGN / EDDK)",
          "FlightAware ADS-B(EDKB)",
          "FlightAware ADS-B(CGN / EDDK)",
          "FlightAware ADS-B(CGN / EDDK)",
          "FlightAware ADS-B(CGN / EDDK)"
        ]
      }
    }
  ]
}