{
  "type": "FeatureCollection",
  "features": [
    {
      "type": "Feature",
      "geometry": {
        "type": "LineString",
        "coordinates": [
          [
            -1.3323,
            52.831
          ],
          [
            -1.3516,
            52.831
          ],
          [
            -1.3688,
            52.8305
          ],
          [
            -1.389,
            52.829
          ],
          [
            -1.4112,
            52.821
          ],
          [
            -1.4275,
            52.8117
          ],
          [
            -1.4442,
            52.8
          ],
          [
            -1.4606,
            52.7878
          ],
          [
            -1.4759,
            52.7758
          ],
          [
            -1.4904,
            52.7612
          ],
          [
            -1.4891,
            52.7443
          ],
          [
            -1.4643,
            52.7223
          ],
          [
            -1.4072,
            52.6843
          ],
          [
            -1.3532,
            52.6471
          ],
          [
            -1.3194,
            52.6246
          ],
          [
            -1.2819,
            52.6043
          ],
          [
            -1.1921,
            52.5579
          ],
          [
            -1.1122,
            52.5163
          ],
          [
            -1.0444,
            52.4956
          ],
          [
            -0.993,
            52.4856
          ],
          [
            -0.8677,
            52.4656
          ],
          [
            -0.7672,
            52.4497
          ],
          [
            -0.6885,
            52.4365
          ],
          [
            -0.6265,
            52.4259
          ],
          [
            -0.4125,
            52.3892
          ],
          [
            -0.3106,
            52.3713
          ],
          [
            -0.2348,
            52.3595
          ],
          [
            -0.1637,
            52.3552
          ],
          [
            -0.0473,
            52.3542
          ],
          [
            0.0322,
            52.354
          ],
          [
            0.1231,
            52.3479
          ],
          [
            0.2785,
            52.3329
          ],
          [
            0.3992,
            52.3221
          ],
          [
            0.474,
            52.3171
          ],
          [
            0.5925,
            52.3116
          ],
          [
            0.6786,
            52.3077
          ],
          [
            0.7935,
            52.3017
          ],
          [
            0.9092,
            52.2954
          ],
          [
            1.0241,
            52.2895
          ],
          [
            1.1372,
            52.2831
          ],
          [
            1.2495,
            52.2769
          ],
          [
            1.3628,
            52.2705
          ],
          [
            1.4759,
            52.264
          ],
          [
            1.5947,
            52.2571
          ],
          [
            1.7097,
            52.2501
          ],
          [
            1.8271,
            52.2432
          ],
          [
            1.9987,
            52.2324
          ],
          [
            2.1112,
            52.2254
          ],
          [
            2.2296,
            52.2176
          ],
          [
            2.3462,
            52.2101
          ],
          [
            2.4657,
            52.2023
          ],
          [
            2.5812,
            52.1946
          ],
          [
            2.6942,
            52.1868
          ],
          [
            2.8124,
            52.1787
          ],
          [
            3.0319,
            52.1632
          ],
          [
            3.2078,
            52.1504
          ],
          [
            3.3244,
            52.1418
          ],
          [
            3.4373,
            52.1335
          ],
          [
            3.5556,
            52.1245
          ],
          [
            3.6639,
            52.1162
          ],
          [
            3.7813,
            52.107
          ],
          [
            3.8972,
            52.0979
          ],
          [
            4.0083,
            52.0892
          ],
          [
            4.1261,
            52.0797
          ],
          [
            4.237,
            52.0706
          ],
          [
            4.3889,
            52.0579
          ],
          [
            4.5042,
            52.0484
          ],
          [
            4.6184,
            52.0386
          ],
          [
            4.7295,
            52.0292
          ],
          [
            4.8448,
            52.0191
          ],
          [
            4.9601,
            52.009
          ],
          [
            5.0731,
            51.999
          ],
          [
            5.1841,
            51.9889
          ],
          [
            5.2785,
            51.9803
          ],
          [
            5.3915,
            51.9698
          ],
          [
            5.502,
            51.9597
          ],
          [
            5.6177,
            51.9488
          ],
          [
            5.7333,
            51.9378
          ],
          [
            5.8452,
            51.9271
          ],
          [
            5.9608,
            51.9162
          ],
          [
            6.0671,
            51.9055
          ],
          [
            6.1817,
            51.8941
          ],
          [
            6.2711,
            51.8823
          ],
          [
            6.3413,
            51.8711
          ],
          [
            6.4094,
            51.8606
          ],
          [
            6.485,
            51.8493
          ],
          [
            6.5822,
            51.8353
          ],
          [
            6.6544,
            51.825
          ],
          [
            6.7201,
            51.8156
          ],
          [
            6.8531,
            51.7956
          ],
          [
            6.9194,
            51.7856
          ],
          [
            7.0335,
            51.7683
          ],
          [
            7.1462,
            51.7512
          ],
          [
            7.2565,
            51.7343
          ],
          [
            7.3661,
            51.7173
          ],
          [
            7.4748,
            51.7004
          ],
          [
            7.5558,
            51.688
          ],
          [
            7.6693,
            51.6701
          ],
          [
            7.7755,
            51.6533
          ],
          [
            7.884,
            51.6361
          ],
          [
            7.9969,
            51.6178
          ],
          [
            8.0984,
            51.6014
          ],
          [
            8.2178,
            51.5821
          ],
          [
            8.3262,
            51.5644
          ],
          [
            8.4395,
            51.5456
          ],
          [
            8.5296,
            51.5309
          ],
          [
            8.6393,
            51.5124
          ],
          [
            8.7529,
            51.4935
          ],
          [
            8.8612,
            51.4753
          ],
          [
            8.9745,
            51.456
          ],
          [
            9.0804,
            51.4379
          ],
          [
            9.2321,
            51.4119
          ],
          [
            9.3453,
            51.3923
          ],
          [
            9.4533,
            51.3735
          ],
          [
            9.5621,
            51.3543
          ],
          [
            9.7297,
            51.3247
          ],
          [
            9.8377,
            51.3053
          ],
          [
            9.9486,
            51.2856
          ],
          [
            10.0575,
            51.2654
          ],
          [
            10.1768,
            51.2439
          ],
          [
            10.2822,
            51.2249
          ],
          [
            10.3922,
            51.2045
          ],
          [
            10.4694,
            51.1904
          ],
          [
            10.5524,
            51.1751
          ],
          [
            10.668,
            51.1535
          ],
          [
            10.7735,
            51.1338
          ],
          [
            10.9159,
            51.1067
          ],
          [
            11.0221,
            51.0866
          ],
          [
            11.1326,
            51.0657
          ],
          [
            11.2418,
            51.0442
          ],
          [
            11.3499,
            51.0234
          ],
          [
            11.4559,
            51.003
          ],
          [
            11.567,
            50.9814
          ],
          [
            11.6773,
            50.9596
          ],
          [
            11.7868,
            50.9379
          ],
          [
            11.8943,
            50.9166
          ],
          [
            12.0051,
            50.8945
          ],
          [
            12.1119,
            50.8729
          ],
          [
            12.2197,
            50.8511
          ],
          [
            12.3273,
            50.8294
          ],
          [
            12.4345,
            50.8073
          ],
          [
            12.5417,
            50.7853
          ],
          [
            12.6476,
            50.7632
          ],
          [
            12.7412,
            50.7442
          ],
          [
            12.8651,
            50.7254
          ],
          [
            12.9797,
            50.7109
          ],
          [
            13.1373,
            50.6918
          ],
          [
            13.2032,
            50.6832
          ],
          [
            13.313,
            50.6688
          ],
          [
            13.4244,
            50.6541
          ],
          [
            13.5321,
            50.6396
          ],
          [
            13.6457,
            50.6242
          ],
          [
            13.757,
            50.609
          ],
          [
            13.8656,
            50.5944
          ],
          [
            14.0015,
            50.5752
          ],
          [
            14.1158,
            50.5587
          ],
          [
            14.226,
            50.5432
          ],
          [
            14.3364,
            50.5276
          ],
          [
            14.4315,
            50.5144
          ],
          [
            14.544,
            50.4979
          ],
          [
            14.6508,
            50.4823
          ],
          [
            14.7641,
            50.4654
          ],
          [
            15.0189,
            50.4279
          ],
          [
            15.1318,
            50.4111
          ],
          [
            15.2401,
            50.3948
          ],
          [
            15.3491,
            50.3781
          ],
          [
            15.4566,
            50.3617
          ],
          [
            15.5668,
            50.3448
          ],
          [
            15.6791,
            50.3273
          ],
          [
            15.7865,
            50.3103
          ],
          [
            15.8925,
            50.2939
          ],
          [
            16.0071,
            50.2743
          ],
          [
            16.1091,
            50.2578
          ],
          [
            16.2155,
            50.2416
          ],
          [
            16.3235,
            50.2246
          ],
          [
            16.4306,
            50.2074
          ],
          [
            16.5341,
            50.1907
          ],
          [
            16.6467,
            50.1722
          ],
          [
            16.7554,
            50.1543
          ],
          [
            16.8588,
            50.1369
          ],
          [
            16.9684,
            50.1184
          ],
          [
            17.0743,
            50.1006
          ],
          [
            17.1523,
            50.0874
          ],
          [
            17.2561,
            50.0699
          ],
          [
            17.3671,
            50.0506
          ],
          [
            17.4732,
            50.0321
          ],
          [
            17.5789,
            50.0137
          ],
          [
            17.6846,
            49.9951
          ],
          [
            17.7898,
            49.9767
          ],
          [
            17.8974,
            49.9582
          ],
          [
            17.9979,
            49.9404
          ],
          [
            18.0658,
            49.9325
          ],
          [
            18.1286,
            49.9304
          ],
          [
            18.2334,
            49.931
          ],
          [
            18.3133,
            49.9319
          ],
          [
            18.4155,
            49.9296
          ],
          [
            18.5188,
            49.9265
          ],
          [
            18.6203,
            49.9236
          ],
          [
            18.7247,
            49.9209
          ],
          [
            18.8266,
            49.9167
          ],
          [
            18.9237,
            49.9103
          ],
          [
            18.9974,
            49.9073
          ],
          [
            19.0563,
            49.91
          ],
          [
            19.1522,
            49.9179
          ],
          [
            19.2452,
            49.9267
          ],
          [
            19.3367,
            49.9352
          ],
          [
            19.4254,
            49.9429
          ],
          [
            19.4907,
            49.9482
          ],
          [
            19.5487,
            49.9549
          ],
          [
            19.5914,
            49.9604
          ],
          [
            19.6724,
            49.9721
          ],
          [
            19.7534,
            49.9845
          ],
          [
            19.8283,
            49.9948
          ],
          [
            19.8902,
            50.0031
          ],
          [
            19.9518,
            50.0113
          ],
          [
            20.0106,
            50.0191
          ],
          [
            20.0627,
            50.0262
          ],
          [
            20.0842,
            50.0333
          ],
          [
            20.0964,
            50.0504
          ],
          [
            20.0929,
            50.0672
          ],
          [
            20.0844,
            50.0796
          ],
          [
            20.0704,
            50.0904
          ],
          [
            20.0499,
            50.0967
          ],
          [
            20.0253,
            50.1035
          ],
          [
            20.0085,
            50.1077
          ],
          [
            19.9872,
            50.1072
          ],
          [
            19.9584,
            50.1024
          ],
          [
            19.9333,
            50.0986
          ],
          [
            19.9121,
            50.0954
          ],
          [
            19.8946,
            50.093
          ],
          [
            19.8809,
            50.0911
          ],
          [
            19.8684,
            50.0893
          ],
          [
            19.8544,
            50.0874
          ],
          [
            19.8408,
            50.0855
          ],
          [
            19.8282,
            50.0838
          ],
          [
            19.8151,
            50.0819
          ],
          [
            19.8016,
            50.0801
          ]
        ]
      },
      "properties": {
        "time_europe_berlin": [
          "29.10.2025 09:57:14",
          "29.10.2025 09:57:30",
          "29.10.2025 09:57:46",
          "29.10.2025 09:58:02",
          "29.10.2025 09:58:18",
          "29.10.2025 09:58:34",
          "29.10.2025 09:58:51",
          "29.10.2025 09:59:08",
          "29.10.2025 09:59:25",
          "29.10.2025 09:59:42",
          "29.10.2025 09:59:58",
          "29.10.2025 10:00:20",
          "29.10.2025 10:00:55",
          "29.10.2025 10:01:25",
          "29.10.2025 10:01:41",
          "29.10.2025 10:01:57",
          "29.10.2025 10:02:33",
          "29.10.2025 10:03:07",
          "29.10.2025 10:03:30",
          "29.10.2025 10:03:46",
          "29.10.2025 10:04:23",
          "29.10.2025 10:04:53",
          "29.10.2025 10:05:16",
          "29.10.2025 10:05:33",
          "29.10.2025 10:06:34",
          "29.10.2025 10:07:04",
          "29.10.2025 10:07:25",
          "29.10.2025 10:07:43",
          "29.10.2025 10:08:13",
          "29.10.2025 10:08:35",
          "29.10.2025 10:08:56",
          "29.10.2025 10:09:36",
          "29.10.2025 10:10:06",
          "29.10.2025 10:10:25",
          "29.10.2025 10:10:56",
          "29.10.2025 10:11:18",
          "29.10.2025 10:11:48",
          "29.10.2025 10:12:18",
          "29.10.2025 10:12:48",
          "29.10.2025 10:13:18",
          "29.10.2025 10:13:48",
          "29.10.2025 10:14:18",
          "29.10.2025 10:14:48",
          "29.10.2025 10:15:18",
          "29.10.2025 10:15:48",
          "29.10.2025 10:16:18",
          "29.10.2025 10:17:02",
          "29.10.2025 10:17:32",
          "29.10.2025 10:18:02",
          "29.10.2025 10:18:32",
          "29.10.2025 10:19:02",
          "29.10.2025 10:19:32",
          "29.10.2025 10:20:02",
          "29.10.2025 10:20:32",
          "29.10.2025 10:21:30",
          "29.10.2025 10:22:15",
          "29.10.2025 10:22:45",
          "29.10.2025 10:23:15",
          "29.10.2025 10:23:45",
          "29.10.2025 10:24:15",
          "29.10.2025 10:24:45",
          "29.10.2025 10:25:15",
          "29.10.2025 10:25:44",
          "29.10.2025 10:26:14",
          "29.10.2025 10:26:44",
          "29.10.2025 10:27:23",
          "29.10.2025 10:27:53",
          "29.10.2025 10:28:23",
          "29.10.2025 10:28:53",
          "29.10.2025 10:29:23",
          "29.10.2025 10:29:53",
          "29.10.2025 10:30:23",
          "29.10.2025 10:30:53",
          "29.10.2025 10:31:18",
          "29.10.2025 10:31:48",
          "29.10.2025 10:32:18",
          "29.10.2025 10:32:48",
          "29.10.2025 10:33:18",
          "29.10.2025 10:33:48",
          "29.10.2025 10:34:18",
          "29.10.2025 10:34:48",
          "29.10.2025 10:35:18",
          "29.10.2025 10:35:42",
          "29.10.2025 10:36:02",
          "29.10.2025 10:36:20",
          "29.10.2025 10:36:41",
          "29.10.2025 10:37:08",
          "29.10.2025 10:37:27",
          "29.10.2025 10:37:45",
          "29.10.2025 10:38:21",
          "29.10.2025 10:38:40",
          "29.10.2025 10:39:10",
          "29.10.2025 10:39:40",
          "29.10.2025 10:40:10",
          "29.10.2025 10:40:40",
          "29.10.2025 10:41:10",
          "29.10.2025 10:41:33",
          "29.10.2025 10:42:03",
          "29.10.2025 10:42:32",
          "29.10.2025 10:43:02",
          "29.10.2025 10:43:32",
          "29.10.2025 10:44:02",
          "29.10.2025 10:44:32",
          "29.10.2025 10:45:02",
          "29.10.2025 10:45:32",
          "29.10.2025 10:45:57",
          "29.10.2025 10:46:27",
          "29.10.2025 10:46:57",
          "29.10.2025 10:47:27",
          "29.10.2025 10:47:57",
          "29.10.2025 10:48:27",
          "29.10.2025 10:49:08",
          "29.10.2025 10:49:38",
          "29.10.2025 10:50:08",
          "29.10.2025 10:50:38",
          "29.10.2025 10:51:23",
          "29.10.2025 10:51:53",
          "29.10.2025 10:52:23",
          "29.10.2025 10:52:53",
          "29.10.2025 10:53:24",
          "29.10.2025 10:53:54",
          "29.10.2025 10:54:24",
          "29.10.2025 10:54:46",
          "29.10.2025 10:55:09",
          "29.10.2025 10:55:40",
          "29.10.2025 10:56:10",
          "29.10.2025 10:56:48",
          "29.10.2025 10:57:18",
          "29.10.2025 10:57:48",
          "29.10.2025 10:58:18",
          "29.10.2025 10:58:48",
          "29.10.2025 10:59:18",
          "29.10.2025 10:59:48",
          "29.10.2025 11:00:18",
          "29.10.2025 11:00:48",
          "29.10.2025 11:01:18",
          "29.10.2025 11:01:48",
          "29.10.2025 11:02:18",
          "29.10.2025 11:02:48",
          "29.10.2025 11:03:18",
          "29.10.2025 11:03:48",
          "29.10.2025 11:04:18",
          "29.10.2025 11:04:48",
          "29.10.2025 11:05:14",
          "29.10.2025 11:05:48",
          "29.10.2025 11:06:20",
          "29.10.2025 11:07:02",
          "29.10.2025 11:07:20",
          "29.10.2025 11:07:50",
          "29.10.2025 11:08:20",
          "29.10.2025 11:08:50",
          "29.10.2025 11:09:20",
          "29.10.2025 11:09:50",
          "29.10.2025 11:10:20",
          "29.10.2025 11:10:59",
          "29.10.2025 11:11:29",
          "29.10.2025 11:11:59",
          "29.10.2025 11:12:29",
          "29.10.2025 11:12:56",
          "29.10.2025 11:13:26",
          "29.10.2025 11:13:56",
          "29.10.2025 11:14:26",
          "29.10.2025 11:15:35",
          "29.10.2025 11:16:06",
          "29.10.2025 11:16:36",
          "29.10.2025 11:17:06",
          "29.10.2025 11:17:36",
          "29.10.2025 11:18:06",
          "29.10.2025 11:18:36",
          "29.10.2025 11:19:06",
          "29.10.2025 11:19:36",
          "29.10.2025 11:20:06",
          "29.10.2025 11:20:34",
          "29.10.2025 11:21:04",
          "29.10.2025 11:21:34",
          "29.10.2025 11:22:04",
          "29.10.2025 11:22:34",
          "29.10.2025 11:23:04",
          "29.10.2025 11:23:34",
          "29.10.2025 11:24:04",
          "29.10.2025 11:24:34",
          "29.10.2025 11:25:04",
          "29.10.2025 11:25:26",
          "29.10.2025 11:25:56",
          "29.10.2025 11:26:26",
          "29.10.2025 11:26:56",
          "29.10.2025 11:27:26",
          "29.10.2025 11:27:56",
          "29.10.2025 11:28:26",
          "29.10.2025 11:28:56",
          "29.10.2025 11:29:26",
          "29.10.2025 11:29:45",
          "29.10.2025 11:30:02",
          "29.10.2025 11:30:32",
          "29.10.2025 11:30:53",
          "29.10.2025 11:31:23",
          "29.10.2025 11:31:53",
          "29.10.2025 11:32:23",
          "29.10.2025 11:32:53",
          "29.10.2025 11:33:23",
          "29.10.2025 11:33:53",
          "29.10.2025 11:34:15",
          "29.10.2025 11:34:34",
          "29.10.2025 11:35:04",
          "29.10.2025 11:35:34",
          "29.10.2025 11:36:04",
          "29.10.2025 11:36:34",
          "29.10.2025 11:36:57",
          "29.10.2025 11:37:16",
          "29.10.2025 11:37:32",
          "29.10.2025 11:38:02",
          "29.10.2025 11:38:33",
          "29.10.2025 11:39:03",
          "29.10.2025 11:39:33",
          "29.10.2025 11:40:03",
          "29.10.2025 11:40:33",
          "29.10.2025 11:41:02",
          "29.10.2025 11:41:18",
          "29.10.2025 11:41:36",
          "29.10.2025 11:41:55",
          "29.10.2025 11:42:11",
          "29.10.2025 11:42:27",
          "29.10.2025 11:42:46",
          "29.10.2025 11:43:10",
          "29.10.2025 11:43:27",
          "29.10.2025 11:43:48",
          "29.10.2025 11:44:15",
          "29.10.2025 11:44:38",
          "29.10.2025 11:44:58",
          "29.10.2025 11:45:15",
          "29.10.2025 11:45:31",
          "29.10.2025 11:45:47",
          "29.10.2025 11:46:03",
          "29.10.2025 11:46:19",
          "29.10.2025 11:46:35",
          "29.10.2025 11:46:51",
          "29.10.2025 11:47:07"
        ],
        "course_deg_clockwise_from_north": [
          "270",
          "268",
          "267",
          "256",
          "233",
          "223",
          "220",
          "219",
          "217",
          "199",
          "164",
          "139",
          "137",
          "139",
          "135",
          "130",
          "131",
          "128",
          "110",
          "106",
          "104",
          "105",
          "106",
          "106",
          "106",
          "106",
          "100",
          "93",
          "90",
          "95",
          "98",
          "99",
          "98",
          "95",
          "94",
          "95",
          "95",
          "95",
          "95",
          "95",
          "95",
          "95",
          "96",
          "96",
          "95",
          "96",
          "96",
          "96",
          "96",
          "96",
          "97",
          "96",
          "96",
          "97",
          "97",
          "97",
          "97",
          "97",
          "98",
          "98",
          "98",
          "98",
          "97",
          "98",
          "98",
          "98",
          "98",
          "98",
          "98",
          "98",
          "98",
          "98",
          "98",
          "98",
          "99",
          "99",
          "99",
          "99",
          "99",
          "99",
          "99",
          "100",
          "103",
          "105",
          "104",
          "103",
          "102",
          "104",
          "103",
          "104",
          "103",
          "103",
          "103",
          "103",
          "104",
          "104",
          "105",
          "105",
          "105",
          "105",
          "105",
          "105",
          "104",
          "105",
          "105",
          "105",
          "106",
          "105",
          "105",
          "106",
          "106",
          "105",
          "106",
          "105",
          "105",
          "106",
          "107",
          "106",
          "107",
          "106",
          "106",
          "106",
          "106",
          "106",
          "107",
          "107",
          "107",
          "107",
          "107",
          "107",
          "107",
          "107",
          "107",
          "107",
          "107",
          "107",
          "108",
          "108",
          "108",
          "108",
          "108",
          "107",
          "108",
          "107",
          "102",
          "100",
          "101",
          "102",
          "102",
          "102",
          "102",
          "102",
          "102",
          "103",
          "102",
          "103",
          "103",
          "102",
          "103",
          "104",
          "103",
          "103",
          "103",
          "104",
          "103",
          "104",
          "104",
          "103",
          "104",
          "103",
          "105",
          "105",
          "104",
          "104",
          "104",
          "104",
          "104",
          "104",
          "105",
          "105",
          "105",
          "105",
          "105",
          "105",
          "105",
          "105",
          "105",
          "105",
          "106",
          "105",
          "106",
          "94",
          "91",
          "89",
          "90",
          "93",
          "92",
          "92",
          "93",
          "95",
          "95",
          "89",
          "85",
          "82",
          "82",
          "82",
          "83",
          "81",
          "79",
          "78",
          "77",
          "78",
          "78",
          "78",
          "79",
          "78",
          "77",
          "46",
          "4",
          "340",
          "335",
          "304",
          "294",
          "292",
          "291",
          "255",
          "257",
          "258",
          "258",
          "258",
          "258",
          "258",
          "257",
          "258",
          "257",
          "258",
          "257"
        ],
        "speed_kts": [
          "146",
          "145",
          "155",
          "181",
          "191",
          "197",
          "198",
          "203",
          "204",
          "220",
          "247",
          "289",
          "339",
          "382",
          "409",
          "416",
          "422",
          "428",
          "447",
          "457",
          "460",
          "466",
          "472",
          "476",
          "486",
          "490",
          "502",
          "516",
          "526",
          "525",
          "523",
          "525",
          "524",
          "526",
          "524",
          "518",
          "509",
          "507",
          "507",
          "506",
          "507",
          "507",
          "508",
          "509",
          "516",
          "522",
          "523",
          "523",
          "522",
          "520",
          "519",
          "519",
          "518",
          "518",
          "516",
          "515",
          "515",
          "516",
          "516",
          "516",
          "516",
          "516",
          "515",
          "515",
          "515",
          "515",
          "514",
          "513",
          "512",
          "513",
          "513",
          "512",
          "511",
          "510",
          "509",
          "509",
          "508",
          "509",
          "509",
          "509",
          "509",
          "508",
          "506",
          "505",
          "506",
          "507",
          "508",
          "507",
          "508",
          "508",
          "509",
          "510",
          "510",
          "510",
          "510",
          "510",
          "509",
          "509",
          "509",
          "510",
          "512",
          "513",
          "514",
          "515",
          "515",
          "516",
          "516",
          "516",
          "516",
          "515",
          "516",
          "517",
          "517",
          "518",
          "518",
          "519",
          "519",
          "519",
          "518",
          "518",
          "517",
          "517",
          "517",
          "517",
          "517",
          "517",
          "518",
          "518",
          "518",
          "518",
          "519",
          "519",
          "519",
          "520",
          "521",
          "521",
          "520",
          "518",
          "517",
          "517",
          "515",
          "515",
          "513",
          "514",
          "515",
          "516",
          "518",
          "518",
          "519",
          "519",
          "519",
          "517",
          "518",
          "516",
          "515",
          "515",
          "516",
          "517",
          "518",
          "517",
          "519",
          "520",
          "522",
          "521",
          "520",
          "521",
          "521",
          "520",
          "519",
          "521",
          "523",
          "520",
          "517",
          "516",
          "515",
          "515",
          "515",
          "514",
          "514",
          "513",
          "513",
          "511",
          "510",
          "517",
          "519",
          "516",
          "509",
          "503",
          "499",
          "499",
          "507",
          "507",
          "504",
          "500",
          "496",
          "491",
          "483",
          "482",
          "477",
          "460",
          "454",
          "451",
          "447",
          "443",
          "438",
          "424",
          "411",
          "402",
          "396",
          "393",
          "389",
          "369",
          "318",
          "298",
          "285",
          "264",
          "244",
          "229",
          "208",
          "189",
          "188",
          "175",
          "165",
          "150",
          "151",
          "149",
          "146",
          "155",
          "147",
          "136",
          "116",
          "116",
          "118",
          "120",
          "120",
          "117",
          "118"
        ],
        "speed_mph": [
          "168",
          "167",
          "178",
          "208",
          "220",
          "227",
          "228",
          "234",
          "235",
          "253",
          "284",
          "333",
          "390",
          "440",
          "471",
          "479",
          "486",
          "493",
          "514",
          "526",
          "529",
          "536",
          "543",
          "548",
          "559",
          "564",
          "578",
          "594",
          "605",
          "604",
          "602",
          "604",
          "603",
          "605",
          "603",
          "596",
          "586",
          "583",
          "583",
          "582",
          "583",
          "583",
          "585",
          "586",
          "594",
          "601",
          "602",
          "602",
          "601",
          "598",
          "597",
          "597",
          "596",
          "596",
          "594",
          "593",
          "593",
          "594",
          "594",
          "594",
          "594",
          "594",
          "593",
          "593",
          "593",
          "593",
          "592",
          "590",
          "589",
          "590",
          "590",
          "589",
          "588",
          "587",
          "586",
          "586",
          "585",
          "586",
          "586",
          "586",
          "586",
          "585",
          "582",
          "581",
          "582",
          "583",
          "585",
          "583",
          "585",
          "585",
          "586",
          "587",
          "587",
          "587",
          "587",
          "587",
          "586",
          "586",
          "586",
          "587",
          "589",
          "590",
          "592",
          "593",
          "593",
          "594",
          "594",
          "594",
          "594",
          "593",
          "594",
          "595",
          "595",
          "596",
          "596",
          "597",
          "597",
          "597",
          "596",
          "596",
          "595",
          "595",
          "595",
          "595",
          "595",
          "595",
          "596",
          "596",
          "596",
          "596",
          "597",
          "597",
          "597",
          "598",
          "600",
          "600",
          "598",
          "596",
          "595",
          "595",
          "593",
          "593",
          "590",
          "592",
          "593",
          "594",
          "596",
          "596",
          "597",
          "597",
          "597",
          "595",
          "596",
          "594",
          "593",
          "593",
          "594",
          "595",
          "596",
          "595",
          "597",
          "598",
          "601",
          "600",
          "598",
          "600",
          "600",
          "598",
          "597",
          "600",
          "602",
          "598",
          "595",
          "594",
          "593",
          "593",
          "593",
          "592",
          "592",
          "590",
          "590",
          "588",
          "587",
          "595",
          "597",
          "594",
          "586",
          "579",
          "574",
          "574",
          "583",
          "583",
          "580",
          "575",
          "571",
          "565",
          "556",
          "555",
          "549",
          "529",
          "522",
          "519",
          "514",
          "510",
          "504",
          "488",
          "473",
          "463",
          "456",
          "452",
          "448",
          "425",
          "366",
          "343",
          "328",
          "304",
          "281",
          "264",
          "239",
          "217",
          "216",
          "201",
          "190",
          "173",
          "174",
          "171",
          "168",
          "178",
          "169",
          "157",
          "133",
          "133",
          "136",
          "138",
          "138",
          "135",
          "136"
        ],
        "altitude_ft": [
          "1075",
          "2150",
          "2900",
          "3425",
          "4425",
          "5275",
          "6575",
          "7675",
          "8800",
          "9950",
          "11050",
          "12400",
          "14025",
          "14775",
          "15025",
          "15750",
          "17425",
          "17975",
          "18475",
          "18875",
          "19975",
          "21150",
          "22100",
          "22850",
          "25350",
          "26525",
          "27350",
          "27975",
          "28950",
          "29675",
          "30350",
          "31700",
          "32800",
          "33475",
          "34550",
          "35425",
          "36475",
          "37425",
          "38125",
          "38850",
          "39400",
          "39975",
          "40450",
          "40850",
          "41000",
          "41000",
          "41000",
          "41000",
          "41000",
          "41000",
          "41000",
          "41000",
          "41000",
          "41000",
          "41000",
          "41000",
          "41000",
          "41000",
          "41000",
          "41000",
          "41000",
          "41000",
          "41000",
          "41000",
          "41000",
          "41000",
          "41000",
          "41000",
          "41000",
          "41000",
          "41000",
          "41000",
          "41000",
          "41000",
          "41000",
          "41000",
          "41000",
          "41000",
          "41000",
          "41000",
          "41000",
          "41000",
          "41000",
          "41000",
          "41000",
          "41000",
          "41000",
          "41000",
          "41000",
          "41000",
          "41000",
          "41000",
          "41000",
          "41000",
          "41000",
          "41000",
          "41000",
          "41000",
          "41000",
          "41000",
          "41000",
          "41000",
          "41000",
          "41000",
          "41000",
          "41000",
          "41000",
          "41000",
          "41000",
          "41000",
          "41000",
          "41000",
          "41000",
          "41000",
          "41000",
          "41000",
          "41000",
          "41000",
          "41000",
          "41000",
          "41000",
          "41000",
          "41000",
          "41000",
          "41000",
          "41000",
          "41000",
          "41000",
          "41000",
          "41000",
          "41000",
          "41000",
          "41000",
          "41000",
          "41000",
          "41000",
          "41000",
          "41000",
          "41000",
          "41000",
          "41000",
          "41000",
          "41000",
          "41000",
          "41000",
          "41000",
          "41000",
          "41000",
          "41000",
          "41000",
          "41000",
          "41000",
          "41000",
          "41000",
          "41000",
          "41000",
          "41000",
          "41000",
          "41000",
          "41000",
          "41000",
          "41000",
          "41000",
          "41000",
          "41000",
          "41000",
          "41000",
          "41000",
          "40650",
          "40150",
          "39700",
          "39400",
          "39100",
          "38800",
          "38500",
          "38200",
          "37925",
          "37600",
          "37300",
          "37000",
          "36700",
          "36400",
          "36175",
          "35375",
          "34075",
          "32700",
          "31375",
          "29950",
          "28625",
          "27275",
          "26100",
          "25325",
          "24625",
          "23475",
          "22600",
          "21700",
          "20925",
          "20050",
          "19100",
          "18150",
          "17300",
          "16725",
          "16125",
          "15100",
          "13950",
          "12775",
          "11625",
          "10750",
          "9975",
          "9375",
          "8250",
          "7400",
          "6800",
          "6250",
          "5675",
          "5125",
          "4550",
          "4300",
          "4000",
          "3675",
          "3375",
          "3075",
          "2825",
          "2800",
          "2800",
          "2800",
          "2825",
          "2550",
          "2275",
          "2000",
          "1875",
          "1675",
          "1525",
          "1375",
          "1175",
          "1025",
          "850"
        ],
        "vertical_rate_fpm": [
          "",
          "3422",
          "2391",
          "2859",
          "3469",
          "3909",
          "4235",
          "3926",
          "4015",
          "4091",
          "3868",
          "3132",
          "2192",
          "1304",
          "1828",
          "2769",
          "1907",
          "1105",
          "1385",
          "1698",
          "2037",
          "2406",
          "2550",
          "2500",
          "2423",
          "2353",
          "2231",
          "2000",
          "1962",
          "1953",
          "1992",
          "2100",
          "2173",
          "2100",
          "2208",
          "2221",
          "2000",
          "1650",
          "1425",
          "1275",
          "1125",
          "1050",
          "875",
          "550",
          "150",
          "",
          "",
          "",
          "",
          "",
          "",
          "",
          "",
          "",
          "",
          "",
          "",
          "",
          "",
          "",
          "",
          "",
          "",
          "",
          "",
          "",
          "",
          "",
          "",
          "",
          "",
          "",
          "",
          "",
          "",
          "",
          "",
          "",
          "",
          "",
          "",
          "",
          "",
          "",
          "",
          "",
          "",
          "",
          "",
          "",
          "",
          "",
          "",
          "",
          "",
          "",
          "",
          "",
          "",
          "",
          "",
          "",
          "",
          "",
          "",
          "",
          "",
          "",
          "",
          "",
          "",
          "",
          "",
          "",
          "",
          "",
          "",
          "",
          "",
          "",
          "",
          "",
          "",
          "",
          "",
          "",
          "",
          "",
          "",
          "",
          "",
          "",
          "",
          "",
          "",
          "",
          "",
          "",
          "",
          "",
          "",
          "",
          "",
          "",
          "",
          "",
          "",
          "",
          "",
          "",
          "",
          "",
          "",
          "",
          "",
          "",
          "",
          "",
          "",
          "",
          "",
          "",
          "",
          "",
          "",
          "",
          "",
          "-350",
          "-850",
          "-950",
          "-750",
          "-621",
          "-621",
          "-600",
          "-600",
          "-575",
          "-600",
          "-625",
          "-600",
          "-600",
          "-600",
          "-606",
          "-1183",
          "-2100",
          "-2675",
          "-2700",
          "-2750",
          "-2750",
          "-2675",
          "-2525",
          "-2388",
          "-2458",
          "-2362",
          "-2382",
          "-2088",
          "-1675",
          "-1650",
          "-1825",
          "-1900",
          "-1800",
          "-1644",
          "-1720",
          "-1990",
          "-2175",
          "-2325",
          "-2325",
          "-2292",
          "-2357",
          "-2357",
          "-2250",
          "-1943",
          "-1426",
          "-1150",
          "-1125",
          "-1125",
          "-1144",
          "-1100",
          "-971",
          "-1014",
          "-1071",
          "-1125",
          "-943",
          "-384",
          "-37",
          "",
          "31",
          "-300",
          "-767",
          "-892",
          "-727",
          "-609",
          "-656",
          "-563",
          "-656",
          "-656",
          "-609",
          "-656"
        ],
        "reporting_facility": [
          "FlightAware ADS-B(EMA / EGNX)",
          "FlightAware ADS-B(EMA / EGNX)",
          "FlightAware ADS-B(EMA / EGNX)",
          "FlightAware ADS-B(EMA / EGNX)",
          "FlightAware ADS-B(MAN / EGCC)",
          "FlightAware ADS-B(GLO / EGBJ)",
          "FlightAware ADS-B(EMA / EGNX)",
          "FlightAware ADS-B(EGBG)",
          "FlightAware ADS-B(EGNA)",
          "FlightAware ADS-B(EGCB)",
          "FlightAware ADS-B(MAN / EGCC)",
          "FlightAware ADS-B(EGNF)",
          "FlightAware ADS-B(EGBW)",
          "FlightAware ADS-B(EGSV)",
          "FlightAware ADS-B(CEG / EGNR)",
          "FlightAware ADS-B(IOM / EGNS)",
          "FlightAware ADS-B(EGOE)",
          "FlightAware ADS-B(KNF / EGYM)",
          "FlightAware ADS-B(NWI / EGSH)",
          "FlightAware ADS-B(DSA / EGCN)",
          "FlightAware ADS-B(EGBD)",
          "FlightAware ADS-B(BHX / EGBB)",
          "FlightAware ADS-B(HUY / EGNJ)",
          "FlightAware ADS-B(EMA / EGNX)",
          "FlightAware ADS-B(OKH / EGXJ)",
          "FlightAware ADS-B(LHR / EGLL)",
          "FlightAware ADS-B(BBS / EGLK)",
          "FlightAware ADS-B(BEX / EGUB)",
          "FlightAware ADS-B(MAN / EGCC)",
          "FlightAware ADS-B(GLO / EGBJ)",
          "FlightAware ADS-B(EGBW)",
          "FlightAware ADS-B(SEN / EGMC)",
          "FlightAware ADS-B(NCL / EGNT)",
          "FlightAware ADS-B(LGW / EGKK)",
          "FlightAware ADS-B(MAN / EGCC)",
          "FlightAware ADS-B(ESH / EGKA)",
          "FlightAware ADS-B(HUY / EGNJ)",
          "FlightAware ADS-B(EGKL)",
          "FlightAware ADS-B(GLO / EGBJ)",
          "FlightAware ADS-B(LCY / EGLC)",
          "FlightAware ADS-B(LCY / EGLC)",
          "FlightAware ADS-B(BHX / EGBB)",
          "FlightAware ADS-B(EMA / EGNX)",
          "FlightAware ADS-B(EGSQ)",
          "FlightAware ADS-B(EMA / EGNX)",
          "FlightAware ADS-B(AMS / EHAM)",
          "FlightAware ADS-B(RTM / EHRD)",
          "FlightAware ADS-B(LCY / EGLC)",
          "FlightAware ADS-B(GLZ / EHGR)",
          "FlightAware ADS-B(EGSR)",
          "FlightAware ADS-B(HUY / EGNJ)",
          "FlightAware ADS-B(EGBD)",
          "FlightAware ADS-B(MSE / EGMH)",
          "FlightAware ADS-B(BRU / EBBR)",
          "FlightAware ADS-B(LBA / EGNM)",
          "FlightAware ADS-B(LEY / EHLE)",
          "FlightAware ADS-B(QCY / EGXC)",
          "FlightAware ADS-B(AMS / EHAM)",
          "FlightAware ADS-B(DUS / EDDL)",
          "FlightAware ADS-B(DUS / EDDL)",
          "FlightAware ADS-B(LYX / EGMD)",
          "FlightAware ADS-B(LYX / EGMD)",
          "FlightAware ADS-B(HUY / EGNJ)",
          "FlightAware ADS-B(AMS / EHAM)",
          "FlightAware ADS-B(BRU / EBBR)",
          "FlightAware ADS-B(EHHV)",
          "FlightAware ADS-B(WOE / EHWO)",
          "FlightAware ADS-B(EHHV)",
          "FlightAware ADS-B(WOE / EHWO)",
          "FlightAware ADS-B(WOE / EHWO)",
          "FlightAware ADS-B(EHMZ)",
          "FlightAware ADS-B(AMS / EHAM)",
          "FlightAware ADS-B(DTM / EDLW)",
          "FlightAware ADS-B(EIN / EHEH)",
          "FlightAware ADS-B(EHVB)",
          "FlightAware ADS-B(UDE / EHVK)",
          "FlightAware ADS-B(EDLM)",
          "FlightAware ADS-B(EBBL)",
          "FlightAware ADS-B(EBHM)",
          "FlightAware ADS-B(DUS / EDDL)",
          "FlightAware ADS-B(AMS / EHAM)",
          "FlightAware ADS-B(GLZ / EHGR)",
          "FlightAware ADS-B(FRA / EDDF)",
          "FlightAware ADS-B(GRQ / EHGG)",
          "FlightAware ADS-B(EDFZ)",
          "FlightAware ADS-B(EHHA)",
          "FlightAware ADS-B(QEF / EDFE)",
          "FlightAware ADS-B(DTM / EDLW)",
          "FlightAware ADS-B(DHR / EHKD)",
          "FlightAware ADS-B(LFAG)",
          "FlightAware ADS-B(EHDP)",
          "FlightAware ADS-B(EDLI)",
          "FlightAware ADS-B(EDLI)",
          "FlightAware ADS-B(EDLI)",
          "FlightAware ADS-B(EHVB)",
          "FlightAware ADS-B(EBGB)",
          "FlightAware ADS-B(FMO / EDDG)",
          "FlightAware ADS-B(BRU / EBBR)",
          "FlightAware ADS-B(HAJ / EDDV)",
          "FlightAware ADS-B(CGN / EDDK)",
          "FlightAware ADS-B(EDGH)",
          "FlightAware ADS-B(DUS / EDDL)",
          "FlightAware ADS-B(BRE / EDDW)",
          "FlightAware ADS-B(EDFY)",
          "FlightAware ADS-B(EDLG)",
          "FlightAware ADS-B(EDKB)",
          "FlightAware ADS-B(PSH / EDXO)",
          "FlightAware ADS-B(CGN / EDDK)",
          "FlightAware ADS-B(EDFB)",
          "FlightAware ADS-B(FRA / EDDF)",
          "FlightAware ADS-B(STR / EDDS)",
          "FlightAware ADS-B(EDVN)",
          "FlightAware ADS-B(FRA / EDDF)",
          "FlightAware ADS-B(FRA / EDDF)",
          "FlightAware ADS-B(EDGR)",
          "FlightAware ADS-B(CGN / EDDK)",
          "FlightAware ADS-B(ENS / EHTW)",
          "FlightAware ADS-B(ENS / EHTW)",
          "FlightAware ADS-B(ETNN)",
          "FlightAware ADS-B(CSO / EDBC)",
          "FlightAware ADS-B(ETND)",
          "FlightAware ADS-B(EDEG)",
          "FlightAware ADS-B(EDFK)",
          "FlightAware ADS-B(LKKL)",
          "FlightAware ADS-B(EDCB)",
          "FlightAware ADS-B(LKKL)",
          "FlightAware ADS-B(EDHS)",
          "FlightAware ADS-B(EDLZ)",
          "FlightAware ADS-B(DRS / EDDC)",
          "FlightAware ADS-B(KSF / EDVK)",
          "FlightAware ADS-B(LKRK)",
          "FlightAware ADS-B(EDLO)",
          "FlightAware ADS-B(LEJ / EDDP)",
          "FlightAware ADS-B(HAJ / EDDV)",
          "FlightAware ADS-B(LEJ / EDDP)",
          "FlightAware ADS-B(LKBE)",
          "FlightAware ADS-B(EDAB)",
          "FlightAware ADS-B(EDAB)",
          "FlightAware ADS-B(EDBI)",
          "FlightAware ADS-B(LKKB)",
          "FlightAware ADS-B(EDBI)",
          "FlightAware ADS-B(EDBJ)",
          "FlightAware ADS-B(EDBJ)",
          "FlightAware ADS-B(LKLN)",
          "FlightAware ADS-B(FRA / EDDF)",
          "FlightAware ADS-B(BER / EDDB)",
          "FlightAware ADS-B(EDBK)",
          "FlightAware ADS-B(EPPW)",
          "FlightAware ADS-B(EDPR)",
          "FlightAware ADS-B(LKST)",
          "FlightAware ADS-B(EDAV)",
          "FlightAware ADS-B(LKPC)",
          "FlightAware ADS-B(BER / EDDB)",
          "FlightAware ADS-B(EDBS)",
          "FlightAware ADS-B(LKJI)",
          "FlightAware ADS-B(LKVR)",
          "FlightAware ADS-B(EDCI)",
          "FlightAware ADS-B(LEJ / EDDP)",
          "FlightAware ADS-B(STR / EDDS)",
          "FlightAware ADS-B(LKCE)",
          "FlightAware ADS-B(EDON)",
          "FlightAware ADS-B(OSR / LKMT)",
          "FlightAware ADS-B(EPKS)",
          "FlightAware ADS-B(OLO / LKOL)",
          "FlightAware ADS-B(LHEM)",
          "FlightAware ADS-B(LKKB)",
          "FlightAware ADS-B(EDBM)",
          "FlightAware ADS-B(PRG / LKPR)",
          "FlightAware ADS-B(WRO / EPWR)",
          "FlightAware ADS-B(BRQ / LKTB)",
          "FlightAware ADS-B(LKJI)",
          "FlightAware ADS-B(BRQ / LKTB)",
          "FlightAware ADS-B(DRS / EDDC)",
          "FlightAware ADS-B(EDAB)",
          "FlightAware ADS-B(LKKB)",
          "FlightAware ADS-B(VIE / LOWW)",
          "FlightAware ADS-B(LKJI)",
          "FlightAware ADS-B(LKRO)",
          "FlightAware ADS-B(LKZM)",
          "FlightAware ADS-B(EPKM)",
          "FlightAware ADS-B(KTW / EPKT)",
          "FlightAware ADS-B(BRQ / LKTB)",
          "FlightAware ADS-B(LKPJ)",
          "FlightAware ADS-B(KRK / EPKK)",
          "FlightAware ADS-B(LKCE)",
          "FlightAware ADS-B(EPLK)",
          "FlightAware ADS-B(EPKA)",
          "FlightAware ADS-B(PRV / LKPO)",
          "FlightAware ADS-B(LKJI)",
          "FlightAware ADS-B(EPRG)",
          "FlightAware ADS-B(LZNI)",
          "FlightAware ADS-B(WRO / EPWR)",
          "FlightAware ADS-B(KRK / EPKK)",
          "FlightAware ADS-B(OLO / LKOL)",
          "FlightAware ADS-B(OSR / LKMT)",
          "FlightAware ADS-B",
          "FlightAware ADS-B(LKBO)",
          "FlightAware ADS-B(LZNZ)",
          "FlightAware ADS-B(LKHK)",
          "FlightAware ADS-B(PRG / LKPR)",
          "FlightAware ADS-B(KTW / EPKT)",
          "FlightAware ADS-B(EPPT)",
          "FlightAware ADS-B(LKHN)",
          "FlightAware ADS-B(LKHN)",
          "FlightAware ADS-B(EPLK)",
          "FlightAware ADS-B(EPML)",
          "FlightAware ADS-B(EPRG)",
          "FlightAware ADS-B(EPKW)",
          "FlightAware ADS-B(OSR / LKMT)",
          "FlightAware ADS-B(EPTM)",
          "FlightAware ADS-B(EPKP)",
          "FlightAware ADS-B(EPKP)",
          "FlightAware ADS-B(KRK / EPKK)",
          "FlightAware ADS-B(LKHN)",
          "FlightAware ADS-B(LKHN)",
          "FlightAware ADS-B(KRK / EPKK)",
          "FlightAware ADS-B(KRK / EPKK)",
          "FlightAware ADS-B(KRK / EPKK)",
          "FlightAware ADS-B(KRK / EPKK)",
          "FlightAware ADS-B(KRK / EPKK)",
          "FlightAware ADS-B(EPNL)",
          "FlightAware ADS-B(EPKA)",
          "FlightAware ADS-B(KRK / EPKK)",
          "FlightAware ADS-B(EPML)",
          "FlightAware ADS-B(KRK / EPKK)",
          "FlightAware ADS-B(KRK / EPKK)",
          "FlightAware ADS-B(KRK / EPKK)",
          "FlightAware ADS-B(KRK / EPKK)",
          "FlightAware ADS-B(KRK / EPKK)",
          "Surface and Near-Surface",
          "FlightAware ADS-B(KRK / EPKK)",
          "FlightAware ADS-B(KTW / EPKT)",
          "FlightAware ADS-B(KRK / EPKK)",
          "FlightAware ADS-B(KRK / EPKK)",
          "FlightAware ADS-B(KRK / EPKK)",
          "FlightAware ADS-B(KRK / EPKK)",
          "FlightAware ADS-B(KRK / EPKK)"
        ]
      }
    }
  ]
}