{
  "type": "FeatureCollection",
  "features": [
    {
      "type": "Feature",
      "geometry": {
        "type": "LineString",
        "coordinates": [
          [
            18.4542,
            54.3815
          ],
          [
            18.4372,
            54.387
          ],
          [
            18.4187,
            54.3917
          ],
          [
            18.4002,
            54.3955
          ],
          [
            18.3782,
            54.3999
          ],
          [
            18.3555,
            54.405
          ],
          [
            18.3265,
            54.4063
          ],
          [
            18.2743,
            54.3958
          ],
          [
            18.2138,
            54.382
          ],
          [
            18.1492,
            54.3671
          ],
          [
            18.0803,
            54.3509
          ],
          [
            18.0093,
            54.3345
          ],
          [
            17.9332,
            54.3167
          ],
          [
            17.8527,
            54.2977
          ],
          [
            17.7755,
            54.2795
          ],
          [
            17.6981,
            54.2611
          ],
          [
            17.6154,
            54.2415
          ],
          [
            17.5345,
            54.2222
          ],
          [
            17.4525,
            54.2026
          ],
          [
            17.3703,
            54.1829
          ],
          [
            17.2826,
            54.1617
          ],
          [
            17.2048,
            54.1429
          ],
          [
            17.121,
            54.1224
          ],
          [
            17.0522,
            54.1052
          ],
          [
            16.9801,
            54.0782
          ],
          [
            16.9097,
            54.0474
          ],
          [
            16.8402,
            54.0179
          ],
          [
            16.7726,
            53.9896
          ],
          [
            16.7024,
            53.9598
          ],
          [
            16.6496,
            53.9374
          ],
          [
            16.5738,
            53.9055
          ],
          [
            16.4997,
            53.8738
          ],
          [
            16.427,
            53.8428
          ],
          [
            16.3563,
            53.8126
          ],
          [
            16.2815,
            53.7806
          ],
          [
            16.1795,
            53.7366
          ],
          [
            16.1096,
            53.7065
          ],
          [
            16.0639,
            53.6867
          ],
          [
            15.9632,
            53.6427
          ],
          [
            15.9052,
            53.6174
          ],
          [
            15.8298,
            53.5844
          ],
          [
            15.7537,
            53.5515
          ],
          [
            15.6777,
            53.5186
          ],
          [
            15.5992,
            53.4849
          ],
          [
            15.5246,
            53.453
          ],
          [
            15.4705,
            53.4299
          ],
          [
            15.3923,
            53.3947
          ],
          [
            15.317,
            53.3607
          ],
          [
            15.2417,
            53.3271
          ],
          [
            15.1675,
            53.2936
          ],
          [
            15.0966,
            53.2615
          ],
          [
            15.0222,
            53.2278
          ],
          [
            14.9491,
            53.1945
          ],
          [
            14.9097,
            53.1766
          ],
          [
            14.8187,
            53.1351
          ],
          [
            14.7454,
            53.1014
          ],
          [
            14.6587,
            53.0616
          ],
          [
            14.6158,
            53.0418
          ],
          [
            14.526,
            53.0004
          ],
          [
            14.4527,
            52.9664
          ],
          [
            14.3822,
            52.9336
          ],
          [
            14.3121,
            52.901
          ],
          [
            14.2393,
            52.867
          ],
          [
            14.1686,
            52.8339
          ],
          [
            14.0972,
            52.8002
          ],
          [
            14.0263,
            52.7669
          ],
          [
            13.9539,
            52.7326
          ],
          [
            13.8497,
            52.6832
          ],
          [
            13.778,
            52.6491
          ],
          [
            13.7082,
            52.6158
          ],
          [
            13.6263,
            52.5766
          ],
          [
            13.5593,
            52.5444
          ],
          [
            13.4904,
            52.5113
          ],
          [
            13.4194,
            52.4769
          ],
          [
            13.3494,
            52.443
          ],
          [
            13.3026,
            52.4204
          ],
          [
            13.2388,
            52.3895
          ],
          [
            13.1856,
            52.3635
          ],
          [
            13.1474,
            52.3448
          ],
          [
            13.1139,
            52.3284
          ],
          [
            13.0451,
            52.2947
          ],
          [
            12.9764,
            52.2609
          ],
          [
            12.9078,
            52.2271
          ],
          [
            12.8392,
            52.1933
          ],
          [
            12.7689,
            52.1585
          ],
          [
            12.702,
            52.1252
          ],
          [
            12.6344,
            52.0916
          ],
          [
            12.5866,
            52.0677
          ],
          [
            12.5293,
            52.039
          ],
          [
            12.4601,
            52.0044
          ],
          [
            12.3912,
            51.9697
          ],
          [
            12.3246,
            51.9362
          ],
          [
            12.2575,
            51.9023
          ],
          [
            12.1898,
            51.8679
          ],
          [
            12.1223,
            51.8336
          ],
          [
            12.0234,
            51.7832
          ],
          [
            11.957,
            51.7492
          ],
          [
            11.9195,
            51.7292
          ],
          [
            11.8584,
            51.696
          ],
          [
            11.7989,
            51.6642
          ],
          [
            11.739,
            51.6321
          ],
          [
            11.6744,
            51.5971
          ],
          [
            11.6076,
            51.5608
          ],
          [
            11.5412,
            51.5249
          ],
          [
            11.4746,
            51.4884
          ],
          [
            11.4086,
            51.4525
          ],
          [
            11.3677,
            51.4301
          ],
          [
            11.2728,
            51.378
          ],
          [
            11.2061,
            51.3413
          ],
          [
            11.1436,
            51.3069
          ],
          [
            11.084,
            51.2738
          ],
          [
            11.0188,
            51.2376
          ],
          [
            10.9546,
            51.202
          ],
          [
            10.8911,
            51.1664
          ],
          [
            10.844,
            51.1402
          ],
          [
            10.7797,
            51.1041
          ],
          [
            10.7143,
            51.0673
          ],
          [
            10.6489,
            51.0307
          ],
          [
            10.5847,
            50.9944
          ],
          [
            10.5199,
            50.9579
          ],
          [
            10.4563,
            50.9218
          ],
          [
            10.3934,
            50.886
          ],
          [
            10.3289,
            50.8493
          ],
          [
            10.2669,
            50.8139
          ],
          [
            10.2035,
            50.7775
          ],
          [
            10.1603,
            50.7538
          ],
          [
            10.0957,
            50.7217
          ],
          [
            10.0319,
            50.6908
          ],
          [
            9.9708,
            50.6607
          ],
          [
            9.9124,
            50.632
          ],
          [
            9.8492,
            50.6009
          ],
          [
            9.79,
            50.5717
          ],
          [
            9.7292,
            50.5416
          ],
          [
            9.6694,
            50.5121
          ],
          [
            9.6125,
            50.4841
          ],
          [
            9.5586,
            50.4574
          ],
          [
            9.529,
            50.4425
          ],
          [
            9.4763,
            50.416
          ],
          [
            9.4214,
            50.3886
          ],
          [
            9.3694,
            50.3626
          ],
          [
            9.3185,
            50.337
          ],
          [
            9.2671,
            50.3112
          ],
          [
            9.2143,
            50.2846
          ],
          [
            9.1648,
            50.2595
          ],
          [
            9.1187,
            50.2363
          ],
          [
            9.0737,
            50.2137
          ],
          [
            9.0313,
            50.1921
          ],
          [
            8.9867,
            50.1694
          ],
          [
            8.9495,
            50.1504
          ],
          [
            8.9187,
            50.1344
          ],
          [
            8.8884,
            50.1183
          ],
          [
            8.8696,
            50.1091
          ],
          [
            8.8492,
            50.1025
          ],
          [
            8.8125,
            50.0937
          ],
          [
            8.7744,
            50.0847
          ],
          [
            8.738,
            50.0761
          ],
          [
            8.7038,
            50.068
          ],
          [
            8.6722,
            50.0605
          ],
          [
            8.6468,
            50.0545
          ],
          [
            8.632,
            50.0509
          ],
          [
            8.6165,
            50.0472
          ],
          [
            8.602,
            50.0437
          ],
          [
            8.5875,
            50.0403
          ],
          [
            8.574,
            50.0371
          ]
        ]
      },
      "properties": {
        "time_europe_berlin": [
          "08.12.2025 11:37:35",
          "08.12.2025 11:37:51",
          "08.12.2025 11:38:07",
          "08.12.2025 11:38:23",
          "08.12.2025 11:38:40",
          "08.12.2025 11:38:56",
          "08.12.2025 11:39:13",
          "08.12.2025 11:39:43",
          "08.12.2025 11:40:13",
          "08.12.2025 11:40:43",
          "08.12.2025 11:41:13",
          "08.12.2025 11:41:43",
          "08.12.2025 11:42:13",
          "08.12.2025 11:42:43",
          "08.12.2025 11:43:13",
          "08.12.2025 11:43:43",
          "08.12.2025 11:44:14",
          "08.12.2025 11:44:44",
          "08.12.2025 11:45:14",
          "08.12.2025 11:45:44",
          "08.12.2025 11:46:15",
          "08.12.2025 11:46:45",
          "08.12.2025 11:47:15",
          "08.12.2025 11:47:41",
          "08.12.2025 11:48:11",
          "08.12.2025 11:48:41",
          "08.12.2025 11:49:11",
          "08.12.2025 11:49:41",
          "08.12.2025 11:50:11",
          "08.12.2025 11:50:36",
          "08.12.2025 11:51:06",
          "08.12.2025 11:51:36",
          "08.12.2025 11:52:06",
          "08.12.2025 11:52:36",
          "08.12.2025 11:53:06",
          "08.12.2025 11:53:48",
          "08.12.2025 11:54:18",
          "08.12.2025 11:54:36",
          "08.12.2025 11:55:16",
          "08.12.2025 11:55:39",
          "08.12.2025 11:56:09",
          "08.12.2025 11:56:39",
          "08.12.2025 11:57:09",
          "08.12.2025 11:57:39",
          "08.12.2025 11:58:09",
          "08.12.2025 11:58:31",
          "08.12.2025 11:59:01",
          "08.12.2025 11:59:31",
          "08.12.2025 12:00:01",
          "08.12.2025 12:00:31",
          "08.12.2025 12:01:01",
          "08.12.2025 12:01:31",
          "08.12.2025 12:02:01",
          "08.12.2025 12:02:18",
          "08.12.2025 12:02:55",
          "08.12.2025 12:03:25",
          "08.12.2025 12:04:02",
          "08.12.2025 12:04:19",
          "08.12.2025 12:04:58",
          "08.12.2025 12:05:28",
          "08.12.2025 12:05:58",
          "08.12.2025 12:06:28",
          "08.12.2025 12:06:58",
          "08.12.2025 12:07:28",
          "08.12.2025 12:07:58",
          "08.12.2025 12:08:28",
          "08.12.2025 12:08:58",
          "08.12.2025 12:09:43",
          "08.12.2025 12:10:13",
          "08.12.2025 12:10:43",
          "08.12.2025 12:11:18",
          "08.12.2025 12:11:47",
          "08.12.2025 12:12:17",
          "08.12.2025 12:12:47",
          "08.12.2025 12:13:17",
          "08.12.2025 12:13:38",
          "08.12.2025 12:14:05",
          "08.12.2025 12:14:28",
          "08.12.2025 12:14:44",
          "08.12.2025 12:15:00",
          "08.12.2025 12:15:30",
          "08.12.2025 12:16:00",
          "08.12.2025 12:16:30",
          "08.12.2025 12:17:00",
          "08.12.2025 12:17:30",
          "08.12.2025 12:18:00",
          "08.12.2025 12:18:30",
          "08.12.2025 12:18:51",
          "08.12.2025 12:19:16",
          "08.12.2025 12:19:46",
          "08.12.2025 12:20:16",
          "08.12.2025 12:20:46",
          "08.12.2025 12:21:16",
          "08.12.2025 12:21:46",
          "08.12.2025 12:22:16",
          "08.12.2025 12:23:01",
          "08.12.2025 12:23:31",
          "08.12.2025 12:23:50",
          "08.12.2025 12:24:20",
          "08.12.2025 12:24:50",
          "08.12.2025 12:25:20",
          "08.12.2025 12:25:50",
          "08.12.2025 12:26:20",
          "08.12.2025 12:26:50",
          "08.12.2025 12:27:20",
          "08.12.2025 12:27:50",
          "08.12.2025 12:28:08",
          "08.12.2025 12:28:53",
          "08.12.2025 12:29:23",
          "08.12.2025 12:29:53",
          "08.12.2025 12:30:23",
          "08.12.2025 12:30:53",
          "08.12.2025 12:31:23",
          "08.12.2025 12:31:53",
          "08.12.2025 12:32:15",
          "08.12.2025 12:32:45",
          "08.12.2025 12:33:15",
          "08.12.2025 12:33:45",
          "08.12.2025 12:34:15",
          "08.12.2025 12:34:45",
          "08.12.2025 12:35:15",
          "08.12.2025 12:35:45",
          "08.12.2025 12:36:15",
          "08.12.2025 12:36:45",
          "08.12.2025 12:37:15",
          "08.12.2025 12:37:37",
          "08.12.2025 12:38:07",
          "08.12.2025 12:38:37",
          "08.12.2025 12:39:07",
          "08.12.2025 12:39:37",
          "08.12.2025 12:40:07",
          "08.12.2025 12:40:37",
          "08.12.2025 12:41:07",
          "08.12.2025 12:41:37",
          "08.12.2025 12:42:06",
          "08.12.2025 12:42:36",
          "08.12.2025 12:42:52",
          "08.12.2025 12:43:22",
          "08.12.2025 12:43:52",
          "08.12.2025 12:44:22",
          "08.12.2025 12:44:52",
          "08.12.2025 12:45:22",
          "08.12.2025 12:45:52",
          "08.12.2025 12:46:22",
          "08.12.2025 12:46:52",
          "08.12.2025 12:47:22",
          "08.12.2025 12:47:52",
          "08.12.2025 12:48:22",
          "08.12.2025 12:48:52",
          "08.12.2025 12:49:22",
          "08.12.2025 12:49:52",
          "08.12.2025 12:50:09",
          "08.12.2025 12:50:26",
          "08.12.2025 12:50:56",
          "08.12.2025 12:51:26",
          "08.12.2025 12:51:56",
          "08.12.2025 12:52:26",
          "08.12.2025 12:52:56",
          "08.12.2025 12:53:19",
          "08.12.2025 12:53:35",
          "08.12.2025 12:53:51",
          "08.12.2025 12:54:07",
          "08.12.2025 12:54:23",
          "08.12.2025 12:54:39"
        ],
        "course_deg_clockwise_from_north": [
          298,
          298,
          291,
          289,
          290,
          291,
          262,
          248,
          249,
          248,
          248,
          248,
          248,
          248,
          248,
          248,
          248,
          248,
          248,
          248,
          248,
          248,
          248,
          244,
          234,
          233,
          235,
          235,
          234,
          235,
          234,
          234,
          234,
          234,
          234,
          234,
          234,
          235,
          234,
          234,
          234,
          234,
          234,
          234,
          235,
          235,
          233,
          233,
          233,
          233,
          233,
          233,
          233,
          233,
          233,
          233,
          233,
          233,
          233,
          232,
          232,
          232,
          232,
          233,
          232,
          232,
          232,
          232,
          232,
          232,
          232,
          232,
          232,
          232,
          232,
          232,
          232,
          232,
          231,
          232,
          231,
          231,
          231,
          231,
          231,
          231,
          231,
          231,
          231,
          231,
          232,
          231,
          231,
          231,
          231,
          231,
          230,
          230,
          229,
          229,
          229,
          229,
          229,
          229,
          229,
          229,
          229,
          229,
          229,
          229,
          228,
          229,
          228,
          228,
          229,
          228,
          228,
          228,
          228,
          228,
          228,
          228,
          228,
          228,
          228,
          231,
          233,
          232,
          232,
          232,
          232,
          232,
          232,
          232,
          233,
          232,
          232,
          232,
          232,
          232,
          232,
          232,
          232,
          232,
          232,
          232,
          232,
          232,
          232,
          231,
          230,
          239,
          247,
          250,
          250,
          250,
          249,
          250,
          250,
          250,
          250,
          250,
          250,
          250
        ],
        "speed_kts": [
          157,
          164,
          154,
          159,
          182,
          205,
          221,
          252,
          278,
          307,
          320,
          335,
          351,
          362,
          359,
          353,
          362,
          371,
          377,
          379,
          379,
          374,
          371,
          369,
          373,
          367,
          357,
          359,
          359,
          367,
          382,
          386,
          386,
          385,
          384,
          386,
          391,
          392,
          398,
          401,
          404,
          406,
          408,
          409,
          410,
          410,
          407,
          403,
          400,
          399,
          398,
          398,
          397,
          396,
          393,
          392,
          392,
          393,
          393,
          394,
          394,
          394,
          394,
          393,
          393,
          393,
          392,
          393,
          393,
          393,
          392,
          393,
          392,
          392,
          391,
          392,
          390,
          390,
          391,
          390,
          391,
          390,
          390,
          390,
          390,
          391,
          391,
          391,
          392,
          392,
          391,
          391,
          390,
          392,
          388,
          377,
          369,
          363,
          356,
          356,
          376,
          391,
          395,
          396,
          397,
          397,
          396,
          380,
          374,
          378,
          383,
          386,
          390,
          392,
          393,
          396,
          396,
          395,
          395,
          395,
          392,
          390,
          387,
          382,
          376,
          370,
          367,
          364,
          356,
          353,
          348,
          349,
          348,
          343,
          332,
          323,
          320,
          312,
          305,
          303,
          303,
          306,
          308,
          276,
          260,
          259,
          260,
          242,
          206,
          183,
          186,
          186,
          185,
          185,
          184,
          175,
          162,
          149,
          151,
          151,
          142,
          132,
          132,
          120
        ],
        "speed_mph": [
          181.0,
          189.0,
          177.0,
          183.0,
          209.0,
          236.0,
          254.0,
          290.0,
          320.0,
          353.0,
          368.0,
          386.0,
          404.0,
          417.0,
          413.0,
          406.0,
          417.0,
          427.0,
          434.0,
          436.0,
          436.0,
          430.0,
          427.0,
          425.0,
          429.0,
          422.0,
          411.0,
          413.0,
          413.0,
          422.0,
          440.0,
          444.0,
          444.0,
          443.0,
          442.0,
          444.0,
          450.0,
          451.0,
          458.0,
          461.0,
          465.0,
          467.0,
          470.0,
          471.0,
          472.0,
          472.0,
          468.0,
          464.0,
          460.0,
          459.0,
          458.0,
          458.0,
          457.0,
          456.0,
          452.0,
          451.0,
          451.0,
          452.0,
          452.0,
          453.0,
          453.0,
          453.0,
          453.0,
          452.0,
          452.0,
          452.0,
          451.0,
          452.0,
          452.0,
          452.0,
          451.0,
          452.0,
          451.0,
          451.0,
          450.0,
          451.0,
          449.0,
          449.0,
          450.0,
          449.0,
          450.0,
          449.0,
          449.0,
          449.0,
          449.0,
          450.0,
          450.0,
          450.0,
          451.0,
          451.0,
          450.0,
          450.0,
          449.0,
          451.0,
          447.0,
          434.0,
          425.0,
          418.0,
          410.0,
          410.0,
          433.0,
          450.0,
          455.0,
          456.0,
          457.0,
          457.0,
          456.0,
          437.0,
          430.0,
          435.0,
          441.0,
          444.0,
          449.0,
          451.0,
          452.0,
          456.0,
          456.0,
          455.0,
          455.0,
          455.0,
          451.0,
          449.0,
          445.0,
          440.0,
          433.0,
          426.0,
          422.0,
          419.0,
          410.0,
          406.0,
          400.0,
          402.0,
          400.0,
          395.0,
          382.0,
          372.0,
          368.0,
          359.0,
          351.0,
          349.0,
          349.0,
          352.0,
          354.0,
          318.0,
          299.0,
          298.0,
          299.0,
          278.0,
          237.0,
          211.0,
          214.0,
          214.0,
          213.0,
          213.0,
          212.0,
          201.0,
          186.0,
          171.0,
          174.0,
          174.0,
          163.0,
          152.0,
          152.0,
          138.0
        ],
        "altitude_ft": [
          1350,
          2200,
          3250,
          4150,
          4825,
          5350,
          6100,
          7350,
          8675,
          9925,
          11425,
          13225,
          14975,
          16925,
          19100,
          21275,
          22850,
          24125,
          25425,
          26625,
          27950,
          29100,
          30400,
          31475,
          32675,
          33925,
          35175,
          35950,
          36675,
          36975,
          37000,
          37475,
          38025,
          38550,
          39100,
          39700,
          39950,
          40075,
          40450,
          40625,
          40850,
          41125,
          41350,
          41600,
          41875,
          42025,
          42425,
          42825,
          43000,
          43000,
          43000,
          43000,
          43000,
          43000,
          43000,
          43000,
          43000,
          43000,
          43000,
          43000,
          43000,
          43000,
          43000,
          43000,
          43000,
          43000,
          43000,
          43000,
          43000,
          43000,
          43000,
          43000,
          43000,
          43000,
          43000,
          43000,
          43000,
          43000,
          43000,
          43000,
          43000,
          43000,
          43000,
          43000,
          43000,
          43000,
          43000,
          43000,
          43000,
          43000,
          43000,
          42975,
          42325,
          41575,
          40875,
          39775,
          39025,
          38600,
          37850,
          37125,
          36450,
          36025,
          36000,
          36000,
          36000,
          36000,
          36000,
          35775,
          34775,
          33825,
          32800,
          31775,
          30800,
          29825,
          29075,
          28100,
          27075,
          26075,
          25075,
          24075,
          23075,
          22100,
          21050,
          20050,
          19025,
          18275,
          17300,
          16325,
          15475,
          14650,
          13750,
          12750,
          11725,
          10725,
          10000,
          9250,
          8825,
          8075,
          7300,
          7000,
          7000,
          7000,
          7000,
          6850,
          5850,
          4950,
          4175,
          3925,
          3925,
          3925,
          3925,
          3925,
          3900,
          3425,
          2900,
          2400,
          1925,
          1525,
          1200,
          975,
          750,
          575,
          400,
          300
        ],
        "vertical_rate_fpm": [
          0.0,
          3563.0,
          3656.0,
          2864.0,
          2182.0,
          2318.0,
          2553.0,
          2575.0,
          2575.0,
          2750.0,
          3300.0,
          3550.0,
          3700.0,
          4125.0,
          4350.0,
          3689.0,
          2803.0,
          2575.0,
          2500.0,
          2484.0,
          2434.0,
          2450.0,
          2545.0,
          2438.0,
          2450.0,
          2500.0,
          2025.0,
          1500.0,
          1118.0,
          355.0,
          500.0,
          1025.0,
          1075.0,
          1075.0,
          958.0,
          708.0,
          469.0,
          517.0,
          524.0,
          453.0,
          500.0,
          500.0,
          475.0,
          525.0,
          490.0,
          635.0,
          800.0,
          575.0,
          175.0,
          0.0,
          0.0,
          0.0,
          0.0,
          0.0,
          0.0,
          0.0,
          0.0,
          0.0,
          0.0,
          0.0,
          0.0,
          0.0,
          0.0,
          0.0,
          0.0,
          0.0,
          0.0,
          0.0,
          0.0,
          0.0,
          0.0,
          0.0,
          0.0,
          0.0,
          0.0,
          0.0,
          0.0,
          0.0,
          0.0,
          0.0,
          0.0,
          0.0,
          0.0,
          0.0,
          0.0,
          0.0,
          0.0,
          0.0,
          0.0,
          0.0,
          -25.0,
          -675.0,
          -1400.0,
          -1450.0,
          -1440.0,
          -1480.0,
          -1439.0,
          -1439.0,
          -1475.0,
          -1400.0,
          -1100.0,
          -450.0,
          -25.0,
          0.0,
          0.0,
          0.0,
          -214.0,
          -980.0,
          -1950.0,
          -1975.0,
          -2050.0,
          -2000.0,
          -1950.0,
          -1990.0,
          -1990.0,
          -2000.0,
          -2025.0,
          -2000.0,
          -2000.0,
          -2000.0,
          -1975.0,
          -2025.0,
          -2050.0,
          -2025.0,
          -2048.0,
          -1990.0,
          -1950.0,
          -1825.0,
          -1675.0,
          -1725.0,
          -1900.0,
          -2025.0,
          -2025.0,
          -1754.0,
          -1500.0,
          -1533.0,
          -1533.0,
          -1525.0,
          -1075.0,
          -300.0,
          0.0,
          0.0,
          -150.0,
          -1150.0,
          -1900.0,
          -1675.0,
          -1025.0,
          -250.0,
          0.0,
          0.0,
          0.0,
          -44.0,
          -638.0,
          -1000.0,
          -1025.0,
          -975.0,
          -875.0,
          -821.0,
          -846.0,
          -844.0,
          -750.0,
          -656.0,
          -516.0,
          -375.0
        ]
      }
    }
  ]
}