{
  "type": "FeatureCollection",
  "features": [
    {
      "type": "Feature",
      "geometry": {
        "type": "LineString",
        "coordinates": [
          [
            32.4645,
            34.7244
          ],
          [
            32.4645,
            34.7244
          ],
          [
            32.4539,
            34.7276
          ],
          [
            32.4362,
            34.7307
          ],
          [
            32.4211,
            34.7302
          ],
          [
            32.401,
            34.728
          ],
          [
            32.3801,
            34.7252
          ],
          [
            32.345,
            34.7256
          ],
          [
            32.3072,
            34.7307
          ],
          [
            32.251,
            34.7378
          ],
          [
            32.2047,
            34.7428
          ],
          [
            32.1578,
            34.7483
          ],
          [
            32.1016,
            34.7545
          ],
          [
            32.0436,
            34.7608
          ],
          [
            31.9819,
            34.7677
          ],
          [
            31.9224,
            34.7741
          ],
          [
            31.8583,
            34.781
          ],
          [
            31.7974,
            34.7876
          ],
          [
            31.7353,
            34.7942
          ],
          [
            31.6727,
            34.8009
          ],
          [
            31.6112,
            34.8074
          ],
          [
            31.5509,
            34.8137
          ],
          [
            31.4758,
            34.8216
          ],
          [
            31.4151,
            34.828
          ],
          [
            31.3459,
            34.8352
          ],
          [
            31.2971,
            34.8402
          ],
          [
            31.2051,
            34.8383
          ],
          [
            31.1237,
            34.8338
          ],
          [
            31.0549,
            34.8311
          ],
          [
            30.9897,
            34.8281
          ],
          [
            30.9187,
            34.824
          ],
          [
            30.8545,
            34.8212
          ],
          [
            30.7946,
            34.828
          ],
          [
            30.723,
            34.8417
          ],
          [
            30.6841,
            34.8537
          ],
          [
            30.6148,
            34.8877
          ],
          [
            30.5497,
            34.9236
          ],
          [
            30.4923,
            34.9533
          ],
          [
            30.4314,
            34.9851
          ],
          [
            30.3729,
            35.0157
          ],
          [
            30.3165,
            35.0449
          ],
          [
            30.2551,
            35.0768
          ],
          [
            30.1941,
            35.1084
          ],
          [
            30.133,
            35.14
          ],
          [
            30.0742,
            35.1703
          ],
          [
            30.0124,
            35.2021
          ],
          [
            29.9523,
            35.233
          ],
          [
            29.8952,
            35.2622
          ],
          [
            29.8361,
            35.2924
          ],
          [
            29.7755,
            35.3233
          ],
          [
            29.7142,
            35.3547
          ],
          [
            29.6562,
            35.3841
          ],
          [
            29.5952,
            35.4152
          ],
          [
            29.5337,
            35.4464
          ],
          [
            29.4764,
            35.4755
          ],
          [
            29.418,
            35.505
          ],
          [
            29.3575,
            35.5355
          ],
          [
            29.2834,
            35.5729
          ],
          [
            29.2244,
            35.6026
          ],
          [
            29.166,
            35.6319
          ],
          [
            29.1071,
            35.6615
          ],
          [
            29.0457,
            35.6921
          ],
          [
            28.9867,
            35.7216
          ],
          [
            28.9279,
            35.7509
          ],
          [
            28.868,
            35.7807
          ],
          [
            28.8027,
            35.8133
          ],
          [
            28.7448,
            35.8419
          ],
          [
            28.6842,
            35.8719
          ],
          [
            28.6233,
            35.9021
          ],
          [
            28.5635,
            35.9314
          ],
          [
            28.5045,
            35.9606
          ],
          [
            28.4466,
            35.989
          ],
          [
            28.3872,
            36.0182
          ],
          [
            28.3254,
            36.0485
          ],
          [
            28.2646,
            36.0782
          ],
          [
            28.2048,
            36.1074
          ],
          [
            28.1447,
            36.1367
          ],
          [
            28.0859,
            36.1654
          ],
          [
            28.0258,
            36.1945
          ],
          [
            27.968,
            36.2226
          ],
          [
            27.9055,
            36.2527
          ],
          [
            27.8463,
            36.2813
          ],
          [
            27.7849,
            36.311
          ],
          [
            27.7245,
            36.34
          ],
          [
            27.6633,
            36.3695
          ],
          [
            27.604,
            36.3979
          ],
          [
            27.5418,
            36.4276
          ],
          [
            27.4807,
            36.4568
          ],
          [
            27.4195,
            36.486
          ],
          [
            27.3594,
            36.5146
          ],
          [
            27.2973,
            36.5442
          ],
          [
            27.2363,
            36.5731
          ],
          [
            27.175,
            36.6021
          ],
          [
            27.1135,
            36.6312
          ],
          [
            27.0537,
            36.6594
          ],
          [
            26.9907,
            36.6892
          ],
          [
            26.9302,
            36.7175
          ],
          [
            26.8674,
            36.7471
          ],
          [
            26.8056,
            36.7759
          ],
          [
            26.7439,
            36.8047
          ],
          [
            26.6878,
            36.8362
          ],
          [
            26.6299,
            36.885
          ],
          [
            26.5827,
            36.9311
          ],
          [
            26.5351,
            36.9759
          ],
          [
            26.4866,
            37.0205
          ],
          [
            26.4402,
            37.0644
          ],
          [
            26.3922,
            37.1094
          ],
          [
            26.3453,
            37.153
          ],
          [
            26.2977,
            37.1977
          ],
          [
            26.2501,
            37.2422
          ],
          [
            26.2017,
            37.2869
          ],
          [
            26.1535,
            37.3318
          ],
          [
            26.1053,
            37.3767
          ],
          [
            26.0562,
            37.4222
          ],
          [
            26.0059,
            37.4686
          ],
          [
            25.9585,
            37.5124
          ],
          [
            25.9092,
            37.558
          ],
          [
            25.8598,
            37.6042
          ],
          [
            25.8064,
            37.66
          ],
          [
            25.7612,
            37.7067
          ],
          [
            25.7133,
            37.7549
          ],
          [
            25.67,
            37.7994
          ],
          [
            25.6217,
            37.8489
          ],
          [
            25.5755,
            37.8958
          ],
          [
            25.5286,
            37.9435
          ],
          [
            25.483,
            37.9899
          ],
          [
            25.4365,
            38.0367
          ],
          [
            25.3842,
            38.085
          ],
          [
            25.3335,
            38.1308
          ],
          [
            25.2834,
            38.1769
          ],
          [
            25.2348,
            38.2212
          ],
          [
            25.1856,
            38.2659
          ],
          [
            25.1345,
            38.3125
          ],
          [
            25.0845,
            38.3582
          ],
          [
            25.0344,
            38.4031
          ],
          [
            24.9849,
            38.4478
          ],
          [
            24.935,
            38.493
          ],
          [
            24.8858,
            38.5372
          ],
          [
            24.8352,
            38.5827
          ],
          [
            24.7815,
            38.631
          ],
          [
            24.7316,
            38.6757
          ],
          [
            24.6824,
            38.7197
          ],
          [
            24.6306,
            38.766
          ],
          [
            24.5809,
            38.8103
          ],
          [
            24.5293,
            38.8563
          ],
          [
            24.4792,
            38.9008
          ],
          [
            24.429,
            38.9453
          ],
          [
            24.3788,
            38.9898
          ],
          [
            24.3289,
            39.0339
          ],
          [
            24.2786,
            39.0783
          ],
          [
            24.2281,
            39.1227
          ],
          [
            24.178,
            39.1668
          ],
          [
            24.1275,
            39.2111
          ],
          [
            24.0754,
            39.2567
          ],
          [
            24.0245,
            39.3013
          ],
          [
            23.9736,
            39.3458
          ],
          [
            23.9202,
            39.3922
          ],
          [
            23.8687,
            39.4371
          ],
          [
            23.816,
            39.4828
          ],
          [
            23.7636,
            39.5282
          ],
          [
            23.712,
            39.5728
          ],
          [
            23.6605,
            39.6174
          ],
          [
            23.6099,
            39.6611
          ],
          [
            23.5578,
            39.7058
          ],
          [
            23.504,
            39.752
          ],
          [
            23.4503,
            39.7982
          ],
          [
            23.3981,
            39.8428
          ],
          [
            23.3457,
            39.8875
          ],
          [
            23.2911,
            39.9342
          ],
          [
            23.2376,
            39.9796
          ],
          [
            23.1854,
            40.0239
          ],
          [
            23.1328,
            40.0685
          ],
          [
            23.079,
            40.1141
          ],
          [
            23.0222,
            40.1621
          ],
          [
            22.971,
            40.2053
          ],
          [
            22.9058,
            40.2602
          ],
          [
            22.8534,
            40.3042
          ],
          [
            22.7986,
            40.35
          ],
          [
            22.7443,
            40.3955
          ],
          [
            22.6909,
            40.44
          ],
          [
            22.6389,
            40.4833
          ],
          [
            22.5851,
            40.5282
          ],
          [
            22.529,
            40.5746
          ],
          [
            22.4699,
            40.6236
          ],
          [
            22.416,
            40.6683
          ],
          [
            22.3615,
            40.7132
          ],
          [
            22.3062,
            40.7588
          ],
          [
            22.2537,
            40.8019
          ],
          [
            22.1989,
            40.8469
          ],
          [
            22.1453,
            40.8907
          ],
          [
            22.0903,
            40.9357
          ],
          [
            22.059,
            40.9605
          ],
          [
            22.0139,
            40.9883
          ],
          [
            21.9484,
            41.0233
          ],
          [
            21.8798,
            41.0593
          ],
          [
            21.8198,
            41.0917
          ],
          [
            21.7539,
            41.127
          ],
          [
            21.6892,
            41.1615
          ],
          [
            21.6182,
            41.1996
          ],
          [
            21.5551,
            41.2333
          ],
          [
            21.4887,
            41.2686
          ],
          [
            21.4266,
            41.3017
          ],
          [
            21.3619,
            41.336
          ],
          [
            21.295,
            41.3713
          ],
          [
            21.2303,
            41.4057
          ],
          [
            21.1645,
            41.4404
          ],
          [
            21.0994,
            41.4747
          ],
          [
            21.0358,
            41.508
          ],
          [
            20.9686,
            41.5433
          ],
          [
            20.9029,
            41.5777
          ],
          [
            20.8379,
            41.6114
          ],
          [
            20.7756,
            41.6439
          ],
          [
            20.711,
            41.6775
          ],
          [
            20.6475,
            41.7104
          ],
          [
            20.5807,
            41.745
          ],
          [
            20.5367,
            41.7672
          ],
          [
            20.4528,
            41.8014
          ],
          [
            20.3756,
            41.8304
          ],
          [
            20.3059,
            41.8575
          ],
          [
            20.2347,
            41.8853
          ],
          [
            20.1634,
            41.9128
          ],
          [
            20.0914,
            41.9406
          ],
          [
            20.017,
            41.9693
          ],
          [
            19.9431,
            41.9978
          ],
          [
            19.867,
            42.0269
          ],
          [
            19.7956,
            42.0541
          ],
          [
            19.7182,
            42.0835
          ],
          [
            19.6398,
            42.1133
          ],
          [
            19.5647,
            42.1419
          ],
          [
            19.4853,
            42.1719
          ],
          [
            19.4093,
            42.2005
          ],
          [
            19.3498,
            42.2228
          ],
          [
            19.2914,
            42.2407
          ],
          [
            19.2126,
            42.2608
          ],
          [
            19.1236,
            42.2819
          ],
          [
            19.0376,
            42.303
          ],
          [
            18.9577,
            42.3223
          ],
          [
            18.8782,
            42.3412
          ],
          [
            18.7993,
            42.3601
          ],
          [
            18.7241,
            42.3779
          ],
          [
            18.6458,
            42.3964
          ],
          [
            18.5676,
            42.4149
          ],
          [
            18.4956,
            42.4318
          ],
          [
            18.4295,
            42.4473
          ],
          [
            18.3663,
            42.4621
          ],
          [
            18.2979,
            42.4779
          ],
          [
            18.2402,
            42.4914
          ],
          [
            18.2103,
            42.4983
          ],
          [
            18.155,
            42.511
          ],
          [
            18.0983,
            42.5241
          ],
          [
            18.0458,
            42.5363
          ],
          [
            18.0214,
            42.5419
          ],
          [
            17.9962,
            42.5477
          ],
          [
            17.9688,
            42.5566
          ],
          [
            17.9541,
            42.5742
          ],
          [
            17.9546,
            42.5932
          ],
          [
            17.9645,
            42.6146
          ],
          [
            17.9864,
            42.6445
          ],
          [
            18.0036,
            42.6556
          ],
          [
            18.0221,
            42.6561
          ],
          [
            18.0404,
            42.6515
          ],
          [
            18.0542,
            42.6463
          ],
          [
            18.0758,
            42.6373
          ],
          [
            18.0993,
            42.6281
          ],
          [
            18.1228,
            42.6189
          ],
          [
            18.1449,
            42.6101
          ],
          [
            18.1651,
            42.6021
          ],
          [
            18.183,
            42.5951
          ],
          [
            18.1913,
            42.5919
          ],
          [
            18.2024,
            42.5874
          ],
          [
            18.2133,
            42.5831
          ],
          [
            18.2219,
            42.5797
          ],
          [
            18.2309,
            42.5761
          ],
          [
            18.2397,
            42.5726
          ],
          [
            18.2519,
            42.5679
          ]
        ]
      },
      "properties": {
        "time_europe_berlin": [
          "04.12.2025 09:06:12",
          "04.12.2025 09:06:12",
          "04.12.2025 09:06:24",
          "04.12.2025 09:06:41",
          "04.12.2025 09:06:57",
          "04.12.2025 09:07:13",
          "04.12.2025 09:07:30",
          "04.12.2025 09:07:59",
          "04.12.2025 09:08:29",
          "04.12.2025 09:09:14",
          "04.12.2025 09:09:44",
          "04.12.2025 09:10:14",
          "04.12.2025 09:10:44",
          "04.12.2025 09:11:14",
          "04.12.2025 09:11:44",
          "04.12.2025 09:12:14",
          "04.12.2025 09:12:44",
          "04.12.2025 09:13:14",
          "04.12.2025 09:13:44",
          "04.12.2025 09:14:16",
          "04.12.2025 09:14:46",
          "04.12.2025 09:15:16",
          "04.12.2025 09:15:50",
          "04.12.2025 09:16:20",
          "04.12.2025 09:16:51",
          "04.12.2025 09:17:13",
          "04.12.2025 09:17:55",
          "04.12.2025 09:18:30",
          "04.12.2025 09:19:00",
          "04.12.2025 09:19:30",
          "04.12.2025 09:20:01",
          "04.12.2025 09:20:31",
          "04.12.2025 09:20:58",
          "04.12.2025 09:21:31",
          "04.12.2025 09:21:51",
          "04.12.2025 09:22:26",
          "04.12.2025 09:23:00",
          "04.12.2025 09:23:31",
          "04.12.2025 09:24:02",
          "04.12.2025 09:24:32",
          "04.12.2025 09:25:02",
          "04.12.2025 09:25:32",
          "04.12.2025 09:26:03",
          "04.12.2025 09:26:33",
          "04.12.2025 09:27:03",
          "04.12.2025 09:27:33",
          "04.12.2025 09:28:03",
          "04.12.2025 09:28:33",
          "04.12.2025 09:29:03",
          "04.12.2025 09:29:34",
          "04.12.2025 09:30:04",
          "04.12.2025 09:30:34",
          "04.12.2025 09:31:05",
          "04.12.2025 09:31:35",
          "04.12.2025 09:32:05",
          "04.12.2025 09:32:35",
          "04.12.2025 09:33:05",
          "04.12.2025 09:33:42",
          "04.12.2025 09:34:12",
          "04.12.2025 09:34:42",
          "04.12.2025 09:35:12",
          "04.12.2025 09:35:43",
          "04.12.2025 09:36:13",
          "04.12.2025 09:36:43",
          "04.12.2025 09:37:13",
          "04.12.2025 09:37:47",
          "04.12.2025 09:38:17",
          "04.12.2025 09:38:48",
          "04.12.2025 09:39:18",
          "04.12.2025 09:39:48",
          "04.12.2025 09:40:18",
          "04.12.2025 09:40:48",
          "04.12.2025 09:41:18",
          "04.12.2025 09:41:49",
          "04.12.2025 09:42:19",
          "04.12.2025 09:42:49",
          "04.12.2025 09:43:20",
          "04.12.2025 09:43:50",
          "04.12.2025 09:44:20",
          "04.12.2025 09:44:50",
          "04.12.2025 09:45:20",
          "04.12.2025 09:45:51",
          "04.12.2025 09:46:21",
          "04.12.2025 09:46:51",
          "04.12.2025 09:47:21",
          "04.12.2025 09:47:51",
          "04.12.2025 09:48:21",
          "04.12.2025 09:48:52",
          "04.12.2025 09:49:22",
          "04.12.2025 09:49:52",
          "04.12.2025 09:50:22",
          "04.12.2025 09:50:52",
          "04.12.2025 09:51:22",
          "04.12.2025 09:51:53",
          "04.12.2025 09:52:23",
          "04.12.2025 09:52:53",
          "04.12.2025 09:53:23",
          "04.12.2025 09:53:53",
          "04.12.2025 09:54:23",
          "04.12.2025 09:54:54",
          "04.12.2025 09:55:22",
          "04.12.2025 09:55:57",
          "04.12.2025 09:56:27",
          "04.12.2025 09:56:57",
          "04.12.2025 09:57:27",
          "04.12.2025 09:57:57",
          "04.12.2025 09:58:27",
          "04.12.2025 09:58:57",
          "04.12.2025 09:59:27",
          "04.12.2025 09:59:57",
          "04.12.2025 10:00:27",
          "04.12.2025 10:00:57",
          "04.12.2025 10:01:27",
          "04.12.2025 10:01:57",
          "04.12.2025 10:02:27",
          "04.12.2025 10:02:58",
          "04.12.2025 10:03:28",
          "04.12.2025 10:03:58",
          "04.12.2025 10:04:33",
          "04.12.2025 10:05:03",
          "04.12.2025 10:05:33",
          "04.12.2025 10:06:03",
          "04.12.2025 10:06:34",
          "04.12.2025 10:07:04",
          "04.12.2025 10:07:34",
          "04.12.2025 10:08:04",
          "04.12.2025 10:08:35",
          "04.12.2025 10:09:07",
          "04.12.2025 10:09:37",
          "04.12.2025 10:10:07",
          "04.12.2025 10:10:37",
          "04.12.2025 10:11:07",
          "04.12.2025 10:11:38",
          "04.12.2025 10:12:08",
          "04.12.2025 10:12:38",
          "04.12.2025 10:13:08",
          "04.12.2025 10:13:39",
          "04.12.2025 10:14:09",
          "04.12.2025 10:14:39",
          "04.12.2025 10:15:10",
          "04.12.2025 10:15:41",
          "04.12.2025 10:16:11",
          "04.12.2025 10:16:41",
          "04.12.2025 10:17:11",
          "04.12.2025 10:17:42",
          "04.12.2025 10:18:12",
          "04.12.2025 10:18:42",
          "04.12.2025 10:19:13",
          "04.12.2025 10:19:43",
          "04.12.2025 10:20:13",
          "04.12.2025 10:20:43",
          "04.12.2025 10:21:13",
          "04.12.2025 10:21:43",
          "04.12.2025 10:22:13",
          "04.12.2025 10:22:43",
          "04.12.2025 10:23:13",
          "04.12.2025 10:23:45",
          "04.12.2025 10:24:16",
          "04.12.2025 10:24:46",
          "04.12.2025 10:25:16",
          "04.12.2025 10:25:46",
          "04.12.2025 10:26:16",
          "04.12.2025 10:26:46",
          "04.12.2025 10:27:16",
          "04.12.2025 10:27:46",
          "04.12.2025 10:28:16",
          "04.12.2025 10:28:46",
          "04.12.2025 10:29:16",
          "04.12.2025 10:29:48",
          "04.12.2025 10:30:19",
          "04.12.2025 10:30:49",
          "04.12.2025 10:31:19",
          "04.12.2025 10:31:49",
          "04.12.2025 10:32:20",
          "04.12.2025 10:32:50",
          "04.12.2025 10:33:26",
          "04.12.2025 10:33:56",
          "04.12.2025 10:34:26",
          "04.12.2025 10:34:56",
          "04.12.2025 10:35:26",
          "04.12.2025 10:35:56",
          "04.12.2025 10:36:26",
          "04.12.2025 10:36:56",
          "04.12.2025 10:37:29",
          "04.12.2025 10:37:59",
          "04.12.2025 10:38:29",
          "04.12.2025 10:38:59",
          "04.12.2025 10:39:29",
          "04.12.2025 10:39:59",
          "04.12.2025 10:40:29",
          "04.12.2025 10:40:59",
          "04.12.2025 10:41:16",
          "04.12.2025 10:41:39",
          "04.12.2025 10:42:09",
          "04.12.2025 10:42:40",
          "04.12.2025 10:43:10",
          "04.12.2025 10:43:40",
          "04.12.2025 10:44:10",
          "04.12.2025 10:44:42",
          "04.12.2025 10:45:12",
          "04.12.2025 10:45:42",
          "04.12.2025 10:46:12",
          "04.12.2025 10:46:42",
          "04.12.2025 10:47:13",
          "04.12.2025 10:47:43",
          "04.12.2025 10:48:13",
          "04.12.2025 10:48:44",
          "04.12.2025 10:49:14",
          "04.12.2025 10:49:44",
          "04.12.2025 10:50:15",
          "04.12.2025 10:50:45",
          "04.12.2025 10:51:15",
          "04.12.2025 10:51:45",
          "04.12.2025 10:52:15",
          "04.12.2025 10:52:45",
          "04.12.2025 10:53:05",
          "04.12.2025 10:53:43",
          "04.12.2025 10:54:16",
          "04.12.2025 10:54:46",
          "04.12.2025 10:55:17",
          "04.12.2025 10:55:47",
          "04.12.2025 10:56:17",
          "04.12.2025 10:56:47",
          "04.12.2025 10:57:17",
          "04.12.2025 10:57:47",
          "04.12.2025 10:58:17",
          "04.12.2025 10:58:47",
          "04.12.2025 10:59:17",
          "04.12.2025 10:59:48",
          "04.12.2025 11:00:18",
          "04.12.2025 11:00:48",
          "04.12.2025 11:01:10",
          "04.12.2025 11:01:32",
          "04.12.2025 11:02:04",
          "04.12.2025 11:02:36",
          "04.12.2025 11:03:07",
          "04.12.2025 11:03:38",
          "04.12.2025 11:04:08",
          "04.12.2025 11:04:38",
          "04.12.2025 11:05:08",
          "04.12.2025 11:05:38",
          "04.12.2025 11:06:10",
          "04.12.2025 11:06:41",
          "04.12.2025 11:07:11",
          "04.12.2025 11:07:41",
          "04.12.2025 11:08:14",
          "04.12.2025 11:08:44",
          "04.12.2025 11:09:00",
          "04.12.2025 11:09:30",
          "04.12.2025 11:10:00",
          "04.12.2025 11:10:30",
          "04.12.2025 11:10:46",
          "04.12.2025 11:11:02",
          "04.12.2025 11:11:21",
          "04.12.2025 11:11:39",
          "04.12.2025 11:11:57",
          "04.12.2025 11:12:19",
          "04.12.2025 11:12:52",
          "04.12.2025 11:13:12",
          "04.12.2025 11:13:32",
          "04.12.2025 11:13:56",
          "04.12.2025 11:14:14",
          "04.12.2025 11:14:44",
          "04.12.2025 11:15:14",
          "04.12.2025 11:15:45",
          "04.12.2025 11:16:15",
          "04.12.2025 11:16:47",
          "04.12.2025 11:17:19",
          "04.12.2025 11:17:35",
          "04.12.2025 11:17:56",
          "04.12.2025 11:18:16",
          "04.12.2025 11:18:32",
          "04.12.2025 11:18:48",
          "04.12.2025 11:19:04",
          "04.12.2025 11:19:24"
        ],
        "course_deg_clockwise_from_north": [
          292,
          292,
          289,
          273,
          265,
          261,
          262,
          277,
          281,
          277,
          278,
          278,
          277,
          278,
          278,
          277,
          277,
          278,
          277,
          277,
          277,
          277,
          277,
          277,
          277,
          275,
          266,
          267,
          267,
          267,
          266,
          272,
          282,
          285,
          296,
          304,
          303,
          302,
          303,
          302,
          302,
          302,
          302,
          302,
          302,
          302,
          302,
          302,
          302,
          302,
          302,
          302,
          302,
          302,
          302,
          302,
          302,
          302,
          302,
          302,
          301,
          302,
          301,
          301,
          301,
          302,
          301,
          301,
          301,
          301,
          301,
          301,
          301,
          301,
          301,
          301,
          301,
          301,
          301,
          301,
          301,
          301,
          301,
          301,
          301,
          301,
          301,
          301,
          301,
          301,
          300,
          300,
          300,
          300,
          300,
          300,
          300,
          300,
          300,
          300,
          312,
          319,
          321,
          319,
          319,
          320,
          319,
          320,
          320,
          319,
          319,
          319,
          319,
          319,
          319,
          319,
          319,
          321,
          323,
          322,
          322,
          322,
          322,
          322,
          322,
          322,
          321,
          319,
          319,
          319,
          319,
          319,
          319,
          319,
          319,
          319,
          319,
          319,
          319,
          319,
          319,
          319,
          319,
          319,
          319,
          319,
          319,
          319,
          319,
          319,
          319,
          318,
          318,
          318,
          318,
          318,
          318,
          318,
          318,
          318,
          318,
          318,
          318,
          318,
          318,
          318,
          318,
          318,
          318,
          318,
          318,
          318,
          318,
          318,
          318,
          318,
          318,
          318,
          318,
          317,
          318,
          318,
          317,
          317,
          317,
          317,
          317,
          317,
          317,
          317,
          317,
          313,
          307,
          305,
          305,
          306,
          305,
          305,
          305,
          305,
          305,
          305,
          305,
          305,
          305,
          305,
          305,
          305,
          305,
          305,
          305,
          305,
          305,
          304,
          305,
          302,
          297,
          297,
          298,
          297,
          297,
          297,
          297,
          297,
          297,
          297,
          297,
          297,
          297,
          297,
          297,
          296,
          291,
          288,
          288,
          288,
          288,
          288,
          288,
          288,
          288,
          288,
          288,
          287,
          287,
          287,
          287,
          287,
          287,
          287,
          288,
          287,
          287,
          309,
          342,
          11,
          24,
          32,
          72,
          100,
          114,
          119,
          118,
          118,
          118,
          119,
          117,
          118,
          118,
          116,
          118,
          118,
          119,
          119,
          118
        ],
        "speed_kts": [
          158,
          158,
          173,
          191,
          198,
          205,
          217,
          222,
          228,
          243,
          280,
          313,
          341,
          360,
          369,
          373,
          373,
          370,
          363,
          358,
          362,
          369,
          381,
          387,
          393,
          396,
          405,
          408,
          404,
          394,
          391,
          392,
          396,
          397,
          402,
          403,
          400,
          401,
          406,
          410,
          413,
          418,
          420,
          422,
          422,
          418,
          415,
          413,
          410,
          412,
          413,
          413,
          412,
          409,
          407,
          408,
          408,
          409,
          409,
          407,
          407,
          407,
          407,
          407,
          407,
          406,
          405,
          407,
          408,
          409,
          407,
          407,
          406,
          405,
          405,
          405,
          404,
          403,
          404,
          405,
          406,
          408,
          409,
          410,
          409,
          410,
          410,
          411,
          411,
          411,
          411,
          411,
          411,
          411,
          411,
          410,
          411,
          412,
          411,
          410,
          419,
          424,
          424,
          424,
          423,
          424,
          423,
          423,
          423,
          423,
          424,
          424,
          427,
          427,
          428,
          428,
          428,
          430,
          431,
          430,
          431,
          431,
          430,
          429,
          431,
          431,
          430,
          430,
          429,
          429,
          429,
          429,
          430,
          428,
          428,
          427,
          425,
          426,
          427,
          428,
          428,
          427,
          427,
          428,
          427,
          427,
          427,
          428,
          427,
          428,
          427,
          426,
          428,
          429,
          429,
          429,
          429,
          430,
          432,
          433,
          435,
          434,
          433,
          434,
          433,
          433,
          433,
          435,
          436,
          436,
          437,
          438,
          438,
          438,
          439,
          438,
          438,
          437,
          439,
          439,
          438,
          438,
          437,
          439,
          440,
          438,
          439,
          437,
          437,
          437,
          437,
          433,
          427,
          426,
          428,
          429,
          431,
          432,
          430,
          429,
          431,
          430,
          431,
          429,
          431,
          429,
          428,
          430,
          430,
          426,
          423,
          420,
          420,
          421,
          422,
          420,
          417,
          419,
          416,
          425,
          433,
          441,
          448,
          452,
          454,
          455,
          456,
          463,
          467,
          468,
          464,
          458,
          451,
          450,
          454,
          452,
          448,
          445,
          440,
          433,
          426,
          398,
          375,
          361,
          348,
          332,
          324,
          319,
          309,
          301,
          278,
          264,
          252,
          253,
          250,
          239,
          224,
          205,
          163,
          138,
          132,
          128,
          137,
          143,
          137,
          124,
          106,
          98,
          93,
          99,
          97,
          99,
          104,
          108,
          111
        ],
        "speed_mph": [
          182.0,
          182.0,
          199.0,
          220.0,
          228.0,
          236.0,
          250.0,
          255.0,
          262.0,
          280.0,
          322.0,
          360.0,
          392.0,
          414.0,
          425.0,
          429.0,
          429.0,
          426.0,
          418.0,
          412.0,
          417.0,
          425.0,
          438.0,
          445.0,
          452.0,
          456.0,
          466.0,
          470.0,
          465.0,
          453.0,
          450.0,
          451.0,
          456.0,
          457.0,
          463.0,
          464.0,
          460.0,
          461.0,
          467.0,
          472.0,
          475.0,
          481.0,
          483.0,
          486.0,
          486.0,
          481.0,
          478.0,
          475.0,
          472.0,
          474.0,
          475.0,
          475.0,
          474.0,
          471.0,
          468.0,
          470.0,
          470.0,
          471.0,
          471.0,
          468.0,
          468.0,
          468.0,
          468.0,
          468.0,
          468.0,
          467.0,
          466.0,
          468.0,
          470.0,
          471.0,
          468.0,
          468.0,
          467.0,
          466.0,
          466.0,
          466.0,
          465.0,
          464.0,
          465.0,
          466.0,
          467.0,
          470.0,
          471.0,
          472.0,
          471.0,
          472.0,
          472.0,
          473.0,
          473.0,
          473.0,
          473.0,
          473.0,
          473.0,
          473.0,
          473.0,
          472.0,
          473.0,
          474.0,
          473.0,
          472.0,
          482.0,
          488.0,
          488.0,
          488.0,
          487.0,
          488.0,
          487.0,
          487.0,
          487.0,
          487.0,
          488.0,
          488.0,
          491.0,
          491.0,
          493.0,
          493.0,
          493.0,
          495.0,
          496.0,
          495.0,
          496.0,
          496.0,
          495.0,
          494.0,
          496.0,
          496.0,
          495.0,
          495.0,
          494.0,
          494.0,
          494.0,
          494.0,
          495.0,
          493.0,
          493.0,
          491.0,
          489.0,
          490.0,
          491.0,
          493.0,
          493.0,
          491.0,
          491.0,
          493.0,
          491.0,
          491.0,
          491.0,
          493.0,
          491.0,
          493.0,
          491.0,
          490.0,
          493.0,
          494.0,
          494.0,
          494.0,
          494.0,
          495.0,
          497.0,
          498.0,
          501.0,
          499.0,
          498.0,
          499.0,
          498.0,
          498.0,
          498.0,
          501.0,
          502.0,
          502.0,
          503.0,
          504.0,
          504.0,
          504.0,
          505.0,
          504.0,
          504.0,
          503.0,
          505.0,
          505.0,
          504.0,
          504.0,
          503.0,
          505.0,
          506.0,
          504.0,
          505.0,
          503.0,
          503.0,
          503.0,
          503.0,
          498.0,
          491.0,
          490.0,
          493.0,
          494.0,
          496.0,
          497.0,
          495.0,
          494.0,
          496.0,
          495.0,
          496.0,
          494.0,
          496.0,
          494.0,
          493.0,
          495.0,
          495.0,
          490.0,
          487.0,
          483.0,
          483.0,
          484.0,
          486.0,
          483.0,
          480.0,
          482.0,
          479.0,
          489.0,
          498.0,
          507.0,
          516.0,
          520.0,
          522.0,
          524.0,
          525.0,
          533.0,
          537.0,
          539.0,
          534.0,
          527.0,
          519.0,
          518.0,
          522.0,
          520.0,
          516.0,
          512.0,
          506.0,
          498.0,
          490.0,
          458.0,
          432.0,
          415.0,
          400.0,
          382.0,
          373.0,
          367.0,
          356.0,
          346.0,
          320.0,
          304.0,
          290.0,
          291.0,
          288.0,
          275.0,
          258.0,
          236.0,
          188.0,
          159.0,
          152.0,
          147.0,
          158.0,
          165.0,
          158.0,
          143.0,
          122.0,
          113.0,
          107.0,
          114.0,
          112.0,
          114.0,
          120.0,
          124.0,
          128.0
        ],
        "altitude_ft": [
          1250,
          1250,
          1775,
          2400,
          3050,
          3950,
          4800,
          6475,
          8325,
          11175,
          12850,
          14325,
          15925,
          17500,
          19275,
          21000,
          22825,
          24550,
          26350,
          28025,
          29225,
          30100,
          31025,
          31750,
          32575,
          33125,
          33900,
          34600,
          35425,
          36300,
          37100,
          37575,
          37950,
          38000,
          38000,
          38000,
          38025,
          38425,
          38750,
          39000,
          39250,
          39475,
          39725,
          39975,
          40225,
          40600,
          40950,
          41275,
          41625,
          41825,
          42025,
          42225,
          42425,
          42675,
          42925,
          43000,
          43000,
          43000,
          43000,
          43000,
          43000,
          43000,
          43000,
          43000,
          43000,
          43000,
          43000,
          43000,
          43000,
          43000,
          43000,
          43000,
          43000,
          43000,
          43000,
          43000,
          43000,
          43000,
          43000,
          43000,
          43000,
          43000,
          43000,
          43000,
          43000,
          43000,
          43000,
          43000,
          43000,
          43000,
          43000,
          43000,
          43000,
          43000,
          43000,
          43000,
          43000,
          43000,
          43000,
          43000,
          43000,
          43000,
          43000,
          43000,
          43000,
          43000,
          43000,
          43000,
          43000,
          43000,
          43000,
          43000,
          43000,
          43000,
          43000,
          43000,
          43000,
          43000,
          43000,
          43000,
          43000,
          43000,
          43000,
          43000,
          43000,
          43000,
          43000,
          43000,
          43000,
          43000,
          43000,
          43000,
          43000,
          43000,
          43000,
          43000,
          43000,
          43000,
          43000,
          43000,
          43000,
          43000,
          43000,
          42975,
          43000,
          43000,
          42975,
          42975,
          43000,
          43000,
          43000,
          43000,
          43000,
          43000,
          43000,
          43000,
          43000,
          43000,
          43000,
          43000,
          43000,
          43000,
          43000,
          43000,
          43000,
          43000,
          43000,
          43000,
          43000,
          43000,
          43000,
          43000,
          43000,
          43000,
          43000,
          43000,
          43000,
          43000,
          42975,
          43000,
          43000,
          43000,
          43000,
          43000,
          43000,
          43000,
          43000,
          43000,
          43000,
          43000,
          43000,
          43000,
          43000,
          43000,
          43000,
          43000,
          43000,
          43000,
          43000,
          43000,
          43000,
          43000,
          43000,
          43000,
          43000,
          43000,
          43000,
          43000,
          42975,
          43000,
          43000,
          43000,
          43000,
          43000,
          43000,
          43000,
          43000,
          42975,
          42350,
          41125,
          39800,
          38525,
          37250,
          36000,
          34725,
          33500,
          32225,
          30900,
          29675,
          28375,
          27150,
          26200,
          25425,
          24325,
          23100,
          21900,
          20750,
          19600,
          18425,
          17325,
          16100,
          14925,
          13850,
          12825,
          11925,
          11050,
          10300,
          9900,
          9275,
          8625,
          7950,
          7625,
          7275,
          6875,
          6500,
          6200,
          5775,
          5075,
          4800,
          4575,
          4200,
          3975,
          3625,
          3250,
          2850,
          2500,
          2175,
          1875,
          1750,
          1575,
          1400,
          1275,
          1125,
          1000,
          800
        ],
        "vertical_rate_fpm": [
          0.0,
          2625.0,
          2379.0,
          2318.0,
          2906.0,
          3182.0,
          3293.0,
          3585.0,
          3760.0,
          3620.0,
          3150.0,
          3075.0,
          3175.0,
          3350.0,
          3500.0,
          3550.0,
          3550.0,
          3525.0,
          3363.0,
          2782.0,
          2075.0,
          1688.0,
          1547.0,
          1525.0,
          1557.0,
          1242.0,
          1149.0,
          1408.0,
          1700.0,
          1648.0,
          1254.0,
          895.0,
          425.0,
          57.0,
          0.0,
          22.0,
          392.0,
          702.0,
          566.0,
          500.0,
          475.0,
          467.0,
          492.0,
          500.0,
          625.0,
          725.0,
          675.0,
          675.0,
          541.0,
          393.0,
          400.0,
          393.0,
          443.0,
          500.0,
          325.0,
          75.0,
          0.0,
          0.0,
          0.0,
          0.0,
          0.0,
          0.0,
          0.0,
          0.0,
          0.0,
          0.0,
          0.0,
          0.0,
          0.0,
          0.0,
          0.0,
          0.0,
          0.0,
          0.0,
          0.0,
          0.0,
          0.0,
          0.0,
          0.0,
          0.0,
          0.0,
          0.0,
          0.0,
          0.0,
          0.0,
          0.0,
          0.0,
          0.0,
          0.0,
          0.0,
          0.0,
          0.0,
          0.0,
          0.0,
          0.0,
          0.0,
          0.0,
          0.0,
          0.0,
          0.0,
          0.0,
          0.0,
          0.0,
          0.0,
          0.0,
          0.0,
          0.0,
          0.0,
          0.0,
          0.0,
          0.0,
          0.0,
          0.0,
          0.0,
          0.0,
          0.0,
          0.0,
          0.0,
          0.0,
          0.0,
          0.0,
          0.0,
          0.0,
          0.0,
          0.0,
          0.0,
          0.0,
          0.0,
          0.0,
          0.0,
          0.0,
          0.0,
          0.0,
          0.0,
          0.0,
          0.0,
          0.0,
          0.0,
          0.0,
          0.0,
          0.0,
          0.0,
          -25.0,
          0.0,
          25.0,
          -25.0,
          -25.0,
          25.0,
          25.0,
          0.0,
          0.0,
          0.0,
          0.0,
          0.0,
          0.0,
          0.0,
          0.0,
          0.0,
          0.0,
          0.0,
          0.0,
          0.0,
          0.0,
          0.0,
          0.0,
          0.0,
          0.0,
          0.0,
          0.0,
          0.0,
          0.0,
          0.0,
          0.0,
          0.0,
          0.0,
          0.0,
          0.0,
          -25.0,
          0.0,
          25.0,
          0.0,
          0.0,
          0.0,
          0.0,
          0.0,
          0.0,
          0.0,
          0.0,
          0.0,
          0.0,
          0.0,
          0.0,
          0.0,
          0.0,
          0.0,
          0.0,
          0.0,
          0.0,
          0.0,
          0.0,
          0.0,
          0.0,
          0.0,
          0.0,
          0.0,
          0.0,
          0.0,
          -25.0,
          0.0,
          25.0,
          0.0,
          0.0,
          0.0,
          0.0,
          0.0,
          0.0,
          -21.0,
          -619.0,
          -1820.0,
          -2508.0,
          -2600.0,
          -2550.0,
          -2525.0,
          -2525.0,
          -2500.0,
          -2500.0,
          -2600.0,
          -2508.0,
          -2484.0,
          -2525.0,
          -2510.0,
          -2352.0,
          -2083.0,
          -2180.0,
          -2310.0,
          -2274.0,
          -2262.0,
          -2325.0,
          -2275.0,
          -2325.0,
          -2323.0,
          -2143.0,
          -2066.0,
          -1925.0,
          -1690.0,
          -1548.0,
          -1500.0,
          -1337.0,
          -1275.0,
          -1325.0,
          -1304.0,
          -1266.0,
          -1286.0,
          -1257.0,
          -1125.0,
          -1088.0,
          -1227.0,
          -1104.0,
          -750.0,
          -818.0,
          -857.0,
          -719.0,
          -725.0,
          -762.0,
          -738.0,
          -653.0,
          -586.0,
          -531.0,
          -486.0,
          -512.0,
          -500.0,
          -516.0,
          -516.0,
          -542.0,
          -600.0
        ]
      }
    }
  ]
}