{
  "type": "FeatureCollection",
  "features": [
    {
      "type": "Feature",
      "geometry": {
        "type": "LineString",
        "coordinates": [
          [
            10.3966,
            43.6859
          ],
          [
            10.4067,
            43.6949
          ],
          [
            10.4182,
            43.7053
          ],
          [
            10.4286,
            43.7165
          ],
          [
            10.4366,
            43.729
          ],
          [
            10.4313,
            43.7425
          ],
          [
            10.4155,
            43.7495
          ],
          [
            10.391,
            43.7451
          ],
          [
            10.3756,
            43.7374
          ],
          [
            10.3533,
            43.7342
          ],
          [
            10.3194,
            43.7359
          ],
          [
            10.2697,
            43.7408
          ],
          [
            10.2142,
            43.7447
          ],
          [
            10.1279,
            43.7495
          ],
          [
            10.0668,
            43.7531
          ],
          [
            9.9995,
            43.7565
          ],
          [
            9.9291,
            43.76
          ],
          [
            9.8621,
            43.7635
          ],
          [
            9.7927,
            43.7668
          ],
          [
            9.7451,
            43.7694
          ],
          [
            9.7095,
            43.7776
          ],
          [
            9.671,
            43.7994
          ],
          [
            9.632,
            43.8309
          ],
          [
            9.5877,
            43.8716
          ],
          [
            9.5419,
            43.9141
          ],
          [
            9.4938,
            43.9569
          ],
          [
            9.4473,
            43.9987
          ],
          [
            9.4001,
            44.0412
          ],
          [
            9.3503,
            44.085
          ],
          [
            9.3247,
            44.1114
          ],
          [
            9.2762,
            44.1731
          ],
          [
            9.2368,
            44.2256
          ],
          [
            9.1968,
            44.2779
          ],
          [
            9.1581,
            44.3289
          ],
          [
            9.1163,
            44.3843
          ],
          [
            9.0784,
            44.4354
          ],
          [
            9.0374,
            44.4914
          ],
          [
            8.9984,
            44.5432
          ],
          [
            8.9564,
            44.5962
          ],
          [
            8.9147,
            44.6481
          ],
          [
            8.8734,
            44.7001
          ],
          [
            8.8307,
            44.7545
          ],
          [
            8.7901,
            44.8041
          ],
          [
            8.7463,
            44.8569
          ],
          [
            8.7043,
            44.9073
          ],
          [
            8.6608,
            44.9595
          ],
          [
            8.6181,
            45.0099
          ],
          [
            8.5738,
            45.0613
          ],
          [
            8.5306,
            45.1118
          ],
          [
            8.4861,
            45.1652
          ],
          [
            8.4445,
            45.2173
          ],
          [
            8.4031,
            45.2704
          ],
          [
            8.3772,
            45.2956
          ],
          [
            8.3405,
            45.3207
          ],
          [
            8.2794,
            45.352
          ],
          [
            8.2067,
            45.3856
          ],
          [
            8.1353,
            45.4192
          ],
          [
            8.0607,
            45.4554
          ],
          [
            7.9872,
            45.4902
          ],
          [
            7.9123,
            45.5265
          ],
          [
            7.8411,
            45.5609
          ],
          [
            7.8014,
            45.5839
          ],
          [
            7.7595,
            45.6137
          ],
          [
            7.6766,
            45.677
          ],
          [
            7.6172,
            45.7216
          ],
          [
            7.5526,
            45.7692
          ],
          [
            7.494,
            45.8127
          ],
          [
            7.4601,
            45.8377
          ],
          [
            7.3983,
            45.8834
          ],
          [
            7.3355,
            45.9295
          ],
          [
            7.2705,
            45.9769
          ],
          [
            7.2078,
            46.023
          ],
          [
            7.146,
            46.068
          ],
          [
            7.0849,
            46.1123
          ],
          [
            6.9988,
            46.175
          ],
          [
            6.958,
            46.2043
          ],
          [
            6.8975,
            46.2483
          ],
          [
            6.8347,
            46.2932
          ],
          [
            6.7753,
            46.3361
          ],
          [
            6.7182,
            46.3768
          ],
          [
            6.6562,
            46.4213
          ],
          [
            6.596,
            46.4641
          ],
          [
            6.5333,
            46.5089
          ],
          [
            6.4731,
            46.5518
          ],
          [
            6.4109,
            46.5958
          ],
          [
            6.3317,
            46.652
          ],
          [
            6.2702,
            46.6947
          ],
          [
            6.2111,
            46.7368
          ],
          [
            6.1499,
            46.7796
          ],
          [
            6.1065,
            46.8102
          ],
          [
            6.0262,
            46.8788
          ],
          [
            5.9852,
            46.9154
          ],
          [
            5.9039,
            46.9859
          ],
          [
            5.8236,
            47.0554
          ],
          [
            5.7718,
            47.0997
          ],
          [
            5.7172,
            47.1468
          ],
          [
            5.6611,
            47.1948
          ],
          [
            5.6042,
            47.2433
          ],
          [
            5.5482,
            47.2909
          ],
          [
            5.4903,
            47.3404
          ],
          [
            5.4345,
            47.3875
          ],
          [
            5.3795,
            47.4341
          ],
          [
            5.3205,
            47.484
          ],
          [
            5.2692,
            47.5269
          ],
          [
            5.2033,
            47.5825
          ],
          [
            5.1484,
            47.6284
          ],
          [
            5.0909,
            47.6765
          ],
          [
            5.0332,
            47.7247
          ],
          [
            4.9763,
            47.7721
          ],
          [
            4.9184,
            47.8196
          ],
          [
            4.8613,
            47.8671
          ],
          [
            4.8045,
            47.9142
          ],
          [
            4.7467,
            47.9617
          ],
          [
            4.6889,
            48.0092
          ],
          [
            4.6309,
            48.0565
          ],
          [
            4.5728,
            48.1041
          ],
          [
            4.5153,
            48.1511
          ],
          [
            4.4578,
            48.198
          ],
          [
            4.3997,
            48.2448
          ],
          [
            4.3439,
            48.2902
          ],
          [
            4.2834,
            48.3389
          ],
          [
            4.2269,
            48.3845
          ],
          [
            4.1676,
            48.4322
          ],
          [
            4.1071,
            48.4803
          ],
          [
            4.0511,
            48.5255
          ],
          [
            3.9906,
            48.5739
          ],
          [
            3.9323,
            48.6199
          ],
          [
            3.8742,
            48.6661
          ],
          [
            3.8167,
            48.7119
          ],
          [
            3.7577,
            48.7584
          ],
          [
            3.6997,
            48.8039
          ],
          [
            3.637,
            48.853
          ],
          [
            3.5792,
            48.8988
          ],
          [
            3.5183,
            48.9456
          ],
          [
            3.4602,
            48.9918
          ],
          [
            3.3998,
            49.0386
          ],
          [
            3.3404,
            49.0845
          ],
          [
            3.2802,
            49.1309
          ],
          [
            3.2191,
            49.1782
          ],
          [
            3.1591,
            49.2246
          ],
          [
            3.1244,
            49.2512
          ],
          [
            3.0692,
            49.3051
          ],
          [
            2.994,
            49.3859
          ],
          [
            2.9671,
            49.4141
          ],
          [
            2.9191,
            49.4642
          ],
          [
            2.8703,
            49.5146
          ],
          [
            2.8193,
            49.568
          ],
          [
            2.7694,
            49.6197
          ],
          [
            2.7202,
            49.6703
          ],
          [
            2.6694,
            49.7223
          ],
          [
            2.6283,
            49.7646
          ],
          [
            2.5782,
            49.8159
          ],
          [
            2.5258,
            49.8694
          ],
          [
            2.4767,
            49.9197
          ],
          [
            2.4245,
            49.9723
          ],
          [
            2.374,
            50.0236
          ],
          [
            2.3212,
            50.0768
          ],
          [
            2.2714,
            50.1273
          ],
          [
            2.2203,
            50.1787
          ],
          [
            2.1705,
            50.2283
          ],
          [
            2.1183,
            50.2809
          ],
          [
            2.0669,
            50.3319
          ],
          [
            2.0324,
            50.3651
          ],
          [
            1.9967,
            50.3948
          ],
          [
            1.9376,
            50.4372
          ],
          [
            1.8679,
            50.4832
          ],
          [
            1.8003,
            50.5281
          ],
          [
            1.7361,
            50.5717
          ],
          [
            1.6725,
            50.614
          ],
          [
            1.6187,
            50.6498
          ],
          [
            1.5511,
            50.6951
          ],
          [
            1.4872,
            50.737
          ],
          [
            1.421,
            50.7815
          ],
          [
            1.3316,
            50.8402
          ],
          [
            1.2678,
            50.8825
          ],
          [
            1.2022,
            50.9251
          ],
          [
            1.1618,
            50.9517
          ],
          [
            1.0991,
            50.993
          ],
          [
            1.0553,
            51.0212
          ],
          [
            1.0001,
            51.0571
          ],
          [
            0.9515,
            51.0889
          ],
          [
            0.8857,
            51.1311
          ],
          [
            0.8203,
            51.1737
          ],
          [
            0.7556,
            51.2155
          ],
          [
            0.6583,
            51.2779
          ],
          [
            0.5933,
            51.3194
          ],
          [
            0.5264,
            51.362
          ],
          [
            0.4606,
            51.404
          ],
          [
            0.3963,
            51.4448
          ],
          [
            0.3299,
            51.4869
          ],
          [
            0.266,
            51.5274
          ],
          [
            0.1998,
            51.5689
          ],
          [
            0.1383,
            51.6076
          ],
          [
            0.0716,
            51.6495
          ],
          [
            0.007,
            51.6895
          ],
          [
            -0.0587,
            51.7309
          ],
          [
            -0.1246,
            51.7716
          ],
          [
            -0.1936,
            51.8143
          ],
          [
            -0.2592,
            51.8552
          ],
          [
            -0.3266,
            51.8964
          ],
          [
            -0.3901,
            51.9355
          ],
          [
            -0.4257,
            51.9574
          ],
          [
            -0.4952,
            51.9998
          ],
          [
            -0.5608,
            52.04
          ],
          [
            -0.6279,
            52.0808
          ],
          [
            -0.6983,
            52.1234
          ],
          [
            -0.7639,
            52.1633
          ],
          [
            -0.8294,
            52.2028
          ],
          [
            -0.8976,
            52.2439
          ],
          [
            -0.9669,
            52.2854
          ],
          [
            -1.0337,
            52.3252
          ],
          [
            -1.1018,
            52.3662
          ],
          [
            -1.1687,
            52.4059
          ],
          [
            -1.2376,
            52.4466
          ],
          [
            -1.3041,
            52.4863
          ],
          [
            -1.3735,
            52.5271
          ],
          [
            -1.442,
            52.5675
          ],
          [
            -1.511,
            52.6079
          ],
          [
            -1.5795,
            52.6479
          ],
          [
            -1.6291,
            52.6773
          ],
          [
            -1.6997,
            52.7182
          ],
          [
            -1.7683,
            52.758
          ],
          [
            -1.8381,
            52.7983
          ],
          [
            -1.9057,
            52.8374
          ],
          [
            -1.9738,
            52.8766
          ],
          [
            -2.0444,
            52.9173
          ],
          [
            -2.1128,
            52.9564
          ],
          [
            -2.1838,
            52.9969
          ],
          [
            -2.2511,
            53.0354
          ],
          [
            -2.3208,
            53.0749
          ],
          [
            -2.3915,
            53.1149
          ],
          [
            -2.4604,
            53.1538
          ],
          [
            -2.4954,
            53.1737
          ],
          [
            -2.5681,
            53.2142
          ],
          [
            -2.6369,
            53.2531
          ],
          [
            -2.7094,
            53.2934
          ],
          [
            -2.8051,
            53.3464
          ],
          [
            -2.8749,
            53.3851
          ],
          [
            -2.9282,
            53.4148
          ],
          [
            -3.0009,
            53.455
          ],
          [
            -3.073,
            53.4952
          ],
          [
            -3.1463,
            53.5348
          ],
          [
            -3.2067,
            53.5679
          ],
          [
            -3.2786,
            53.6072
          ],
          [
            -3.3513,
            53.6471
          ],
          [
            -3.4244,
            53.6867
          ],
          [
            -3.4966,
            53.7255
          ],
          [
            -3.5867,
            53.7744
          ],
          [
            -3.6582,
            53.8135
          ],
          [
            -3.7294,
            53.8525
          ],
          [
            -3.7799,
            53.8811
          ],
          [
            -3.8181,
            53.9034
          ],
          [
            -3.8831,
            53.9406
          ],
          [
            -3.9268,
            53.9653
          ],
          [
            -3.9733,
            53.987
          ],
          [
            -4.0616,
            54.0231
          ],
          [
            -4.1324,
            54.0526
          ],
          [
            -4.227,
            54.0931
          ],
          [
            -4.3019,
            54.1242
          ],
          [
            -4.3742,
            54.1555
          ],
          [
            -4.447,
            54.186
          ],
          [
            -4.5214,
            54.2171
          ],
          [
            -4.5967,
            54.249
          ],
          [
            -4.6788,
            54.2832
          ],
          [
            -4.7385,
            54.3098
          ],
          [
            -4.8085,
            54.3461
          ],
          [
            -4.887,
            54.3854
          ],
          [
            -4.9568,
            54.4193
          ],
          [
            -5.0036,
            54.4424
          ],
          [
            -5.0659,
            54.4757
          ],
          [
            -5.1347,
            54.5116
          ],
          [
            -5.2086,
            54.5414
          ],
          [
            -5.2802,
            54.5692
          ],
          [
            -5.3408,
            54.5969
          ],
          [
            -5.3937,
            54.6225
          ],
          [
            -5.4422,
            54.6462
          ],
          [
            -5.4928,
            54.6704
          ],
          [
            -5.5405,
            54.693
          ],
          [
            -5.5853,
            54.7152
          ],
          [
            -5.6289,
            54.7371
          ],
          [
            -5.657,
            54.7493
          ],
          [
            -5.6925,
            54.7494
          ],
          [
            -5.7174,
            54.7437
          ],
          [
            -5.7358,
            54.7313
          ],
          [
            -5.7589,
            54.7127
          ],
          [
            -5.7845,
            54.6917
          ],
          [
            -5.8022,
            54.6768
          ],
          [
            -5.8137,
            54.6672
          ],
          [
            -5.8232,
            54.6593
          ],
          [
            -5.8334,
            54.6508
          ],
          [
            -5.8436,
            54.6423
          ],
          [
            -5.8519,
            54.6353
          ],
          [
            -5.8609,
            54.6278
          ]
        ]
      },
      "properties": {
        "time_europe_berlin": [
          "10.10.2025 15:39:32",
          "10.10.2025 15:39:48",
          "10.10.2025 15:40:05",
          "10.10.2025 15:40:21",
          "10.10.2025 15:40:37",
          "10.10.2025 15:40:53",
          "10.10.2025 15:41:09",
          "10.10.2025 15:41:27",
          "10.10.2025 15:41:43",
          "10.10.2025 15:42:00",
          "10.10.2025 15:42:20",
          "10.10.2025 15:42:50",
          "10.10.2025 15:43:20",
          "10.10.2025 15:44:05",
          "10.10.2025 15:44:35",
          "10.10.2025 15:45:05",
          "10.10.2025 15:45:36",
          "10.10.2025 15:46:06",
          "10.10.2025 15:46:36",
          "10.10.2025 15:46:55",
          "10.10.2025 15:47:11",
          "10.10.2025 15:47:30",
          "10.10.2025 15:47:55",
          "10.10.2025 15:48:25",
          "10.10.2025 15:48:55",
          "10.10.2025 15:49:25",
          "10.10.2025 15:49:55",
          "10.10.2025 15:50:25",
          "10.10.2025 15:50:55",
          "10.10.2025 15:51:14",
          "10.10.2025 15:51:50",
          "10.10.2025 15:52:20",
          "10.10.2025 15:52:50",
          "10.10.2025 15:53:20",
          "10.10.2025 15:53:50",
          "10.10.2025 15:54:20",
          "10.10.2025 15:54:50",
          "10.10.2025 15:55:20",
          "10.10.2025 15:55:50",
          "10.10.2025 15:56:20",
          "10.10.2025 15:56:50",
          "10.10.2025 15:57:20",
          "10.10.2025 15:57:50",
          "10.10.2025 15:58:20",
          "10.10.2025 15:58:50",
          "10.10.2025 15:59:20",
          "10.10.2025 15:59:50",
          "10.10.2025 16:00:20",
          "10.10.2025 16:00:50",
          "10.10.2025 16:01:20",
          "10.10.2025 16:01:50",
          "10.10.2025 16:02:20",
          "10.10.2025 16:02:36",
          "10.10.2025 16:02:55",
          "10.10.2025 16:03:20",
          "10.10.2025 16:03:50",
          "10.10.2025 16:04:20",
          "10.10.2025 16:04:50",
          "10.10.2025 16:05:20",
          "10.10.2025 16:05:50",
          "10.10.2025 16:06:20",
          "10.10.2025 16:06:37",
          "10.10.2025 16:06:57",
          "10.10.2025 16:07:38",
          "10.10.2025 16:08:08",
          "10.10.2025 16:08:38",
          "10.10.2025 16:09:08",
          "10.10.2025 16:09:25",
          "10.10.2025 16:09:55",
          "10.10.2025 16:10:25",
          "10.10.2025 16:10:56",
          "10.10.2025 16:11:26",
          "10.10.2025 16:11:56",
          "10.10.2025 16:12:26",
          "10.10.2025 16:13:08",
          "10.10.2025 16:13:27",
          "10.10.2025 16:13:57",
          "10.10.2025 16:14:27",
          "10.10.2025 16:14:57",
          "10.10.2025 16:15:25",
          "10.10.2025 16:15:55",
          "10.10.2025 16:16:25",
          "10.10.2025 16:16:55",
          "10.10.2025 16:17:25",
          "10.10.2025 16:17:56",
          "10.10.2025 16:18:33",
          "10.10.2025 16:19:03",
          "10.10.2025 16:19:33",
          "10.10.2025 16:20:03",
          "10.10.2025 16:20:24",
          "10.10.2025 16:21:08",
          "10.10.2025 16:21:32",
          "10.10.2025 16:22:16",
          "10.10.2025 16:22:59",
          "10.10.2025 16:23:29",
          "10.10.2025 16:23:59",
          "10.10.2025 16:24:29",
          "10.10.2025 16:24:59",
          "10.10.2025 16:25:29",
          "10.10.2025 16:26:00",
          "10.10.2025 16:26:30",
          "10.10.2025 16:27:00",
          "10.10.2025 16:27:31",
          "10.10.2025 16:28:03",
          "10.10.2025 16:28:33",
          "10.10.2025 16:29:03",
          "10.10.2025 16:29:33",
          "10.10.2025 16:30:03",
          "10.10.2025 16:30:33",
          "10.10.2025 16:31:03",
          "10.10.2025 16:31:33",
          "10.10.2025 16:32:03",
          "10.10.2025 16:32:33",
          "10.10.2025 16:33:03",
          "10.10.2025 16:33:33",
          "10.10.2025 16:34:04",
          "10.10.2025 16:34:34",
          "10.10.2025 16:35:04",
          "10.10.2025 16:35:34",
          "10.10.2025 16:36:04",
          "10.10.2025 16:36:34",
          "10.10.2025 16:37:04",
          "10.10.2025 16:37:34",
          "10.10.2025 16:38:05",
          "10.10.2025 16:38:35",
          "10.10.2025 16:39:05",
          "10.10.2025 16:39:35",
          "10.10.2025 16:40:05",
          "10.10.2025 16:40:35",
          "10.10.2025 16:41:05",
          "10.10.2025 16:41:35",
          "10.10.2025 16:42:05",
          "10.10.2025 16:42:35",
          "10.10.2025 16:43:05",
          "10.10.2025 16:43:35",
          "10.10.2025 16:44:05",
          "10.10.2025 16:44:35",
          "10.10.2025 16:45:05",
          "10.10.2025 16:45:35",
          "10.10.2025 16:46:05",
          "10.10.2025 16:46:22",
          "10.10.2025 16:46:55",
          "10.10.2025 16:47:40",
          "10.10.2025 16:47:57",
          "10.10.2025 16:48:27",
          "10.10.2025 16:48:57",
          "10.10.2025 16:49:27",
          "10.10.2025 16:49:57",
          "10.10.2025 16:50:27",
          "10.10.2025 16:50:57",
          "10.10.2025 16:51:22",
          "10.10.2025 16:51:52",
          "10.10.2025 16:52:22",
          "10.10.2025 16:52:52",
          "10.10.2025 16:53:22",
          "10.10.2025 16:53:52",
          "10.10.2025 16:54:22",
          "10.10.2025 16:54:52",
          "10.10.2025 16:55:22",
          "10.10.2025 16:55:52",
          "10.10.2025 16:56:22",
          "10.10.2025 16:56:52",
          "10.10.2025 16:57:12",
          "10.10.2025 16:57:29",
          "10.10.2025 16:57:59",
          "10.10.2025 16:58:29",
          "10.10.2025 16:58:59",
          "10.10.2025 16:59:29",
          "10.10.2025 16:59:59",
          "10.10.2025 17:00:23",
          "10.10.2025 17:00:53",
          "10.10.2025 17:01:23",
          "10.10.2025 17:01:53",
          "10.10.2025 17:02:33",
          "10.10.2025 17:03:03",
          "10.10.2025 17:03:33",
          "10.10.2025 17:03:51",
          "10.10.2025 17:04:20",
          "10.10.2025 17:04:39",
          "10.10.2025 17:05:07",
          "10.10.2025 17:05:26",
          "10.10.2025 17:05:56",
          "10.10.2025 17:06:26",
          "10.10.2025 17:06:55",
          "10.10.2025 17:07:39",
          "10.10.2025 17:08:09",
          "10.10.2025 17:08:39",
          "10.10.2025 17:09:09",
          "10.10.2025 17:09:39",
          "10.10.2025 17:10:09",
          "10.10.2025 17:10:39",
          "10.10.2025 17:11:09",
          "10.10.2025 17:11:37",
          "10.10.2025 17:12:07",
          "10.10.2025 17:12:37",
          "10.10.2025 17:13:07",
          "10.10.2025 17:13:37",
          "10.10.2025 17:14:07",
          "10.10.2025 17:14:37",
          "10.10.2025 17:15:07",
          "10.10.2025 17:15:37",
          "10.10.2025 17:15:54",
          "10.10.2025 17:16:24",
          "10.10.2025 17:16:54",
          "10.10.2025 17:17:24",
          "10.10.2025 17:17:54",
          "10.10.2025 17:18:24",
          "10.10.2025 17:18:54",
          "10.10.2025 17:19:24",
          "10.10.2025 17:19:54",
          "10.10.2025 17:20:24",
          "10.10.2025 17:20:54",
          "10.10.2025 17:21:24",
          "10.10.2025 17:21:54",
          "10.10.2025 17:22:24",
          "10.10.2025 17:22:54",
          "10.10.2025 17:23:24",
          "10.10.2025 17:23:54",
          "10.10.2025 17:24:24",
          "10.10.2025 17:24:46",
          "10.10.2025 17:25:16",
          "10.10.2025 17:25:46",
          "10.10.2025 17:26:16",
          "10.10.2025 17:26:46",
          "10.10.2025 17:27:16",
          "10.10.2025 17:27:46",
          "10.10.2025 17:28:16",
          "10.10.2025 17:28:46",
          "10.10.2025 17:29:16",
          "10.10.2025 17:29:46",
          "10.10.2025 17:30:16",
          "10.10.2025 17:30:46",
          "10.10.2025 17:31:02",
          "10.10.2025 17:31:32",
          "10.10.2025 17:32:02",
          "10.10.2025 17:32:32",
          "10.10.2025 17:33:13",
          "10.10.2025 17:33:42",
          "10.10.2025 17:34:05",
          "10.10.2025 17:34:35",
          "10.10.2025 17:35:05",
          "10.10.2025 17:35:35",
          "10.10.2025 17:36:00",
          "10.10.2025 17:36:30",
          "10.10.2025 17:37:00",
          "10.10.2025 17:37:30",
          "10.10.2025 17:38:00",
          "10.10.2025 17:38:37",
          "10.10.2025 17:39:07",
          "10.10.2025 17:39:37",
          "10.10.2025 17:39:58",
          "10.10.2025 17:40:15",
          "10.10.2025 17:40:45",
          "10.10.2025 17:41:04",
          "10.10.2025 17:41:23",
          "10.10.2025 17:41:56",
          "10.10.2025 17:42:26",
          "10.10.2025 17:43:06",
          "10.10.2025 17:43:36",
          "10.10.2025 17:44:06",
          "10.10.2025 17:44:36",
          "10.10.2025 17:45:06",
          "10.10.2025 17:45:36",
          "10.10.2025 17:46:08",
          "10.10.2025 17:46:33",
          "10.10.2025 17:47:08",
          "10.10.2025 17:47:38",
          "10.10.2025 17:48:08",
          "10.10.2025 17:48:29",
          "10.10.2025 17:48:57",
          "10.10.2025 17:49:29",
          "10.10.2025 17:49:59",
          "10.10.2025 17:50:29",
          "10.10.2025 17:50:59",
          "10.10.2025 17:51:29",
          "10.10.2025 17:51:59",
          "10.10.2025 17:52:29",
          "10.10.2025 17:52:56",
          "10.10.2025 17:53:26",
          "10.10.2025 17:53:56",
          "10.10.2025 17:54:14",
          "10.10.2025 17:54:37",
          "10.10.2025 17:54:53",
          "10.10.2025 17:55:11",
          "10.10.2025 17:55:38",
          "10.10.2025 17:56:08",
          "10.10.2025 17:56:32",
          "10.10.2025 17:56:48",
          "10.10.2025 17:57:04",
          "10.10.2025 17:57:20",
          "10.10.2025 17:57:36",
          "10.10.2025 17:57:52",
          "10.10.2025 17:58:08"
        ],
        "course_deg_clockwise_from_north": [
          "39",
          "40",
          "37",
          "32",
          "7",
          "324",
          "282",
          "236",
          "244",
          "269",
          "277",
          "277",
          "274",
          "274",
          "275",
          "274",
          "274",
          "275",
          "274",
          "277",
          "300",
          "314",
          "321",
          "322",
          "321",
          "321",
          "321",
          "321",
          "321",
          "328",
          "332",
          "332",
          "331",
          "332",
          "332",
          "332",
          "332",
          "331",
          "330",
          "331",
          "331",
          "331",
          "329",
          "329",
          "330",
          "329",
          "329",
          "329",
          "329",
          "330",
          "331",
          "329",
          "320",
          "311",
          "304",
          "303",
          "305",
          "304",
          "304",
          "305",
          "305",
          "313",
          "317",
          "317",
          "316",
          "316",
          "317",
          "316",
          "317",
          "316",
          "316",
          "317",
          "317",
          "316",
          "316",
          "316",
          "316",
          "316",
          "316",
          "316",
          "316",
          "315",
          "316",
          "315",
          "316",
          "316",
          "316",
          "316",
          "316",
          "318",
          "322",
          "322",
          "323",
          "323",
          "321",
          "322",
          "321",
          "321",
          "322",
          "321",
          "321",
          "322",
          "320",
          "322",
          "322",
          "321",
          "321",
          "321",
          "321",
          "321",
          "321",
          "321",
          "321",
          "321",
          "321",
          "321",
          "321",
          "321",
          "320",
          "321",
          "320",
          "321",
          "320",
          "321",
          "320",
          "320",
          "321",
          "320",
          "320",
          "320",
          "320",
          "320",
          "320",
          "320",
          "320",
          "319",
          "320",
          "320",
          "319",
          "319",
          "322",
          "329",
          "329",
          "328",
          "328",
          "328",
          "328",
          "327",
          "328",
          "327",
          "328",
          "328",
          "327",
          "328",
          "328",
          "327",
          "328",
          "327",
          "328",
          "327",
          "327",
          "327",
          "324",
          "321",
          "317",
          "316",
          "317",
          "316",
          "316",
          "317",
          "317",
          "316",
          "316",
          "316",
          "317",
          "316",
          "316",
          "316",
          "316",
          "316",
          "316",
          "316",
          "316",
          "316",
          "316",
          "316",
          "315",
          "316",
          "315",
          "316",
          "316",
          "315",
          "315",
          "315",
          "315",
          "315",
          "314",
          "315",
          "315",
          "315",
          "315",
          "315",
          "315",
          "315",
          "315",
          "314",
          "314",
          "314",
          "314",
          "315",
          "314",
          "315",
          "314",
          "314",
          "314",
          "314",
          "314",
          "314",
          "314",
          "314",
          "314",
          "314",
          "314",
          "314",
          "314",
          "313",
          "314",
          "313",
          "314",
          "313",
          "313",
          "314",
          "314",
          "313",
          "313",
          "313",
          "313",
          "313",
          "313",
          "314",
          "312",
          "312",
          "313",
          "312",
          "312",
          "312",
          "312",
          "313",
          "313",
          "313",
          "316",
          "315",
          "314",
          "312",
          "307",
          "305",
          "305",
          "306",
          "308",
          "306",
          "305",
          "306",
          "305",
          "306",
          "310",
          "311",
          "310",
          "310",
          "311",
          "315",
          "307",
          "304",
          "306",
          "309",
          "310",
          "310",
          "309",
          "310",
          "311",
          "310",
          "293",
          "260",
          "229",
          "216",
          "216",
          "215",
          "215",
          "215",
          "215",
          "214",
          "214",
          "215",
          "215"
        ],
        "speed_kts": [
          "147",
          "164",
          "178",
          "185",
          "192",
          "194",
          "200",
          "204",
          "213",
          "229",
          "250",
          "281",
          "300",
          "312",
          "334",
          "348",
          "352",
          "368",
          "377",
          "378",
          "378",
          "375",
          "376",
          "383",
          "387",
          "394",
          "395",
          "396",
          "404",
          "408",
          "419",
          "429",
          "431",
          "432",
          "435",
          "437",
          "437",
          "436",
          "435",
          "434",
          "433",
          "432",
          "431",
          "429",
          "426",
          "429",
          "436",
          "437",
          "438",
          "436",
          "434",
          "431",
          "433",
          "436",
          "438",
          "446",
          "450",
          "452",
          "453",
          "452",
          "454",
          "449",
          "448",
          "451",
          "453",
          "453",
          "452",
          "453",
          "452",
          "453",
          "453",
          "452",
          "452",
          "451",
          "448",
          "446",
          "444",
          "442",
          "441",
          "441",
          "440",
          "438",
          "437",
          "437",
          "437",
          "437",
          "436",
          "436",
          "436",
          "435",
          "433",
          "433",
          "434",
          "435",
          "436",
          "437",
          "438",
          "438",
          "438",
          "440",
          "439",
          "440",
          "441",
          "441",
          "440",
          "441",
          "440",
          "441",
          "441",
          "441",
          "441",
          "440",
          "440",
          "439",
          "438",
          "438",
          "438",
          "439",
          "439",
          "439",
          "438",
          "438",
          "439",
          "437",
          "437",
          "436",
          "437",
          "438",
          "438",
          "438",
          "438",
          "438",
          "439",
          "439",
          "440",
          "440",
          "440",
          "441",
          "442",
          "441",
          "441",
          "438",
          "437",
          "438",
          "439",
          "441",
          "441",
          "442",
          "441",
          "441",
          "440",
          "441",
          "441",
          "441",
          "442",
          "441",
          "440",
          "440",
          "441",
          "441",
          "441",
          "441",
          "442",
          "441",
          "441",
          "440",
          "439",
          "439",
          "439",
          "437",
          "436",
          "435",
          "434",
          "435",
          "435",
          "435",
          "435",
          "436",
          "435",
          "436",
          "435",
          "434",
          "432",
          "430",
          "429",
          "426",
          "424",
          "422",
          "421",
          "420",
          "419",
          "419",
          "419",
          "419",
          "420",
          "420",
          "418",
          "419",
          "418",
          "419",
          "418",
          "418",
          "418",
          "419",
          "419",
          "419",
          "420",
          "420",
          "419",
          "419",
          "419",
          "419",
          "419",
          "419",
          "419",
          "419",
          "418",
          "418",
          "417",
          "418",
          "419",
          "419",
          "419",
          "419",
          "419",
          "417",
          "416",
          "415",
          "415",
          "415",
          "416",
          "417",
          "417",
          "418",
          "420",
          "419",
          "420",
          "420",
          "422",
          "423",
          "423",
          "424",
          "424",
          "423",
          "424",
          "424",
          "423",
          "420",
          "413",
          "413",
          "408",
          "403",
          "403",
          "401",
          "397",
          "392",
          "387",
          "375",
          "374",
          "382",
          "390",
          "395",
          "392",
          "388",
          "386",
          "381",
          "379",
          "378",
          "375",
          "377",
          "374",
          "368",
          "342",
          "308",
          "275",
          "268",
          "272",
          "268",
          "250",
          "236",
          "223",
          "210",
          "200",
          "196",
          "176",
          "175",
          "162",
          "147",
          "140",
          "130",
          "126",
          "125",
          "124"
        ],
        "speed_mph": [
          "169",
          "189",
          "205",
          "213",
          "221",
          "223",
          "230",
          "235",
          "245",
          "264",
          "288",
          "323",
          "345",
          "359",
          "384",
          "400",
          "405",
          "423",
          "434",
          "435",
          "435",
          "432",
          "433",
          "441",
          "445",
          "453",
          "455",
          "456",
          "465",
          "470",
          "482",
          "494",
          "496",
          "497",
          "501",
          "503",
          "503",
          "502",
          "501",
          "499",
          "498",
          "497",
          "496",
          "494",
          "490",
          "494",
          "502",
          "503",
          "504",
          "502",
          "499",
          "496",
          "498",
          "502",
          "504",
          "513",
          "518",
          "520",
          "521",
          "520",
          "522",
          "517",
          "516",
          "519",
          "521",
          "521",
          "520",
          "521",
          "520",
          "521",
          "521",
          "520",
          "520",
          "519",
          "516",
          "513",
          "511",
          "509",
          "507",
          "507",
          "506",
          "504",
          "503",
          "503",
          "503",
          "503",
          "502",
          "502",
          "502",
          "501",
          "498",
          "498",
          "499",
          "501",
          "502",
          "503",
          "504",
          "504",
          "504",
          "506",
          "505",
          "506",
          "507",
          "507",
          "506",
          "507",
          "506",
          "507",
          "507",
          "507",
          "507",
          "506",
          "506",
          "505",
          "504",
          "504",
          "504",
          "505",
          "505",
          "505",
          "504",
          "504",
          "505",
          "503",
          "503",
          "502",
          "503",
          "504",
          "504",
          "504",
          "504",
          "504",
          "505",
          "505",
          "506",
          "506",
          "506",
          "507",
          "509",
          "507",
          "507",
          "504",
          "503",
          "504",
          "505",
          "507",
          "507",
          "509",
          "507",
          "507",
          "506",
          "507",
          "507",
          "507",
          "509",
          "507",
          "506",
          "506",
          "507",
          "507",
          "507",
          "507",
          "509",
          "507",
          "507",
          "506",
          "505",
          "505",
          "505",
          "503",
          "502",
          "501",
          "499",
          "501",
          "501",
          "501",
          "501",
          "502",
          "501",
          "502",
          "501",
          "499",
          "497",
          "495",
          "494",
          "490",
          "488",
          "486",
          "484",
          "483",
          "482",
          "482",
          "482",
          "482",
          "483",
          "483",
          "481",
          "482",
          "481",
          "482",
          "481",
          "481",
          "481",
          "482",
          "482",
          "482",
          "483",
          "483",
          "482",
          "482",
          "482",
          "482",
          "482",
          "482",
          "482",
          "482",
          "481",
          "481",
          "480",
          "481",
          "482",
          "482",
          "482",
          "482",
          "482",
          "480",
          "479",
          "478",
          "478",
          "478",
          "479",
          "480",
          "480",
          "481",
          "483",
          "482",
          "483",
          "483",
          "486",
          "487",
          "487",
          "488",
          "488",
          "487",
          "488",
          "488",
          "487",
          "483",
          "475",
          "475",
          "470",
          "464",
          "464",
          "461",
          "457",
          "451",
          "445",
          "432",
          "430",
          "440",
          "449",
          "455",
          "451",
          "447",
          "444",
          "438",
          "436",
          "435",
          "432",
          "434",
          "430",
          "423",
          "394",
          "354",
          "316",
          "308",
          "313",
          "308",
          "288",
          "272",
          "257",
          "242",
          "230",
          "226",
          "203",
          "201",
          "186",
          "169",
          "161",
          "150",
          "145",
          "144",
          "143"
        ],
        "altitude_ft": [
          "",
          "425",
          "1150",
          "1825",
          "2475",
          "3225",
          "3950",
          "4900",
          "5550",
          "6125",
          "6900",
          "7925",
          "9100",
          "11225",
          "12100",
          "13150",
          "14475",
          "15250",
          "16150",
          "16825",
          "17300",
          "17950",
          "18950",
          "19675",
          "20625",
          "21450",
          "22450",
          "23425",
          "24200",
          "24550",
          "25175",
          "25675",
          "26425",
          "27150",
          "27925",
          "28625",
          "29400",
          "30175",
          "30925",
          "31650",
          "32400",
          "33150",
          "33875",
          "34650",
          "35375",
          "35950",
          "36275",
          "36725",
          "37225",
          "37775",
          "38350",
          "38950",
          "39250",
          "39575",
          "39950",
          "40000",
          "40000",
          "40000",
          "40000",
          "40000",
          "40000",
          "40000",
          "40000",
          "40000",
          "40000",
          "40000",
          "40000",
          "40000",
          "40000",
          "40000",
          "40000",
          "40000",
          "40000",
          "40000",
          "40000",
          "40000",
          "40000",
          "40000",
          "40000",
          "40000",
          "40000",
          "40000",
          "40000",
          "40000",
          "40000",
          "40000",
          "40000",
          "40000",
          "40000",
          "40000",
          "40000",
          "40000",
          "40000",
          "40000",
          "40000",
          "40000",
          "40000",
          "40000",
          "40000",
          "40000",
          "40000",
          "40000",
          "40000",
          "40000",
          "40000",
          "40000",
          "40000",
          "40000",
          "40000",
          "40000",
          "40000",
          "40000",
          "40000",
          "40000",
          "40000",
          "40000",
          "40000",
          "40000",
          "40000",
          "40000",
          "40000",
          "40000",
          "40000",
          "40000",
          "40000",
          "40000",
          "40000",
          "40000",
          "40000",
          "40000",
          "40000",
          "40000",
          "40000",
          "40000",
          "40000",
          "40000",
          "40000",
          "40000",
          "40000",
          "40000",
          "40000",
          "40000",
          "40000",
          "40000",
          "40000",
          "40000",
          "40000",
          "40000",
          "40000",
          "40000",
          "40000",
          "40000",
          "40000",
          "40000",
          "40000",
          "40000",
          "40000",
          "40000",
          "40000",
          "40000",
          "40000",
          "40000",
          "40000",
          "40000",
          "40000",
          "40000",
          "40000",
          "40000",
          "40000",
          "40000",
          "40000",
          "40000",
          "40000",
          "40000",
          "40000",
          "40000",
          "40000",
          "40000",
          "40000",
          "40000",
          "40000",
          "40000",
          "40000",
          "40000",
          "40000",
          "40000",
          "40000",
          "40000",
          "40000",
          "40000",
          "40000",
          "40000",
          "40000",
          "40000",
          "40000",
          "40000",
          "40000",
          "40000",
          "40000",
          "40000",
          "40000",
          "40000",
          "40000",
          "40000",
          "40000",
          "40000",
          "40000",
          "40000",
          "40000",
          "40000",
          "40000",
          "40000",
          "40000",
          "40000",
          "40000",
          "40000",
          "40000",
          "40000",
          "40000",
          "40000",
          "40000",
          "40000",
          "40000",
          "40000",
          "40000",
          "40000",
          "40000",
          "40000",
          "40000",
          "40000",
          "40000",
          "40000",
          "40000",
          "40000",
          "40000",
          "40000",
          "40000",
          "40000",
          "40000",
          "40000",
          "40000",
          "40000",
          "40000",
          "40000",
          "40000",
          "40000",
          "40000",
          "39850",
          "38575",
          "37100",
          "36050",
          "35200",
          "33700",
          "32725",
          "31925",
          "30450",
          "29275",
          "27800",
          "26800",
          "25425",
          "23975",
          "22475",
          "21150",
          "19775",
          "18725",
          "17250",
          "16000",
          "14775",
          "13875",
          "12550",
          "11225",
          "10125",
          "9275",
          "8475",
          "7975",
          "7225",
          "5900",
          "4625",
          "3725",
          "2900",
          "2500",
          "2125",
          "1850",
          "1525",
          "1425",
          "1125",
          "750",
          "525",
          "300",
          "100",
          "",
          "",
          ""
        ],
        "vertical_rate_fpm": [
          "",
          "2273",
          "2545",
          "2484",
          "2625",
          "2766",
          "2956",
          "2824",
          "2227",
          "2189",
          "2160",
          "2200",
          "2640",
          "2400",
          "1925",
          "2336",
          "2066",
          "1675",
          "1929",
          "1971",
          "1929",
          "2250",
          "1882",
          "1675",
          "1775",
          "1825",
          "1975",
          "1750",
          "1378",
          "1064",
          "1023",
          "1250",
          "1475",
          "1500",
          "1475",
          "1475",
          "1550",
          "1525",
          "1475",
          "1475",
          "1500",
          "1475",
          "1500",
          "1500",
          "1300",
          "900",
          "775",
          "950",
          "1050",
          "1125",
          "1175",
          "1174",
          "1071",
          "955",
          "464",
          "50",
          "",
          "",
          "",
          "",
          "",
          "",
          "",
          "",
          "",
          "",
          "",
          "",
          "",
          "",
          "",
          "",
          "",
          "",
          "",
          "",
          "",
          "",
          "",
          "",
          "",
          "",
          "",
          "",
          "",
          "",
          "",
          "",
          "",
          "",
          "",
          "",
          "",
          "",
          "",
          "",
          "",
          "",
          "",
          "",
          "",
          "",
          "",
          "",
          "",
          "",
          "",
          "",
          "",
          "",
          "",
          "",
          "",
          "",
          "",
          "",
          "",
          "",
          "",
          "",
          "",
          "",
          "",
          "",
          "",
          "",
          "",
          "",
          "",
          "",
          "",
          "",
          "",
          "",
          "",
          "",
          "",
          "",
          "",
          "",
          "",
          "",
          "",
          "",
          "",
          "",
          "",
          "",
          "",
          "",
          "",
          "",
          "",
          "",
          "",
          "",
          "",
          "",
          "",
          "",
          "",
          "",
          "",
          "",
          "",
          "",
          "",
          "",
          "",
          "",
          "",
          "",
          "",
          "",
          "",
          "",
          "",
          "",
          "",
          "",
          "",
          "",
          "",
          "",
          "",
          "",
          "",
          "",
          "",
          "",
          "",
          "",
          "",
          "",
          "",
          "",
          "",
          "",
          "",
          "",
          "",
          "",
          "",
          "",
          "",
          "",
          "",
          "",
          "",
          "",
          "",
          "",
          "",
          "",
          "",
          "",
          "",
          "",
          "",
          "",
          "",
          "",
          "",
          "",
          "",
          "",
          "",
          "",
          "",
          "",
          "",
          "",
          "",
          "",
          "",
          "",
          "",
          "",
          "",
          "",
          "",
          "",
          "",
          "",
          "",
          "",
          "-134",
          "-1276",
          "-2750",
          "-2971",
          "-3000",
          "-3000",
          "-3031",
          "-2803",
          "-2625",
          "-2524",
          "-2271",
          "-2121",
          "-2375",
          "-2825",
          "-2950",
          "-2825",
          "-2613",
          "-2553",
          "-2525",
          "-2515",
          "-2475",
          "-2500",
          "-2724",
          "-2650",
          "-2347",
          "-1950",
          "-1650",
          "-1300",
          "-1250",
          "-2075",
          "-2737",
          "-2289",
          "-1725",
          "-1531",
          "-1134",
          "-1000",
          "-1059",
          "-567",
          "-421",
          "-750",
          "-900",
          "-844",
          "-797",
          "-750",
          "-750",
          "",
          ""
        ],
        "reporting_facility": [
          "FlightAware ADS-B(PSA / LIRP)",
          "FlightAware ADS-B(PSA / LIRP)",
          "FlightAware ADS-B(PSA / LIRP)",
          "FlightAware ADS-B(MCM / LNMC)",
          "FlightAware ADS-B(LIAO)",
          "FlightAware ADS-B(FLR / LIRQ)",
          "FlightAware ADS-B(FLR / LIRQ)",
          "FlightAware ADS-B(LIAT)",
          "FlightAware ADS-B(LCV / LIQL)",
          "FlightAware ADS-B(PSA / LIRP)",
          "FlightAware ADS-B(CEQ / LFMD)",
          "FlightAware ADS-B(PSA / LIRP)",
          "FlightAware ADS-B(PSA / LIRP)",
          "FlightAware ADS-B(BGY / LIME)",
          "FlightAware ADS-B(PSA / LIRP)",
          "FlightAware ADS-B(PSA / LIRP)",
          "FlightAware ADS-B(MCM / LNMC)",
          "FlightAware ADS-B(PSA / LIRP)",
          "FlightAware ADS-B(PMF / LIMP)",
          "FlightAware ADS-B(CEQ / LFMD)",
          "FlightAware ADS-B(MCM / LNMC)",
          "FlightAware ADS-B(BLQ / LIPE)",
          "FlightAware ADS-B(TRN / LIMF)",
          "FlightAware ADS-B(PSA / LIRP)",
          "FlightAware ADS-B(LIDU)",
          "FlightAware ADS-B(EBA / LIRJ)",
          "FlightAware ADS-B(PMF / LIMP)",
          "FlightAware ADS-B(GOA / LIMJ)",
          "FlightAware ADS-B(LIDT)",
          "FlightAware ADS-B(ALL / LIMG)",
          "FlightAware ADS-B(GOA / LIMJ)",
          "FlightAware ADS-B(BGY / LIME)",
          "FlightAware ADS-B(FLR / LIRQ)",
          "FlightAware ADS-B(TRN / LIMF)",
          "FlightAware ADS-B(VRN / LIPX)",
          "FlightAware ADS-B(CEQ / LFMD)",
          "FlightAware ADS-B(VRN / LIPX)",
          "FlightAware ADS-B(BGY / LIME)",
          "FlightAware ADS-B(LIQB)",
          "FlightAware ADS-B(PSA / LIRP)",
          "FlightAware ADS-B(BLQ / LIPE)",
          "FlightAware ADS-B(GOA / LIMJ)",
          "FlightAware ADS-B(SMV / LSZS)",
          "FlightAware ADS-B(BGY / LIME)",
          "FlightAware ADS-B(SMV / LSZS)",
          "FlightAware ADS-B(QAL / LILA)",
          "FlightAware ADS-B(LUG / LSZA)",
          "FlightAware ADS-B(NCE / LFMN)",
          "FlightAware ADS-B(TRN / LIMF)",
          "FlightAware ADS-B(MXP / LIMC)",
          "FlightAware ADS-B(VRN / LIPX)",
          "FlightAware ADS-B(LIMA)",
          "FlightAware ADS-B(VIP / LSMP)",
          "FlightAware ADS-B(LILK)",
          "FlightAware ADS-B(LIN / LIML)",
          "FlightAware ADS-B(BRN / LSZB)",
          "FlightAware ADS-B(ZRH / LSZH)",
          "FlightAware ADS-B(ZRH / LSZH)",
          "FlightAware ADS-B(LIMB)",
          "FlightAware ADS-B(LSZW)",
          "FlightAware ADS-B(VIP / LSMP)",
          "FlightAware ADS-B(MXP / LIMC)",
          "FlightAware ADS-B(BGY / LIME)",
          "FlightAware ADS-B(TRN / LIMF)",
          "FlightAware ADS-B(QAL / LILA)",
          "FlightAware ADS-B(LFSA)",
          "FlightAware ADS-B(ZRH / LSZH)",
          "FlightAware ADS-B(LSZU)",
          "FlightAware ADS-B(MXP / LIMC)",
          "FlightAware ADS-B(LIN / LIML)",
          "FlightAware ADS-B(VIP / LSMP)",
          "FlightAware ADS-B(LSZW)",
          "FlightAware ADS-B(LSGL)",
          "FlightAware ADS-B(LSGL)",
          "FlightAware ADS-B(LSPD)",
          "FlightAware ADS-B(LSPK)",
          "FlightAware ADS-B(GOA / LIMJ)",
          "FlightAware ADS-B(LSZT)",
          "FlightAware ADS-B(LILN)",
          "FlightAware ADS-B(LFHU)",
          "FlightAware ADS-B(ZRH / LSZH)",
          "FlightAware ADS-B(ENC / LFSN)",
          "FlightAware ADS-B(LSZU)",
          "FlightAware ADS-B(LSHZ)",
          "FlightAware ADS-B(ZRH / LSZH)",
          "FlightAware ADS-B(LSZP)",
          "FlightAware ADS-B(LSZP)",
          "FlightAware ADS-B(LSGL)",
          "FlightAware ADS-B(LSZP)",
          "FlightAware ADS-B(LSGN)",
          "FlightAware ADS-B(LSHC)",
          "FlightAware ADS-B(LFSU)",
          "FlightAware ADS-B(LSGN)",
          "FlightAware ADS-B(LSTB)",
          "FlightAware ADS-B(LME / LFRM)",
          "FlightAware ADS-B(LSZG)",
          "FlightAware ADS-B(LSZG)",
          "FlightAware ADS-B(ZRH / LSZH)",
          "FlightAware ADS-B(LFLH)",
          "FlightAware ADS-B(LSZU)",
          "FlightAware ADS-B(LFPM)",
          "FlightAware ADS-B(FRA / EDDF)",
          "FlightAware ADS-B(LFLH)",
          "FlightAware ADS-B(LSTB)",
          "FlightAware ADS-B(LSTB)",
          "FlightAware ADS-B(LFSU)",
          "FlightAware ADS-B(EDTW)",
          "FlightAware ADS-B(LFSU)",
          "FlightAware ADS-B(LUX / ELLX)",
          "FlightAware ADS-B(LUX / ELLX)",
          "FlightAware ADS-B(EDSZ)",
          "FlightAware ADS-B(LFLH)",
          "FlightAware ADS-B(LUX / ELLX)",
          "FlightAware ADS-B(LFLH)",
          "FlightAware ADS-B(RMS / ETAR)",
          "FlightAware ADS-B(LFLH)",
          "FlightAware ADS-B(LFLH)",
          "FlightAware ADS-B(LFOQ)",
          "FlightAware ADS-B(CDG / LFPG)",
          "FlightAware ADS-B(LFSW)",
          "FlightAware ADS-B(LFSW)",
          "FlightAware ADS-B(LUX / ELLX)",
          "FlightAware ADS-B(NVS / LFQG)",
          "FlightAware ADS-B(LFPA)",
          "FlightAware ADS-B(EIN / EHEH)",
          "FlightAware ADS-B(CRL / EBCI)",
          "FlightAware ADS-B(LFPA)",
          "FlightAware ADS-B(LFPA)",
          "FlightAware ADS-B(LUX / ELLX)",
          "FlightAware ADS-B(LFPK)",
          "FlightAware ADS-B(KJK / EBKT)",
          "FlightAware ADS-B(LUX / ELLX)",
          "FlightAware ADS-B(KJK / EBKT)",
          "FlightAware ADS-B(ANR / EBAW)",
          "FlightAware ADS-B(LBG / LFPB)",
          "FlightAware ADS-B(ELUS)",
          "FlightAware ADS-B(EVX / LFOE)",
          "FlightAware ADS-B(EBSG)",
          "FlightAware ADS-B(GLZ / EHGR)",
          "FlightAware ADS-B(LFPK)",
          "FlightAware ADS-B(ENC / LFSN)",
          "FlightAware ADS-B(EGML)",
          "FlightAware ADS-B(EBBT)",
          "FlightAware ADS-B(LGW / EGKK)",
          "FlightAware ADS-B(BRU / EBBR)",
          "FlightAware ADS-B(ORY / LFPO)",
          "FlightAware ADS-B(EGKH)",
          "FlightAware ADS-B(ORY / LFPO)",
          "FlightAware ADS-B(CDG / LFPG)",
          "FlightAware ADS-B(CRL / EBCI)",
          "FlightAware ADS-B(EBBE)",
          "FlightAware ADS-B(AMS / EHAM)",
          "FlightAware ADS-B(LFON)",
          "FlightAware ADS-B(EGML)",
          "FlightAware ADS-B(LFON)",
          "FlightAware ADS-B(GNE / EBGT)",
          "FlightAware ADS-B(EBSJ)",
          "FlightAware ADS-B(POX / LFPT)",
          "FlightAware ADS-B(FMO / EDDG)",
          "FlightAware ADS-B(HZB / LFQT)",
          "FlightAware ADS-B(LCY / EGLC)",
          "FlightAware ADS-B(EGBS)",
          "FlightAware ADS-B(MSE / EGMH)",
          "FlightAware ADS-B(SEN / EGMC)",
          "FlightAware ADS-B(EDLG)",
          "FlightAware ADS-B(BOH / EGHH)",
          "FlightAware ADS-B(LIL / LFQQ)",
          "FlightAware ADS-B(HUY / EGNJ)",
          "FlightAware ADS-B(EGLD)",
          "FlightAware ADS-B(BRU / EBBR)",
          "FlightAware ADS-B(KJK / EBKT)",
          "FlightAware ADS-B(OST / EBOS)",
          "FlightAware ADS-B(CBG / EGSC)",
          "FlightAware ADS-B(LIL / LFQQ)",
          "FlightAware ADS-B(FFD / EGVA)",
          "FlightAware ADS-B(RCS / EGTO)",
          "FlightAware ADS-B(EGLW)",
          "FlightAware ADS-B(LHR / EGLL)",
          "FlightAware ADS-B(FZO / EGTG)",
          "FlightAware ADS-B(EGFC)",
          "FlightAware ADS-B(EXT / EGTE)",
          "FlightAware ADS-B(OST / EBOS)",
          "FlightAware ADS-B(KNF / EGYM)",
          "FlightAware ADS-B(EGHR)",
          "FlightAware ADS-B(LGW / EGKK)",
          "FlightAware ADS-B(EGTH)",
          "FlightAware ADS-B(BQH / EGKB)",
          "FlightAware ADS-B(STN / EGSS)",
          "FlightAware ADS-B(BQH / EGKB)",
          "FlightAware ADS-B(EGKH)",
          "FlightAware ADS-B(GLO / EGBJ)",
          "FlightAware ADS-B(CBG / EGSC)",
          "FlightAware ADS-B(EGCL)",
          "FlightAware ADS-B(OST / EBOS)",
          "FlightAware ADS-B(LGW / EGKK)",
          "FlightAware ADS-B(ORM / EGBK)",
          "FlightAware ADS-B(QLA / EGHL)",
          "FlightAware ADS-B(EGWE)",
          "FlightAware ADS-B(SEN / EGMC)",
          "FlightAware ADS-B(EGSU)",
          "FlightAware ADS-B(SOU / EGHI)",
          "FlightAware ADS-B(EGLD)",
          "FlightAware ADS-B(LBA / EGNM)",
          "FlightAware ADS-B(EGTC)",
          "FlightAware ADS-B(DSA / EGCN)",
          "FlightAware ADS-B(EGCL)",
          "FlightAware ADS-B(GLO / EGBJ)",
          "FlightAware ADS-B(EGWC)",
          "FlightAware ADS-B(BHX / EGBB)",
          "FlightAware ADS-B(BRS / EGGD)",
          "FlightAware ADS-B(EMA / EGNX)",
          "FlightAware ADS-B(BRS / EGGD)",
          "FlightAware ADS-B(EGBM)",
          "FlightAware ADS-B(EGWC)",
          "FlightAware ADS-B(EGWC)",
          "FlightAware ADS-B(BHX / EGBB)",
          "FlightAware ADS-B(BHX / EGBB)",
          "FlightAware ADS-B(EMA / EGNX)",
          "FlightAware ADS-B(EGNE)",
          "FlightAware ADS-B(EMA / EGNX)",
          "FlightAware ADS-B(EGNA)",
          "FlightAware ADS-B(CVT / EGBE)",
          "FlightAware ADS-B(BRS / EGGD)",
          "FlightAware ADS-B(LPL / EGGP)",
          "FlightAware ADS-B(BOH / EGHH)",
          "FlightAware ADS-B(EGTF)",
          "FlightAware ADS-B(EGHS)",
          "FlightAware ADS-B(BHX / EGBB)",
          "FlightAware ADS-B(EGCR)",
          "FlightAware ADS-B(BHX / EGBB)",
          "FlightAware ADS-B(BHX / EGBB)",
          "FlightAware ADS-B(EGOE)",
          "FlightAware ADS-B(ENK / EGAB)",
          "FlightAware ADS-B(EGBW)",
          "FlightAware ADS-B(GLO / EGBJ)",
          "FlightAware ADS-B(MAN / EGCC)",
          "FlightAware ADS-B(BHX / EGBB)",
          "FlightAware ADS-B(EGNU)",
          "FlightAware ADS-B(CAX / EGNC)",
          "FlightAware ADS-B(CAX / EGNC)",
          "FlightAware ADS-B(EGCF)",
          "FlightAware ADS-B(LBA / EGNM)",
          "FlightAware ADS-B(EGNO)",
          "FlightAware ADS-B(CAX / EGNC)",
          "FlightAware ADS-B(NWI / EGSH)",
          "FlightAware ADS-B(MAN / EGCC)",
          "FlightAware ADS-B(EIWT)",
          "FlightAware ADS-B(BRS / EGGD)",
          "FlightAware ADS-B(EGNO)",
          "FlightAware ADS-B(EGWN)",
          "FlightAware ADS-B(EGWC)",
          "FlightAware ADS-B(EGBC)",
          "FlightAware ADS-B(NCL / EGNT)",
          "FlightAware ADS-B(EGCB)",
          "FlightAware ADS-B(CVT / EGBE)",
          "FlightAware ADS-B(EGCB)",
          "FlightAware ADS-B(NCL / EGNT)",
          "FlightAware ADS-B(ENK / EGAB)",
          "FlightAware ADS-B(ENK / EGAB)",
          "FlightAware ADS-B(NCL / EGNT)",
          "FlightAware ADS-B(EGFD)",
          "FlightAware ADS-B(BHD / EGAC)",
          "FlightAware ADS-B(KKY / EIKK)",
          "FlightAware ADS-B(NCL / EGNT)",
          "FlightAware ADS-B(CEG / EGNR)",
          "FlightAware ADS-B(ENK / EGAB)",
          "FlightAware ADS-B(EDI / EGPH)",
          "FlightAware ADS-B(EGAD)",
          "FlightAware ADS-B(CAX / EGNC)",
          "FlightAware ADS-B(VLY / EGOV)",
          "FlightAware ADS-B(EDI / EGPH)",
          "FlightAware ADS-B(CAX / EGNC)",
          "FlightAware ADS-B(EGAD)",
          "FlightAware ADS-B(EDI / EGPH)",
          "FlightAware ADS-B(EGAD)",
          "FlightAware ADS-B(EGCK)",
          "FlightAware ADS-B(BFS / EGAA)",
          "FlightAware ADS-B(LDY / EGAE)",
          "FlightAware ADS-B(BHD / EGAC)",
          "FlightAware ADS-B(LDY / EGAE)",
          "FlightAware ADS-B(BFS / EGAA)",
          "FlightAware ADS-B(EGHY)",
          "FlightAware ADS-B(BHD / EGAC)",
          "FlightAware ADS-B(DUB / EIDW)",
          "FlightAware ADS-B(BFS / EGAA)",
          "FlightAware ADS-B(BHD / EGAC)",
          "Surface and Near-Surface",
          "FlightAware ADS-B(BHD / EGAC)",
          "FlightAware ADS-B(EGAD)",
          "FlightAware ADS-B(BHD / EGAC)",
          "FlightAware ADS-B(BHD / EGAC)",
          "FlightAware ADS-B(BHD / EGAC)",
          "FlightAware ADS-B(BHD / EGAC)"
        ]
      }
    }
  ]
}