{
  "type": "FeatureCollection",
  "features": [
    {
      "type": "Feature",
      "geometry": {
        "type": "LineString",
        "coordinates": [
          [
            7.1156,
            50.8753
          ],
          [
            7.1048,
            50.884
          ],
          [
            7.0948,
            50.8938
          ],
          [
            7.0853,
            50.9041
          ],
          [
            7.0719,
            50.9118
          ],
          [
            7.0503,
            50.9129
          ],
          [
            7.0294,
            50.9104
          ],
          [
            7.0065,
            50.9055
          ],
          [
            6.9886,
            50.9004
          ],
          [
            6.9677,
            50.8933
          ],
          [
            6.9374,
            50.8827
          ],
          [
            6.9028,
            50.8714
          ],
          [
            6.8498,
            50.854
          ],
          [
            6.7898,
            50.8338
          ],
          [
            6.716,
            50.8094
          ],
          [
            6.675,
            50.7956
          ],
          [
            6.5872,
            50.7663
          ],
          [
            6.5228,
            50.7447
          ],
          [
            6.4626,
            50.7244
          ],
          [
            6.4,
            50.7033
          ],
          [
            6.3537,
            50.6877
          ],
          [
            6.3041,
            50.6708
          ],
          [
            6.2326,
            50.6465
          ],
          [
            6.1947,
            50.6363
          ],
          [
            6.1517,
            50.6276
          ],
          [
            6.0955,
            50.6171
          ],
          [
            6.0277,
            50.6045
          ],
          [
            5.9567,
            50.5918
          ],
          [
            5.906,
            50.5825
          ],
          [
            5.7931,
            50.5599
          ],
          [
            5.7119,
            50.5421
          ],
          [
            5.6311,
            50.5237
          ],
          [
            5.5499,
            50.5049
          ],
          [
            5.5108,
            50.4955
          ],
          [
            5.4282,
            50.4755
          ],
          [
            5.3469,
            50.4556
          ],
          [
            5.2604,
            50.4338
          ],
          [
            5.1809,
            50.4133
          ],
          [
            5.0977,
            50.3911
          ],
          [
            5.01,
            50.3678
          ],
          [
            4.9237,
            50.3447
          ],
          [
            4.8594,
            50.3275
          ],
          [
            4.8085,
            50.3111
          ],
          [
            4.6971,
            50.2644
          ],
          [
            4.5612,
            50.2071
          ],
          [
            4.4839,
            50.1746
          ],
          [
            4.4041,
            50.1408
          ],
          [
            4.3254,
            50.1076
          ],
          [
            4.251,
            50.0761
          ],
          [
            4.1717,
            50.0423
          ],
          [
            4.0935,
            50.0091
          ],
          [
            4.0152,
            49.9755
          ],
          [
            3.9508,
            49.9479
          ],
          [
            3.8739,
            49.9149
          ],
          [
            3.7982,
            49.8823
          ],
          [
            3.7209,
            49.8489
          ],
          [
            3.6423,
            49.8148
          ],
          [
            3.5831,
            49.789
          ],
          [
            3.4975,
            49.7518
          ],
          [
            3.4182,
            49.717
          ],
          [
            3.344,
            49.6846
          ],
          [
            3.2694,
            49.6518
          ],
          [
            3.1961,
            49.6195
          ],
          [
            3.1198,
            49.5857
          ],
          [
            3.0442,
            49.551
          ],
          [
            2.9728,
            49.5173
          ],
          [
            2.896,
            49.4818
          ],
          [
            2.8223,
            49.4471
          ],
          [
            2.7511,
            49.4137
          ],
          [
            2.6726,
            49.3768
          ],
          [
            2.6038,
            49.3442
          ],
          [
            2.5287,
            49.3086
          ],
          [
            2.4566,
            49.2744
          ],
          [
            2.3819,
            49.2388
          ],
          [
            2.3095,
            49.2041
          ],
          [
            2.237,
            49.1694
          ],
          [
            2.1656,
            49.1352
          ],
          [
            2.0906,
            49.099
          ],
          [
            2.0187,
            49.0643
          ],
          [
            1.9487,
            49.0304
          ],
          [
            1.8752,
            48.9947
          ],
          [
            1.8038,
            48.9599
          ],
          [
            1.7311,
            48.9245
          ],
          [
            1.6596,
            48.8894
          ],
          [
            1.589,
            48.8548
          ],
          [
            1.5178,
            48.8197
          ],
          [
            1.4451,
            48.7838
          ],
          [
            1.3752,
            48.7492
          ],
          [
            1.302,
            48.7129
          ],
          [
            1.2315,
            48.6779
          ],
          [
            1.1605,
            48.6424
          ],
          [
            1.0883,
            48.6063
          ],
          [
            1.0187,
            48.5714
          ],
          [
            0.9438,
            48.5337
          ],
          [
            0.8722,
            48.4976
          ],
          [
            0.8,
            48.4611
          ],
          [
            0.7297,
            48.4255
          ],
          [
            0.6551,
            48.3876
          ],
          [
            0.581,
            48.3499
          ],
          [
            0.507,
            48.312
          ],
          [
            0.4359,
            48.2756
          ],
          [
            0.3624,
            48.2378
          ],
          [
            0.2898,
            48.2004
          ],
          [
            0.2134,
            48.1609
          ],
          [
            0.1381,
            48.1219
          ],
          [
            0.0652,
            48.0841
          ],
          [
            -0.0067,
            48.0467
          ],
          [
            -0.0776,
            48.0096
          ],
          [
            -0.1513,
            47.971
          ],
          [
            -0.2226,
            47.9336
          ],
          [
            -0.2973,
            47.8943
          ],
          [
            -0.3695,
            47.8561
          ],
          [
            -0.44,
            47.8189
          ],
          [
            -0.5127,
            47.7803
          ],
          [
            -0.5843,
            47.7422
          ],
          [
            -0.6557,
            47.7041
          ],
          [
            -0.7241,
            47.6675
          ],
          [
            -0.7968,
            47.6285
          ],
          [
            -0.8699,
            47.5892
          ],
          [
            -0.9388,
            47.5522
          ],
          [
            -1.0103,
            47.5134
          ],
          [
            -1.0818,
            47.4748
          ],
          [
            -1.1529,
            47.4361
          ],
          [
            -1.2251,
            47.3967
          ],
          [
            -1.2964,
            47.3578
          ],
          [
            -1.3689,
            47.3181
          ],
          [
            -1.4435,
            47.2772
          ],
          [
            -1.5156,
            47.2375
          ],
          [
            -1.5849,
            47.1992
          ],
          [
            -1.6587,
            47.1557
          ],
          [
            -1.727,
            47.1117
          ],
          [
            -1.7954,
            47.0683
          ],
          [
            -1.8653,
            47.0241
          ],
          [
            -1.9335,
            46.9803
          ],
          [
            -2.0019,
            46.9367
          ],
          [
            -2.0713,
            46.8921
          ],
          [
            -2.1362,
            46.8504
          ],
          [
            -2.2067,
            46.8048
          ],
          [
            -2.2742,
            46.7612
          ],
          [
            -2.3426,
            46.7168
          ],
          [
            -2.4068,
            46.675
          ],
          [
            -2.4777,
            46.6289
          ],
          [
            -2.5488,
            46.5825
          ],
          [
            -2.6177,
            46.5372
          ],
          [
            -2.6848,
            46.4932
          ],
          [
            -2.7511,
            46.4495
          ],
          [
            -2.8267,
            46.3995
          ],
          [
            -2.8929,
            46.3557
          ],
          [
            -2.9589,
            46.312
          ],
          [
            -3.0233,
            46.2691
          ],
          [
            -3.0885,
            46.2255
          ],
          [
            -3.1527,
            46.1827
          ],
          [
            -3.2184,
            46.1385
          ],
          [
            -3.286,
            46.0932
          ],
          [
            -3.3512,
            46.0494
          ],
          [
            -3.4174,
            46.0047
          ],
          [
            -3.4808,
            45.9616
          ],
          [
            -3.5568,
            45.91
          ],
          [
            -3.6219,
            45.8657
          ],
          [
            -3.6856,
            45.8223
          ],
          [
            -3.7572,
            45.7742
          ],
          [
            -3.8249,
            45.7282
          ],
          [
            -3.8884,
            45.6852
          ],
          [
            -3.9501,
            45.6421
          ],
          [
            -4.0105,
            45.5992
          ],
          [
            -4.0737,
            45.5557
          ],
          [
            -4.1379,
            45.5111
          ],
          [
            -4.1986,
            45.4687
          ],
          [
            -4.2782,
            45.3941
          ],
          [
            -4.3255,
            45.3398
          ],
          [
            -4.3733,
            45.2857
          ],
          [
            -4.4189,
            45.2353
          ],
          [
            -4.4688,
            45.1793
          ],
          [
            -4.5163,
            45.126
          ],
          [
            -4.5645,
            45.0721
          ],
          [
            -4.6128,
            45.0178
          ],
          [
            -4.6573,
            44.9676
          ],
          [
            -4.7034,
            44.9157
          ],
          [
            -4.7521,
            44.8606
          ],
          [
            -4.7992,
            44.8072
          ],
          [
            -4.8459,
            44.7541
          ],
          [
            -4.907,
            44.6846
          ],
          [
            -4.9568,
            44.6279
          ],
          [
            -5.0058,
            44.5717
          ],
          [
            -5.0533,
            44.5173
          ],
          [
            -5.1018,
            44.4614
          ],
          [
            -5.1487,
            44.4073
          ],
          [
            -5.1959,
            44.3529
          ],
          [
            -5.2458,
            44.2951
          ],
          [
            -5.2932,
            44.2402
          ],
          [
            -5.3448,
            44.1803
          ],
          [
            -5.39,
            44.1276
          ],
          [
            -5.437,
            44.0727
          ],
          [
            -5.4852,
            44.0162
          ],
          [
            -5.5301,
            43.9636
          ],
          [
            -5.5766,
            43.9089
          ],
          [
            -5.6228,
            43.8545
          ],
          [
            -5.6696,
            43.7991
          ],
          [
            -5.7165,
            43.7438
          ],
          [
            -5.7628,
            43.6891
          ],
          [
            -5.809,
            43.634
          ],
          [
            -5.8548,
            43.5794
          ],
          [
            -5.9,
            43.5256
          ],
          [
            -5.9475,
            43.4686
          ],
          [
            -5.9934,
            43.4136
          ],
          [
            -6.0393,
            43.3586
          ],
          [
            -6.0867,
            43.3015
          ],
          [
            -6.1336,
            43.2448
          ],
          [
            -6.1783,
            43.1909
          ],
          [
            -6.2259,
            43.1331
          ],
          [
            -6.2711,
            43.0783
          ],
          [
            -6.3171,
            43.0223
          ],
          [
            -6.3635,
            42.9656
          ],
          [
            -6.4086,
            42.9105
          ],
          [
            -6.4557,
            42.8529
          ],
          [
            -6.502,
            42.7961
          ],
          [
            -6.5488,
            42.7383
          ],
          [
            -6.596,
            42.6802
          ],
          [
            -6.6423,
            42.6231
          ],
          [
            -6.6876,
            42.567
          ],
          [
            -6.7335,
            42.51
          ],
          [
            -6.7801,
            42.4521
          ],
          [
            -6.8269,
            42.3937
          ],
          [
            -6.8724,
            42.3369
          ],
          [
            -6.9183,
            42.2795
          ],
          [
            -6.965,
            42.2209
          ],
          [
            -7.0104,
            42.1638
          ],
          [
            -7.0549,
            42.1077
          ],
          [
            -7.1039,
            42.0458
          ],
          [
            -7.1484,
            41.9896
          ],
          [
            -7.1945,
            41.9311
          ],
          [
            -7.2399,
            41.8735
          ],
          [
            -7.2868,
            41.8136
          ],
          [
            -7.3323,
            41.7556
          ],
          [
            -7.3776,
            41.6976
          ],
          [
            -7.422,
            41.6408
          ],
          [
            -7.4673,
            41.5826
          ],
          [
            -7.5143,
            41.522
          ],
          [
            -7.5591,
            41.4642
          ],
          [
            -7.6055,
            41.4044
          ],
          [
            -7.652,
            41.3443
          ],
          [
            -7.699,
            41.2831
          ],
          [
            -7.7448,
            41.2235
          ],
          [
            -7.7928,
            41.161
          ],
          [
            -7.837,
            41.1031
          ],
          [
            -7.8819,
            41.0445
          ],
          [
            -7.9284,
            40.9834
          ],
          [
            -7.9747,
            40.9226
          ],
          [
            -8.0205,
            40.8622
          ],
          [
            -8.0665,
            40.8015
          ],
          [
            -8.1122,
            40.741
          ],
          [
            -8.158,
            40.6802
          ],
          [
            -8.2007,
            40.6235
          ],
          [
            -8.248,
            40.5606
          ],
          [
            -8.2924,
            40.5013
          ],
          [
            -8.3379,
            40.4404
          ],
          [
            -8.3829,
            40.3802
          ],
          [
            -8.4284,
            40.3191
          ],
          [
            -8.4743,
            40.2573
          ],
          [
            -8.5207,
            40.1947
          ],
          [
            -8.5707,
            40.1272
          ],
          [
            -8.6154,
            40.0666
          ],
          [
            -8.6616,
            40.0039
          ],
          [
            -8.7064,
            39.9431
          ],
          [
            -8.7589,
            39.8715
          ],
          [
            -8.8013,
            39.8135
          ],
          [
            -8.8511,
            39.7452
          ],
          [
            -8.8961,
            39.6835
          ],
          [
            -8.9408,
            39.6221
          ],
          [
            -8.9859,
            39.56
          ],
          [
            -9.031,
            39.4977
          ],
          [
            -9.0747,
            39.4374
          ],
          [
            -9.1217,
            39.3721
          ],
          [
            -9.1668,
            39.3096
          ],
          [
            -9.2097,
            39.2497
          ],
          [
            -9.2569,
            39.184
          ],
          [
            -9.3019,
            39.121
          ],
          [
            -9.3448,
            39.0608
          ],
          [
            -9.3924,
            38.994
          ],
          [
            -9.4388,
            38.9289
          ],
          [
            -9.4827,
            38.8669
          ],
          [
            -9.5264,
            38.8053
          ],
          [
            -9.5715,
            38.7414
          ],
          [
            -9.6157,
            38.6787
          ],
          [
            -9.6608,
            38.6146
          ],
          [
            -9.7048,
            38.5521
          ],
          [
            -9.7496,
            38.4881
          ],
          [
            -9.7939,
            38.4248
          ],
          [
            -9.8384,
            38.361
          ],
          [
            -9.8826,
            38.2976
          ],
          [
            -9.928,
            38.2322
          ],
          [
            -9.9718,
            38.1691
          ],
          [
            -10.0161,
            38.1052
          ],
          [
            -10.0607,
            38.0407
          ],
          [
            -10.1057,
            37.9753
          ],
          [
            -10.1484,
            37.9133
          ],
          [
            -10.1915,
            37.8506
          ],
          [
            -10.2363,
            37.7853
          ],
          [
            -10.2805,
            37.7206
          ],
          [
            -10.3247,
            37.6558
          ],
          [
            -10.3686,
            37.5915
          ],
          [
            -10.4144,
            37.524
          ],
          [
            -10.4582,
            37.4596
          ],
          [
            -10.5018,
            37.3951
          ],
          [
            -10.5493,
            37.325
          ],
          [
            -10.5926,
            37.2608
          ],
          [
            -10.6362,
            37.196
          ],
          [
            -10.6788,
            37.1326
          ],
          [
            -10.725,
            37.0635
          ],
          [
            -10.7702,
            36.9962
          ],
          [
            -10.8135,
            36.9313
          ],
          [
            -10.8575,
            36.8651
          ],
          [
            -10.9085,
            36.7887
          ],
          [
            -10.9515,
            36.7239
          ],
          [
            -10.9971,
            36.6548
          ],
          [
            -11.0422,
            36.5867
          ],
          [
            -11.0845,
            36.5228
          ],
          [
            -11.1292,
            36.4548
          ],
          [
            -11.1689,
            36.3943
          ],
          [
            -11.2193,
            36.3175
          ],
          [
            -11.2614,
            36.2533
          ],
          [
            -11.3072,
            36.1832
          ],
          [
            -11.3487,
            36.1196
          ],
          [
            -11.3946,
            36.049
          ],
          [
            -11.444,
            35.9729
          ],
          [
            -11.4859,
            35.9067
          ],
          [
            -11.5249,
            35.8432
          ],
          [
            -11.5727,
            35.7672
          ],
          [
            -11.6307,
            35.6741
          ],
          [
            -11.6779,
            35.5978
          ],
          [
            -11.7464,
            35.4872
          ],
          [
            -11.7905,
            35.4159
          ],
          [
            -11.8621,
            35.2996
          ],
          [
            -11.9096,
            35.2219
          ],
          [
            -11.948766666666666,
            35.15779583333333
          ],
          [
            -11.987933333333332,
            35.093691666666665
          ],
          [
            -12.027099999999999,
            35.0295875
          ],
          [
            -12.066266666666667,
            34.96548333333333
          ],
          [
            -12.0976,
            34.9142
          ],
          [
            -12.1407,
            34.843
          ],
          [
            -12.177199110320286,
            34.78098754448399
          ],
          [
            -12.21369822064057,
            34.71897508896797
          ],
          [
            -12.250197330960855,
            34.65696263345196
          ],
          [
            -12.286696441281139,
            34.59495017793595
          ],
          [
            -12.323195551601424,
            34.53293772241993
          ],
          [
            -12.35969466192171,
            34.47092526690392
          ],
          [
            -12.396193772241993,
            34.4089128113879
          ],
          [
            -12.432692882562279,
            34.34690035587189
          ],
          [
            -12.469191992882562,
            34.284887900355876
          ],
          [
            -12.505691103202848,
            34.22287544483986
          ],
          [
            -12.542190213523133,
            34.160862989323846
          ],
          [
            -12.578689323843417,
            34.098850533807834
          ],
          [
            -12.615188434163702,
            34.036838078291815
          ],
          [
            -12.651687544483986,
            33.9748256227758
          ],
          [
            -12.688186654804271,
            33.912813167259785
          ],
          [
            -12.724685765124555,
            33.85080071174377
          ],
          [
            -12.76118487544484,
            33.78878825622776
          ],
          [
            -12.797683985765126,
            33.72677580071174
          ],
          [
            -12.83418309608541,
            33.66476334519573
          ],
          [
            -12.870682206405695,
            33.60275088967972
          ],
          [
            -12.907181316725978,
            33.5407384341637
          ],
          [
            -12.943680427046264,
            33.47872597864769
          ],
          [
            -12.98017953736655,
            33.41671352313167
          ],
          [
            -13.016678647686833,
            33.35470106761566
          ],
          [
            -13.053177758007118,
            33.292688612099646
          ],
          [
            -13.089676868327402,
            33.23067615658363
          ],
          [
            -13.126175978647687,
            33.168663701067615
          ],
          [
            -13.162675088967973,
            33.1066512455516
          ],
          [
            -13.199174199288256,
            33.044638790035584
          ],
          [
            -13.235673309608542,
            32.98262633451957
          ],
          [
            -13.272172419928825,
            32.920613879003554
          ],
          [
            -13.30867153024911,
            32.85860142348754
          ],
          [
            -13.345170640569396,
            32.79658896797153
          ],
          [
            -13.38166975088968,
            32.73457651245551
          ],
          [
            -13.418168861209965,
            32.6725640569395
          ],
          [
            -13.454667971530249,
            32.61055160142349
          ],
          [
            -13.491167081850534,
            32.54853914590747
          ],
          [
            -13.5082,
            32.5196
          ],
          [
            -13.5847,
            32.3853
          ],
          [
            -13.6454,
            32.2787
          ],
          [
            -13.7038,
            32.1757
          ],
          [
            -13.7377,
            32.1158
          ],
          [
            -13.8008,
            32.0041
          ],
          [
            -13.833,
            31.9469
          ],
          [
            -13.8693,
            31.8824
          ],
          [
            -13.9118,
            31.8068
          ],
          [
            -13.9664,
            31.7093
          ],
          [
            -14.0002,
            31.6489
          ],
          [
            -14.048,
            31.5634
          ],
          [
            -14.0816,
            31.5033
          ],
          [
            -14.1151,
            31.4432
          ],
          [
            -14.1504,
            31.3793
          ],
          [
            -14.1839,
            31.319
          ],
          [
            -14.2163,
            31.2608
          ],
          [
            -14.2534,
            31.1937
          ],
          [
            -14.2891,
            31.129
          ],
          [
            -14.3123,
            31.0876
          ],
          [
            -14.3681,
            31.0121
          ],
          [
            -14.4094,
            30.9615
          ],
          [
            -14.4518,
            30.908
          ],
          [
            -14.4934,
            30.8551
          ],
          [
            -14.5381,
            30.7986
          ],
          [
            -14.5841,
            30.74
          ],
          [
            -14.625,
            30.688
          ],
          [
            -14.6677,
            30.6336
          ],
          [
            -14.7097,
            30.5799
          ],
          [
            -14.7505,
            30.5277
          ],
          [
            -14.7929,
            30.4733
          ],
          [
            -14.8368,
            30.417
          ],
          [
            -14.8785,
            30.3635
          ],
          [
            -14.919,
            30.3114
          ],
          [
            -14.9597,
            30.2589
          ],
          [
            -14.9998,
            30.2071
          ],
          [
            -15.0394,
            30.1562
          ],
          [
            -15.0807,
            30.0986
          ],
          [
            -15.1149,
            30.0417
          ],
          [
            -15.1523,
            29.979
          ],
          [
            -15.1927,
            29.9135
          ],
          [
            -15.2287,
            29.8541
          ],
          [
            -15.2656,
            29.7935
          ],
          [
            -15.2992,
            29.7383
          ],
          [
            -15.3388,
            29.6732
          ],
          [
            -15.3714,
            29.6195
          ],
          [
            -15.405,
            29.5639
          ],
          [
            -15.4391,
            29.5077
          ],
          [
            -15.4726,
            29.4524
          ],
          [
            -15.5053,
            29.3981
          ],
          [
            -15.5381,
            29.3439
          ],
          [
            -15.5709,
            29.2895
          ],
          [
            -15.6069,
            29.2295
          ],
          [
            -15.6435,
            29.1682
          ],
          [
            -15.6785,
            29.11
          ],
          [
            -15.7155,
            29.0494
          ],
          [
            -15.7491,
            28.9919
          ],
          [
            -15.7878,
            28.9269
          ],
          [
            -15.823,
            28.8685
          ],
          [
            -15.8554,
            28.8151
          ],
          [
            -15.8869,
            28.7618
          ],
          [
            -15.9169,
            28.7105
          ],
          [
            -15.9468,
            28.661
          ],
          [
            -15.9736,
            28.6157
          ],
          [
            -15.9991,
            28.5726
          ],
          [
            -16.0245,
            28.5301
          ],
          [
            -16.0491,
            28.4896
          ],
          [
            -16.0612,
            28.4698
          ],
          [
            -16.0757,
            28.4567
          ],
          [
            -16.101,
            28.447
          ],
          [
            -16.1403,
            28.4341
          ],
          [
            -16.161,
            28.4272
          ],
          [
            -16.1865,
            28.4256
          ],
          [
            -16.2056,
            28.4353
          ],
          [
            -16.2276,
            28.4442
          ],
          [
            -16.2496,
            28.452
          ],
          [
            -16.2632,
            28.4565
          ],
          [
            -16.2759,
            28.4608
          ],
          [
            -16.2879,
            28.4648
          ],
          [
            -16.2992,
            28.4686
          ],
          [
            -16.3095,
            28.4721
          ],
          [
            -16.3198,
            28.4754
          ],
          [
            -16.3298,
            28.4788
          ]
        ]
      },
      "properties": {
        "time_europe_berlin": [
          "30.11.2025 11:26:27",
          "30.11.2025 11:26:43",
          "30.11.2025 11:26:59",
          "30.11.2025 11:27:15",
          "30.11.2025 11:27:31",
          "30.11.2025 11:27:47",
          "30.11.2025 11:28:06",
          "30.11.2025 11:28:23",
          "30.11.2025 11:28:40",
          "30.11.2025 11:28:57",
          "30.11.2025 11:29:21",
          "30.11.2025 11:29:44",
          "30.11.2025 11:30:14",
          "30.11.2025 11:30:47",
          "30.11.2025 11:31:24",
          "30.11.2025 11:31:44",
          "30.11.2025 11:32:27",
          "30.11.2025 11:32:57",
          "30.11.2025 11:33:27",
          "30.11.2025 11:33:57",
          "30.11.2025 11:34:18",
          "30.11.2025 11:34:41",
          "30.11.2025 11:35:13",
          "30.11.2025 11:35:29",
          "30.11.2025 11:35:46",
          "30.11.2025 11:36:09",
          "30.11.2025 11:36:33",
          "30.11.2025 11:37:00",
          "30.11.2025 11:37:20",
          "30.11.2025 11:38:02",
          "30.11.2025 11:38:32",
          "30.11.2025 11:39:02",
          "30.11.2025 11:39:31",
          "30.11.2025 11:39:47",
          "30.11.2025 11:40:17",
          "30.11.2025 11:40:47",
          "30.11.2025 11:41:16",
          "30.11.2025 11:41:46",
          "30.11.2025 11:42:16",
          "30.11.2025 11:42:46",
          "30.11.2025 11:43:16",
          "30.11.2025 11:43:40",
          "30.11.2025 11:43:58",
          "30.11.2025 11:44:40",
          "30.11.2025 11:45:33",
          "30.11.2025 11:46:03",
          "30.11.2025 11:46:33",
          "30.11.2025 11:47:03",
          "30.11.2025 11:47:33",
          "30.11.2025 11:48:03",
          "30.11.2025 11:48:33",
          "30.11.2025 11:49:03",
          "30.11.2025 11:49:28",
          "30.11.2025 11:49:58",
          "30.11.2025 11:50:28",
          "30.11.2025 11:50:58",
          "30.11.2025 11:51:28",
          "30.11.2025 11:51:52",
          "30.11.2025 11:52:25",
          "30.11.2025 11:52:56",
          "30.11.2025 11:53:26",
          "30.11.2025 11:53:56",
          "30.11.2025 11:54:26",
          "30.11.2025 11:54:56",
          "30.11.2025 11:55:26",
          "30.11.2025 11:55:56",
          "30.11.2025 11:56:26",
          "30.11.2025 11:56:56",
          "30.11.2025 11:57:26",
          "30.11.2025 11:57:56",
          "30.11.2025 11:58:26",
          "30.11.2025 11:58:56",
          "30.11.2025 11:59:26",
          "30.11.2025 11:59:56",
          "30.11.2025 12:00:26",
          "30.11.2025 12:00:56",
          "30.11.2025 12:01:26",
          "30.11.2025 12:01:56",
          "30.11.2025 12:02:26",
          "30.11.2025 12:02:56",
          "30.11.2025 12:03:26",
          "30.11.2025 12:03:56",
          "30.11.2025 12:04:26",
          "30.11.2025 12:04:56",
          "30.11.2025 12:05:26",
          "30.11.2025 12:05:56",
          "30.11.2025 12:06:26",
          "30.11.2025 12:06:56",
          "30.11.2025 12:07:26",
          "30.11.2025 12:07:56",
          "30.11.2025 12:08:26",
          "30.11.2025 12:08:56",
          "30.11.2025 12:09:26",
          "30.11.2025 12:09:56",
          "30.11.2025 12:10:26",
          "30.11.2025 12:10:56",
          "30.11.2025 12:11:26",
          "30.11.2025 12:11:56",
          "30.11.2025 12:12:27",
          "30.11.2025 12:12:57",
          "30.11.2025 12:13:28",
          "30.11.2025 12:13:58",
          "30.11.2025 12:14:28",
          "30.11.2025 12:15:00",
          "30.11.2025 12:15:31",
          "30.11.2025 12:16:02",
          "30.11.2025 12:16:32",
          "30.11.2025 12:17:02",
          "30.11.2025 12:17:32",
          "30.11.2025 12:18:02",
          "30.11.2025 12:18:33",
          "30.11.2025 12:19:03",
          "30.11.2025 12:19:33",
          "30.11.2025 12:20:03",
          "30.11.2025 12:20:33",
          "30.11.2025 12:21:03",
          "30.11.2025 12:21:33",
          "30.11.2025 12:22:03",
          "30.11.2025 12:22:33",
          "30.11.2025 12:23:03",
          "30.11.2025 12:23:33",
          "30.11.2025 12:24:03",
          "30.11.2025 12:24:33",
          "30.11.2025 12:25:03",
          "30.11.2025 12:25:33",
          "30.11.2025 12:26:03",
          "30.11.2025 12:26:34",
          "30.11.2025 12:27:04",
          "30.11.2025 12:27:34",
          "30.11.2025 12:28:04",
          "30.11.2025 12:28:34",
          "30.11.2025 12:29:04",
          "30.11.2025 12:29:34",
          "30.11.2025 12:30:04",
          "30.11.2025 12:30:34",
          "30.11.2025 12:31:04",
          "30.11.2025 12:31:34",
          "30.11.2025 12:32:05",
          "30.11.2025 12:32:35",
          "30.11.2025 12:33:05",
          "30.11.2025 12:33:35",
          "30.11.2025 12:34:06",
          "30.11.2025 12:34:39",
          "30.11.2025 12:35:10",
          "30.11.2025 12:35:40",
          "30.11.2025 12:36:10",
          "30.11.2025 12:36:45",
          "30.11.2025 12:37:15",
          "30.11.2025 12:37:45",
          "30.11.2025 12:38:15",
          "30.11.2025 12:38:46",
          "30.11.2025 12:39:16",
          "30.11.2025 12:39:46",
          "30.11.2025 12:40:18",
          "30.11.2025 12:40:48",
          "30.11.2025 12:41:18",
          "30.11.2025 12:41:48",
          "30.11.2025 12:42:24",
          "30.11.2025 12:42:55",
          "30.11.2025 12:43:25",
          "30.11.2025 12:43:59",
          "30.11.2025 12:44:31",
          "30.11.2025 12:45:01",
          "30.11.2025 12:45:31",
          "30.11.2025 12:46:01",
          "30.11.2025 12:46:31",
          "30.11.2025 12:47:02",
          "30.11.2025 12:47:32",
          "30.11.2025 12:48:17",
          "30.11.2025 12:48:47",
          "30.11.2025 12:49:17",
          "30.11.2025 12:49:47",
          "30.11.2025 12:50:17",
          "30.11.2025 12:50:47",
          "30.11.2025 12:51:17",
          "30.11.2025 12:51:47",
          "30.11.2025 12:52:17",
          "30.11.2025 12:52:47",
          "30.11.2025 12:53:17",
          "30.11.2025 12:53:47",
          "30.11.2025 12:54:17",
          "30.11.2025 12:54:56",
          "30.11.2025 12:55:27",
          "30.11.2025 12:55:59",
          "30.11.2025 12:56:29",
          "30.11.2025 12:57:00",
          "30.11.2025 12:57:31",
          "30.11.2025 12:58:01",
          "30.11.2025 12:58:33",
          "30.11.2025 12:59:03",
          "30.11.2025 12:59:37",
          "30.11.2025 13:00:07",
          "30.11.2025 13:00:37",
          "30.11.2025 13:01:08",
          "30.11.2025 13:01:38",
          "30.11.2025 13:02:08",
          "30.11.2025 13:02:38",
          "30.11.2025 13:03:08",
          "30.11.2025 13:03:39",
          "30.11.2025 13:04:09",
          "30.11.2025 13:04:39",
          "30.11.2025 13:05:09",
          "30.11.2025 13:05:39",
          "30.11.2025 13:06:09",
          "30.11.2025 13:06:39",
          "30.11.2025 13:07:09",
          "30.11.2025 13:07:40",
          "30.11.2025 13:08:11",
          "30.11.2025 13:08:41",
          "30.11.2025 13:09:11",
          "30.11.2025 13:09:41",
          "30.11.2025 13:10:11",
          "30.11.2025 13:10:41",
          "30.11.2025 13:11:11",
          "30.11.2025 13:11:41",
          "30.11.2025 13:12:12",
          "30.11.2025 13:12:42",
          "30.11.2025 13:13:12",
          "30.11.2025 13:13:42",
          "30.11.2025 13:14:12",
          "30.11.2025 13:14:42",
          "30.11.2025 13:15:12",
          "30.11.2025 13:15:42",
          "30.11.2025 13:16:12",
          "30.11.2025 13:16:42",
          "30.11.2025 13:17:12",
          "30.11.2025 13:17:42",
          "30.11.2025 13:18:13",
          "30.11.2025 13:18:43",
          "30.11.2025 13:19:13",
          "30.11.2025 13:19:43",
          "30.11.2025 13:20:14",
          "30.11.2025 13:20:44",
          "30.11.2025 13:21:15",
          "30.11.2025 13:21:45",
          "30.11.2025 13:22:15",
          "30.11.2025 13:22:45",
          "30.11.2025 13:23:15",
          "30.11.2025 13:23:45",
          "30.11.2025 13:24:15",
          "30.11.2025 13:24:46",
          "30.11.2025 13:25:17",
          "30.11.2025 13:25:47",
          "30.11.2025 13:26:17",
          "30.11.2025 13:26:47",
          "30.11.2025 13:27:17",
          "30.11.2025 13:27:47",
          "30.11.2025 13:28:18",
          "30.11.2025 13:28:48",
          "30.11.2025 13:29:18",
          "30.11.2025 13:29:48",
          "30.11.2025 13:30:18",
          "30.11.2025 13:30:48",
          "30.11.2025 13:31:18",
          "30.11.2025 13:31:48",
          "30.11.2025 13:32:18",
          "30.11.2025 13:32:48",
          "30.11.2025 13:33:18",
          "30.11.2025 13:33:49",
          "30.11.2025 13:34:19",
          "30.11.2025 13:34:50",
          "30.11.2025 13:35:21",
          "30.11.2025 13:35:52",
          "30.11.2025 13:36:22",
          "30.11.2025 13:36:56",
          "30.11.2025 13:37:28",
          "30.11.2025 13:37:58",
          "30.11.2025 13:38:28",
          "30.11.2025 13:38:58",
          "30.11.2025 13:39:28",
          "30.11.2025 13:39:58",
          "30.11.2025 13:40:28",
          "30.11.2025 13:40:58",
          "30.11.2025 13:41:28",
          "30.11.2025 13:41:58",
          "30.11.2025 13:42:29",
          "30.11.2025 13:42:59",
          "30.11.2025 13:43:29",
          "30.11.2025 13:43:59",
          "30.11.2025 13:44:31",
          "30.11.2025 13:45:01",
          "30.11.2025 13:45:31",
          "30.11.2025 13:46:01",
          "30.11.2025 13:46:31",
          "30.11.2025 13:47:01",
          "30.11.2025 13:47:31",
          "30.11.2025 13:48:01",
          "30.11.2025 13:48:31",
          "30.11.2025 13:49:01",
          "30.11.2025 13:49:31",
          "30.11.2025 13:50:01",
          "30.11.2025 13:50:31",
          "30.11.2025 13:51:01",
          "30.11.2025 13:51:31",
          "30.11.2025 13:52:01",
          "30.11.2025 13:52:31",
          "30.11.2025 13:53:01",
          "30.11.2025 13:53:31",
          "30.11.2025 13:54:01",
          "30.11.2025 13:54:31",
          "30.11.2025 13:55:01",
          "30.11.2025 13:55:33",
          "30.11.2025 13:56:03",
          "30.11.2025 13:56:33",
          "30.11.2025 13:57:05",
          "30.11.2025 13:57:35",
          "30.11.2025 13:58:05",
          "30.11.2025 13:58:35",
          "30.11.2025 13:59:06",
          "30.11.2025 13:59:39",
          "30.11.2025 14:00:09",
          "30.11.2025 14:00:39",
          "30.11.2025 14:01:14",
          "30.11.2025 14:01:45",
          "30.11.2025 14:02:17",
          "30.11.2025 14:02:48",
          "30.11.2025 14:03:18",
          "30.11.2025 14:03:50",
          "30.11.2025 14:04:20",
          "30.11.2025 14:04:55",
          "30.11.2025 14:05:25",
          "30.11.2025 14:05:58",
          "30.11.2025 14:06:28",
          "30.11.2025 14:06:59",
          "30.11.2025 14:07:35",
          "30.11.2025 14:08:07",
          "30.11.2025 14:08:37",
          "30.11.2025 14:09:12",
          "30.11.2025 14:09:55",
          "30.11.2025 14:10:31",
          "30.11.2025 14:11:23",
          "30.11.2025 14:11:55",
          "30.11.2025 14:12:50",
          "30.11.2025 14:13:27",
          "30.11.2025 14:13:57",
          "30.11.2025 14:14:27",
          "30.11.2025 14:14:57",
          "30.11.2025 14:15:27",
          "30.11.2025 14:15:51",
          "30.11.2025 14:16:25",
          "30.11.2025 14:16:55",
          "30.11.2025 14:17:25",
          "30.11.2025 14:17:55",
          "30.11.2025 14:18:25",
          "30.11.2025 14:18:55",
          "30.11.2025 14:19:25",
          "30.11.2025 14:19:55",
          "30.11.2025 14:20:25",
          "30.11.2025 14:20:55",
          "30.11.2025 14:21:25",
          "30.11.2025 14:21:55",
          "30.11.2025 14:22:25",
          "30.11.2025 14:22:55",
          "30.11.2025 14:23:25",
          "30.11.2025 14:23:55",
          "30.11.2025 14:24:25",
          "30.11.2025 14:24:55",
          "30.11.2025 14:25:25",
          "30.11.2025 14:25:55",
          "30.11.2025 14:26:25",
          "30.11.2025 14:26:55",
          "30.11.2025 14:27:25",
          "30.11.2025 14:27:55",
          "30.11.2025 14:28:25",
          "30.11.2025 14:28:55",
          "30.11.2025 14:29:25",
          "30.11.2025 14:29:55",
          "30.11.2025 14:30:25",
          "30.11.2025 14:30:55",
          "30.11.2025 14:31:25",
          "30.11.2025 14:31:55",
          "30.11.2025 14:32:25",
          "30.11.2025 14:32:55",
          "30.11.2025 14:33:25",
          "30.11.2025 14:33:55",
          "30.11.2025 14:34:25",
          "30.11.2025 14:34:55",
          "30.11.2025 14:35:09",
          "30.11.2025 14:36:15",
          "30.11.2025 14:37:09",
          "30.11.2025 14:38:00",
          "30.11.2025 14:38:30",
          "30.11.2025 14:39:26",
          "30.11.2025 14:39:56",
          "30.11.2025 14:40:29",
          "30.11.2025 14:41:06",
          "30.11.2025 14:41:57",
          "30.11.2025 14:42:29",
          "30.11.2025 14:43:12",
          "30.11.2025 14:43:43",
          "30.11.2025 14:44:13",
          "30.11.2025 14:44:47",
          "30.11.2025 14:45:18",
          "30.11.2025 14:45:49",
          "30.11.2025 14:46:22",
          "30.11.2025 14:46:58",
          "30.11.2025 14:47:17",
          "30.11.2025 14:48:00",
          "30.11.2025 14:48:30",
          "30.11.2025 14:49:00",
          "30.11.2025 14:49:31",
          "30.11.2025 14:50:05",
          "30.11.2025 14:50:37",
          "30.11.2025 14:51:08",
          "30.11.2025 14:51:39",
          "30.11.2025 14:52:09",
          "30.11.2025 14:52:41",
          "30.11.2025 14:53:11",
          "30.11.2025 14:53:44",
          "30.11.2025 14:54:16",
          "30.11.2025 14:54:46",
          "30.11.2025 14:55:16",
          "30.11.2025 14:55:46",
          "30.11.2025 14:56:16",
          "30.11.2025 14:56:48",
          "30.11.2025 14:57:19",
          "30.11.2025 14:57:52",
          "30.11.2025 14:58:29",
          "30.11.2025 14:59:00",
          "30.11.2025 14:59:34",
          "30.11.2025 15:00:04",
          "30.11.2025 15:00:38",
          "30.11.2025 15:01:08",
          "30.11.2025 15:01:38",
          "30.11.2025 15:02:08",
          "30.11.2025 15:02:38",
          "30.11.2025 15:03:08",
          "30.11.2025 15:03:38",
          "30.11.2025 15:04:08",
          "30.11.2025 15:04:38",
          "30.11.2025 15:05:08",
          "30.11.2025 15:05:38",
          "30.11.2025 15:06:08",
          "30.11.2025 15:06:38",
          "30.11.2025 15:07:08",
          "30.11.2025 15:07:39",
          "30.11.2025 15:08:09",
          "30.11.2025 15:08:40",
          "30.11.2025 15:09:11",
          "30.11.2025 15:09:42",
          "30.11.2025 15:10:12",
          "30.11.2025 15:10:42",
          "30.11.2025 15:11:12",
          "30.11.2025 15:11:42",
          "30.11.2025 15:11:58",
          "30.11.2025 15:12:14",
          "30.11.2025 15:12:34",
          "30.11.2025 15:13:04",
          "30.11.2025 15:13:20",
          "30.11.2025 15:13:40",
          "30.11.2025 15:14:01",
          "30.11.2025 15:14:24",
          "30.11.2025 15:14:48",
          "30.11.2025 15:15:04",
          "30.11.2025 15:15:20",
          "30.11.2025 15:15:36",
          "30.11.2025 15:15:52",
          "30.11.2025 15:16:08",
          "30.11.2025 15:16:24",
          "30.11.2025 15:16:41"
        ],
        "course_deg_clockwise_from_north": [
          320,
          325,
          329,
          330,
          295,
          266,
          254,
          248,
          244,
          241,
          242,
          243,
          242,
          242,
          242,
          242,
          242,
          242,
          242,
          242,
          242,
          242,
          243,
          250,
          253,
          254,
          254,
          254,
          254,
          252,
          251,
          250,
          250,
          249,
          249,
          249,
          248,
          248,
          247,
          248,
          247,
          247,
          240,
          236,
          237,
          237,
          237,
          237,
          237,
          237,
          237,
          236,
          237,
          236,
          236,
          236,
          236,
          293,
          236,
          236,
          236,
          236,
          236,
          236,
          234,
          235,
          234,
          234,
          234,
          234,
          234,
          234,
          234,
          234,
          234,
          234,
          234,
          234,
          234,
          234,
          233,
          234,
          233,
          233,
          233,
          233,
          233,
          233,
          233,
          233,
          233,
          233,
          233,
          233,
          233,
          233,
          233,
          233,
          233,
          232,
          232,
          232,
          232,
          232,
          232,
          232,
          232,
          232,
          232,
          232,
          232,
          232,
          232,
          232,
          232,
          232,
          232,
          232,
          231,
          231,
          231,
          231,
          231,
          231,
          231,
          231,
          231,
          231,
          231,
          227,
          227,
          227,
          227,
          227,
          227,
          227,
          227,
          227,
          227,
          227,
          227,
          227,
          226,
          227,
          226,
          226,
          226,
          226,
          226,
          226,
          226,
          226,
          226,
          226,
          226,
          226,
          226,
          226,
          226,
          226,
          226,
          226,
          226,
          224,
          226,
          226,
          225,
          225,
          212,
          211,
          213,
          212,
          212,
          212,
          213,
          212,
          212,
          212,
          212,
          212,
          212,
          212,
          212,
          212,
          212,
          212,
          212,
          212,
          212,
          212,
          212,
          212,
          212,
          212,
          212,
          211,
          212,
          211,
          212,
          212,
          211,
          211,
          211,
          211,
          211,
          211,
          211,
          211,
          211,
          211,
          211,
          211,
          211,
          211,
          211,
          211,
          211,
          211,
          211,
          211,
          211,
          211,
          211,
          211,
          211,
          211,
          211,
          211,
          211,
          211,
          211,
          210,
          210,
          210,
          210,
          210,
          210,
          210,
          210,
          210,
          210,
          210,
          210,
          210,
          210,
          210,
          210,
          210,
          210,
          210,
          210,
          210,
          210,
          210,
          210,
          210,
          210,
          210,
          210,
          210,
          210,
          210,
          210,
          210,
          209,
          209,
          209,
          209,
          209,
          209,
          209,
          209,
          209,
          209,
          209,
          209,
          209,
          209,
          209,
          209,
          209,
          209,
          209,
          209,
          209,
          209,
          209,
          209,
          209,
          209,
          209,
          209,
          209,
          209,
          209,
          209,
          209,
          209,
          209,
          208,
          209,
          208,
          208,
          208,
          208,
          208,
          208,
          208,
          208,
          208,
          208,
          208,
          208,
          208,
          208,
          208,
          208,
          208,
          208,
          208,
          208,
          208,
          208,
          208,
          208,
          207,
          207,
          207,
          207,
          207,
          207,
          207,
          207,
          207,
          207,
          207,
          207,
          207,
          207,
          207,
          207,
          207,
          207,
          207,
          207,
          207,
          207,
          207,
          207,
          207,
          207,
          207,
          207,
          207,
          207,
          207,
          207,
          207,
          206,
          206,
          206,
          206,
          206,
          206,
          206,
          206,
          206,
          206,
          206,
          206,
          206,
          206,
          206,
          206,
          206,
          206,
          206,
          206,
          206,
          206,
          206,
          206,
          206,
          206,
          206,
          206,
          206,
          206,
          206,
          206,
          205,
          206,
          206,
          205,
          206,
          205,
          208,
          215,
          215,
          214,
          214,
          214,
          214,
          214,
          214,
          214,
          214,
          214,
          214,
          214,
          214,
          214,
          214,
          214,
          209,
          207,
          208,
          208,
          208,
          208,
          208,
          208,
          208,
          208,
          208,
          208,
          208,
          208,
          208,
          208,
          207,
          209,
          207,
          208,
          208,
          208,
          208,
          207,
          208,
          208,
          207,
          208,
          208,
          208,
          211,
          239,
          249,
          250,
          249,
          289,
          300,
          293,
          291,
          291,
          291,
          291,
          291,
          291,
          291,
          291
        ],
        "speed_kts": [
          149,
          149,
          154,
          163,
          173,
          172,
          176,
          176,
          174,
          188,
          213,
          241,
          280,
          302,
          313,
          317,
          318,
          320,
          326,
          333,
          339,
          345,
          352,
          358,
          365,
          372,
          377,
          381,
          384,
          390,
          393,
          397,
          398,
          401,
          407,
          411,
          415,
          419,
          424,
          425,
          427,
          428,
          431,
          432,
          434,
          435,
          435,
          434,
          434,
          433,
          433,
          431,
          431,
          432,
          434,
          435,
          432,
          528,
          427,
          425,
          424,
          426,
          427,
          428,
          429,
          429,
          428,
          428,
          427,
          427,
          427,
          426,
          427,
          427,
          427,
          427,
          428,
          427,
          426,
          425,
          425,
          425,
          425,
          424,
          424,
          424,
          425,
          425,
          426,
          428,
          429,
          431,
          433,
          434,
          434,
          435,
          436,
          437,
          437,
          438,
          438,
          438,
          439,
          440,
          440,
          441,
          441,
          441,
          441,
          442,
          443,
          443,
          444,
          444,
          444,
          444,
          443,
          443,
          444,
          444,
          444,
          446,
          446,
          450,
          453,
          455,
          455,
          457,
          459,
          464,
          467,
          466,
          464,
          462,
          460,
          459,
          459,
          458,
          458,
          458,
          458,
          456,
          456,
          455,
          454,
          453,
          452,
          451,
          451,
          450,
          450,
          449,
          450,
          450,
          449,
          448,
          448,
          448,
          447,
          446,
          444,
          444,
          443,
          444,
          443,
          443,
          443,
          444,
          453,
          454,
          453,
          454,
          454,
          454,
          454,
          455,
          454,
          455,
          455,
          455,
          455,
          456,
          456,
          456,
          457,
          456,
          456,
          457,
          458,
          458,
          456,
          456,
          456,
          458,
          459,
          461,
          462,
          463,
          462,
          462,
          464,
          464,
          464,
          464,
          464,
          466,
          466,
          467,
          468,
          468,
          470,
          473,
          474,
          474,
          477,
          479,
          479,
          479,
          481,
          481,
          482,
          483,
          484,
          484,
          485,
          485,
          484,
          483,
          482,
          481,
          479,
          479,
          478,
          480,
          482,
          485,
          489,
          491,
          493,
          494,
          496,
          497,
          497,
          499,
          498,
          499,
          500,
          500,
          499,
          500,
          500,
          501,
          503,
          502,
          502,
          504,
          504,
          504,
          506,
          508,
          508,
          509,
          510,
          511,
          511,
          511,
          510,
          511,
          510,
          510,
          511,
          512,
          513,
          513,
          514,
          516,
          516,
          518,
          517,
          517,
          518,
          519,
          520,
          520,
          521,
          522,
          524,
          524,
          525,
          526,
          525,
          525,
          525,
          525,
          526,
          527,
          527,
          527,
          527,
          528,
          528,
          528,
          528,
          528,
          527,
          527,
          526,
          525,
          527,
          527,
          527,
          526,
          526,
          526,
          525,
          525,
          524,
          524,
          524,
          523,
          523,
          523,
          523,
          523,
          523,
          523,
          522,
          521,
          519,
          519,
          517,
          517,
          517,
          516,
          515,
          515,
          514,
          514,
          513,
          512,
          511,
          511,
          510,
          509,
          509,
          508,
          507,
          506,
          506,
          505,
          504,
          504,
          503,
          502,
          502,
          501,
          500,
          500,
          499,
          498,
          497,
          497,
          496,
          495,
          495,
          494,
          493,
          493,
          492,
          491,
          490,
          490,
          489,
          488,
          488,
          487,
          486,
          486,
          487,
          480,
          476,
          475,
          472,
          471,
          471,
          468,
          467,
          466,
          464,
          464,
          464,
          463,
          462,
          462,
          461,
          459,
          459,
          455,
          455,
          454,
          453,
          453,
          452,
          452,
          452,
          451,
          452,
          450,
          450,
          450,
          450,
          450,
          448,
          449,
          450,
          451,
          451,
          451,
          451,
          451,
          451,
          450,
          449,
          449,
          448,
          446,
          441,
          451,
          466,
          490,
          486,
          481,
          494,
          502,
          484,
          441,
          425,
          416,
          401,
          377,
          358,
          347,
          337,
          311,
          283,
          262,
          258,
          268,
          258,
          229,
          198,
          198,
          178,
          169,
          164,
          155,
          135,
          127,
          123,
          114
        ],
        "speed_mph": [
          171.0,
          171.0,
          177.0,
          188.0,
          199.0,
          198.0,
          203.0,
          203.0,
          200.0,
          216.0,
          245.0,
          277.0,
          322.0,
          348.0,
          360.0,
          365.0,
          366.0,
          368.0,
          375.0,
          383.0,
          390.0,
          397.0,
          405.0,
          412.0,
          420.0,
          428.0,
          434.0,
          438.0,
          442.0,
          449.0,
          452.0,
          457.0,
          458.0,
          461.0,
          468.0,
          473.0,
          478.0,
          482.0,
          488.0,
          489.0,
          491.0,
          493.0,
          496.0,
          497.0,
          499.0,
          501.0,
          501.0,
          499.0,
          499.0,
          498.0,
          498.0,
          496.0,
          496.0,
          497.0,
          499.0,
          501.0,
          497.0,
          608.0,
          491.0,
          489.0,
          488.0,
          490.0,
          491.0,
          493.0,
          494.0,
          494.0,
          493.0,
          493.0,
          491.0,
          491.0,
          491.0,
          490.0,
          491.0,
          491.0,
          491.0,
          491.0,
          493.0,
          491.0,
          490.0,
          489.0,
          489.0,
          489.0,
          489.0,
          488.0,
          488.0,
          488.0,
          489.0,
          489.0,
          490.0,
          493.0,
          494.0,
          496.0,
          498.0,
          499.0,
          499.0,
          501.0,
          502.0,
          503.0,
          503.0,
          504.0,
          504.0,
          504.0,
          505.0,
          506.0,
          506.0,
          507.0,
          507.0,
          507.0,
          507.0,
          509.0,
          510.0,
          510.0,
          511.0,
          511.0,
          511.0,
          511.0,
          510.0,
          510.0,
          511.0,
          511.0,
          511.0,
          513.0,
          513.0,
          518.0,
          521.0,
          524.0,
          524.0,
          526.0,
          528.0,
          534.0,
          537.0,
          536.0,
          534.0,
          532.0,
          529.0,
          528.0,
          528.0,
          527.0,
          527.0,
          527.0,
          527.0,
          525.0,
          525.0,
          524.0,
          522.0,
          521.0,
          520.0,
          519.0,
          519.0,
          518.0,
          518.0,
          517.0,
          518.0,
          518.0,
          517.0,
          516.0,
          516.0,
          516.0,
          514.0,
          513.0,
          511.0,
          511.0,
          510.0,
          511.0,
          510.0,
          510.0,
          510.0,
          511.0,
          521.0,
          522.0,
          521.0,
          522.0,
          522.0,
          522.0,
          522.0,
          524.0,
          522.0,
          524.0,
          524.0,
          524.0,
          524.0,
          525.0,
          525.0,
          525.0,
          526.0,
          525.0,
          525.0,
          526.0,
          527.0,
          527.0,
          525.0,
          525.0,
          525.0,
          527.0,
          528.0,
          531.0,
          532.0,
          533.0,
          532.0,
          532.0,
          534.0,
          534.0,
          534.0,
          534.0,
          534.0,
          536.0,
          536.0,
          537.0,
          539.0,
          539.0,
          541.0,
          544.0,
          545.0,
          545.0,
          549.0,
          551.0,
          551.0,
          551.0,
          554.0,
          554.0,
          555.0,
          556.0,
          557.0,
          557.0,
          558.0,
          558.0,
          557.0,
          556.0,
          555.0,
          554.0,
          551.0,
          551.0,
          550.0,
          552.0,
          555.0,
          558.0,
          563.0,
          565.0,
          567.0,
          568.0,
          571.0,
          572.0,
          572.0,
          574.0,
          573.0,
          574.0,
          575.0,
          575.0,
          574.0,
          575.0,
          575.0,
          577.0,
          579.0,
          578.0,
          578.0,
          580.0,
          580.0,
          580.0,
          582.0,
          585.0,
          585.0,
          586.0,
          587.0,
          588.0,
          588.0,
          588.0,
          587.0,
          588.0,
          587.0,
          587.0,
          588.0,
          589.0,
          590.0,
          590.0,
          592.0,
          594.0,
          594.0,
          596.0,
          595.0,
          595.0,
          596.0,
          597.0,
          598.0,
          598.0,
          600.0,
          601.0,
          603.0,
          603.0,
          604.0,
          605.0,
          604.0,
          604.0,
          604.0,
          604.0,
          605.0,
          606.0,
          606.0,
          606.0,
          606.0,
          608.0,
          608.0,
          608.0,
          608.0,
          608.0,
          606.0,
          606.0,
          605.0,
          604.0,
          606.0,
          606.0,
          606.0,
          605.0,
          605.0,
          605.0,
          604.0,
          604.0,
          603.0,
          603.0,
          603.0,
          602.0,
          602.0,
          602.0,
          602.0,
          602.0,
          602.0,
          602.0,
          601.0,
          600.0,
          597.0,
          597.0,
          595.0,
          595.0,
          595.0,
          594.0,
          593.0,
          592.0,
          592.0,
          591.0,
          590.0,
          589.0,
          588.0,
          587.0,
          587.0,
          586.0,
          585.0,
          584.0,
          583.0,
          583.0,
          582.0,
          581.0,
          580.0,
          579.0,
          579.0,
          578.0,
          577.0,
          576.0,
          575.0,
          575.0,
          574.0,
          573.0,
          572.0,
          571.0,
          571.0,
          570.0,
          569.0,
          568.0,
          567.0,
          567.0,
          566.0,
          565.0,
          564.0,
          563.0,
          563.0,
          562.0,
          561.0,
          560.0,
          559.0,
          559.0,
          560.0,
          552.0,
          548.0,
          547.0,
          543.0,
          542.0,
          542.0,
          539.0,
          537.0,
          536.0,
          534.0,
          534.0,
          534.0,
          533.0,
          532.0,
          532.0,
          531.0,
          528.0,
          528.0,
          524.0,
          524.0,
          522.0,
          521.0,
          521.0,
          520.0,
          520.0,
          520.0,
          519.0,
          520.0,
          518.0,
          518.0,
          518.0,
          518.0,
          518.0,
          516.0,
          517.0,
          518.0,
          519.0,
          519.0,
          519.0,
          519.0,
          519.0,
          519.0,
          518.0,
          517.0,
          517.0,
          516.0,
          513.0,
          507.0,
          519.0,
          536.0,
          564.0,
          559.0,
          554.0,
          568.0,
          578.0,
          557.0,
          507.0,
          489.0,
          479.0,
          461.0,
          434.0,
          412.0,
          399.0,
          388.0,
          358.0,
          326.0,
          302.0,
          297.0,
          308.0,
          297.0,
          264.0,
          228.0,
          228.0,
          205.0,
          194.0,
          189.0,
          178.0,
          155.0,
          146.0,
          142.0,
          131.0
        ],
        "altitude_ft": [
          975,
          1850,
          2600,
          3350,
          3800,
          4625,
          5575,
          6575,
          7500,
          8350,
          9350,
          10350,
          11600,
          13150,
          15200,
          16325,
          18725,
          20400,
          21800,
          23100,
          23975,
          24875,
          26200,
          26825,
          27400,
          28175,
          29025,
          29925,
          30525,
          31650,
          32400,
          33175,
          33925,
          34175,
          34700,
          35200,
          35675,
          36025,
          36375,
          36775,
          37125,
          37425,
          37650,
          38175,
          38675,
          38950,
          39225,
          39500,
          39775,
          40050,
          40325,
          40575,
          40825,
          40975,
          41000,
          41000,
          41000,
          41000,
          41000,
          41000,
          41000,
          41000,
          41000,
          41000,
          41000,
          41000,
          41000,
          41000,
          41000,
          41000,
          41000,
          41000,
          41000,
          41000,
          41000,
          41000,
          41000,
          41000,
          41000,
          41000,
          41000,
          41000,
          41000,
          41000,
          41000,
          41000,
          41000,
          41000,
          41000,
          41000,
          41000,
          41000,
          41000,
          41000,
          41000,
          41000,
          41000,
          41000,
          41000,
          41000,
          41000,
          41000,
          41000,
          41000,
          41000,
          41000,
          41000,
          41000,
          41000,
          41000,
          41000,
          41000,
          41000,
          41000,
          41000,
          41000,
          41000,
          41000,
          41000,
          41000,
          41000,
          41000,
          41000,
          41000,
          41000,
          41000,
          41000,
          41000,
          41050,
          41225,
          41450,
          41700,
          41975,
          42275,
          42550,
          42850,
          43000,
          43000,
          43000,
          43000,
          43000,
          43000,
          43000,
          43000,
          43000,
          43000,
          43000,
          43000,
          43000,
          43000,
          43000,
          43000,
          43000,
          43000,
          43000,
          43000,
          43000,
          43000,
          43000,
          43000,
          43000,
          43000,
          43000,
          43000,
          43000,
          43000,
          43000,
          43000,
          43000,
          43000,
          43000,
          43000,
          43000,
          43000,
          43000,
          43000,
          43000,
          43000,
          43000,
          43000,
          43000,
          43000,
          43000,
          43000,
          43000,
          43000,
          43000,
          43000,
          43000,
          43000,
          43000,
          43000,
          43000,
          43000,
          43000,
          43000,
          43000,
          43000,
          43000,
          43000,
          43000,
          43000,
          43000,
          43000,
          43000,
          43000,
          43000,
          43000,
          43000,
          43000,
          43000,
          43000,
          43000,
          43000,
          43000,
          43000,
          43000,
          43000,
          43000,
          43000,
          43000,
          43000,
          43000,
          43000,
          43000,
          43000,
          43000,
          43000,
          43000,
          43000,
          43000,
          43000,
          43000,
          43000,
          43000,
          43000,
          43000,
          43000,
          43000,
          43000,
          43000,
          43000,
          43000,
          43000,
          43000,
          43000,
          43000,
          43000,
          43000,
          43000,
          43000,
          43000,
          43000,
          43000,
          43000,
          43000,
          43000,
          43000,
          43000,
          43000,
          43000,
          43000,
          43000,
          43000,
          43000,
          43000,
          43000,
          43000,
          43000,
          43000,
          43000,
          43000,
          43000,
          43000,
          43000,
          43000,
          43000,
          43000,
          43000,
          43000,
          43000,
          43000,
          43000,
          43000,
          43000,
          43000,
          43000,
          43000,
          43000,
          43000,
          43000,
          43000,
          43000,
          43000,
          43000,
          43000,
          43000,
          43000,
          43000,
          43000,
          43000,
          43000,
          43000,
          43000,
          43000,
          43000,
          43000,
          43000,
          43000,
          43000,
          43000,
          43000,
          43000,
          43000,
          43000,
          43000,
          43000,
          43000,
          43000,
          43000,
          43000,
          43000,
          43000,
          43000,
          43000,
          43000,
          43000,
          43000,
          43000,
          43000,
          43000,
          43000,
          43000,
          43000,
          43000,
          43000,
          43000,
          43000,
          43000,
          43000,
          43000,
          43000,
          43000,
          43000,
          43000,
          43000,
          43000,
          43000,
          43000,
          43000,
          43000,
          43000,
          43000,
          43000,
          43000,
          43000,
          43000,
          43000,
          43000,
          43000,
          43000,
          43000,
          43000,
          43000,
          43000,
          43000,
          43000,
          43000,
          43000,
          43000,
          43000,
          43000,
          43000,
          43000,
          43000,
          43000,
          43000,
          43000,
          43000,
          43000,
          43000,
          43000,
          43000,
          43000,
          43000,
          43000,
          43000,
          43000,
          43000,
          43000,
          43000,
          43000,
          43000,
          43000,
          43000,
          43000,
          43000,
          43000,
          43000,
          43000,
          43000,
          43000,
          43000,
          43000,
          43000,
          43000,
          43000,
          43000,
          43000,
          43000,
          43000,
          43000,
          43000,
          43000,
          43000,
          43000,
          43000,
          43000,
          43000,
          43000,
          43000,
          43000,
          43000,
          43000,
          43000,
          43000,
          42650,
          41650,
          40000,
          37600,
          34975,
          32250,
          29250,
          26450,
          23225,
          20125,
          17250,
          14700,
          12350,
          10525,
          8775,
          7025,
          5275,
          4150,
          4100,
          4100,
          4100,
          4125,
          4125,
          4100,
          4100,
          3675,
          3275,
          3025,
          2800,
          2575,
          2350,
          2150,
          1975,
          1825
        ],
        "vertical_rate_fpm": [
          0.0,
          3047.0,
          2813.0,
          2250.0,
          2391.0,
          3043.0,
          3250.0,
          3397.0,
          3132.0,
          2707.0,
          2553.0,
          2547.0,
          2667.0,
          3086.0,
          3342.0,
          3357.0,
          3349.0,
          3075.0,
          2700.0,
          2559.0,
          2420.0,
          2427.0,
          2438.0,
          2182.0,
          2025.0,
          2074.0,
          2059.0,
          1915.0,
          1669.0,
          1563.0,
          1525.0,
          1551.0,
          1333.0,
          1011.0,
          1025.0,
          992.0,
          839.0,
          700.0,
          750.0,
          750.0,
          722.0,
          750.0,
          750.0,
          647.0,
          560.0,
          550.0,
          550.0,
          550.0,
          550.0,
          550.0,
          525.0,
          545.0,
          436.0,
          175.0,
          25.0,
          0.0,
          0.0,
          0.0,
          0.0,
          0.0,
          0.0,
          0.0,
          0.0,
          0.0,
          0.0,
          0.0,
          0.0,
          0.0,
          0.0,
          0.0,
          0.0,
          0.0,
          0.0,
          0.0,
          0.0,
          0.0,
          0.0,
          0.0,
          0.0,
          0.0,
          0.0,
          0.0,
          0.0,
          0.0,
          0.0,
          0.0,
          0.0,
          0.0,
          0.0,
          0.0,
          0.0,
          0.0,
          0.0,
          0.0,
          0.0,
          0.0,
          0.0,
          0.0,
          0.0,
          0.0,
          0.0,
          0.0,
          0.0,
          0.0,
          0.0,
          0.0,
          0.0,
          0.0,
          0.0,
          0.0,
          0.0,
          0.0,
          0.0,
          0.0,
          0.0,
          0.0,
          0.0,
          0.0,
          0.0,
          0.0,
          0.0,
          0.0,
          0.0,
          0.0,
          0.0,
          0.0,
          0.0,
          50.0,
          225.0,
          400.0,
          475.0,
          525.0,
          575.0,
          575.0,
          575.0,
          450.0,
          148.0,
          0.0,
          0.0,
          0.0,
          0.0,
          0.0,
          0.0,
          0.0,
          0.0,
          0.0,
          0.0,
          0.0,
          0.0,
          0.0,
          0.0,
          0.0,
          0.0,
          0.0,
          0.0,
          0.0,
          0.0,
          0.0,
          0.0,
          0.0,
          0.0,
          0.0,
          0.0,
          0.0,
          0.0,
          0.0,
          0.0,
          0.0,
          0.0,
          0.0,
          0.0,
          0.0,
          0.0,
          0.0,
          0.0,
          0.0,
          0.0,
          0.0,
          0.0,
          0.0,
          0.0,
          0.0,
          0.0,
          0.0,
          0.0,
          0.0,
          0.0,
          0.0,
          0.0,
          0.0,
          0.0,
          0.0,
          0.0,
          0.0,
          0.0,
          0.0,
          0.0,
          0.0,
          0.0,
          0.0,
          0.0,
          0.0,
          0.0,
          0.0,
          0.0,
          0.0,
          0.0,
          0.0,
          0.0,
          0.0,
          0.0,
          0.0,
          0.0,
          0.0,
          0.0,
          0.0,
          0.0,
          0.0,
          0.0,
          0.0,
          0.0,
          0.0,
          0.0,
          0.0,
          0.0,
          0.0,
          0.0,
          0.0,
          0.0,
          0.0,
          0.0,
          0.0,
          0.0,
          0.0,
          0.0,
          0.0,
          0.0,
          0.0,
          0.0,
          0.0,
          0.0,
          0.0,
          0.0,
          0.0,
          0.0,
          0.0,
          0.0,
          0.0,
          0.0,
          0.0,
          0.0,
          0.0,
          0.0,
          0.0,
          0.0,
          0.0,
          0.0,
          0.0,
          0.0,
          0.0,
          0.0,
          0.0,
          0.0,
          0.0,
          0.0,
          0.0,
          0.0,
          0.0,
          0.0,
          0.0,
          0.0,
          0.0,
          0.0,
          0.0,
          0.0,
          0.0,
          0.0,
          0.0,
          0.0,
          0.0,
          0.0,
          0.0,
          0.0,
          0.0,
          0.0,
          0.0,
          0.0,
          0.0,
          0.0,
          0.0,
          0.0,
          0.0,
          0.0,
          0.0,
          0.0,
          0.0,
          0.0,
          0.0,
          0.0,
          0.0,
          0.0,
          0.0,
          0.0,
          0.0,
          0.0,
          0.0,
          0.0,
          0.0,
          0.0,
          0.0,
          0.0,
          0.0,
          0.0,
          0.0,
          0.0,
          0.0,
          0.0,
          0.0,
          0.0,
          0.0,
          0.0,
          0.0,
          0.0,
          0.0,
          0.0,
          0.0,
          0.0,
          0.0,
          0.0,
          0.0,
          0.0,
          0.0,
          0.0,
          0.0,
          0.0,
          0.0,
          0.0,
          0.0,
          0.0,
          0.0,
          0.0,
          0.0,
          0.0,
          0.0,
          0.0,
          0.0,
          0.0,
          0.0,
          0.0,
          0.0,
          0.0,
          0.0,
          0.0,
          0.0,
          0.0,
          0.0,
          0.0,
          0.0,
          0.0,
          0.0,
          0.0,
          0.0,
          0.0,
          0.0,
          0.0,
          0.0,
          0.0,
          0.0,
          0.0,
          0.0,
          0.0,
          0.0,
          0.0,
          0.0,
          0.0,
          0.0,
          0.0,
          0.0,
          0.0,
          0.0,
          0.0,
          0.0,
          0.0,
          0.0,
          0.0,
          0.0,
          0.0,
          0.0,
          0.0,
          0.0,
          0.0,
          0.0,
          0.0,
          0.0,
          0.0,
          0.0,
          0.0,
          0.0,
          0.0,
          0.0,
          0.0,
          0.0,
          0.0,
          0.0,
          0.0,
          0.0,
          0.0,
          0.0,
          0.0,
          0.0,
          0.0,
          0.0,
          0.0,
          0.0,
          0.0,
          0.0,
          0.0,
          0.0,
          0.0,
          0.0,
          0.0,
          0.0,
          0.0,
          0.0,
          0.0,
          -350.0,
          -1350.0,
          -2650.0,
          -4050.0,
          -5025.0,
          -5350.0,
          -5725.0,
          -5800.0,
          -6025.0,
          -6221.0,
          -5877.0,
          -5336.0,
          -4742.0,
          -4040.0,
          -3516.0,
          -3500.0,
          -3500.0,
          -2875.0,
          -1533.0,
          -94.0,
          0.0,
          30.0,
          33.0,
          -42.0,
          -37.0,
          -580.0,
          -1053.0,
          -975.0,
          -891.0,
          -844.0,
          -844.0,
          -797.0,
          -703.0,
          -591.0,
          -529.0
        ]
      }
    }
  ]
}