{
  "type": "FeatureCollection",
  "features": [
    {
      "type": "Feature",
      "geometry": {
        "type": "LineString",
        "coordinates": [
          [
            -1.7359,
            52.4433
          ],
          [
            -1.7245,
            52.4333
          ],
          [
            -1.7143,
            52.4239
          ],
          [
            -1.7026,
            52.4128
          ],
          [
            -1.6944,
            52.4002
          ],
          [
            -1.6889,
            52.388
          ],
          [
            -1.675,
            52.3643
          ],
          [
            -1.6607,
            52.3409
          ],
          [
            -1.6461,
            52.3179
          ],
          [
            -1.6226,
            52.2924
          ],
          [
            -1.5809,
            52.2555
          ],
          [
            -1.5501,
            52.227
          ],
          [
            -1.5167,
            52.195
          ],
          [
            -1.4438,
            52.1229
          ],
          [
            -1.3932,
            52.0731
          ],
          [
            -1.3526,
            52.0313
          ],
          [
            -1.3184,
            51.9952
          ],
          [
            -1.2865,
            51.9615
          ],
          [
            -1.2222,
            51.8929
          ],
          [
            -1.1751,
            51.842
          ],
          [
            -1.128,
            51.79
          ],
          [
            -1.0979,
            51.7577
          ],
          [
            -1.0596,
            51.7291
          ],
          [
            -0.9655,
            51.6676
          ],
          [
            -0.8889,
            51.6182
          ],
          [
            -0.8254,
            51.578
          ],
          [
            -0.7634,
            51.5399
          ],
          [
            -0.6989,
            51.5003
          ],
          [
            -0.6478,
            51.4684
          ],
          [
            -0.5824,
            51.4271
          ],
          [
            -0.5138,
            51.3834
          ],
          [
            -0.4489,
            51.3421
          ],
          [
            -0.4039,
            51.3203
          ],
          [
            -0.3495,
            51.3033
          ],
          [
            -0.275,
            51.2913
          ],
          [
            -0.1347,
            51.2824
          ],
          [
            -0.0392,
            51.2775
          ],
          [
            0.0209,
            51.2737
          ],
          [
            0.1315,
            51.2665
          ],
          [
            0.2267,
            51.2605
          ],
          [
            0.3234,
            51.2542
          ],
          [
            0.4243,
            51.2475
          ],
          [
            0.5301,
            51.2403
          ],
          [
            0.6136,
            51.2347
          ],
          [
            0.6712,
            51.2306
          ],
          [
            0.7788,
            51.2231
          ],
          [
            0.8328,
            51.2193
          ],
          [
            0.939,
            51.2116
          ],
          [
            1.0412,
            51.2043
          ],
          [
            1.1813,
            51.1941
          ],
          [
            1.2371,
            51.1897
          ],
          [
            1.3264,
            51.1814
          ],
          [
            1.4296,
            51.172
          ],
          [
            1.5306,
            51.1632
          ],
          [
            1.6402,
            51.1529
          ],
          [
            1.7403,
            51.1435
          ],
          [
            1.8384,
            51.1345
          ],
          [
            1.9416,
            51.1247
          ],
          [
            2.0431,
            51.1149
          ],
          [
            2.1437,
            51.1053
          ],
          [
            2.2481,
            51.095
          ],
          [
            2.3457,
            51.0855
          ],
          [
            2.4465,
            51.0755
          ],
          [
            2.5487,
            51.0653
          ],
          [
            2.6514,
            51.0549
          ],
          [
            2.7467,
            51.0452
          ],
          [
            2.8492,
            51.0346
          ],
          [
            2.9543,
            51.0237
          ],
          [
            3.05,
            51.0137
          ],
          [
            3.1511,
            51.0031
          ],
          [
            3.2519,
            50.9923
          ],
          [
            3.359,
            50.9808
          ],
          [
            3.4606,
            50.9698
          ],
          [
            3.5334,
            50.9618
          ],
          [
            3.6787,
            50.9459
          ],
          [
            3.775,
            50.9352
          ],
          [
            3.8673,
            50.9247
          ],
          [
            3.9562,
            50.9149
          ],
          [
            4.045,
            50.9046
          ],
          [
            4.1275,
            50.8953
          ],
          [
            4.217,
            50.8849
          ],
          [
            4.3063,
            50.8745
          ],
          [
            4.3667,
            50.8675
          ],
          [
            4.4305,
            50.8601
          ],
          [
            4.5239,
            50.849
          ],
          [
            4.6157,
            50.838
          ],
          [
            4.7084,
            50.8272
          ],
          [
            4.799,
            50.8162
          ],
          [
            4.8957,
            50.8043
          ],
          [
            4.9736,
            50.7948
          ],
          [
            5.0321,
            50.7876
          ],
          [
            5.1318,
            50.7753
          ],
          [
            5.2286,
            50.7634
          ],
          [
            5.2907,
            50.7559
          ],
          [
            5.3802,
            50.7455
          ],
          [
            5.4693,
            50.7351
          ],
          [
            5.5139,
            50.73
          ],
          [
            5.6263,
            50.7179
          ],
          [
            5.7036,
            50.7092
          ],
          [
            5.783,
            50.7001
          ],
          [
            5.8647,
            50.6915
          ],
          [
            5.9168,
            50.6862
          ],
          [
            5.9597,
            50.6869
          ],
          [
            6.0029,
            50.6928
          ],
          [
            6.0928,
            50.7118
          ],
          [
            6.1264,
            50.7188
          ],
          [
            6.1844,
            50.7305
          ],
          [
            6.2822,
            50.7506
          ],
          [
            6.3498,
            50.7645
          ],
          [
            6.4222,
            50.7792
          ],
          [
            6.4925,
            50.7935
          ],
          [
            6.5559,
            50.8067
          ],
          [
            6.6185,
            50.8196
          ],
          [
            6.6464,
            50.8311
          ],
          [
            6.6798,
            50.851
          ],
          [
            6.7097,
            50.8745
          ],
          [
            6.7431,
            50.9037
          ],
          [
            6.7751,
            50.9316
          ],
          [
            6.8045,
            50.9577
          ],
          [
            6.8378,
            50.9868
          ],
          [
            6.8595,
            51.0047
          ],
          [
            6.8793,
            51.0129
          ],
          [
            6.8926,
            51.0131
          ],
          [
            6.9016,
            51.0123
          ],
          [
            6.9207,
            51.0101
          ],
          [
            6.9438,
            51.0062
          ],
          [
            6.961,
            50.9976
          ],
          [
            6.9753,
            50.9873
          ],
          [
            6.9881,
            50.9777
          ],
          [
            7.0032,
            50.9672
          ],
          [
            7.0177,
            50.9571
          ],
          [
            7.0313,
            50.9477
          ],
          [
            7.0463,
            50.9374
          ],
          [
            7.0695,
            50.9214
          ],
          [
            7.0819,
            50.913
          ],
          [
            7.0931,
            50.9052
          ],
          [
            7.1038,
            50.8978
          ],
          [
            7.1139,
            50.891
          ],
          [
            7.1235,
            50.8843
          ],
          [
            7.1365,
            50.8754
          ]
        ]
      },
      "properties": {
        "time_europe_berlin": [
          "11.12.2025 09:04:54",
          "11.12.2025 09:05:10",
          "11.12.2025 09:05:26",
          "11.12.2025 09:05:42",
          "11.12.2025 09:05:58",
          "11.12.2025 09:06:15",
          "11.12.2025 09:06:44",
          "11.12.2025 09:07:06",
          "11.12.2025 09:07:27",
          "11.12.2025 09:07:48",
          "11.12.2025 09:08:17",
          "11.12.2025 09:08:39",
          "11.12.2025 09:09:03",
          "11.12.2025 09:09:53",
          "11.12.2025 09:10:30",
          "11.12.2025 09:10:58",
          "11.12.2025 09:11:20",
          "11.12.2025 09:11:40",
          "11.12.2025 09:12:21",
          "11.12.2025 09:12:51",
          "11.12.2025 09:13:21",
          "11.12.2025 09:13:39",
          "11.12.2025 09:13:59",
          "11.12.2025 09:14:43",
          "11.12.2025 09:15:18",
          "11.12.2025 09:15:48",
          "11.12.2025 09:16:18",
          "11.12.2025 09:16:48",
          "11.12.2025 09:17:10",
          "11.12.2025 09:17:40",
          "11.12.2025 09:18:10",
          "11.12.2025 09:18:39",
          "11.12.2025 09:18:57",
          "11.12.2025 09:19:15",
          "11.12.2025 09:19:39",
          "11.12.2025 09:20:21",
          "11.12.2025 09:20:51",
          "11.12.2025 09:21:09",
          "11.12.2025 09:21:41",
          "11.12.2025 09:22:11",
          "11.12.2025 09:22:41",
          "11.12.2025 09:23:11",
          "11.12.2025 09:23:41",
          "11.12.2025 09:24:06",
          "11.12.2025 09:24:23",
          "11.12.2025 09:24:53",
          "11.12.2025 09:25:09",
          "11.12.2025 09:25:39",
          "11.12.2025 09:26:09",
          "11.12.2025 09:26:48",
          "11.12.2025 09:27:04",
          "11.12.2025 09:27:29",
          "11.12.2025 09:27:59",
          "11.12.2025 09:28:29",
          "11.12.2025 09:28:59",
          "11.12.2025 09:29:29",
          "11.12.2025 09:29:59",
          "11.12.2025 09:30:29",
          "11.12.2025 09:30:59",
          "11.12.2025 09:31:29",
          "11.12.2025 09:31:59",
          "11.12.2025 09:32:29",
          "11.12.2025 09:32:59",
          "11.12.2025 09:33:29",
          "11.12.2025 09:33:59",
          "11.12.2025 09:34:29",
          "11.12.2025 09:34:59",
          "11.12.2025 09:35:29",
          "11.12.2025 09:35:59",
          "11.12.2025 09:36:29",
          "11.12.2025 09:36:59",
          "11.12.2025 09:37:29",
          "11.12.2025 09:37:59",
          "11.12.2025 09:38:20",
          "11.12.2025 09:39:03",
          "11.12.2025 09:39:33",
          "11.12.2025 09:40:03",
          "11.12.2025 09:40:33",
          "11.12.2025 09:41:03",
          "11.12.2025 09:41:33",
          "11.12.2025 09:42:03",
          "11.12.2025 09:42:33",
          "11.12.2025 09:42:52",
          "11.12.2025 09:43:12",
          "11.12.2025 09:43:42",
          "11.12.2025 09:44:12",
          "11.12.2025 09:44:42",
          "11.12.2025 09:45:12",
          "11.12.2025 09:45:42",
          "11.12.2025 09:46:05",
          "11.12.2025 09:46:24",
          "11.12.2025 09:46:54",
          "11.12.2025 09:47:24",
          "11.12.2025 09:47:45",
          "11.12.2025 09:48:13",
          "11.12.2025 09:48:43",
          "11.12.2025 09:48:59",
          "11.12.2025 09:49:41",
          "11.12.2025 09:50:11",
          "11.12.2025 09:50:41",
          "11.12.2025 09:51:11",
          "11.12.2025 09:51:32",
          "11.12.2025 09:51:48",
          "11.12.2025 09:52:07",
          "11.12.2025 09:52:47",
          "11.12.2025 09:53:04",
          "11.12.2025 09:53:34",
          "11.12.2025 09:54:18",
          "11.12.2025 09:54:48",
          "11.12.2025 09:55:18",
          "11.12.2025 09:55:48",
          "11.12.2025 09:56:18",
          "11.12.2025 09:56:48",
          "11.12.2025 09:57:06",
          "11.12.2025 09:57:30",
          "11.12.2025 09:57:55",
          "11.12.2025 09:58:25",
          "11.12.2025 09:58:55",
          "11.12.2025 09:59:25",
          "11.12.2025 09:59:55",
          "11.12.2025 10:00:15",
          "11.12.2025 10:00:33",
          "11.12.2025 10:00:42",
          "11.12.2025 10:00:49",
          "11.12.2025 10:01:05",
          "11.12.2025 10:01:21",
          "11.12.2025 10:01:37",
          "11.12.2025 10:01:53",
          "11.12.2025 10:02:09",
          "11.12.2025 10:02:25",
          "11.12.2025 10:02:41",
          "11.12.2025 10:02:57",
          "11.12.2025 10:03:15",
          "11.12.2025 10:03:45",
          "11.12.2025 10:04:01",
          "11.12.2025 10:04:17",
          "11.12.2025 10:04:33",
          "11.12.2025 10:04:49",
          "11.12.2025 10:05:05",
          "11.12.2025 10:05:27"
        ],
        "course_deg_clockwise_from_north": [
          145,
          146,
          146,
          153,
          162,
          165,
          160,
          160,
          157,
          146,
          146,
          147,
          148,
          148,
          148,
          150,
          150,
          150,
          150,
          150,
          151,
          146,
          137,
          136,
          136,
          135,
          134,
          135,
          135,
          135,
          136,
          133,
          122,
          112,
          100,
          94,
          95,
          96,
          96,
          96,
          96,
          96,
          96,
          96,
          96,
          96,
          97,
          97,
          97,
          97,
          98,
          99,
          98,
          98,
          99,
          98,
          99,
          99,
          99,
          99,
          99,
          99,
          99,
          99,
          99,
          99,
          99,
          99,
          100,
          99,
          100,
          100,
          100,
          100,
          100,
          100,
          100,
          100,
          100,
          100,
          101,
          100,
          100,
          101,
          101,
          101,
          100,
          101,
          101,
          101,
          101,
          101,
          101,
          101,
          100,
          100,
          100,
          100,
          101,
          100,
          99,
          97,
          82,
          74,
          71,
          72,
          72,
          72,
          72,
          72,
          72,
          72,
          72,
          49,
          46,
          36,
          36,
          36,
          35,
          37,
          38,
          76,
          95,
          99,
          101,
          117,
          135,
          140,
          139,
          138,
          138,
          138,
          138,
          138,
          138,
          137,
          137,
          137,
          138,
          138
        ],
        "speed_kts": [
          149,
          160,
          169,
          178,
          169,
          171,
          218,
          251,
          282,
          311,
          334,
          350,
          360,
          343,
          362,
          398,
          413,
          416,
          425,
          430,
          430,
          428,
          420,
          419,
          412,
          404,
          400,
          417,
          433,
          438,
          437,
          433,
          437,
          442,
          449,
          450,
          449,
          448,
          447,
          449,
          456,
          464,
          470,
          474,
          477,
          479,
          481,
          482,
          483,
          480,
          478,
          475,
          475,
          477,
          473,
          471,
          469,
          467,
          466,
          465,
          465,
          465,
          465,
          464,
          464,
          464,
          464,
          463,
          464,
          469,
          474,
          478,
          481,
          479,
          459,
          440,
          420,
          405,
          392,
          401,
          422,
          434,
          439,
          433,
          431,
          429,
          427,
          433,
          449,
          456,
          460,
          453,
          447,
          439,
          426,
          403,
          385,
          364,
          365,
          365,
          364,
          362,
          348,
          328,
          301,
          289,
          295,
          339,
          343,
          340,
          320,
          299,
          283,
          267,
          262,
          258,
          248,
          246,
          246,
          246,
          212,
          193,
          186,
          182,
          187,
          190,
          187,
          184,
          182,
          182,
          178,
          171,
          163,
          157,
          159,
          144,
          122,
          121,
          124,
          118
        ],
        "speed_mph": [
          171.0,
          184.0,
          194.0,
          205.0,
          194.0,
          197.0,
          251.0,
          289.0,
          325.0,
          358.0,
          384.0,
          403.0,
          414.0,
          395.0,
          417.0,
          458.0,
          475.0,
          479.0,
          489.0,
          495.0,
          495.0,
          493.0,
          483.0,
          482.0,
          474.0,
          465.0,
          460.0,
          480.0,
          498.0,
          504.0,
          503.0,
          498.0,
          503.0,
          509.0,
          517.0,
          518.0,
          517.0,
          516.0,
          514.0,
          517.0,
          525.0,
          534.0,
          541.0,
          545.0,
          549.0,
          551.0,
          554.0,
          555.0,
          556.0,
          552.0,
          550.0,
          547.0,
          547.0,
          549.0,
          544.0,
          542.0,
          540.0,
          537.0,
          536.0,
          535.0,
          535.0,
          535.0,
          535.0,
          534.0,
          534.0,
          534.0,
          534.0,
          533.0,
          534.0,
          540.0,
          545.0,
          550.0,
          554.0,
          551.0,
          528.0,
          506.0,
          483.0,
          466.0,
          451.0,
          461.0,
          486.0,
          499.0,
          505.0,
          498.0,
          496.0,
          494.0,
          491.0,
          498.0,
          517.0,
          525.0,
          529.0,
          521.0,
          514.0,
          505.0,
          490.0,
          464.0,
          443.0,
          419.0,
          420.0,
          420.0,
          419.0,
          417.0,
          400.0,
          377.0,
          346.0,
          333.0,
          339.0,
          390.0,
          395.0,
          391.0,
          368.0,
          344.0,
          326.0,
          307.0,
          302.0,
          297.0,
          285.0,
          283.0,
          283.0,
          283.0,
          244.0,
          222.0,
          214.0,
          209.0,
          215.0,
          219.0,
          215.0,
          212.0,
          209.0,
          209.0,
          205.0,
          197.0,
          188.0,
          181.0,
          183.0,
          166.0,
          140.0,
          139.0,
          143.0,
          136.0
        ],
        "altitude_ft": [
          1275,
          2150,
          2975,
          3800,
          4825,
          5675,
          6575,
          7550,
          8425,
          9300,
          10800,
          11975,
          13375,
          18200,
          20525,
          21000,
          21575,
          21950,
          23125,
          24400,
          25900,
          26925,
          28100,
          30175,
          31925,
          33375,
          34650,
          35000,
          35000,
          35000,
          35000,
          35000,
          35125,
          35425,
          35825,
          36775,
          37500,
          37950,
          38750,
          39200,
          39550,
          39825,
          40125,
          40375,
          40550,
          40875,
          41050,
          41400,
          41725,
          42200,
          42400,
          42750,
          42975,
          43000,
          43000,
          43000,
          43000,
          43000,
          43000,
          43000,
          43000,
          43000,
          43000,
          43000,
          43000,
          43000,
          43000,
          43000,
          42475,
          41725,
          41025,
          40250,
          39500,
          38800,
          37375,
          36375,
          35375,
          34400,
          33475,
          33050,
          33000,
          33000,
          33000,
          32725,
          31500,
          30275,
          29050,
          27825,
          26550,
          25600,
          24825,
          23575,
          22325,
          21525,
          20325,
          19100,
          18550,
          17650,
          16925,
          16200,
          15400,
          14900,
          14450,
          14000,
          13075,
          13000,
          13000,
          13000,
          12900,
          12250,
          11475,
          10725,
          10050,
          9750,
          9150,
          8475,
          7775,
          7000,
          6200,
          5325,
          5125,
          4925,
          4800,
          4650,
          4325,
          3725,
          3250,
          2875,
          2600,
          2350,
          2050,
          1800,
          1500,
          1100,
          850,
          625,
          425,
          275,
          100,
          100
        ],
        "vertical_rate_fpm": [
          0.0,
          3188.0,
          3094.0,
          3469.0,
          3409.0,
          2283.0,
          2206.0,
          2581.0,
          2500.0,
          2850.0,
          3147.0,
          3359.0,
          5047.0,
          4931.0,
          2585.0,
          1260.0,
          1357.0,
          1525.0,
          2070.0,
          2775.0,
          3156.0,
          3474.0,
          3047.0,
          2905.0,
          2954.0,
          2725.0,
          1625.0,
          404.0,
          0.0,
          0.0,
          0.0,
          160.0,
          708.0,
          1000.0,
          1227.0,
          1396.0,
          1469.0,
          1500.0,
          1210.0,
          800.0,
          625.0,
          575.0,
          600.0,
          607.0,
          638.0,
          652.0,
          685.0,
          675.0,
          696.0,
          736.0,
          805.0,
          627.0,
          250.0,
          25.0,
          0.0,
          0.0,
          0.0,
          0.0,
          0.0,
          0.0,
          0.0,
          0.0,
          0.0,
          0.0,
          0.0,
          0.0,
          0.0,
          -525.0,
          -1275.0,
          -1450.0,
          -1475.0,
          -1525.0,
          -1706.0,
          -1992.0,
          -1993.0,
          -2000.0,
          -1975.0,
          -1900.0,
          -1350.0,
          -475.0,
          -50.0,
          0.0,
          -423.0,
          -1800.0,
          -2450.0,
          -2450.0,
          -2450.0,
          -2500.0,
          -2519.0,
          -2464.0,
          -2480.0,
          -2500.0,
          -2412.0,
          -2449.0,
          -2509.0,
          -2315.0,
          -1500.0,
          -1354.0,
          -1450.0,
          -1525.0,
          -1529.0,
          -1541.0,
          -1543.0,
          -1398.0,
          -1053.0,
          -96.0,
          0.0,
          -81.0,
          -750.0,
          -1425.0,
          -1525.0,
          -1425.0,
          -1219.0,
          -1286.0,
          -1561.0,
          -1500.0,
          -1475.0,
          -1575.0,
          -1675.0,
          -1290.0,
          -632.0,
          -722.0,
          -1031.0,
          -1239.0,
          -1734.0,
          -2016.0,
          -1594.0,
          -1219.0,
          -984.0,
          -1031.0,
          -1031.0,
          -971.0,
          -875.0,
          -848.0,
          -891.0,
          -797.0,
          -656.0,
          -609.0,
          -553.0,
          -477.0
        ]
      }
    }
  ]
}