{
  "type": "FeatureCollection",
  "features": [
    {
      "type": "Feature",
      "geometry": {
        "type": "LineString",
        "coordinates": [
          [
            8.5264,
            50.0024
          ],
          [
            8.527,
            49.9912
          ],
          [
            8.5282,
            49.98
          ],
          [
            8.5297,
            49.9668
          ],
          [
            8.5308,
            49.9537
          ],
          [
            8.5317,
            49.9326
          ],
          [
            8.5331,
            49.9006
          ],
          [
            8.5361,
            49.865
          ],
          [
            8.5388,
            49.8255
          ],
          [
            8.5411,
            49.7851
          ],
          [
            8.5366,
            49.754
          ],
          [
            8.5288,
            49.7275
          ],
          [
            8.5143,
            49.6841
          ],
          [
            8.5044,
            49.6521
          ],
          [
            8.4852,
            49.5868
          ],
          [
            8.4741,
            49.5501
          ],
          [
            8.4584,
            49.4971
          ],
          [
            8.443,
            49.4442
          ],
          [
            8.4265,
            49.3879
          ],
          [
            8.4177,
            49.3578
          ],
          [
            8.4003,
            49.2982
          ],
          [
            8.3834,
            49.2398
          ],
          [
            8.365,
            49.1766
          ],
          [
            8.3469,
            49.1136
          ],
          [
            8.3305,
            49.057
          ],
          [
            8.3134,
            48.9993
          ],
          [
            8.2736,
            48.9161
          ],
          [
            8.241,
            48.8588
          ],
          [
            8.2112,
            48.8029
          ],
          [
            8.1827,
            48.7483
          ],
          [
            8.1548,
            48.6962
          ],
          [
            8.1266,
            48.6425
          ],
          [
            8.1002,
            48.5919
          ],
          [
            8.0735,
            48.5413
          ],
          [
            8.0476,
            48.4922
          ],
          [
            8.0146,
            48.4289
          ],
          [
            7.9906,
            48.3829
          ],
          [
            7.9653,
            48.3346
          ],
          [
            7.9494,
            48.3039
          ],
          [
            7.9223,
            48.2514
          ],
          [
            7.9089,
            48.2258
          ],
          [
            7.8824,
            48.1748
          ],
          [
            7.8643,
            48.1396
          ],
          [
            7.8377,
            48.0881
          ],
          [
            7.8093,
            48.033
          ],
          [
            7.7839,
            47.9836
          ],
          [
            7.7562,
            47.9296
          ],
          [
            7.7298,
            47.878
          ],
          [
            7.7025,
            47.8246
          ],
          [
            7.664,
            47.7488
          ],
          [
            7.6457,
            47.7127
          ],
          [
            7.6187,
            47.6596
          ],
          [
            7.5929,
            47.6088
          ],
          [
            7.5672,
            47.5577
          ],
          [
            7.5407,
            47.5051
          ],
          [
            7.5146,
            47.4542
          ],
          [
            7.4938,
            47.4283
          ],
          [
            7.4695,
            47.4076
          ],
          [
            7.4141,
            47.3724
          ],
          [
            7.3543,
            47.339
          ],
          [
            7.294,
            47.3051
          ],
          [
            7.234,
            47.2702
          ],
          [
            7.1749,
            47.2364
          ],
          [
            7.0522,
            47.1653
          ],
          [
            6.9927,
            47.1308
          ],
          [
            6.9307,
            47.0947
          ],
          [
            6.8696,
            47.0591
          ],
          [
            6.806,
            47.0219
          ],
          [
            6.7443,
            46.9857
          ],
          [
            6.682,
            46.9492
          ],
          [
            6.6211,
            46.9134
          ],
          [
            6.5344,
            46.8621
          ],
          [
            6.4732,
            46.8258
          ],
          [
            6.395,
            46.7795
          ],
          [
            6.3312,
            46.7416
          ],
          [
            6.2713,
            46.7058
          ],
          [
            6.2107,
            46.6696
          ],
          [
            6.146,
            46.6309
          ],
          [
            6.0844,
            46.5938
          ],
          [
            6.0249,
            46.5583
          ],
          [
            5.9805,
            46.5353
          ],
          [
            5.9335,
            46.5133
          ],
          [
            5.865,
            46.4819
          ],
          [
            5.7973,
            46.4495
          ],
          [
            5.7327,
            46.4187
          ],
          [
            5.6635,
            46.3859
          ],
          [
            5.5937,
            46.3523
          ],
          [
            5.5295,
            46.3214
          ],
          [
            5.4622,
            46.2892
          ],
          [
            5.3901,
            46.2543
          ],
          [
            5.3267,
            46.2236
          ],
          [
            5.2557,
            46.1891
          ],
          [
            5.1862,
            46.1554
          ],
          [
            5.1218,
            46.1233
          ],
          [
            5.0583,
            46.0882
          ],
          [
            4.9944,
            46.0533
          ],
          [
            4.9284,
            46.0178
          ],
          [
            4.861,
            45.981
          ],
          [
            4.7967,
            45.9458
          ],
          [
            4.7318,
            45.9103
          ],
          [
            4.6648,
            45.8736
          ],
          [
            4.6035,
            45.8399
          ],
          [
            4.5392,
            45.8045
          ],
          [
            4.4727,
            45.7678
          ],
          [
            4.4103,
            45.7332
          ],
          [
            4.3467,
            45.698
          ],
          [
            4.2829,
            45.6626
          ],
          [
            4.2183,
            45.6265
          ],
          [
            4.1573,
            45.5923
          ],
          [
            4.0935,
            45.5568
          ],
          [
            4.0282,
            45.52
          ],
          [
            3.9641,
            45.484
          ],
          [
            3.9007,
            45.4483
          ],
          [
            3.8365,
            45.412
          ],
          [
            3.7719,
            45.3755
          ],
          [
            3.7077,
            45.3391
          ],
          [
            3.643,
            45.3023
          ],
          [
            3.5809,
            45.2669
          ],
          [
            3.518,
            45.2309
          ],
          [
            3.4544,
            45.1945
          ],
          [
            3.3914,
            45.1583
          ],
          [
            3.327,
            45.1213
          ],
          [
            3.263,
            45.0844
          ],
          [
            3.1982,
            45.047
          ],
          [
            3.129,
            45.0069
          ],
          [
            3.0697,
            44.9724
          ],
          [
            3.0005,
            44.9323
          ],
          [
            2.9403,
            44.8971
          ],
          [
            2.8767,
            44.8599
          ],
          [
            2.8118,
            44.822
          ],
          [
            2.7476,
            44.7843
          ],
          [
            2.6831,
            44.7463
          ],
          [
            2.6206,
            44.7094
          ],
          [
            2.5548,
            44.6706
          ],
          [
            2.492,
            44.6335
          ],
          [
            2.4286,
            44.5957
          ],
          [
            2.3637,
            44.5572
          ],
          [
            2.2993,
            44.5187
          ],
          [
            2.2378,
            44.482
          ],
          [
            2.1726,
            44.4429
          ],
          [
            2.1104,
            44.4056
          ],
          [
            2.0483,
            44.3682
          ],
          [
            1.9856,
            44.3304
          ],
          [
            1.9197,
            44.2906
          ],
          [
            1.8558,
            44.2519
          ],
          [
            1.7926,
            44.2135
          ],
          [
            1.7281,
            44.1743
          ],
          [
            1.6641,
            44.1352
          ],
          [
            1.6026,
            44.0976
          ],
          [
            1.5386,
            44.0584
          ],
          [
            1.4752,
            44.0195
          ],
          [
            1.4144,
            43.9821
          ],
          [
            1.3517,
            43.9434
          ],
          [
            1.2879,
            43.9041
          ],
          [
            1.2261,
            43.8657
          ],
          [
            1.1624,
            43.8262
          ],
          [
            1.101,
            43.7881
          ],
          [
            1.0385,
            43.7491
          ],
          [
            0.9766,
            43.7104
          ],
          [
            0.9146,
            43.6717
          ],
          [
            0.8544,
            43.6339
          ],
          [
            0.7913,
            43.5943
          ],
          [
            0.7305,
            43.5559
          ],
          [
            0.6705,
            43.5181
          ],
          [
            0.6067,
            43.4777
          ],
          [
            0.5469,
            43.4398
          ],
          [
            0.4833,
            43.3993
          ],
          [
            0.4205,
            43.3594
          ],
          [
            0.361,
            43.3214
          ],
          [
            0.2994,
            43.282
          ],
          [
            0.2388,
            43.2432
          ],
          [
            0.1753,
            43.2025
          ],
          [
            0.1145,
            43.1633
          ],
          [
            0.0533,
            43.1237
          ],
          [
            -0.008,
            43.0841
          ],
          [
            -0.069,
            43.0447
          ],
          [
            -0.1306,
            43.0047
          ],
          [
            -0.1918,
            42.9649
          ],
          [
            -0.2512,
            42.9261
          ],
          [
            -0.3099,
            42.8874
          ],
          [
            -0.3662,
            42.8351
          ],
          [
            -0.4124,
            42.7837
          ],
          [
            -0.457,
            42.7346
          ],
          [
            -0.5022,
            42.6857
          ],
          [
            -0.5473,
            42.6366
          ],
          [
            -0.5915,
            42.5884
          ],
          [
            -0.6349,
            42.5411
          ],
          [
            -0.6809,
            42.4909
          ],
          [
            -0.7301,
            42.4371
          ],
          [
            -0.7897,
            42.383
          ],
          [
            -0.8445,
            42.3394
          ],
          [
            -0.8988,
            42.2952
          ],
          [
            -0.9545,
            42.2492
          ],
          [
            -1.0064,
            42.2066
          ],
          [
            -1.0609,
            42.1615
          ],
          [
            -1.114,
            42.1175
          ],
          [
            -1.1679,
            42.0728
          ],
          [
            -1.2199,
            42.0295
          ],
          [
            -1.2742,
            41.9842
          ],
          [
            -1.3274,
            41.9398
          ],
          [
            -1.3807,
            41.8953
          ],
          [
            -1.4345,
            41.8501
          ],
          [
            -1.4873,
            41.8056
          ],
          [
            -1.5408,
            41.7606
          ],
          [
            -1.5947,
            41.7151
          ],
          [
            -1.6472,
            41.6708
          ],
          [
            -1.7011,
            41.6251
          ],
          [
            -1.7547,
            41.5797
          ],
          [
            -1.8071,
            41.5351
          ],
          [
            -1.8617,
            41.4886
          ],
          [
            -1.9157,
            41.4424
          ],
          [
            -1.969,
            41.3969
          ],
          [
            -2.0195,
            41.3537
          ],
          [
            -2.074,
            41.3067
          ],
          [
            -2.127,
            41.2612
          ],
          [
            -2.1793,
            41.2161
          ],
          [
            -2.2321,
            41.1706
          ],
          [
            -2.2881,
            41.1221
          ],
          [
            -2.3417,
            41.0757
          ],
          [
            -2.3953,
            41.0291
          ],
          [
            -2.4487,
            40.9825
          ],
          [
            -2.5055,
            40.9331
          ],
          [
            -2.5621,
            40.8836
          ],
          [
            -2.6156,
            40.8368
          ],
          [
            -2.6685,
            40.7904
          ],
          [
            -2.7205,
            40.7446
          ],
          [
            -2.7722,
            40.6992
          ],
          [
            -2.8242,
            40.6533
          ],
          [
            -2.8799,
            40.6041
          ],
          [
            -2.9322,
            40.5577
          ],
          [
            -2.9826,
            40.513
          ],
          [
            -3.0354,
            40.4661
          ],
          [
            -3.0928,
            40.415
          ],
          [
            -3.1429,
            40.3702
          ],
          [
            -3.1982,
            40.3208
          ],
          [
            -3.2506,
            40.2739
          ],
          [
            -3.3053,
            40.2247
          ],
          [
            -3.3578,
            40.1775
          ],
          [
            -3.4118,
            40.1287
          ],
          [
            -3.4642,
            40.0816
          ],
          [
            -3.5161,
            40.0344
          ],
          [
            -3.5696,
            39.986
          ],
          [
            -3.6237,
            39.9369
          ],
          [
            -3.6755,
            39.8898
          ],
          [
            -3.7278,
            39.8421
          ],
          [
            -3.7824,
            39.7921
          ],
          [
            -3.8348,
            39.7442
          ],
          [
            -3.8868,
            39.6966
          ],
          [
            -3.9404,
            39.6474
          ],
          [
            -3.989,
            39.6027
          ],
          [
            -4.0402,
            39.5556
          ],
          [
            -4.0909,
            39.5087
          ],
          [
            -4.1429,
            39.4605
          ],
          [
            -4.2007,
            39.4071
          ],
          [
            -4.2574,
            39.3542
          ],
          [
            -4.3095,
            39.3058
          ],
          [
            -4.3655,
            39.2536
          ],
          [
            -4.426,
            39.1969
          ],
          [
            -4.4799,
            39.1466
          ],
          [
            -4.5352,
            39.0948
          ],
          [
            -4.5896,
            39.0436
          ],
          [
            -4.6459,
            38.9905
          ],
          [
            -4.7027,
            38.9369
          ],
          [
            -4.7631,
            38.8675
          ],
          [
            -4.7939,
            38.819
          ],
          [
            -4.8311,
            38.7574
          ],
          [
            -4.8702,
            38.6949
          ],
          [
            -4.9062,
            38.6379
          ],
          [
            -4.9433,
            38.5785
          ],
          [
            -4.9802,
            38.5192
          ],
          [
            -5.0171,
            38.4603
          ],
          [
            -5.0555,
            38.3985
          ],
          [
            -5.0922,
            38.3395
          ],
          [
            -5.1302,
            38.2785
          ],
          [
            -5.1694,
            38.2153
          ],
          [
            -5.1912,
            38.1796
          ],
          [
            -5.2017,
            38.1473
          ],
          [
            -5.193,
            38.0997
          ],
          [
            -5.1661,
            38.0408
          ],
          [
            -5.1378,
            37.982
          ],
          [
            -5.11,
            37.9241
          ],
          [
            -5.0848,
            37.8733
          ],
          [
            -5.057,
            37.8239
          ],
          [
            -5.0306,
            37.7812
          ],
          [
            -5.0046,
            37.7379
          ],
          [
            -4.9806,
            37.6958
          ],
          [
            -4.9707,
            37.67
          ],
          [
            -4.9732,
            37.6376
          ],
          [
            -4.9791,
            37.5943
          ],
          [
            -4.9853,
            37.5515
          ],
          [
            -5.0064,
            37.5192
          ],
          [
            -5.0381,
            37.4875
          ],
          [
            -5.0548,
            37.4706
          ],
          [
            -5.0789,
            37.4551
          ],
          [
            -5.1176,
            37.4432
          ],
          [
            -5.1589,
            37.4317
          ],
          [
            -5.199,
            37.4191
          ],
          [
            -5.22,
            37.4123
          ],
          [
            -5.2557,
            37.4015
          ],
          [
            -5.2739,
            37.3963
          ],
          [
            -5.3105,
            37.3858
          ],
          [
            -5.3325,
            37.3793
          ],
          [
            -5.3526,
            37.378
          ],
          [
            -5.3714,
            37.3801
          ],
          [
            -5.3908,
            37.3829
          ],
          [
            -5.4144,
            37.3863
          ],
          [
            -5.4542,
            37.3921
          ],
          [
            -5.4836,
            37.3967
          ],
          [
            -5.5032,
            37.4018
          ],
          [
            -5.5443,
            37.4134
          ],
          [
            -5.5702,
            37.4174
          ],
          [
            -5.5889,
            37.4183
          ],
          [
            -5.6093,
            37.4185
          ],
          [
            -5.6448,
            37.4185
          ],
          [
            -5.6627,
            37.4184
          ],
          [
            -5.7012,
            37.4184
          ],
          [
            -5.718,
            37.4184
          ],
          [
            -5.75,
            37.4183
          ],
          [
            -5.7826,
            37.4183
          ],
          [
            -5.798,
            37.4182
          ],
          [
            -5.8026,
            37.4181
          ],
          [
            -5.8136,
            37.4182
          ],
          [
            -5.8292,
            37.4181
          ],
          [
            -5.8417,
            37.4181
          ],
          [
            -5.8533,
            37.4181
          ]
        ]
      },
      "properties": {
        "time_europe_berlin": [
          "08.12.2025 15:56:26",
          "08.12.2025 15:56:42",
          "08.12.2025 15:56:58",
          "08.12.2025 15:57:14",
          "08.12.2025 15:57:30",
          "08.12.2025 15:57:53",
          "08.12.2025 15:58:23",
          "08.12.2025 15:58:53",
          "08.12.2025 15:59:23",
          "08.12.2025 15:59:53",
          "08.12.2025 16:00:17",
          "08.12.2025 16:00:35",
          "08.12.2025 16:01:05",
          "08.12.2025 16:01:27",
          "08.12.2025 16:02:09",
          "08.12.2025 16:02:33",
          "08.12.2025 16:03:03",
          "08.12.2025 16:03:33",
          "08.12.2025 16:04:03",
          "08.12.2025 16:04:19",
          "08.12.2025 16:04:49",
          "08.12.2025 16:05:18",
          "08.12.2025 16:05:51",
          "08.12.2025 16:06:21",
          "08.12.2025 16:06:50",
          "08.12.2025 16:07:16",
          "08.12.2025 16:08:00",
          "08.12.2025 16:08:30",
          "08.12.2025 16:09:00",
          "08.12.2025 16:09:30",
          "08.12.2025 16:10:00",
          "08.12.2025 16:10:30",
          "08.12.2025 16:11:00",
          "08.12.2025 16:11:30",
          "08.12.2025 16:12:00",
          "08.12.2025 16:12:37",
          "08.12.2025 16:13:04",
          "08.12.2025 16:13:34",
          "08.12.2025 16:13:52",
          "08.12.2025 16:14:22",
          "08.12.2025 16:14:38",
          "08.12.2025 16:15:08",
          "08.12.2025 16:15:28",
          "08.12.2025 16:15:58",
          "08.12.2025 16:16:28",
          "08.12.2025 16:16:58",
          "08.12.2025 16:17:28",
          "08.12.2025 16:17:58",
          "08.12.2025 16:18:28",
          "08.12.2025 16:19:12",
          "08.12.2025 16:19:32",
          "08.12.2025 16:20:02",
          "08.12.2025 16:20:32",
          "08.12.2025 16:21:02",
          "08.12.2025 16:21:32",
          "08.12.2025 16:22:01",
          "08.12.2025 16:22:17",
          "08.12.2025 16:22:34",
          "08.12.2025 16:23:04",
          "08.12.2025 16:23:34",
          "08.12.2025 16:24:04",
          "08.12.2025 16:24:34",
          "08.12.2025 16:25:04",
          "08.12.2025 16:26:04",
          "08.12.2025 16:26:34",
          "08.12.2025 16:27:04",
          "08.12.2025 16:27:34",
          "08.12.2025 16:28:05",
          "08.12.2025 16:28:35",
          "08.12.2025 16:29:05",
          "08.12.2025 16:29:35",
          "08.12.2025 16:30:16",
          "08.12.2025 16:30:46",
          "08.12.2025 16:31:24",
          "08.12.2025 16:31:54",
          "08.12.2025 16:32:24",
          "08.12.2025 16:32:54",
          "08.12.2025 16:33:24",
          "08.12.2025 16:33:54",
          "08.12.2025 16:34:24",
          "08.12.2025 16:34:46",
          "08.12.2025 16:35:05",
          "08.12.2025 16:35:35",
          "08.12.2025 16:36:06",
          "08.12.2025 16:36:36",
          "08.12.2025 16:37:06",
          "08.12.2025 16:37:36",
          "08.12.2025 16:38:06",
          "08.12.2025 16:38:36",
          "08.12.2025 16:39:07",
          "08.12.2025 16:39:37",
          "08.12.2025 16:40:08",
          "08.12.2025 16:40:38",
          "08.12.2025 16:41:08",
          "08.12.2025 16:41:38",
          "08.12.2025 16:42:08",
          "08.12.2025 16:42:38",
          "08.12.2025 16:43:09",
          "08.12.2025 16:43:39",
          "08.12.2025 16:44:09",
          "08.12.2025 16:44:39",
          "08.12.2025 16:45:09",
          "08.12.2025 16:45:39",
          "08.12.2025 16:46:09",
          "08.12.2025 16:46:39",
          "08.12.2025 16:47:09",
          "08.12.2025 16:47:39",
          "08.12.2025 16:48:09",
          "08.12.2025 16:48:39",
          "08.12.2025 16:49:09",
          "08.12.2025 16:49:39",
          "08.12.2025 16:50:09",
          "08.12.2025 16:50:39",
          "08.12.2025 16:51:09",
          "08.12.2025 16:51:40",
          "08.12.2025 16:52:10",
          "08.12.2025 16:52:40",
          "08.12.2025 16:53:10",
          "08.12.2025 16:53:40",
          "08.12.2025 16:54:10",
          "08.12.2025 16:54:40",
          "08.12.2025 16:55:10",
          "08.12.2025 16:55:40",
          "08.12.2025 16:56:11",
          "08.12.2025 16:56:42",
          "08.12.2025 16:57:12",
          "08.12.2025 16:57:43",
          "08.12.2025 16:58:13",
          "08.12.2025 16:58:43",
          "08.12.2025 16:59:13",
          "08.12.2025 16:59:44",
          "08.12.2025 17:00:14",
          "08.12.2025 17:00:44",
          "08.12.2025 17:01:15",
          "08.12.2025 17:01:45",
          "08.12.2025 17:02:15",
          "08.12.2025 17:02:46",
          "08.12.2025 17:03:16",
          "08.12.2025 17:03:46",
          "08.12.2025 17:04:16",
          "08.12.2025 17:04:46",
          "08.12.2025 17:05:16",
          "08.12.2025 17:05:46",
          "08.12.2025 17:06:17",
          "08.12.2025 17:06:48",
          "08.12.2025 17:07:18",
          "08.12.2025 17:07:48",
          "08.12.2025 17:08:19",
          "08.12.2025 17:08:49",
          "08.12.2025 17:09:19",
          "08.12.2025 17:09:49",
          "08.12.2025 17:10:19",
          "08.12.2025 17:10:49",
          "08.12.2025 17:11:20",
          "08.12.2025 17:11:50",
          "08.12.2025 17:12:21",
          "08.12.2025 17:12:51",
          "08.12.2025 17:13:21",
          "08.12.2025 17:13:51",
          "08.12.2025 17:14:21",
          "08.12.2025 17:14:51",
          "08.12.2025 17:15:21",
          "08.12.2025 17:15:51",
          "08.12.2025 17:16:21",
          "08.12.2025 17:16:52",
          "08.12.2025 17:17:22",
          "08.12.2025 17:17:53",
          "08.12.2025 17:18:23",
          "08.12.2025 17:18:53",
          "08.12.2025 17:19:23",
          "08.12.2025 17:19:53",
          "08.12.2025 17:20:24",
          "08.12.2025 17:20:54",
          "08.12.2025 17:21:24",
          "08.12.2025 17:21:54",
          "08.12.2025 17:22:24",
          "08.12.2025 17:22:54",
          "08.12.2025 17:23:25",
          "08.12.2025 17:23:55",
          "08.12.2025 17:24:23",
          "08.12.2025 17:24:57",
          "08.12.2025 17:25:27",
          "08.12.2025 17:25:57",
          "08.12.2025 17:26:27",
          "08.12.2025 17:26:57",
          "08.12.2025 17:27:27",
          "08.12.2025 17:27:57",
          "08.12.2025 17:28:28",
          "08.12.2025 17:29:01",
          "08.12.2025 17:29:37",
          "08.12.2025 17:30:07",
          "08.12.2025 17:30:38",
          "08.12.2025 17:31:08",
          "08.12.2025 17:31:38",
          "08.12.2025 17:32:08",
          "08.12.2025 17:32:38",
          "08.12.2025 17:33:09",
          "08.12.2025 17:33:39",
          "08.12.2025 17:34:09",
          "08.12.2025 17:34:39",
          "08.12.2025 17:35:09",
          "08.12.2025 17:35:39",
          "08.12.2025 17:36:09",
          "08.12.2025 17:36:39",
          "08.12.2025 17:37:10",
          "08.12.2025 17:37:40",
          "08.12.2025 17:38:10",
          "08.12.2025 17:38:40",
          "08.12.2025 17:39:10",
          "08.12.2025 17:39:40",
          "08.12.2025 17:40:10",
          "08.12.2025 17:40:40",
          "08.12.2025 17:41:10",
          "08.12.2025 17:41:40",
          "08.12.2025 17:42:10",
          "08.12.2025 17:42:40",
          "08.12.2025 17:43:10",
          "08.12.2025 17:43:40",
          "08.12.2025 17:44:10",
          "08.12.2025 17:44:41",
          "08.12.2025 17:45:11",
          "08.12.2025 17:45:44",
          "08.12.2025 17:46:15",
          "08.12.2025 17:46:45",
          "08.12.2025 17:47:15",
          "08.12.2025 17:47:45",
          "08.12.2025 17:48:15",
          "08.12.2025 17:48:45",
          "08.12.2025 17:49:15",
          "08.12.2025 17:49:45",
          "08.12.2025 17:50:15",
          "08.12.2025 17:50:45",
          "08.12.2025 17:51:16",
          "08.12.2025 17:51:46",
          "08.12.2025 17:52:17",
          "08.12.2025 17:52:47",
          "08.12.2025 17:53:17",
          "08.12.2025 17:53:48",
          "08.12.2025 17:54:18",
          "08.12.2025 17:54:48",
          "08.12.2025 17:55:19",
          "08.12.2025 17:55:49",
          "08.12.2025 17:56:19",
          "08.12.2025 17:56:49",
          "08.12.2025 17:57:19",
          "08.12.2025 17:57:49",
          "08.12.2025 17:58:19",
          "08.12.2025 17:58:49",
          "08.12.2025 17:59:19",
          "08.12.2025 17:59:49",
          "08.12.2025 18:00:19",
          "08.12.2025 18:00:49",
          "08.12.2025 18:01:19",
          "08.12.2025 18:01:50",
          "08.12.2025 18:02:21",
          "08.12.2025 18:02:51",
          "08.12.2025 18:03:23",
          "08.12.2025 18:03:55",
          "08.12.2025 18:04:26",
          "08.12.2025 18:04:56",
          "08.12.2025 18:05:26",
          "08.12.2025 18:05:57",
          "08.12.2025 18:06:29",
          "08.12.2025 18:07:07",
          "08.12.2025 18:07:31",
          "08.12.2025 18:08:01",
          "08.12.2025 18:08:32",
          "08.12.2025 18:09:02",
          "08.12.2025 18:09:32",
          "08.12.2025 18:10:02",
          "08.12.2025 18:10:32",
          "08.12.2025 18:11:02",
          "08.12.2025 18:11:32",
          "08.12.2025 18:12:03",
          "08.12.2025 18:12:35",
          "08.12.2025 18:12:55",
          "08.12.2025 18:13:11",
          "08.12.2025 18:13:34",
          "08.12.2025 18:14:04",
          "08.12.2025 18:14:34",
          "08.12.2025 18:15:04",
          "08.12.2025 18:15:34",
          "08.12.2025 18:16:05",
          "08.12.2025 18:16:35",
          "08.12.2025 18:17:05",
          "08.12.2025 18:17:35",
          "08.12.2025 18:17:54",
          "08.12.2025 18:18:16",
          "08.12.2025 18:18:46",
          "08.12.2025 18:19:16",
          "08.12.2025 18:19:43",
          "08.12.2025 18:20:13",
          "08.12.2025 18:20:30",
          "08.12.2025 18:20:51",
          "08.12.2025 18:21:21",
          "08.12.2025 18:21:51",
          "08.12.2025 18:22:21",
          "08.12.2025 18:22:37",
          "08.12.2025 18:23:07",
          "08.12.2025 18:23:23",
          "08.12.2025 18:23:55",
          "08.12.2025 18:24:13",
          "08.12.2025 18:24:29",
          "08.12.2025 18:24:45",
          "08.12.2025 18:25:01",
          "08.12.2025 18:25:20",
          "08.12.2025 18:25:51",
          "08.12.2025 18:26:15",
          "08.12.2025 18:26:32",
          "08.12.2025 18:27:06",
          "08.12.2025 18:27:27",
          "08.12.2025 18:27:43",
          "08.12.2025 18:27:59",
          "08.12.2025 18:28:29",
          "08.12.2025 18:28:45",
          "08.12.2025 18:29:20",
          "08.12.2025 18:29:36",
          "08.12.2025 18:30:06",
          "08.12.2025 18:30:37",
          "08.12.2025 18:30:53",
          "08.12.2025 18:30:59",
          "08.12.2025 18:31:13",
          "08.12.2025 18:31:33",
          "08.12.2025 18:31:49",
          "08.12.2025 18:32:05"
        ],
        "course_deg_clockwise_from_north": [
          179,
          177,
          176,
          176,
          177,
          179,
          178,
          177,
          178,
          180,
          189,
          192,
          192,
          191,
          191,
          191,
          191,
          191,
          191,
          191,
          191,
          192,
          191,
          191,
          191,
          193,
          200,
          200,
          199,
          199,
          200,
          199,
          199,
          199,
          199,
          199,
          199,
          199,
          199,
          199,
          199,
          199,
          199,
          199,
          199,
          199,
          199,
          199,
          199,
          199,
          199,
          199,
          199,
          199,
          199,
          202,
          213,
          223,
          229,
          231,
          230,
          230,
          230,
          230,
          230,
          230,
          230,
          229,
          229,
          229,
          229,
          229,
          229,
          229,
          229,
          229,
          229,
          229,
          229,
          231,
          235,
          238,
          236,
          235,
          237,
          235,
          236,
          236,
          235,
          235,
          235,
          235,
          235,
          233,
          231,
          232,
          232,
          232,
          232,
          232,
          232,
          232,
          232,
          232,
          232,
          232,
          231,
          231,
          232,
          232,
          231,
          232,
          231,
          231,
          231,
          231,
          231,
          231,
          231,
          231,
          231,
          231,
          231,
          231,
          231,
          231,
          231,
          231,
          231,
          231,
          230,
          231,
          230,
          230,
          230,
          230,
          230,
          230,
          230,
          230,
          230,
          230,
          230,
          230,
          230,
          230,
          230,
          230,
          230,
          230,
          230,
          230,
          230,
          230,
          229,
          230,
          229,
          229,
          229,
          229,
          229,
          229,
          229,
          229,
          229,
          229,
          229,
          229,
          229,
          229,
          229,
          229,
          229,
          229,
          229,
          229,
          229,
          228,
          228,
          226,
          215,
          213,
          214,
          214,
          214,
          214,
          214,
          214,
          214,
          222,
          223,
          222,
          222,
          222,
          222,
          222,
          222,
          222,
          222,
          222,
          222,
          222,
          222,
          222,
          222,
          222,
          222,
          222,
          222,
          221,
          221,
          221,
          221,
          221,
          221,
          221,
          221,
          221,
          221,
          221,
          221,
          221,
          221,
          221,
          221,
          221,
          221,
          221,
          221,
          221,
          221,
          221,
          221,
          221,
          221,
          220,
          221,
          220,
          220,
          220,
          220,
          220,
          220,
          220,
          220,
          220,
          220,
          220,
          220,
          220,
          220,
          220,
          220,
          220,
          220,
          220,
          220,
          220,
          220,
          220,
          220,
          220,
          220,
          208,
          205,
          206,
          207,
          206,
          206,
          206,
          206,
          206,
          206,
          206,
          206,
          204,
          186,
          163,
          159,
          160,
          159,
          158,
          154,
          154,
          155,
          156,
          174,
          185,
          186,
          187,
          218,
          219,
          218,
          245,
          251,
          250,
          248,
          248,
          251,
          250,
          250,
          251,
          275,
          279,
          280,
          280,
          280,
          286,
          289,
          287,
          276,
          273,
          270,
          270,
          270,
          270,
          270,
          270,
          270,
          269,
          270,
          270,
          270,
          270,
          270
        ],
        "speed_kts": [
          148,
          157,
          169,
          175,
          182,
          211,
          248,
          272,
          279,
          290,
          308,
          319,
          325,
          328,
          347,
          360,
          384,
          402,
          416,
          424,
          434,
          439,
          447,
          453,
          458,
          457,
          438,
          428,
          421,
          409,
          403,
          397,
          390,
          385,
          384,
          384,
          384,
          386,
          389,
          391,
          392,
          394,
          395,
          396,
          398,
          399,
          399,
          400,
          399,
          401,
          400,
          400,
          399,
          396,
          395,
          391,
          382,
          375,
          375,
          380,
          383,
          386,
          388,
          394,
          396,
          397,
          399,
          401,
          401,
          402,
          404,
          406,
          406,
          407,
          407,
          407,
          407,
          406,
          408,
          407,
          405,
          403,
          404,
          406,
          404,
          406,
          405,
          406,
          407,
          409,
          410,
          411,
          411,
          412,
          413,
          413,
          413,
          415,
          414,
          413,
          413,
          413,
          413,
          414,
          413,
          412,
          412,
          412,
          413,
          413,
          413,
          414,
          415,
          415,
          416,
          415,
          415,
          415,
          415,
          415,
          417,
          418,
          419,
          420,
          421,
          421,
          421,
          422,
          423,
          422,
          422,
          423,
          423,
          423,
          423,
          424,
          424,
          425,
          425,
          425,
          425,
          426,
          427,
          427,
          427,
          427,
          427,
          428,
          428,
          428,
          428,
          427,
          426,
          425,
          425,
          425,
          426,
          425,
          425,
          425,
          425,
          425,
          425,
          425,
          426,
          427,
          427,
          427,
          428,
          428,
          428,
          428,
          429,
          429,
          430,
          429,
          430,
          429,
          429,
          430,
          433,
          430,
          428,
          426,
          424,
          423,
          424,
          427,
          427,
          423,
          425,
          427,
          426,
          426,
          426,
          427,
          428,
          429,
          430,
          430,
          431,
          431,
          432,
          432,
          433,
          434,
          434,
          435,
          435,
          437,
          438,
          437,
          439,
          437,
          438,
          439,
          439,
          440,
          441,
          442,
          443,
          442,
          444,
          442,
          440,
          442,
          442,
          442,
          443,
          445,
          446,
          448,
          450,
          448,
          449,
          448,
          448,
          450,
          451,
          450,
          453,
          452,
          452,
          451,
          457,
          456,
          458,
          450,
          437,
          449,
          447,
          453,
          462,
          467,
          472,
          471,
          471,
          472,
          472,
          474,
          477,
          478,
          480,
          488,
          489,
          481,
          474,
          475,
          476,
          479,
          486,
          486,
          474,
          458,
          452,
          457,
          460,
          459,
          453,
          448,
          429,
          389,
          355,
          340,
          336,
          324,
          308,
          307,
          313,
          307,
          298,
          282,
          271,
          248,
          246,
          245,
          245,
          236,
          215,
          216,
          216,
          215,
          213,
          215,
          218,
          218,
          221,
          215,
          216,
          214,
          216,
          219,
          217,
          186,
          186,
          186,
          184,
          186,
          170,
          157,
          149,
          134,
          131,
          129,
          132
        ],
        "speed_mph": [
          170.0,
          181.0,
          194.0,
          201.0,
          209.0,
          243.0,
          285.0,
          313.0,
          321.0,
          334.0,
          354.0,
          367.0,
          374.0,
          377.0,
          399.0,
          414.0,
          442.0,
          463.0,
          479.0,
          488.0,
          499.0,
          505.0,
          514.0,
          521.0,
          527.0,
          526.0,
          504.0,
          493.0,
          484.0,
          471.0,
          464.0,
          457.0,
          449.0,
          443.0,
          442.0,
          442.0,
          442.0,
          444.0,
          448.0,
          450.0,
          451.0,
          453.0,
          455.0,
          456.0,
          458.0,
          459.0,
          459.0,
          460.0,
          459.0,
          461.0,
          460.0,
          460.0,
          459.0,
          456.0,
          455.0,
          450.0,
          440.0,
          432.0,
          432.0,
          437.0,
          441.0,
          444.0,
          447.0,
          453.0,
          456.0,
          457.0,
          459.0,
          461.0,
          461.0,
          463.0,
          465.0,
          467.0,
          467.0,
          468.0,
          468.0,
          468.0,
          468.0,
          467.0,
          470.0,
          468.0,
          466.0,
          464.0,
          465.0,
          467.0,
          465.0,
          467.0,
          466.0,
          467.0,
          468.0,
          471.0,
          472.0,
          473.0,
          473.0,
          474.0,
          475.0,
          475.0,
          475.0,
          478.0,
          476.0,
          475.0,
          475.0,
          475.0,
          475.0,
          476.0,
          475.0,
          474.0,
          474.0,
          474.0,
          475.0,
          475.0,
          475.0,
          476.0,
          478.0,
          478.0,
          479.0,
          478.0,
          478.0,
          478.0,
          478.0,
          478.0,
          480.0,
          481.0,
          482.0,
          483.0,
          484.0,
          484.0,
          484.0,
          486.0,
          487.0,
          486.0,
          486.0,
          487.0,
          487.0,
          487.0,
          487.0,
          488.0,
          488.0,
          489.0,
          489.0,
          489.0,
          489.0,
          490.0,
          491.0,
          491.0,
          491.0,
          491.0,
          491.0,
          493.0,
          493.0,
          493.0,
          493.0,
          491.0,
          490.0,
          489.0,
          489.0,
          489.0,
          490.0,
          489.0,
          489.0,
          489.0,
          489.0,
          489.0,
          489.0,
          489.0,
          490.0,
          491.0,
          491.0,
          491.0,
          493.0,
          493.0,
          493.0,
          493.0,
          494.0,
          494.0,
          495.0,
          494.0,
          495.0,
          494.0,
          494.0,
          495.0,
          498.0,
          495.0,
          493.0,
          490.0,
          488.0,
          487.0,
          488.0,
          491.0,
          491.0,
          487.0,
          489.0,
          491.0,
          490.0,
          490.0,
          490.0,
          491.0,
          493.0,
          494.0,
          495.0,
          495.0,
          496.0,
          496.0,
          497.0,
          497.0,
          498.0,
          499.0,
          499.0,
          501.0,
          501.0,
          503.0,
          504.0,
          503.0,
          505.0,
          503.0,
          504.0,
          505.0,
          505.0,
          506.0,
          507.0,
          509.0,
          510.0,
          509.0,
          511.0,
          509.0,
          506.0,
          509.0,
          509.0,
          509.0,
          510.0,
          512.0,
          513.0,
          516.0,
          518.0,
          516.0,
          517.0,
          516.0,
          516.0,
          518.0,
          519.0,
          518.0,
          521.0,
          520.0,
          520.0,
          519.0,
          526.0,
          525.0,
          527.0,
          518.0,
          503.0,
          517.0,
          514.0,
          521.0,
          532.0,
          537.0,
          543.0,
          542.0,
          542.0,
          543.0,
          543.0,
          545.0,
          549.0,
          550.0,
          552.0,
          562.0,
          563.0,
          554.0,
          545.0,
          547.0,
          548.0,
          551.0,
          559.0,
          559.0,
          545.0,
          527.0,
          520.0,
          526.0,
          529.0,
          528.0,
          521.0,
          516.0,
          494.0,
          448.0,
          409.0,
          391.0,
          387.0,
          373.0,
          354.0,
          353.0,
          360.0,
          353.0,
          343.0,
          325.0,
          312.0,
          285.0,
          283.0,
          282.0,
          282.0,
          272.0,
          247.0,
          249.0,
          249.0,
          247.0,
          245.0,
          247.0,
          251.0,
          251.0,
          254.0,
          247.0,
          249.0,
          246.0,
          249.0,
          252.0,
          250.0,
          214.0,
          214.0,
          214.0,
          212.0,
          214.0,
          196.0,
          181.0,
          171.0,
          154.0,
          151.0,
          148.0,
          152.0
        ],
        "altitude_ft": [
          925,
          1725,
          2500,
          3400,
          4175,
          5050,
          6125,
          7375,
          9225,
          11225,
          12325,
          13425,
          15550,
          17100,
          19425,
          20525,
          21650,
          22600,
          23650,
          24200,
          25175,
          26150,
          27200,
          28125,
          28950,
          29775,
          31625,
          32850,
          34125,
          35375,
          36250,
          37125,
          37950,
          38675,
          39150,
          39800,
          40200,
          40525,
          40650,
          40900,
          41025,
          41300,
          41475,
          41700,
          41975,
          42200,
          42450,
          42700,
          42975,
          43325,
          43500,
          43750,
          44000,
          44250,
          44500,
          44725,
          44875,
          44975,
          45000,
          45000,
          45000,
          45000,
          45000,
          45000,
          45000,
          45000,
          45000,
          45000,
          45000,
          45000,
          45000,
          45000,
          45000,
          45000,
          45000,
          45000,
          45000,
          45000,
          45000,
          45000,
          45000,
          45000,
          45000,
          45000,
          45000,
          45000,
          45000,
          45000,
          45000,
          45000,
          45000,
          45000,
          45000,
          45000,
          45000,
          45000,
          45000,
          45000,
          45000,
          45000,
          45000,
          45000,
          45000,
          45000,
          45000,
          45000,
          45000,
          45000,
          45000,
          45000,
          45000,
          45000,
          45000,
          45000,
          45000,
          45000,
          45000,
          45000,
          45000,
          45000,
          45000,
          45000,
          45000,
          45000,
          45000,
          45000,
          45000,
          45000,
          45000,
          45000,
          45000,
          45000,
          45000,
          45000,
          45000,
          45000,
          45000,
          45000,
          45000,
          45000,
          45000,
          45000,
          45000,
          45000,
          45000,
          45000,
          45000,
          45000,
          45000,
          45000,
          45000,
          45000,
          45000,
          45000,
          45000,
          45000,
          45000,
          45000,
          45000,
          45000,
          45000,
          45000,
          45000,
          45000,
          45000,
          45000,
          45000,
          45000,
          45000,
          45000,
          45000,
          45000,
          45000,
          45000,
          45000,
          45000,
          45000,
          45000,
          45000,
          45000,
          45000,
          45000,
          45000,
          45000,
          45000,
          45000,
          45000,
          45000,
          45000,
          45000,
          45000,
          45000,
          45000,
          45000,
          45000,
          45000,
          45000,
          45000,
          45000,
          45000,
          45000,
          45000,
          45000,
          45000,
          45000,
          45000,
          45000,
          45000,
          45000,
          45000,
          45000,
          45000,
          45000,
          45000,
          45000,
          45000,
          45000,
          45000,
          45000,
          45000,
          45000,
          45000,
          45000,
          45000,
          45000,
          45000,
          45000,
          45000,
          45000,
          45000,
          45000,
          45000,
          45000,
          45000,
          45000,
          45000,
          45000,
          45000,
          45000,
          45000,
          45000,
          45000,
          45000,
          44850,
          44200,
          43450,
          42725,
          42000,
          41250,
          40525,
          39475,
          38200,
          37000,
          35675,
          35050,
          35000,
          35000,
          35000,
          35000,
          35000,
          35000,
          35000,
          35000,
          35000,
          35000,
          35000,
          35000,
          35000,
          34950,
          34650,
          34375,
          33750,
          32975,
          31725,
          29650,
          28325,
          27350,
          25875,
          23875,
          21875,
          19850,
          17925,
          16350,
          15150,
          13850,
          13050,
          13000,
          12650,
          11425,
          10375,
          10025,
          9300,
          8525,
          7650,
          6450,
          5400,
          4425,
          3950,
          3225,
          2850,
          2750,
          2750,
          2750,
          2750,
          2750,
          2750,
          2625,
          2225,
          1975,
          1750,
          1750,
          1750,
          1750,
          1750,
          1750,
          1750,
          1750,
          1750,
          1375,
          1125,
          1050,
          900,
          650,
          450,
          275
        ],
        "vertical_rate_fpm": [
          0.0,
          2953.0,
          3141.0,
          3141.0,
          2538.0,
          2208.0,
          2325.0,
          3100.0,
          3850.0,
          3444.0,
          3143.0,
          4031.0,
          4240.0,
          3633.0,
          3114.0,
          2472.0,
          2075.0,
          2000.0,
          2087.0,
          1989.0,
          1983.0,
          1960.0,
          1881.0,
          1780.0,
          1800.0,
          2293.0,
          2493.0,
          2500.0,
          2525.0,
          2125.0,
          1750.0,
          1700.0,
          1550.0,
          1200.0,
          1007.0,
          984.0,
          763.0,
          563.0,
          469.0,
          489.0,
          522.0,
          540.0,
          480.0,
          500.0,
          500.0,
          475.0,
          500.0,
          525.0,
          507.0,
          492.0,
          510.0,
          500.0,
          500.0,
          500.0,
          483.0,
          500.0,
          455.0,
          160.0,
          25.0,
          0.0,
          0.0,
          0.0,
          0.0,
          0.0,
          0.0,
          0.0,
          0.0,
          0.0,
          0.0,
          0.0,
          0.0,
          0.0,
          0.0,
          0.0,
          0.0,
          0.0,
          0.0,
          0.0,
          0.0,
          0.0,
          0.0,
          0.0,
          0.0,
          0.0,
          0.0,
          0.0,
          0.0,
          0.0,
          0.0,
          0.0,
          0.0,
          0.0,
          0.0,
          0.0,
          0.0,
          0.0,
          0.0,
          0.0,
          0.0,
          0.0,
          0.0,
          0.0,
          0.0,
          0.0,
          0.0,
          0.0,
          0.0,
          0.0,
          0.0,
          0.0,
          0.0,
          0.0,
          0.0,
          0.0,
          0.0,
          0.0,
          0.0,
          0.0,
          0.0,
          0.0,
          0.0,
          0.0,
          0.0,
          0.0,
          0.0,
          0.0,
          0.0,
          0.0,
          0.0,
          0.0,
          0.0,
          0.0,
          0.0,
          0.0,
          0.0,
          0.0,
          0.0,
          0.0,
          0.0,
          0.0,
          0.0,
          0.0,
          0.0,
          0.0,
          0.0,
          0.0,
          0.0,
          0.0,
          0.0,
          0.0,
          0.0,
          0.0,
          0.0,
          0.0,
          0.0,
          0.0,
          0.0,
          0.0,
          0.0,
          0.0,
          0.0,
          0.0,
          0.0,
          0.0,
          0.0,
          0.0,
          0.0,
          0.0,
          0.0,
          0.0,
          0.0,
          0.0,
          0.0,
          0.0,
          0.0,
          0.0,
          0.0,
          0.0,
          0.0,
          0.0,
          0.0,
          0.0,
          0.0,
          0.0,
          0.0,
          0.0,
          0.0,
          0.0,
          0.0,
          0.0,
          0.0,
          0.0,
          0.0,
          0.0,
          0.0,
          0.0,
          0.0,
          0.0,
          0.0,
          0.0,
          0.0,
          0.0,
          0.0,
          0.0,
          0.0,
          0.0,
          0.0,
          0.0,
          0.0,
          0.0,
          0.0,
          0.0,
          0.0,
          0.0,
          0.0,
          0.0,
          0.0,
          0.0,
          0.0,
          0.0,
          0.0,
          0.0,
          0.0,
          0.0,
          0.0,
          0.0,
          0.0,
          0.0,
          0.0,
          0.0,
          0.0,
          0.0,
          0.0,
          0.0,
          0.0,
          0.0,
          0.0,
          0.0,
          0.0,
          0.0,
          0.0,
          0.0,
          -150.0,
          -800.0,
          -1400.0,
          -1475.0,
          -1450.0,
          -1475.0,
          -1475.0,
          -1775.0,
          -2325.0,
          -2475.0,
          -2484.0,
          -1887.0,
          -664.0,
          -48.0,
          0.0,
          0.0,
          0.0,
          0.0,
          0.0,
          0.0,
          0.0,
          0.0,
          0.0,
          0.0,
          0.0,
          -50.0,
          -350.0,
          -575.0,
          -900.0,
          -1400.0,
          -1992.0,
          -3167.0,
          -3923.0,
          -3833.0,
          -3769.0,
          -3934.0,
          -4000.0,
          -4025.0,
          -3950.0,
          -3443.0,
          -2730.0,
          -2500.0,
          -2100.0,
          -1041.0,
          -585.0,
          -1817.0,
          -2275.0,
          -1474.0,
          -1132.0,
          -1915.0,
          -2605.0,
          -2441.0,
          -2250.0,
          -2025.0,
          -1891.0,
          -1565.0,
          -1435.0,
          -594.0,
          -120.0,
          0.0,
          0.0,
          0.0,
          0.0,
          -150.0,
          -573.0,
          -951.0,
          -559.0,
          -245.0,
          0.0,
          0.0,
          0.0,
          0.0,
          0.0,
          0.0,
          0.0,
          -369.0,
          -798.0,
          -886.0,
          -675.0,
          -706.0,
          -750.0,
          -703.0,
          -656.0
        ]
      }
    }
  ]
}