{
  "type": "FeatureCollection",
  "features": [
    {
      "type": "Feature",
      "geometry": {
        "type": "LineString",
        "coordinates": [
          [
            5.3693,
            51.4457
          ],
          [
            5.3583,
            51.4366
          ],
          [
            5.347,
            51.4275
          ],
          [
            5.3354,
            51.4182
          ],
          [
            5.3237,
            51.4079
          ],
          [
            5.3159,
            51.3952
          ],
          [
            5.3238,
            51.3808
          ],
          [
            5.3483,
            51.3681
          ],
          [
            5.384,
            51.358
          ],
          [
            5.4358,
            51.347
          ],
          [
            5.4958,
            51.335
          ],
          [
            5.558,
            51.3226
          ],
          [
            5.6174,
            51.3101
          ],
          [
            5.6758,
            51.2974
          ],
          [
            5.7187,
            51.2883
          ],
          [
            5.7611,
            51.2795
          ],
          [
            5.8554,
            51.2597
          ],
          [
            5.9127,
            51.2477
          ],
          [
            5.9676,
            51.2361
          ],
          [
            6.0243,
            51.2239
          ],
          [
            6.0801,
            51.2111
          ],
          [
            6.1121,
            51.2039
          ],
          [
            6.1677,
            51.1914
          ],
          [
            6.2278,
            51.1778
          ],
          [
            6.2855,
            51.1647
          ],
          [
            6.3432,
            51.1515
          ],
          [
            6.448,
            51.1277
          ],
          [
            6.5016,
            51.1157
          ],
          [
            6.5503,
            51.1046
          ],
          [
            6.6055,
            51.0919
          ],
          [
            6.6556,
            51.0802
          ],
          [
            6.7088,
            51.0676
          ],
          [
            6.7625,
            51.0547
          ],
          [
            6.8147,
            51.0426
          ],
          [
            6.8636,
            51.0316
          ],
          [
            6.8933,
            51.0243
          ],
          [
            6.9122,
            51.015
          ],
          [
            6.9272,
            51.005
          ],
          [
            6.9415,
            50.9942
          ],
          [
            6.9561,
            50.9837
          ],
          [
            6.971,
            50.9735
          ],
          [
            6.9862,
            50.9632
          ],
          [
            7.0002,
            50.9537
          ],
          [
            7.0258,
            50.936
          ],
          [
            7.0501,
            50.9195
          ],
          [
            7.058,
            50.9142
          ],
          [
            7.0622,
            50.9114
          ],
          [
            7.0726,
            50.9044
          ],
          [
            7.0826,
            50.8975
          ],
          [
            7.0926,
            50.8902
          ],
          [
            7.1021,
            50.8837
          ],
          [
            7.1119,
            50.877
          ],
          [
            7.1216,
            50.8703
          ]
        ]
      },
      "properties": {
        "time_europe_berlin": [
          "30.10.2025 18:28:56",
          "30.10.2025 18:29:12",
          "30.10.2025 18:29:28",
          "30.10.2025 18:29:44",
          "30.10.2025 18:30:00",
          "30.10.2025 18:30:17",
          "30.10.2025 18:30:35",
          "30.10.2025 18:30:55",
          "30.10.2025 18:31:19",
          "30.10.2025 18:31:47",
          "30.10.2025 18:32:17",
          "30.10.2025 18:32:47",
          "30.10.2025 18:33:17",
          "30.10.2025 18:33:47",
          "30.10.2025 18:34:09",
          "30.10.2025 18:34:30",
          "30.10.2025 18:35:19",
          "30.10.2025 18:35:49",
          "30.10.2025 18:36:19",
          "30.10.2025 18:36:49",
          "30.10.2025 18:37:19",
          "30.10.2025 18:37:36",
          "30.10.2025 18:38:06",
          "30.10.2025 18:38:36",
          "30.10.2025 18:39:06",
          "30.10.2025 18:39:36",
          "30.10.2025 18:40:31",
          "30.10.2025 18:41:01",
          "30.10.2025 18:41:31",
          "30.10.2025 18:42:01",
          "30.10.2025 18:42:30",
          "30.10.2025 18:43:00",
          "30.10.2025 18:43:30",
          "30.10.2025 18:44:00",
          "30.10.2025 18:44:30",
          "30.10.2025 18:44:48",
          "30.10.2025 18:45:04",
          "30.10.2025 18:45:20",
          "30.10.2025 18:45:36",
          "30.10.2025 18:45:52",
          "30.10.2025 18:46:08",
          "30.10.2025 18:46:24",
          "30.10.2025 18:46:40",
          "30.10.2025 18:47:10",
          "30.10.2025 18:47:40",
          "30.10.2025 18:47:49",
          "30.10.2025 18:47:56",
          "30.10.2025 18:48:12",
          "30.10.2025 18:48:28",
          "30.10.2025 18:48:44",
          "30.10.2025 18:49:00",
          "30.10.2025 18:49:16",
          "30.10.2025 18:49:32"
        ],
        "course_deg_clockwise_from_north": [
          "217",
          "218",
          "218",
          "217",
          "215",
          "184",
          "143",
          "121",
          "111",
          "108",
          "107",
          "108",
          "109",
          "109",
          "109",
          "108",
          "109",
          "109",
          "109",
          "110",
          "110",
          "110",
          "110",
          "110",
          "110",
          "110",
          "110",
          "110",
          "110",
          "110",
          "110",
          "111",
          "110",
          "110",
          "109",
          "117",
          "133",
          "139",
          "140",
          "138",
          "137",
          "137",
          "137",
          "137",
          "137",
          "137",
          "137",
          "137",
          "139",
          "138",
          "136",
          "137",
          "138"
        ],
        "speed_kts": [
          "154",
          "154",
          "157",
          "161",
          "176",
          "189",
          "201",
          "213",
          "246",
          "275",
          "287",
          "288",
          "283",
          "279",
          "278",
          "277",
          "274",
          "273",
          "273",
          "272",
          "271",
          "271",
          "271",
          "278",
          "279",
          "278",
          "270",
          "251",
          "253",
          "258",
          "257",
          "257",
          "258",
          "258",
          "225",
          "213",
          "202",
          "196",
          "190",
          "183",
          "183",
          "190",
          "180",
          "170",
          "154",
          "145",
          "136",
          "131",
          "127",
          "122",
          "122",
          "122",
          "119"
        ],
        "speed_mph": [
          "177",
          "177",
          "181",
          "185",
          "203",
          "217",
          "231",
          "245",
          "283",
          "316",
          "330",
          "331",
          "326",
          "321",
          "320",
          "319",
          "315",
          "314",
          "314",
          "313",
          "312",
          "312",
          "312",
          "320",
          "321",
          "320",
          "311",
          "289",
          "291",
          "297",
          "296",
          "296",
          "297",
          "297",
          "259",
          "245",
          "232",
          "226",
          "219",
          "211",
          "211",
          "219",
          "207",
          "196",
          "177",
          "167",
          "157",
          "151",
          "146",
          "140",
          "140",
          "140",
          "137"
        ],
        "altitude_ft": [
          "475",
          "1600",
          "2700",
          "3775",
          "4625",
          "5550",
          "6750",
          "8050",
          "8925",
          "9000",
          "9000",
          "9000",
          "9000",
          "9000",
          "9000",
          "9000",
          "9000",
          "9000",
          "9000",
          "9000",
          "9000",
          "9000",
          "9000",
          "8775",
          "8300",
          "7800",
          "7025",
          "7000",
          "6800",
          "6025",
          "5325",
          "4575",
          "3800",
          "3100",
          "2975",
          "2975",
          "3000",
          "2975",
          "2975",
          "2975",
          "2900",
          "2650",
          "2450",
          "1925",
          "1475",
          "1350",
          "1275",
          "1100",
          "900",
          "725",
          "575",
          "400",
          "225"
        ],
        "vertical_rate_fpm": [
          "",
          "4172",
          "4078",
          "3609",
          "3227",
          "3643",
          "3947",
          "2966",
          "1096",
          "78",
          "",
          "",
          "",
          "",
          "",
          "",
          "",
          "",
          "",
          "",
          "",
          "",
          "-225",
          "-700",
          "-975",
          "-900",
          "-565",
          "-225",
          "-975",
          "-1500",
          "-1475",
          "-1525",
          "-1475",
          "-825",
          "-156",
          "44",
          "",
          "-47",
          "",
          "-141",
          "-609",
          "-844",
          "-946",
          "-975",
          "-885",
          "-750",
          "-652",
          "-703",
          "-703",
          "-609",
          "-609",
          "-656",
          "-656"
        ],
        "reporting_facility": [
          "FlightAware ADS-B(EIN / EHEH)",
          "FlightAware ADS-B(EIN / EHEH)",
          "FlightAware ADS-B(UDE / EHVK)",
          "FlightAware ADS-B(GLZ / EHGR)",
          "FlightAware ADS-B(EIN / EHEH)",
          "FlightAware ADS-B(EIN / EHEH)",
          "FlightAware ADS-B(EHDL)",
          "FlightAware ADS-B(EDLS)",
          "FlightAware ADS-B(EHTE)",
          "FlightAware ADS-B(DUS / EDDL)",
          "FlightAware ADS-B(EDLC)",
          "FlightAware ADS-B(EDLC)",
          "FlightAware ADS-B(EBBE)",
          "FlightAware ADS-B(EIN / EHEH)",
          "FlightAware ADS-B(EHDL)",
          "FlightAware ADS-B(EBBL)",
          "FlightAware ADS-B(MST / EHBK)",
          "FlightAware ADS-B(MST / EHBK)",
          "FlightAware ADS-B(FMO / EDDG)",
          "FlightAware ADS-B(EIN / EHEH)",
          "FlightAware ADS-B(EDKL)",
          "FlightAware ADS-B(ESS / EDLE)",
          "FlightAware ADS-B(MST / EHBK)",
          "FlightAware ADS-B(EHDP)",
          "FlightAware ADS-B(MGL / EDLN)",
          "FlightAware ADS-B(EDLK)",
          "FlightAware ADS-B(ETSB)",
          "FlightAware ADS-B(EDKL)",
          "FlightAware ADS-B(MGL / EDLN)",
          "FlightAware ADS-B(ESS / EDLE)",
          "FlightAware ADS-B(EHDL)",
          "FlightAware ADS-B(UDE / EHVK)",
          "FlightAware ADS-B(DUS / EDDL)",
          "FlightAware ADS-B(DUS / EDDL)",
          "FlightAware ADS-B(ESS / EDLE)",
          "Surface and Near-Surface",
          "FlightAware ADS-B(ETNN)",
          "FlightAware ADS-B(CGN / EDDK)",
          "FlightAware ADS-B(ETNN)",
          "FlightAware ADS-B(EDKF)",
          "FlightAware ADS-B(CGN / EDDK)",
          "FlightAware ADS-B(ETSB)",
          "FlightAware ADS-B(ETNN)",
          "FlightAware ADS-B(CGN / EDDK)",
          "FlightAware ADS-B(DUS / EDDL)",
          "Surface and Near-Surface",
          "FlightAware ADS-B(EDRW)",
          "FlightAware ADS-B(CGN / EDDK)",
          "FlightAware ADS-B(EDKL)",
          "FlightAware ADS-B(ETNN)",
          "FlightAware ADS-B(DUS / EDDL)",
          "FlightAware ADS-B(CGN / EDDK)",
          "FlightAware ADS-B(CGN / EDDK)"
        ]
      }
    }
  ]
}