{
  "type": "FeatureCollection",
  "features": [
    {
      "type": "Feature",
      "geometry": {
        "type": "LineString",
        "coordinates": [
          [
            7.1418,
            50.8558
          ],
          [
            7.1525,
            50.8487
          ],
          [
            7.1665,
            50.8405
          ],
          [
            7.1823,
            50.8318
          ],
          [
            7.1977,
            50.8233
          ],
          [
            7.2166,
            50.8149
          ],
          [
            7.238,
            50.8108
          ],
          [
            7.2775,
            50.8079
          ],
          [
            7.3298,
            50.8053
          ],
          [
            7.365,
            50.803
          ],
          [
            7.4292,
            50.7975
          ],
          [
            7.4682,
            50.7901
          ],
          [
            7.5687,
            50.7592
          ],
          [
            7.6392,
            50.738
          ],
          [
            7.725,
            50.7131
          ],
          [
            7.8079,
            50.6885
          ],
          [
            7.8876,
            50.6649
          ],
          [
            7.9686,
            50.6409
          ],
          [
            8.0511,
            50.6162
          ],
          [
            8.1318,
            50.5921
          ],
          [
            8.2192,
            50.5658
          ],
          [
            8.3074,
            50.5392
          ],
          [
            8.3964,
            50.5124
          ],
          [
            8.4834,
            50.486
          ],
          [
            8.5746,
            50.4582
          ],
          [
            8.6731,
            50.4089
          ],
          [
            8.8084,
            50.3185
          ],
          [
            8.8564,
            50.287
          ],
          [
            8.9248,
            50.2416
          ],
          [
            8.9927,
            50.1959
          ],
          [
            9.0609,
            50.1502
          ],
          [
            9.1284,
            50.1045
          ],
          [
            9.1964,
            50.0587
          ],
          [
            9.266,
            50.0117
          ],
          [
            9.3344,
            49.9653
          ],
          [
            9.4003,
            49.9201
          ],
          [
            9.439,
            49.894
          ],
          [
            9.4882,
            49.8604
          ],
          [
            9.5533,
            49.8157
          ],
          [
            9.6227,
            49.7679
          ],
          [
            9.6895,
            49.7219
          ],
          [
            9.7567,
            49.6755
          ],
          [
            9.8224,
            49.6299
          ],
          [
            9.8896,
            49.583
          ],
          [
            9.9581,
            49.5353
          ],
          [
            10.0493,
            49.4716
          ],
          [
            10.1157,
            49.425
          ],
          [
            10.1753,
            49.383
          ],
          [
            10.2422,
            49.336
          ],
          [
            10.292,
            49.3007
          ],
          [
            10.3738,
            49.2411
          ],
          [
            10.4098,
            49.2066
          ],
          [
            10.438,
            49.1741
          ],
          [
            10.4594,
            49.142
          ],
          [
            10.4941,
            49.0818
          ],
          [
            10.5312,
            49.0198
          ],
          [
            10.576,
            48.9464
          ],
          [
            10.6044,
            48.899
          ],
          [
            10.6318,
            48.848
          ],
          [
            10.6508,
            48.8053
          ],
          [
            10.6915,
            48.7176
          ],
          [
            10.7176,
            48.6625
          ],
          [
            10.7449,
            48.6038
          ],
          [
            10.7714,
            48.5469
          ],
          [
            10.7996,
            48.4864
          ],
          [
            10.8275,
            48.426
          ],
          [
            10.8546,
            48.3674
          ],
          [
            10.8836,
            48.3041
          ],
          [
            10.904,
            48.26
          ],
          [
            10.9315,
            48.1998
          ],
          [
            10.9735,
            48.1084
          ],
          [
            11.0011,
            48.048
          ],
          [
            11.0296,
            47.9848
          ],
          [
            11.0567,
            47.9258
          ],
          [
            11.0827,
            47.8674
          ],
          [
            11.1104,
            47.8068
          ],
          [
            11.1349,
            47.7523
          ],
          [
            11.1549,
            47.7076
          ],
          [
            11.182,
            47.6478
          ],
          [
            11.2094,
            47.5877
          ],
          [
            11.2291,
            47.552
          ],
          [
            11.2729,
            47.4809
          ],
          [
            11.2984,
            47.4401
          ],
          [
            11.3283,
            47.3921
          ],
          [
            11.3616,
            47.3367
          ],
          [
            11.3961,
            47.2794
          ],
          [
            11.4305,
            47.2231
          ],
          [
            11.4662,
            47.1641
          ],
          [
            11.5012,
            47.1052
          ],
          [
            11.5368,
            47.0456
          ],
          [
            11.5705,
            46.9895
          ],
          [
            11.6059,
            46.93
          ],
          [
            11.6419,
            46.8693
          ],
          [
            11.6765,
            46.811
          ],
          [
            11.7124,
            46.75
          ],
          [
            11.7458,
            46.6938
          ],
          [
            11.78,
            46.6355
          ],
          [
            11.8137,
            46.5783
          ],
          [
            11.8482,
            46.5194
          ],
          [
            11.8821,
            46.4602
          ],
          [
            11.9357,
            46.3694
          ],
          [
            11.9693,
            46.3114
          ],
          [
            12.0033,
            46.2525
          ],
          [
            12.0383,
            46.1923
          ],
          [
            12.0728,
            46.132
          ],
          [
            12.106,
            46.0748
          ],
          [
            12.1399,
            46.0155
          ],
          [
            12.1757,
            45.9533
          ],
          [
            12.2089,
            45.895
          ],
          [
            12.2429,
            45.8354
          ],
          [
            12.278,
            45.7733
          ],
          [
            12.3124,
            45.7132
          ],
          [
            12.3464,
            45.6526
          ],
          [
            12.3797,
            45.5941
          ],
          [
            12.4142,
            45.5328
          ],
          [
            12.4472,
            45.4738
          ],
          [
            12.4804,
            45.4149
          ],
          [
            12.5152,
            45.3526
          ],
          [
            12.5487,
            45.2926
          ],
          [
            12.5827,
            45.2317
          ],
          [
            12.6158,
            45.1721
          ],
          [
            12.6493,
            45.1118
          ],
          [
            12.6832,
            45.0507
          ],
          [
            12.7167,
            44.9895
          ],
          [
            12.7493,
            44.9306
          ],
          [
            12.7855,
            44.8648
          ],
          [
            12.8178,
            44.8057
          ],
          [
            12.8523,
            44.743
          ],
          [
            12.8836,
            44.685
          ],
          [
            12.9168,
            44.6242
          ],
          [
            12.9486,
            44.5656
          ],
          [
            12.9824,
            44.5041
          ],
          [
            13.0158,
            44.4418
          ],
          [
            13.0479,
            44.3822
          ],
          [
            13.083,
            44.3177
          ],
          [
            13.114,
            44.2589
          ],
          [
            13.1448,
            44.2023
          ],
          [
            13.1768,
            44.1423
          ],
          [
            13.2073,
            44.0849
          ],
          [
            13.2375,
            44.0285
          ],
          [
            13.267,
            43.9731
          ],
          [
            13.2956,
            43.9187
          ],
          [
            13.3256,
            43.862
          ],
          [
            13.358,
            43.8009
          ],
          [
            13.3912,
            43.7384
          ],
          [
            13.422,
            43.6799
          ],
          [
            13.4464,
            43.6333
          ],
          [
            13.4805,
            43.5916
          ],
          [
            13.5669,
            43.5255
          ],
          [
            13.6356,
            43.4821
          ],
          [
            13.7044,
            43.4408
          ],
          [
            13.7656,
            43.4029
          ],
          [
            13.7993,
            43.3711
          ],
          [
            13.8561,
            43.2902
          ],
          [
            13.888,
            43.2426
          ],
          [
            13.922,
            43.1935
          ],
          [
            13.9524,
            43.1486
          ],
          [
            13.9834,
            43.103
          ],
          [
            14.0132,
            43.0594
          ],
          [
            14.0442,
            43.0142
          ],
          [
            14.0754,
            42.9679
          ],
          [
            14.1027,
            42.9282
          ],
          [
            14.1299,
            42.888
          ],
          [
            14.1444,
            42.8662
          ],
          [
            14.1593,
            42.8433
          ],
          [
            14.1685,
            42.8035
          ],
          [
            14.1694,
            42.7791
          ],
          [
            14.1694,
            42.7394
          ],
          [
            14.1702,
            42.7218
          ],
          [
            14.1739,
            42.7
          ],
          [
            14.1906,
            42.6863
          ],
          [
            14.2178,
            42.6804
          ],
          [
            14.2409,
            42.6781
          ],
          [
            14.262,
            42.6761
          ],
          [
            14.2844,
            42.6726
          ],
          [
            14.316,
            42.6649
          ],
          [
            14.3384,
            42.657
          ],
          [
            14.3643,
            42.646
          ],
          [
            14.3768,
            42.6349
          ],
          [
            14.3746,
            42.6168
          ],
          [
            14.3605,
            42.5983
          ],
          [
            14.3485,
            42.587
          ],
          [
            14.3347,
            42.5759
          ],
          [
            14.3159,
            42.5594
          ],
          [
            14.2957,
            42.5397
          ],
          [
            14.2755,
            42.5204
          ],
          [
            14.2569,
            42.5025
          ],
          [
            14.242,
            42.4881
          ],
          [
            14.2329,
            42.4794
          ],
          [
            14.2242,
            42.471
          ],
          [
            14.2153,
            42.4625
          ],
          [
            14.2069,
            42.4545
          ],
          [
            14.1991,
            42.447
          ],
          [
            14.191,
            42.439
          ]
        ]
      },
      "properties": {
        "time_europe_berlin": [
          "20.10.2025 11:11:49",
          "20.10.2025 11:12:05",
          "20.10.2025 11:12:21",
          "20.10.2025 11:12:37",
          "20.10.2025 11:12:53",
          "20.10.2025 11:13:09",
          "20.10.2025 11:13:25",
          "20.10.2025 11:13:49",
          "20.10.2025 11:14:19",
          "20.10.2025 11:14:37",
          "20.10.2025 11:15:07",
          "20.10.2025 11:15:25",
          "20.10.2025 11:16:10",
          "20.10.2025 11:16:40",
          "20.10.2025 11:17:11",
          "20.10.2025 11:17:41",
          "20.10.2025 11:18:11",
          "20.10.2025 11:18:41",
          "20.10.2025 11:19:11",
          "20.10.2025 11:19:41",
          "20.10.2025 11:20:11",
          "20.10.2025 11:20:41",
          "20.10.2025 11:21:11",
          "20.10.2025 11:21:41",
          "20.10.2025 11:22:11",
          "20.10.2025 11:22:49",
          "20.10.2025 11:23:49",
          "20.10.2025 11:24:10",
          "20.10.2025 11:24:40",
          "20.10.2025 11:25:10",
          "20.10.2025 11:25:40",
          "20.10.2025 11:26:10",
          "20.10.2025 11:26:40",
          "20.10.2025 11:27:10",
          "20.10.2025 11:27:40",
          "20.10.2025 11:28:09",
          "20.10.2025 11:28:26",
          "20.10.2025 11:28:47",
          "20.10.2025 11:29:17",
          "20.10.2025 11:29:47",
          "20.10.2025 11:30:17",
          "20.10.2025 11:30:47",
          "20.10.2025 11:31:17",
          "20.10.2025 11:31:47",
          "20.10.2025 11:32:17",
          "20.10.2025 11:33:00",
          "20.10.2025 11:33:30",
          "20.10.2025 11:34:00",
          "20.10.2025 11:34:30",
          "20.10.2025 11:34:54",
          "20.10.2025 11:35:33",
          "20.10.2025 11:35:54",
          "20.10.2025 11:36:12",
          "20.10.2025 11:36:29",
          "20.10.2025 11:36:59",
          "20.10.2025 11:37:33",
          "20.10.2025 11:38:11",
          "20.10.2025 11:38:36",
          "20.10.2025 11:39:02",
          "20.10.2025 11:39:23",
          "20.10.2025 11:40:07",
          "20.10.2025 11:40:37",
          "20.10.2025 11:41:07",
          "20.10.2025 11:41:37",
          "20.10.2025 11:42:07",
          "20.10.2025 11:42:37",
          "20.10.2025 11:43:07",
          "20.10.2025 11:43:37",
          "20.10.2025 11:44:00",
          "20.10.2025 11:44:30",
          "20.10.2025 11:45:14",
          "20.10.2025 11:45:44",
          "20.10.2025 11:46:14",
          "20.10.2025 11:46:44",
          "20.10.2025 11:47:13",
          "20.10.2025 11:47:43",
          "20.10.2025 11:48:11",
          "20.10.2025 11:48:32",
          "20.10.2025 11:49:02",
          "20.10.2025 11:49:32",
          "20.10.2025 11:49:50",
          "20.10.2025 11:50:27",
          "20.10.2025 11:50:47",
          "20.10.2025 11:51:12",
          "20.10.2025 11:51:42",
          "20.10.2025 11:52:12",
          "20.10.2025 11:52:42",
          "20.10.2025 11:53:12",
          "20.10.2025 11:53:42",
          "20.10.2025 11:54:12",
          "20.10.2025 11:54:42",
          "20.10.2025 11:55:12",
          "20.10.2025 11:55:42",
          "20.10.2025 11:56:12",
          "20.10.2025 11:56:42",
          "20.10.2025 11:57:12",
          "20.10.2025 11:57:42",
          "20.10.2025 11:58:12",
          "20.10.2025 11:58:42",
          "20.10.2025 11:59:12",
          "20.10.2025 11:59:57",
          "20.10.2025 12:00:27",
          "20.10.2025 12:00:57",
          "20.10.2025 12:01:27",
          "20.10.2025 12:01:57",
          "20.10.2025 12:02:27",
          "20.10.2025 12:02:57",
          "20.10.2025 12:03:27",
          "20.10.2025 12:03:57",
          "20.10.2025 12:04:27",
          "20.10.2025 12:04:57",
          "20.10.2025 12:05:27",
          "20.10.2025 12:05:57",
          "20.10.2025 12:06:27",
          "20.10.2025 12:06:57",
          "20.10.2025 12:07:27",
          "20.10.2025 12:07:57",
          "20.10.2025 12:08:27",
          "20.10.2025 12:08:57",
          "20.10.2025 12:09:27",
          "20.10.2025 12:09:57",
          "20.10.2025 12:10:27",
          "20.10.2025 12:10:57",
          "20.10.2025 12:11:27",
          "20.10.2025 12:11:58",
          "20.10.2025 12:12:29",
          "20.10.2025 12:12:59",
          "20.10.2025 12:13:29",
          "20.10.2025 12:13:59",
          "20.10.2025 12:14:29",
          "20.10.2025 12:14:59",
          "20.10.2025 12:15:29",
          "20.10.2025 12:15:59",
          "20.10.2025 12:16:29",
          "20.10.2025 12:16:59",
          "20.10.2025 12:17:29",
          "20.10.2025 12:17:59",
          "20.10.2025 12:18:29",
          "20.10.2025 12:18:59",
          "20.10.2025 12:19:29",
          "20.10.2025 12:19:59",
          "20.10.2025 12:20:29",
          "20.10.2025 12:20:59",
          "20.10.2025 12:21:29",
          "20.10.2025 12:21:59",
          "20.10.2025 12:22:29",
          "20.10.2025 12:22:52",
          "20.10.2025 12:23:14",
          "20.10.2025 12:23:56",
          "20.10.2025 12:24:26",
          "20.10.2025 12:24:56",
          "20.10.2025 12:25:22",
          "20.10.2025 12:25:41",
          "20.10.2025 12:26:25",
          "20.10.2025 12:26:55",
          "20.10.2025 12:27:25",
          "20.10.2025 12:27:55",
          "20.10.2025 12:28:25",
          "20.10.2025 12:28:55",
          "20.10.2025 12:29:25",
          "20.10.2025 12:29:58",
          "20.10.2025 12:30:28",
          "20.10.2025 12:30:58",
          "20.10.2025 12:31:15",
          "20.10.2025 12:31:31",
          "20.10.2025 12:31:59",
          "20.10.2025 12:32:18",
          "20.10.2025 12:32:48",
          "20.10.2025 12:33:04",
          "20.10.2025 12:33:23",
          "20.10.2025 12:33:40",
          "20.10.2025 12:34:01",
          "20.10.2025 12:34:17",
          "20.10.2025 12:34:33",
          "20.10.2025 12:34:51",
          "20.10.2025 12:35:15",
          "20.10.2025 12:35:34",
          "20.10.2025 12:35:56",
          "20.10.2025 12:36:13",
          "20.10.2025 12:36:33",
          "20.10.2025 12:37:00",
          "20.10.2025 12:37:17",
          "20.10.2025 12:37:34",
          "20.10.2025 12:38:00",
          "20.10.2025 12:38:30",
          "20.10.2025 12:39:00",
          "20.10.2025 12:39:30",
          "20.10.2025 12:39:53",
          "20.10.2025 12:40:09",
          "20.10.2025 12:40:25",
          "20.10.2025 12:40:41",
          "20.10.2025 12:40:57",
          "20.10.2025 12:41:13",
          "20.10.2025 12:41:29"
        ],
        "course_deg_clockwise_from_north": [
          "140",
          "134",
          "131",
          "131",
          "131",
          "117",
          "102",
          "95",
          "95",
          "97",
          "99",
          "111",
          "116",
          "115",
          "115",
          "115",
          "115",
          "115",
          "115",
          "115",
          "116",
          "115",
          "115",
          "116",
          "116",
          "134",
          "136",
          "136",
          "136",
          "136",
          "136",
          "136",
          "136",
          "136",
          "137",
          "137",
          "136",
          "137",
          "137",
          "137",
          "137",
          "137",
          "137",
          "137",
          "137",
          "137",
          "137",
          "137",
          "137",
          "138",
          "142",
          "148",
          "155",
          "158",
          "160",
          "158",
          "159",
          "159",
          "162",
          "164",
          "163",
          "163",
          "163",
          "163",
          "163",
          "163",
          "163",
          "163",
          "163",
          "163",
          "163",
          "164",
          "163",
          "163",
          "163",
          "163",
          "163",
          "163",
          "163",
          "161",
          "158",
          "157",
          "157",
          "157",
          "158",
          "158",
          "157",
          "158",
          "158",
          "158",
          "158",
          "158",
          "158",
          "158",
          "158",
          "158",
          "158",
          "158",
          "158",
          "159",
          "158",
          "158",
          "158",
          "158",
          "158",
          "159",
          "159",
          "158",
          "158",
          "158",
          "158",
          "159",
          "158",
          "158",
          "158",
          "158",
          "158",
          "158",
          "159",
          "158",
          "159",
          "158",
          "159",
          "159",
          "159",
          "159",
          "159",
          "159",
          "159",
          "159",
          "159",
          "159",
          "159",
          "158",
          "159",
          "159",
          "159",
          "159",
          "159",
          "158",
          "159",
          "159",
          "159",
          "159",
          "159",
          "159",
          "157",
          "143",
          "132",
          "130",
          "130",
          "132",
          "149",
          "154",
          "153",
          "153",
          "154",
          "154",
          "153",
          "154",
          "153",
          "154",
          "154",
          "154",
          "158",
          "177",
          "179",
          "179",
          "178",
          "163",
          "120",
          "100",
          "97",
          "99",
          "105",
          "112",
          "117",
          "123",
          "162",
          "200",
          "215",
          "220",
          "223",
          "217",
          "217",
          "218",
          "217",
          "218",
          "217",
          "218",
          "218",
          "217",
          "217",
          "218"
        ],
        "speed_kts": [
          "146",
          "146",
          "157",
          "179",
          "183",
          "195",
          "211",
          "234",
          "262",
          "277",
          "306",
          "316",
          "360",
          "388",
          "404",
          "411",
          "416",
          "415",
          "422",
          "432",
          "440",
          "446",
          "452",
          "455",
          "458",
          "453",
          "454",
          "454",
          "457",
          "454",
          "454",
          "456",
          "463",
          "467",
          "466",
          "467",
          "467",
          "467",
          "456",
          "457",
          "461",
          "461",
          "456",
          "454",
          "452",
          "446",
          "443",
          "444",
          "441",
          "441",
          "444",
          "445",
          "444",
          "444",
          "445",
          "445",
          "448",
          "450",
          "450",
          "445",
          "438",
          "438",
          "443",
          "447",
          "450",
          "454",
          "456",
          "458",
          "459",
          "460",
          "461",
          "459",
          "458",
          "459",
          "458",
          "458",
          "456",
          "456",
          "454",
          "454",
          "454",
          "453",
          "452",
          "451",
          "450",
          "451",
          "454",
          "455",
          "455",
          "456",
          "457",
          "458",
          "458",
          "457",
          "456",
          "456",
          "458",
          "458",
          "459",
          "460",
          "460",
          "461",
          "462",
          "463",
          "463",
          "463",
          "464",
          "465",
          "466",
          "466",
          "466",
          "467",
          "468",
          "467",
          "466",
          "467",
          "467",
          "468",
          "467",
          "468",
          "468",
          "468",
          "468",
          "467",
          "467",
          "468",
          "467",
          "467",
          "467",
          "468",
          "470",
          "472",
          "474",
          "474",
          "474",
          "461",
          "452",
          "444",
          "438",
          "434",
          "430",
          "430",
          "451",
          "472",
          "467",
          "466",
          "464",
          "465",
          "477",
          "494",
          "478",
          "472",
          "461",
          "412",
          "386",
          "366",
          "370",
          "365",
          "362",
          "345",
          "332",
          "322",
          "315",
          "318",
          "320",
          "309",
          "292",
          "257",
          "247",
          "241",
          "235",
          "224",
          "217",
          "213",
          "211",
          "211",
          "211",
          "209",
          "198",
          "182",
          "175",
          "182",
          "183",
          "180",
          "176",
          "172",
          "168",
          "156",
          "150",
          "141",
          "137",
          "133",
          "134",
          "135"
        ],
        "speed_mph": [
          "168",
          "168",
          "181",
          "206",
          "211",
          "224",
          "243",
          "269",
          "302",
          "319",
          "352",
          "364",
          "414",
          "447",
          "465",
          "473",
          "479",
          "478",
          "486",
          "497",
          "506",
          "513",
          "520",
          "524",
          "527",
          "521",
          "522",
          "522",
          "526",
          "522",
          "522",
          "525",
          "533",
          "537",
          "536",
          "537",
          "537",
          "537",
          "525",
          "526",
          "531",
          "531",
          "525",
          "522",
          "520",
          "513",
          "510",
          "511",
          "507",
          "507",
          "511",
          "512",
          "511",
          "511",
          "512",
          "512",
          "516",
          "518",
          "518",
          "512",
          "504",
          "504",
          "510",
          "514",
          "518",
          "522",
          "525",
          "527",
          "528",
          "529",
          "531",
          "528",
          "527",
          "528",
          "527",
          "527",
          "525",
          "525",
          "522",
          "522",
          "522",
          "521",
          "520",
          "519",
          "518",
          "519",
          "522",
          "524",
          "524",
          "525",
          "526",
          "527",
          "527",
          "526",
          "525",
          "525",
          "527",
          "527",
          "528",
          "529",
          "529",
          "531",
          "532",
          "533",
          "533",
          "533",
          "534",
          "535",
          "536",
          "536",
          "536",
          "537",
          "539",
          "537",
          "536",
          "537",
          "537",
          "539",
          "537",
          "539",
          "539",
          "539",
          "539",
          "537",
          "537",
          "539",
          "537",
          "537",
          "537",
          "539",
          "541",
          "543",
          "545",
          "545",
          "545",
          "531",
          "520",
          "511",
          "504",
          "499",
          "495",
          "495",
          "519",
          "543",
          "537",
          "536",
          "534",
          "535",
          "549",
          "568",
          "550",
          "543",
          "531",
          "474",
          "444",
          "421",
          "426",
          "420",
          "417",
          "397",
          "382",
          "371",
          "362",
          "366",
          "368",
          "356",
          "336",
          "296",
          "284",
          "277",
          "270",
          "258",
          "250",
          "245",
          "243",
          "243",
          "243",
          "241",
          "228",
          "209",
          "201",
          "209",
          "211",
          "207",
          "203",
          "198",
          "193",
          "180",
          "173",
          "162",
          "158",
          "153",
          "154",
          "155"
        ],
        "altitude_ft": [
          "1125",
          "1950",
          "2650",
          "3200",
          "3900",
          "4750",
          "5400",
          "6375",
          "7625",
          "8375",
          "9675",
          "10400",
          "12300",
          "13550",
          "15075",
          "16825",
          "18500",
          "20225",
          "21575",
          "22775",
          "23825",
          "24900",
          "25875",
          "26825",
          "27750",
          "28775",
          "30425",
          "31000",
          "31625",
          "31975",
          "32000",
          "32000",
          "32000",
          "32000",
          "32200",
          "32450",
          "32600",
          "32800",
          "32975",
          "33500",
          "34025",
          "34600",
          "34975",
          "35300",
          "36075",
          "37150",
          "37800",
          "38350",
          "38925",
          "39300",
          "39675",
          "39825",
          "39950",
          "40075",
          "40325",
          "40650",
          "40875",
          "41000",
          "41050",
          "41375",
          "42075",
          "42350",
          "42450",
          "42525",
          "42625",
          "42700",
          "42775",
          "42850",
          "42925",
          "43025",
          "43175",
          "43325",
          "43475",
          "43600",
          "43725",
          "43875",
          "44000",
          "44100",
          "44225",
          "44350",
          "44425",
          "44600",
          "44675",
          "44800",
          "44925",
          "45000",
          "45000",
          "45000",
          "45000",
          "45000",
          "45000",
          "45000",
          "45000",
          "45000",
          "45000",
          "45000",
          "45000",
          "45000",
          "45000",
          "45000",
          "45000",
          "45000",
          "45000",
          "45000",
          "45000",
          "45000",
          "45000",
          "45000",
          "45000",
          "45000",
          "45000",
          "45000",
          "45000",
          "45000",
          "45000",
          "45000",
          "45000",
          "45000",
          "45000",
          "45000",
          "45000",
          "45000",
          "45000",
          "45000",
          "45000",
          "45000",
          "45000",
          "45000",
          "44925",
          "44675",
          "44450",
          "44200",
          "43950",
          "43700",
          "43200",
          "42325",
          "41375",
          "40275",
          "39225",
          "38175",
          "37175",
          "36125",
          "35100",
          "34025",
          "32775",
          "31475",
          "30350",
          "29325",
          "27350",
          "25950",
          "24900",
          "23750",
          "22775",
          "20925",
          "19650",
          "18500",
          "16850",
          "14975",
          "13175",
          "11775",
          "10300",
          "9000",
          "7650",
          "6900",
          "6125",
          "5100",
          "4600",
          "3975",
          "3675",
          "3300",
          "3025",
          "2900",
          "2775",
          "2675",
          "2575",
          "2425",
          "2300",
          "2150",
          "2050",
          "1975",
          "1975",
          "1975",
          "1975",
          "1975",
          "1975",
          "2000",
          "1625",
          "1250",
          "1050",
          "850",
          "625",
          "450",
          "275",
          "50"
        ],
        "vertical_rate_fpm": [
          "",
          "2859",
          "2344",
          "2344",
          "2906",
          "2813",
          "2438",
          "2472",
          "2500",
          "2563",
          "2531",
          "2500",
          "2520",
          "2730",
          "3221",
          "3425",
          "3400",
          "3075",
          "2550",
          "2250",
          "2125",
          "2050",
          "1925",
          "1875",
          "1721",
          "1638",
          "1648",
          "1412",
          "975",
          "375",
          "25",
          "",
          "",
          "200",
          "458",
          "522",
          "553",
          "441",
          "700",
          "1050",
          "1100",
          "950",
          "700",
          "1100",
          "1521",
          "1418",
          "1200",
          "1125",
          "1056",
          "714",
          "525",
          "423",
          "429",
          "479",
          "539",
          "458",
          "333",
          "206",
          "479",
          "946",
          "791",
          "375",
          "175",
          "175",
          "175",
          "150",
          "150",
          "170",
          "198",
          "203",
          "243",
          "300",
          "275",
          "254",
          "280",
          "284",
          "276",
          "265",
          "250",
          "250",
          "273",
          "263",
          "267",
          "273",
          "200",
          "75",
          "",
          "",
          "",
          "",
          "",
          "",
          "",
          "",
          "",
          "",
          "",
          "",
          "",
          "",
          "",
          "",
          "",
          "",
          "",
          "",
          "",
          "",
          "",
          "",
          "",
          "",
          "",
          "",
          "",
          "",
          "",
          "",
          "",
          "",
          "",
          "",
          "",
          "",
          "",
          "",
          "",
          "-75",
          "-325",
          "-475",
          "-475",
          "-500",
          "-500",
          "-750",
          "-1375",
          "-1825",
          "-2050",
          "-2150",
          "-2100",
          "-2050",
          "-2050",
          "-2075",
          "-2100",
          "-2325",
          "-2550",
          "-2745",
          "-2867",
          "-2813",
          "-2813",
          "-2450",
          "-2357",
          "-2833",
          "-2690",
          "-2534",
          "-2425",
          "-2800",
          "-3525",
          "-3675",
          "-3200",
          "-2738",
          "-2643",
          "-2650",
          "-2681",
          "-2773",
          "-2455",
          "-1947",
          "-1378",
          "-1207",
          "-1157",
          "-1083",
          "-632",
          "-405",
          "-422",
          "-353",
          "-357",
          "-384",
          "-402",
          "-385",
          "-284",
          "-96",
          "",
          "",
          "",
          "",
          "25",
          "-350",
          "-849",
          "-885",
          "-750",
          "-797",
          "-750",
          "-656",
          "-750",
          "-844"
        ],
        "reporting_facility": [
          "FlightAware ADS-B(CGN / EDDK)",
          "FlightAware ADS-B(EDKB)",
          "FlightAware ADS-B(CGN / EDDK)",
          "FlightAware ADS-B(CGN / EDDK)",
          "FlightAware ADS-B(MGL / EDLN)",
          "FlightAware ADS-B(CGN / EDDK)",
          "FlightAware ADS-B(EDKL)",
          "FlightAware ADS-B(DTM / EDLW)",
          "FlightAware ADS-B(DUS / EDDL)",
          "FlightAware ADS-B(GKE / ETNG)",
          "FlightAware ADS-B(CGN / EDDK)",
          "FlightAware ADS-B(CGN / EDDK)",
          "FlightAware ADS-B(EDRW)",
          "FlightAware ADS-B(EDKB)",
          "FlightAware ADS-B(EDGB)",
          "FlightAware ADS-B(CGN / EDDK)",
          "FlightAware ADS-B(EDVG)",
          "FlightAware ADS-B(EDLI)",
          "FlightAware ADS-B(DTM / EDLW)",
          "FlightAware ADS-B(CGN / EDDK)",
          "FlightAware ADS-B(QEF / EDFE)",
          "FlightAware ADS-B(EDFG)",
          "FlightAware ADS-B(EDLZ)",
          "FlightAware ADS-B(FRA / EDDF)",
          "FlightAware ADS-B(BYU / EDQD)",
          "FlightAware ADS-B(STR / EDDS)",
          "FlightAware ADS-B(FRA / EDDF)",
          "FlightAware ADS-B(FRA / EDDF)",
          "FlightAware ADS-B(QEF / EDFE)",
          "FlightAware ADS-B(DTM / EDLW)",
          "FlightAware ADS-B(FRA / EDDF)",
          "FlightAware ADS-B(EDCJ)",
          "FlightAware ADS-B(STR / EDDS)",
          "FlightAware ADS-B(FRA / EDDF)",
          "FlightAware ADS-B(NUE / EDDN)",
          "FlightAware ADS-B(EDQP)",
          "FlightAware ADS-B(HAJ / EDDV)",
          "FlightAware ADS-B(STR / EDDS)",
          "FlightAware ADS-B(QEF / EDFE)",
          "FlightAware ADS-B(GHF / EDQG)",
          "FlightAware ADS-B(FRA / EDDF)",
          "FlightAware ADS-B(MUC / EDDM)",
          "FlightAware ADS-B(ERF / EDDE)",
          "FlightAware ADS-B(EDRF)",
          "FlightAware ADS-B(NUE / EDDN)",
          "FlightAware ADS-B(LKCH)",
          "FlightAware ADS-B(EDMG)",
          "FlightAware ADS-B(EDTO)",
          "FlightAware ADS-B(EDQI)",
          "FlightAware ADS-B(AGB / EDMA)",
          "FlightAware ADS-B(EDFK)",
          "FlightAware ADS-B(EDFW)",
          "FlightAware ADS-B(NUE / EDDN)",
          "FlightAware ADS-B(MUC / EDDM)",
          "FlightAware ADS-B(QEF / EDFE)",
          "FlightAware ADS-B(STR / EDDS)",
          "FlightAware ADS-B(EDNE)",
          "FlightAware ADS-B(EDML)",
          "FlightAware ADS-B(LKKL)",
          "FlightAware ADS-B(LKUL)",
          "FlightAware ADS-B(STR / EDDS)",
          "FlightAware ADS-B(LKMB)",
          "FlightAware ADS-B(EAP / LFSB)",
          "FlightAware ADS-B(EDQX)",
          "FlightAware ADS-B(EDQL)",
          "FlightAware ADS-B(EDMG)",
          "FlightAware ADS-B(SCN / EDDR)",
          "FlightAware ADS-B(LKKB)",
          "FlightAware ADS-B(INN / LOWI)",
          "FlightAware ADS-B(ETSL)",
          "FlightAware ADS-B(EDTM)",
          "FlightAware ADS-B(LOLO)",
          "FlightAware ADS-B(LOIW)",
          "FlightAware ADS-B(NUE / EDDN)",
          "FlightAware ADS-B(OBF / EDMO)",
          "FlightAware ADS-B(ACH / LSZR)",
          "FlightAware ADS-B(INN / LOWI)",
          "FlightAware ADS-B(MUC / EDDM)",
          "FlightAware ADS-B(MUC / EDDM)",
          "FlightAware ADS-B(EDMG)",
          "FlightAware ADS-B(ZRH / LSZH)",
          "FlightAware ADS-B(MUC / EDDM)",
          "FlightAware ADS-B(EAP / LFSB)",
          "FlightAware ADS-B(MUC / EDDM)",
          "FlightAware ADS-B(MUC / EDDM)",
          "FlightAware ADS-B(EDMX)",
          "FlightAware ADS-B(MUC / EDDM)",
          "FlightAware ADS-B(LOIJ)",
          "FlightAware ADS-B(MUC / EDDM)",
          "FlightAware ADS-B(LKST)",
          "FlightAware ADS-B(LOIK)",
          "FlightAware ADS-B(LOIK)",
          "FlightAware ADS-B(LOIK)",
          "FlightAware ADS-B(EAP / LFSB)",
          "FlightAware ADS-B(MUC / EDDM)",
          "FlightAware ADS-B(LOIK)",
          "FlightAware ADS-B(EDPO)",
          "FlightAware ADS-B(BZO / LIPB)",
          "FlightAware ADS-B(EDJG)",
          "FlightAware ADS-B(LJU / LJLJ)",
          "FlightAware ADS-B(VRN / LIPX)",
          "FlightAware ADS-B(LIDT)",
          "FlightAware ADS-B(LJAJ)",
          "FlightAware ADS-B(LIDH)",
          "FlightAware ADS-B(MUC / EDDM)",
          "FlightAware ADS-B(MUC / EDDM)",
          "FlightAware ADS-B(LIPU)",
          "FlightAware ADS-B(LIN / LIML)",
          "FlightAware ADS-B(VCE / LIPZ)",
          "FlightAware ADS-B(VCE / LIPZ)",
          "FlightAware ADS-B(VCE / LIPZ)",
          "FlightAware ADS-B(VCE / LIPZ)",
          "FlightAware ADS-B(LIPU)",
          "FlightAware ADS-B(UDN / LIPD)",
          "FlightAware ADS-B(LIPU)",
          "FlightAware ADS-B(VRN / LIPX)",
          "FlightAware ADS-B(VRN / LIPX)",
          "FlightAware ADS-B(VRN / LIPX)",
          "FlightAware ADS-B(VRN / LIPX)",
          "FlightAware ADS-B(LIN / LIML)",
          "FlightAware ADS-B(BLX / LIDB)",
          "FlightAware ADS-B(VRN / LIPX)",
          "FlightAware ADS-B(LIMB)",
          "FlightAware ADS-B(LOGF)",
          "FlightAware ADS-B(LIPU)",
          "FlightAware ADS-B(NCE / LFMN)",
          "FlightAware ADS-B(LIRU)",
          "FlightAware ADS-B(TSF / LIPH)",
          "FlightAware ADS-B(RMI / LIPR)",
          "FlightAware ADS-B(VCE / LIPZ)",
          "FlightAware ADS-B(BLQ / LIPE)",
          "FlightAware ADS-B(LIPF)",
          "FlightAware ADS-B(AOI / LIPY)",
          "FlightAware ADS-B(LIQQ)",
          "FlightAware ADS-B(PEG / LIRZ)",
          "FlightAware ADS-B(LIDT)",
          "FlightAware ADS-B(PEG / LIRZ)",
          "FlightAware ADS-B(CEQ / LFMD)",
          "FlightAware ADS-B(PEG / LIRZ)",
          "FlightAware ADS-B(LIQF)",
          "FlightAware ADS-B(VCE / LIPZ)",
          "FlightAware ADS-B(LIDF)",
          "FlightAware ADS-B(LIPG)",
          "FlightAware ADS-B(VCE / LIPZ)",
          "FlightAware ADS-B(AOI / LIPY)",
          "FlightAware ADS-B(CIA / LIRA)",
          "FlightAware ADS-B(LIDG)",
          "FlightAware ADS-B(LIRU)",
          "FlightAware ADS-B(PEG / LIRZ)",
          "FlightAware ADS-B(VRN / LIPX)",
          "FlightAware ADS-B(LIDF)",
          "FlightAware ADS-B(FCO / LIRF)",
          "FlightAware ADS-B(VRN / LIPX)",
          "FlightAware ADS-B(AOI / LIPY)",
          "FlightAware ADS-B(FCO / LIRF)",
          "FlightAware ADS-B(AOI / LIPY)",
          "FlightAware ADS-B(AOI / LIPY)",
          "FlightAware ADS-B(PSR / LIBP)",
          "FlightAware ADS-B(PSR / LIBP)",
          "FlightAware ADS-B(PSR / LIBP)",
          "FlightAware ADS-B(PSR / LIBP)",
          "FlightAware ADS-B(AOI / LIPY)",
          "FlightAware ADS-B(AOI / LIPY)",
          "FlightAware ADS-B(PSR / LIBP)",
          "FlightAware ADS-B(AOI / LIPY)",
          "FlightAware ADS-B(PSR / LIBP)",
          "FlightAware ADS-B(PSR / LIBP)",
          "FlightAware ADS-B(PSR / LIBP)",
          "FlightAware ADS-B(PSR / LIBP)",
          "FlightAware ADS-B(PSR / LIBP)",
          "FlightAware ADS-B(PSR / LIBP)",
          "FlightAware ADS-B(PSR / LIBP)",
          "FlightAware ADS-B(PSR / LIBP)",
          "FlightAware ADS-B(PSR / LIBP)",
          "FlightAware ADS-B(PSR / LIBP)",
          "FlightAware ADS-B(PSR / LIBP)",
          "FlightAware ADS-B(PSR / LIBP)",
          "FlightAware ADS-B(PSR / LIBP)",
          "FlightAware ADS-B(PSR / LIBP)",
          "FlightAware ADS-B(PSR / LIBP)",
          "FlightAware ADS-B(PSR / LIBP)",
          "FlightAware ADS-B(PSR / LIBP)",
          "FlightAware ADS-B(PSR / LIBP)",
          "FlightAware ADS-B(PSR / LIBP)",
          "FlightAware ADS-B(PSR / LIBP)",
          "FlightAware ADS-B(PSR / LIBP)",
          "FlightAware ADS-B(PSR / LIBP)",
          "Surface and Near-Surface",
          "FlightAware ADS-B(PSR / LIBP)",
          "FlightAware ADS-B(PSR / LIBP)",
          "FlightAware ADS-B(PSR / LIBP)",
          "FlightAware ADS-B(PSR / LIBP)",
          "FlightAware ADS-B(PSR / LIBP)",
          "FlightAware ADS-B(PSR / LIBP)"
        ]
      }
    }
  ]
}