{
  "type": "FeatureCollection",
  "features": [
    {
      "type": "Feature",
      "geometry": {
        "type": "LineString",
        "coordinates": [
          [
            7.1231,
            50.8603
          ],
          [
            7.1091,
            50.8563
          ],
          [
            7.0935,
            50.8517
          ],
          [
            7.0782,
            50.8468
          ],
          [
            7.0619,
            50.8404
          ],
          [
            7.0541,
            50.8289
          ],
          [
            7.0567,
            50.812
          ],
          [
            7.0657,
            50.7954
          ],
          [
            7.0811,
            50.781
          ],
          [
            7.1039,
            50.7688
          ],
          [
            7.2403,
            50.7162
          ],
          [
            7.3083,
            50.6884
          ],
          [
            7.3838,
            50.6574
          ],
          [
            7.4701,
            50.622
          ],
          [
            7.5386,
            50.5936
          ],
          [
            7.63,
            50.5555
          ],
          [
            7.7195,
            50.5179
          ],
          [
            7.7694,
            50.489
          ],
          [
            7.8162,
            50.4525
          ],
          [
            7.8812,
            50.397
          ],
          [
            7.9501,
            50.3398
          ],
          [
            8.0182,
            50.2848
          ],
          [
            8.0886,
            50.2281
          ],
          [
            8.1588,
            50.1711
          ],
          [
            8.2279,
            50.1146
          ],
          [
            8.3005,
            50.0548
          ],
          [
            8.3391,
            50.023
          ],
          [
            8.4187,
            49.9573
          ],
          [
            8.4635,
            49.9125
          ],
          [
            8.5685,
            49.7723
          ],
          [
            8.6168,
            49.707
          ],
          [
            8.6668,
            49.642
          ],
          [
            8.7156,
            49.5795
          ],
          [
            8.7661,
            49.5136
          ],
          [
            8.8161,
            49.4478
          ],
          [
            8.8642,
            49.3844
          ],
          [
            8.9128,
            49.3197
          ],
          [
            8.9606,
            49.2557
          ],
          [
            9.0084,
            49.1919
          ],
          [
            9.0571,
            49.1267
          ],
          [
            9.1028,
            49.0653
          ],
          [
            9.1461,
            49.007
          ],
          [
            9.1916,
            48.9451
          ],
          [
            9.2355,
            48.8855
          ],
          [
            9.2824,
            48.8215
          ],
          [
            9.3277,
            48.7597
          ],
          [
            9.3724,
            48.6982
          ],
          [
            9.4154,
            48.639
          ],
          [
            9.4597,
            48.5786
          ],
          [
            9.5012,
            48.5212
          ],
          [
            9.5431,
            48.4633
          ],
          [
            9.5736,
            48.4212
          ],
          [
            9.6116,
            48.3683
          ],
          [
            9.6546,
            48.3085
          ],
          [
            9.6953,
            48.2519
          ],
          [
            9.7359,
            48.1951
          ],
          [
            9.7758,
            48.1388
          ],
          [
            9.8117,
            48.0884
          ],
          [
            9.8787,
            47.9937
          ],
          [
            9.9207,
            47.9344
          ],
          [
            9.9623,
            47.8755
          ],
          [
            10.004,
            47.816
          ],
          [
            10.0437,
            47.7595
          ],
          [
            10.0831,
            47.7032
          ],
          [
            10.1214,
            47.6482
          ],
          [
            10.1614,
            47.5907
          ],
          [
            10.1998,
            47.5354
          ],
          [
            10.2383,
            47.4801
          ],
          [
            10.2776,
            47.4233
          ],
          [
            10.3145,
            47.3696
          ],
          [
            10.3433,
            47.3243
          ],
          [
            10.3591,
            47.294
          ],
          [
            10.3823,
            47.2452
          ],
          [
            10.4153,
            47.1646
          ],
          [
            10.4398,
            47.1068
          ],
          [
            10.4649,
            47.0474
          ],
          [
            10.4891,
            46.9886
          ],
          [
            10.5139,
            46.9291
          ],
          [
            10.5396,
            46.8673
          ],
          [
            10.5638,
            46.8087
          ],
          [
            10.5884,
            46.7493
          ],
          [
            10.6127,
            46.6903
          ],
          [
            10.6373,
            46.6301
          ],
          [
            10.6604,
            46.5738
          ],
          [
            10.6852,
            46.5133
          ],
          [
            10.7101,
            46.4522
          ],
          [
            10.7338,
            46.3942
          ],
          [
            10.7573,
            46.3363
          ],
          [
            10.781,
            46.2775
          ],
          [
            10.8049,
            46.2183
          ],
          [
            10.8276,
            46.1624
          ],
          [
            10.8534,
            46.0981
          ],
          [
            10.8765,
            46.0404
          ],
          [
            10.8993,
            45.9838
          ],
          [
            10.9236,
            45.9229
          ],
          [
            10.9463,
            45.8661
          ],
          [
            10.9699,
            45.8066
          ],
          [
            10.9926,
            45.7493
          ],
          [
            11.0163,
            45.6901
          ],
          [
            11.0375,
            45.6364
          ],
          [
            11.0576,
            45.5819
          ],
          [
            11.0738,
            45.5274
          ],
          [
            11.091,
            45.4721
          ],
          [
            11.1093,
            45.4147
          ],
          [
            11.1257,
            45.3612
          ],
          [
            11.1438,
            45.3033
          ],
          [
            11.1612,
            45.2475
          ],
          [
            11.18,
            45.1872
          ],
          [
            11.1972,
            45.1315
          ],
          [
            11.2158,
            45.0709
          ],
          [
            11.2251,
            45.0323
          ],
          [
            11.2249,
            44.9687
          ],
          [
            11.222,
            44.911
          ],
          [
            11.2208,
            44.8521
          ],
          [
            11.2197,
            44.7951
          ],
          [
            11.2183,
            44.7332
          ],
          [
            11.217,
            44.6757
          ],
          [
            11.2156,
            44.6174
          ],
          [
            11.2142,
            44.5577
          ],
          [
            11.2132,
            44.5039
          ],
          [
            11.2122,
            44.4522
          ],
          [
            11.2108,
            44.4023
          ],
          [
            11.2095,
            44.3529
          ],
          [
            11.2085,
            44.3049
          ],
          [
            11.2076,
            44.256
          ],
          [
            11.2066,
            44.2104
          ],
          [
            11.2054,
            44.1651
          ],
          [
            11.2045,
            44.1235
          ],
          [
            11.2036,
            44.0836
          ],
          [
            11.2028,
            44.0462
          ],
          [
            11.202,
            44.0073
          ],
          [
            11.2011,
            43.9691
          ],
          [
            11.2004,
            43.9331
          ],
          [
            11.1995,
            43.8937
          ],
          [
            11.1987,
            43.8582
          ],
          [
            11.1981,
            43.832
          ],
          [
            11.1973,
            43.7977
          ],
          [
            11.1965,
            43.7632
          ],
          [
            11.1956,
            43.7276
          ],
          [
            11.195,
            43.7067
          ],
          [
            11.1839,
            43.6874
          ],
          [
            11.1628,
            43.6707
          ],
          [
            11.1431,
            43.6583
          ],
          [
            11.1237,
            43.6467
          ],
          [
            11.0935,
            43.6273
          ],
          [
            11.0738,
            43.6222
          ],
          [
            11.0499,
            43.6269
          ],
          [
            11.0278,
            43.6367
          ],
          [
            11.0094,
            43.6475
          ],
          [
            11.0012,
            43.6663
          ],
          [
            11.0181,
            43.6906
          ],
          [
            11.0479,
            43.7093
          ],
          [
            11.0665,
            43.7205
          ],
          [
            11.1011,
            43.7423
          ],
          [
            11.1314,
            43.7619
          ],
          [
            11.146,
            43.7715
          ],
          [
            11.1601,
            43.7807
          ],
          [
            11.1724,
            43.7888
          ],
          [
            11.1834,
            43.7961
          ],
          [
            11.1941,
            43.803
          ]
        ]
      },
      "properties": {
        "time_europe_berlin": [
          "30.10.2025 09:39:22",
          "30.10.2025 09:39:38",
          "30.10.2025 09:39:54",
          "30.10.2025 09:40:10",
          "30.10.2025 09:40:26",
          "30.10.2025 09:40:42",
          "30.10.2025 09:41:00",
          "30.10.2025 09:41:17",
          "30.10.2025 09:41:33",
          "30.10.2025 09:41:50",
          "30.10.2025 09:43:03",
          "30.10.2025 09:43:33",
          "30.10.2025 09:44:03",
          "30.10.2025 09:44:33",
          "30.10.2025 09:44:57",
          "30.10.2025 09:45:27",
          "30.10.2025 09:45:57",
          "30.10.2025 09:46:15",
          "30.10.2025 09:46:36",
          "30.10.2025 09:47:06",
          "30.10.2025 09:47:36",
          "30.10.2025 09:48:06",
          "30.10.2025 09:48:36",
          "30.10.2025 09:49:06",
          "30.10.2025 09:49:36",
          "30.10.2025 09:50:06",
          "30.10.2025 09:50:23",
          "30.10.2025 09:50:57",
          "30.10.2025 09:51:17",
          "30.10.2025 09:52:23",
          "30.10.2025 09:52:53",
          "30.10.2025 09:53:23",
          "30.10.2025 09:53:53",
          "30.10.2025 09:54:23",
          "30.10.2025 09:54:53",
          "30.10.2025 09:55:23",
          "30.10.2025 09:55:53",
          "30.10.2025 09:56:23",
          "30.10.2025 09:56:53",
          "30.10.2025 09:57:23",
          "30.10.2025 09:57:53",
          "30.10.2025 09:58:23",
          "30.10.2025 09:58:53",
          "30.10.2025 09:59:23",
          "30.10.2025 09:59:53",
          "30.10.2025 10:00:23",
          "30.10.2025 10:00:53",
          "30.10.2025 10:01:23",
          "30.10.2025 10:01:53",
          "30.10.2025 10:02:23",
          "30.10.2025 10:02:53",
          "30.10.2025 10:03:13",
          "30.10.2025 10:03:43",
          "30.10.2025 10:04:13",
          "30.10.2025 10:04:43",
          "30.10.2025 10:05:13",
          "30.10.2025 10:05:43",
          "30.10.2025 10:06:09",
          "30.10.2025 10:06:57",
          "30.10.2025 10:07:27",
          "30.10.2025 10:07:57",
          "30.10.2025 10:08:27",
          "30.10.2025 10:08:57",
          "30.10.2025 10:09:27",
          "30.10.2025 10:09:57",
          "30.10.2025 10:10:27",
          "30.10.2025 10:10:57",
          "30.10.2025 10:11:27",
          "30.10.2025 10:11:57",
          "30.10.2025 10:12:27",
          "30.10.2025 10:12:51",
          "30.10.2025 10:13:09",
          "30.10.2025 10:13:34",
          "30.10.2025 10:14:16",
          "30.10.2025 10:14:46",
          "30.10.2025 10:15:16",
          "30.10.2025 10:15:46",
          "30.10.2025 10:16:16",
          "30.10.2025 10:16:46",
          "30.10.2025 10:17:16",
          "30.10.2025 10:17:46",
          "30.10.2025 10:18:17",
          "30.10.2025 10:18:47",
          "30.10.2025 10:19:17",
          "30.10.2025 10:19:48",
          "30.10.2025 10:20:19",
          "30.10.2025 10:20:49",
          "30.10.2025 10:21:19",
          "30.10.2025 10:21:49",
          "30.10.2025 10:22:19",
          "30.10.2025 10:22:49",
          "30.10.2025 10:23:22",
          "30.10.2025 10:23:52",
          "30.10.2025 10:24:23",
          "30.10.2025 10:24:54",
          "30.10.2025 10:25:24",
          "30.10.2025 10:25:54",
          "30.10.2025 10:26:24",
          "30.10.2025 10:26:54",
          "30.10.2025 10:27:24",
          "30.10.2025 10:27:54",
          "30.10.2025 10:28:24",
          "30.10.2025 10:28:54",
          "30.10.2025 10:29:24",
          "30.10.2025 10:29:54",
          "30.10.2025 10:30:24",
          "30.10.2025 10:30:54",
          "30.10.2025 10:31:24",
          "30.10.2025 10:31:54",
          "30.10.2025 10:32:24",
          "30.10.2025 10:32:44",
          "30.10.2025 10:33:15",
          "30.10.2025 10:33:45",
          "30.10.2025 10:34:15",
          "30.10.2025 10:34:45",
          "30.10.2025 10:35:15",
          "30.10.2025 10:35:45",
          "30.10.2025 10:36:15",
          "30.10.2025 10:36:45",
          "30.10.2025 10:37:15",
          "30.10.2025 10:37:45",
          "30.10.2025 10:38:15",
          "30.10.2025 10:38:45",
          "30.10.2025 10:39:15",
          "30.10.2025 10:39:45",
          "30.10.2025 10:40:15",
          "30.10.2025 10:40:45",
          "30.10.2025 10:41:15",
          "30.10.2025 10:41:45",
          "30.10.2025 10:42:15",
          "30.10.2025 10:42:45",
          "30.10.2025 10:43:15",
          "30.10.2025 10:43:45",
          "30.10.2025 10:44:15",
          "30.10.2025 10:44:45",
          "30.10.2025 10:45:06",
          "30.10.2025 10:45:36",
          "30.10.2025 10:46:06",
          "30.10.2025 10:46:36",
          "30.10.2025 10:46:55",
          "30.10.2025 10:47:15",
          "30.10.2025 10:47:36",
          "30.10.2025 10:47:54",
          "30.10.2025 10:48:10",
          "30.10.2025 10:48:40",
          "30.10.2025 10:48:57",
          "30.10.2025 10:49:15",
          "30.10.2025 10:49:35",
          "30.10.2025 10:49:53",
          "30.10.2025 10:50:11",
          "30.10.2025 10:50:35",
          "30.10.2025 10:51:01",
          "30.10.2025 10:51:17",
          "30.10.2025 10:51:47",
          "30.10.2025 10:52:15",
          "30.10.2025 10:52:32",
          "30.10.2025 10:52:49",
          "30.10.2025 10:53:05",
          "30.10.2025 10:53:21",
          "30.10.2025 10:53:37"
        ],
        "course_deg_clockwise_from_north": [
          "247",
          "246",
          "244",
          "243",
          "228",
          "185",
          "166",
          "158",
          "137",
          "127",
          "122",
          "123",
          "123",
          "123",
          "123",
          "123",
          "125",
          "137",
          "143",
          "143",
          "142",
          "141",
          "142",
          "142",
          "142",
          "142",
          "142",
          "142",
          "151",
          "154",
          "154",
          "153",
          "153",
          "154",
          "154",
          "154",
          "154",
          "154",
          "154",
          "154",
          "154",
          "154",
          "154",
          "154",
          "154",
          "154",
          "154",
          "154",
          "154",
          "154",
          "154",
          "154",
          "154",
          "155",
          "154",
          "155",
          "155",
          "154",
          "155",
          "155",
          "155",
          "155",
          "155",
          "155",
          "155",
          "155",
          "155",
          "155",
          "155",
          "155",
          "159",
          "161",
          "163",
          "164",
          "164",
          "164",
          "164",
          "164",
          "164",
          "164",
          "164",
          "164",
          "164",
          "164",
          "164",
          "164",
          "164",
          "164",
          "165",
          "164",
          "164",
          "165",
          "164",
          "164",
          "165",
          "165",
          "164",
          "165",
          "164",
          "165",
          "167",
          "168",
          "167",
          "168",
          "168",
          "168",
          "168",
          "168",
          "168",
          "168",
          "174",
          "182",
          "182",
          "181",
          "181",
          "181",
          "181",
          "181",
          "181",
          "181",
          "181",
          "181",
          "181",
          "181",
          "181",
          "181",
          "181",
          "181",
          "181",
          "181",
          "181",
          "181",
          "181",
          "181",
          "181",
          "181",
          "181",
          "181",
          "181",
          "184",
          "216",
          "227",
          "230",
          "230",
          "230",
          "271",
          "295",
          "305",
          "319",
          "3",
          "42",
          "51",
          "50",
          "48",
          "48",
          "48",
          "47",
          "46",
          "48",
          "49"
        ],
        "speed_kts": [
          "140",
          "137",
          "150",
          "162",
          "170",
          "193",
          "210",
          "221",
          "236",
          "249",
          "356",
          "403",
          "441",
          "472",
          "488",
          "498",
          "508",
          "503",
          "499",
          "509",
          "507",
          "507",
          "526",
          "523",
          "532",
          "534",
          "533",
          "535",
          "526",
          "527",
          "523",
          "520",
          "518",
          "518",
          "520",
          "521",
          "519",
          "516",
          "509",
          "499",
          "490",
          "481",
          "485",
          "497",
          "500",
          "500",
          "496",
          "478",
          "470",
          "469",
          "471",
          "466",
          "462",
          "454",
          "448",
          "451",
          "461",
          "468",
          "474",
          "473",
          "469",
          "461",
          "454",
          "450",
          "447",
          "446",
          "443",
          "440",
          "437",
          "437",
          "431",
          "429",
          "430",
          "435",
          "440",
          "442",
          "445",
          "449",
          "450",
          "452",
          "439",
          "431",
          "434",
          "439",
          "442",
          "439",
          "437",
          "437",
          "433",
          "431",
          "430",
          "430",
          "430",
          "430",
          "431",
          "433",
          "433",
          "434",
          "426",
          "415",
          "403",
          "402",
          "408",
          "413",
          "415",
          "422",
          "426",
          "430",
          "432",
          "434",
          "431",
          "426",
          "427",
          "428",
          "427",
          "423",
          "422",
          "419",
          "411",
          "386",
          "363",
          "352",
          "355",
          "353",
          "336",
          "332",
          "318",
          "295",
          "279",
          "269",
          "269",
          "271",
          "272",
          "273",
          "259",
          "257",
          "252",
          "249",
          "245",
          "242",
          "232",
          "230",
          "229",
          "226",
          "206",
          "203",
          "204",
          "212",
          "223",
          "242",
          "243",
          "244",
          "248",
          "229",
          "206",
          "188",
          "169",
          "152",
          "144",
          "133"
        ],
        "speed_mph": [
          "161",
          "158",
          "173",
          "186",
          "196",
          "222",
          "242",
          "254",
          "272",
          "287",
          "410",
          "464",
          "507",
          "543",
          "562",
          "573",
          "585",
          "579",
          "574",
          "586",
          "583",
          "583",
          "605",
          "602",
          "612",
          "615",
          "613",
          "616",
          "605",
          "606",
          "602",
          "598",
          "596",
          "596",
          "598",
          "600",
          "597",
          "594",
          "586",
          "574",
          "564",
          "554",
          "558",
          "572",
          "575",
          "575",
          "571",
          "550",
          "541",
          "540",
          "542",
          "536",
          "532",
          "522",
          "516",
          "519",
          "531",
          "539",
          "545",
          "544",
          "540",
          "531",
          "522",
          "518",
          "514",
          "513",
          "510",
          "506",
          "503",
          "503",
          "496",
          "494",
          "495",
          "501",
          "506",
          "509",
          "512",
          "517",
          "518",
          "520",
          "505",
          "496",
          "499",
          "505",
          "509",
          "505",
          "503",
          "503",
          "498",
          "496",
          "495",
          "495",
          "495",
          "495",
          "496",
          "498",
          "498",
          "499",
          "490",
          "478",
          "464",
          "463",
          "470",
          "475",
          "478",
          "486",
          "490",
          "495",
          "497",
          "499",
          "496",
          "490",
          "491",
          "493",
          "491",
          "487",
          "486",
          "482",
          "473",
          "444",
          "418",
          "405",
          "409",
          "406",
          "387",
          "382",
          "366",
          "339",
          "321",
          "310",
          "310",
          "312",
          "313",
          "314",
          "298",
          "296",
          "290",
          "287",
          "282",
          "278",
          "267",
          "265",
          "264",
          "260",
          "237",
          "234",
          "235",
          "244",
          "257",
          "278",
          "280",
          "281",
          "285",
          "264",
          "237",
          "216",
          "194",
          "175",
          "166",
          "153"
        ],
        "altitude_ft": [
          "1375",
          "2350",
          "3100",
          "3775",
          "4625",
          "5575",
          "6550",
          "7550",
          "8525",
          "9500",
          "13025",
          "14275",
          "15525",
          "16750",
          "17875",
          "19200",
          "19950",
          "20250",
          "20625",
          "21600",
          "23050",
          "24450",
          "24975",
          "25300",
          "26100",
          "27100",
          "27675",
          "28575",
          "28950",
          "29000",
          "29150",
          "29875",
          "30600",
          "31350",
          "32125",
          "32850",
          "33625",
          "34625",
          "35600",
          "36675",
          "37700",
          "38550",
          "38975",
          "39000",
          "39000",
          "39000",
          "39000",
          "38975",
          "39000",
          "39000",
          "39000",
          "39275",
          "39725",
          "40225",
          "40750",
          "40975",
          "41000",
          "41000",
          "41000",
          "41000",
          "40975",
          "41000",
          "41000",
          "41000",
          "41000",
          "41025",
          "41000",
          "41000",
          "41000",
          "41000",
          "41000",
          "41000",
          "41000",
          "41000",
          "41000",
          "41000",
          "41000",
          "41000",
          "41000",
          "41000",
          "41000",
          "41000",
          "41000",
          "41000",
          "41000",
          "41000",
          "41000",
          "41000",
          "41000",
          "41000",
          "41000",
          "41000",
          "41000",
          "41000",
          "41000",
          "41000",
          "40950",
          "40250",
          "39225",
          "38250",
          "37275",
          "36250",
          "35325",
          "34375",
          "33500",
          "32575",
          "31675",
          "30725",
          "29825",
          "28925",
          "28275",
          "27350",
          "26450",
          "25550",
          "24650",
          "23475",
          "22250",
          "21000",
          "19750",
          "18475",
          "17500",
          "16500",
          "15450",
          "14525",
          "14000",
          "13900",
          "13150",
          "12425",
          "11650",
          "11125",
          "11000",
          "10975",
          "11000",
          "10975",
          "10475",
          "9975",
          "9325",
          "8675",
          "8050",
          "7700",
          "7375",
          "6975",
          "6650",
          "6350",
          "5800",
          "5475",
          "5100",
          "4750",
          "4425",
          "4125",
          "3600",
          "2975",
          "2650",
          "2000",
          "1475",
          "1175",
          "900",
          "675",
          "475",
          "275"
        ],
        "vertical_rate_fpm": [
          "",
          "3234",
          "2672",
          "2859",
          "3375",
          "3397",
          "3386",
          "3591",
          "3545",
          "3000",
          "2782",
          "2500",
          "2475",
          "2611",
          "2722",
          "2075",
          "1313",
          "1038",
          "1588",
          "2425",
          "2850",
          "1925",
          "850",
          "1125",
          "1800",
          "2011",
          "1735",
          "1417",
          "297",
          "125",
          "875",
          "1450",
          "1475",
          "1525",
          "1500",
          "1500",
          "1775",
          "1975",
          "2050",
          "2100",
          "1875",
          "1275",
          "450",
          "25",
          "",
          "",
          "-25",
          "",
          "25",
          "",
          "330",
          "870",
          "950",
          "1025",
          "750",
          "250",
          "27",
          "",
          "",
          "-25",
          "",
          "25",
          "",
          "",
          "25",
          "",
          "-25",
          "",
          "",
          "",
          "",
          "",
          "",
          "",
          "",
          "",
          "",
          "",
          "",
          "",
          "",
          "",
          "",
          "",
          "",
          "",
          "",
          "",
          "",
          "",
          "",
          "",
          "",
          "",
          "",
          "-50",
          "-750",
          "-1725",
          "-2000",
          "-1950",
          "-2000",
          "-1950",
          "-1875",
          "-1825",
          "-1800",
          "-1825",
          "-1850",
          "-1850",
          "-1800",
          "-1860",
          "-1853",
          "-1795",
          "-1800",
          "-1800",
          "-2075",
          "-2400",
          "-2475",
          "-2500",
          "-2525",
          "-2250",
          "-1975",
          "-2050",
          "-1975",
          "-1450",
          "-625",
          "-850",
          "-1475",
          "-1500",
          "-1300",
          "-650",
          "-150",
          "",
          "",
          "-525",
          "-1176",
          "-1353",
          "-1300",
          "-1275",
          "-1194",
          "-1038",
          "-1061",
          "-1115",
          "-1103",
          "-1109",
          "-1117",
          "-1200",
          "-1145",
          "-1066",
          "-1042",
          "-1179",
          "-1380",
          "-1357",
          "-1272",
          "-1216",
          "-1100",
          "-1015",
          "-909",
          "-797",
          "-750",
          "-750"
        ],
        "reporting_facility": [
          "FlightAware ADS-B(ETSB)",
          "FlightAware ADS-B(CGN / EDDK)",
          "FlightAware ADS-B(MGL / EDLN)",
          "FlightAware ADS-B(CGN / EDDK)",
          "FlightAware ADS-B(EDKN)",
          "FlightAware ADS-B(ETNN)",
          "FlightAware ADS-B(DUS / EDDL)",
          "FlightAware ADS-B(DUS / EDDL)",
          "FlightAware ADS-B(CGN / EDDK)",
          "FlightAware ADS-B(EDKD)",
          "FlightAware ADS-B(ESS / EDLE)",
          "FlightAware ADS-B(MGL / EDLN)",
          "FlightAware ADS-B(EDKL)",
          "FlightAware ADS-B(DUS / EDDL)",
          "FlightAware ADS-B(EBBL)",
          "FlightAware ADS-B(EDKD)",
          "FlightAware ADS-B(SGE / EDGS)",
          "FlightAware ADS-B(EHTE)",
          "FlightAware ADS-B(EDLD)",
          "FlightAware ADS-B(EDFP)",
          "FlightAware ADS-B(FRA / EDDF)",
          "FlightAware ADS-B(FRA / EDDF)",
          "FlightAware ADS-B(EDRK)",
          "FlightAware ADS-B(EDKV)",
          "FlightAware ADS-B(ETOU)",
          "FlightAware ADS-B(FKB / EDSB)",
          "FlightAware ADS-B(FRA / EDDF)",
          "FlightAware ADS-B(FRA / EDDF)",
          "FlightAware ADS-B(EDRF)",
          "FlightAware ADS-B(EDFG)",
          "FlightAware ADS-B(STR / EDDS)",
          "FlightAware ADS-B(EDFA)",
          "FlightAware ADS-B(STR / EDDS)",
          "FlightAware ADS-B(MUC / EDDM)",
          "FlightAware ADS-B(NUE / EDDN)",
          "FlightAware ADS-B(EDVL)",
          "FlightAware ADS-B(SCN / EDDR)",
          "FlightAware ADS-B(ERF / EDDE)",
          "FlightAware ADS-B(LSPH)",
          "FlightAware ADS-B(HDB / EDIU)",
          "FlightAware ADS-B(HDB / EDIU)",
          "FlightAware ADS-B(LSXB)",
          "FlightAware ADS-B(EDFC)",
          "FlightAware ADS-B(EDTE)",
          "FlightAware ADS-B(ZRH / LSZH)",
          "FlightAware ADS-B(EDMP)",
          "FlightAware ADS-B(MUC / EDDM)",
          "FlightAware ADS-B(EDTQ)",
          "FlightAware ADS-B(EDFJ)",
          "FlightAware ADS-B(LSXH)",
          "FlightAware ADS-B(CGN / EDDK)",
          "FlightAware ADS-B(ENC / LFSN)",
          "FlightAware ADS-B(OBF / EDMO)",
          "FlightAware ADS-B(EDRY)",
          "FlightAware ADS-B(ETSA)",
          "FlightAware ADS-B(EDMU)",
          "FlightAware ADS-B(EDQA)",
          "FlightAware ADS-B(STR / EDDS)",
          "FlightAware ADS-B(STR / EDDS)",
          "FlightAware ADS-B(LSZV)",
          "FlightAware ADS-B(EDTZ)",
          "FlightAware ADS-B(LOJZ)",
          "FlightAware ADS-B(OBF / EDMO)",
          "FlightAware ADS-B(STR / EDDS)",
          "FlightAware ADS-B(IGS / ETSI)",
          "FlightAware ADS-B(EDNL)",
          "FlightAware ADS-B(EDSH)",
          "FlightAware ADS-B(EDSH)",
          "FlightAware ADS-B(LSZT)",
          "FlightAware ADS-B(ACH / LSZR)",
          "FlightAware ADS-B(LSXB)",
          "FlightAware ADS-B(ZRH / LSZH)",
          "FlightAware ADS-B(MUC / EDDM)",
          "FlightAware ADS-B(LSXB)",
          "FlightAware ADS-B(LOIV)",
          "FlightAware ADS-B(EDPR)",
          "FlightAware ADS-B(EDMB)",
          "FlightAware ADS-B(FMM / EDJA)",
          "FlightAware ADS-B(EDNL)",
          "FlightAware ADS-B(LSXB)",
          "FlightAware ADS-B(LIDT)",
          "FlightAware ADS-B(STR / EDDS)",
          "FlightAware ADS-B(VCE / LIPZ)",
          "FlightAware ADS-B(LSZF)",
          "FlightAware ADS-B(BZO / LIPB)",
          "FlightAware ADS-B(MUC / EDDM)",
          "FlightAware ADS-B(MUC / EDDM)",
          "FlightAware ADS-B(MUC / EDDM)",
          "FlightAware ADS-B(EDNA)",
          "FlightAware ADS-B(LILE)",
          "FlightAware ADS-B(EDMG)",
          "FlightAware ADS-B(LIPF)",
          "FlightAware ADS-B(LIDT)",
          "FlightAware ADS-B(LIDT)",
          "FlightAware ADS-B(BZO / LIPB)",
          "FlightAware ADS-B(BGY / LIME)",
          "FlightAware ADS-B(LIDT)",
          "FlightAware ADS-B(VIC / LIPT)",
          "FlightAware ADS-B(LIDA)",
          "FlightAware ADS-B(LIPS)",
          "FlightAware ADS-B(BZO / LIPB)",
          "FlightAware ADS-B(LIKE)",
          "FlightAware ADS-B(LIKE)",
          "FlightAware ADS-B(LILC)",
          "FlightAware ADS-B(MXP / LIMC)",
          "FlightAware ADS-B(LIMS)",
          "FlightAware ADS-B(GOA / LIMJ)",
          "FlightAware ADS-B(LIPM)",
          "FlightAware ADS-B(BZO / LIPB)",
          "FlightAware ADS-B(BZO / LIPB)",
          "FlightAware ADS-B(LIPU)",
          "FlightAware ADS-B(PUY / LDPL)",
          "FlightAware ADS-B(LIDG)",
          "FlightAware ADS-B(LIPU)",
          "FlightAware ADS-B(LIPM)",
          "FlightAware ADS-B(PMF / LIMP)",
          "FlightAware ADS-B(VRN / LIPX)",
          "FlightAware ADS-B(UDN / LIPD)",
          "FlightAware ADS-B(VIC / LIPT)",
          "FlightAware ADS-B(LIPF)",
          "FlightAware ADS-B(VRN / LIPX)",
          "FlightAware ADS-B(PMF / LIMP)",
          "FlightAware ADS-B(PMF / LIMP)",
          "FlightAware ADS-B(LIDU)",
          "FlightAware ADS-B(BLQ / LIPE)",
          "FlightAware ADS-B(VCE / LIPZ)",
          "FlightAware ADS-B(VCE / LIPZ)",
          "FlightAware ADS-B(FLR / LIRQ)",
          "FlightAware ADS-B(FLR / LIRQ)",
          "FlightAware ADS-B(FLR / LIRQ)",
          "FlightAware ADS-B(FLR / LIRQ)",
          "FlightAware ADS-B(LIDU)",
          "FlightAware ADS-B(BGY / LIME)",
          "FlightAware ADS-B(VRN / LIPX)",
          "FlightAware ADS-B(BLQ / LIPE)",
          "FlightAware ADS-B(VRN / LIPX)",
          "FlightAware ADS-B(LIQF)",
          "FlightAware ADS-B(LIQB)",
          "FlightAware ADS-B(LIAF)",
          "FlightAware ADS-B(FLR / LIRQ)",
          "FlightAware ADS-B(LCV / LIQL)",
          "FlightAware ADS-B(LIAO)",
          "FlightAware ADS-B(FLR / LIRQ)",
          "FlightAware ADS-B(FLR / LIRQ)",
          "FlightAware ADS-B(FLR / LIRQ)",
          "FlightAware ADS-B(LIQB)",
          "FlightAware ADS-B(FLR / LIRQ)",
          "FlightAware ADS-B(FLR / LIRQ)",
          "FlightAware ADS-B(LIAT)",
          "FlightAware ADS-B(FLR / LIRQ)",
          "FlightAware ADS-B(FLR / LIRQ)",
          "FlightAware ADS-B(FLR / LIRQ)",
          "FlightAware ADS-B(LIAO)",
          "FlightAware ADS-B(LIAO)",
          "Surface and Near-Surface",
          "FlightAware ADS-B(FLR / LIRQ)",
          "FlightAware ADS-B(FLR / LIRQ)",
          "FlightAware ADS-B(FLR / LIRQ)",
          "FlightAware ADS-B(FLR / LIRQ)",
          "FlightAware ADS-B(FLR / LIRQ)"
        ]
      }
    }
  ]
}