{
  "type": "FeatureCollection",
  "features": [
    {
      "type": "Feature",
      "geometry": {
        "type": "LineString",
        "coordinates": [
          [
            4.7798,
            52.2978
          ],
          [
            4.7718,
            52.287
          ],
          [
            4.7769,
            52.2719
          ],
          [
            4.7961,
            52.2602
          ],
          [
            4.825,
            52.2532
          ],
          [
            4.8568,
            52.2501
          ],
          [
            4.8882,
            52.2497
          ],
          [
            4.9173,
            52.2499
          ],
          [
            4.9483,
            52.2502
          ],
          [
            4.9878,
            52.2504
          ],
          [
            5.0453,
            52.2494
          ],
          [
            5.1006,
            52.2482
          ],
          [
            5.1674,
            52.2469
          ],
          [
            5.2508,
            52.2447
          ],
          [
            5.3393,
            52.2405
          ],
          [
            5.437,
            52.2346
          ],
          [
            5.5078,
            52.2305
          ],
          [
            5.569,
            52.2208
          ],
          [
            5.6283,
            52.2037
          ],
          [
            5.6783,
            52.1735
          ],
          [
            5.7577,
            52.1014
          ],
          [
            5.8342,
            52.0279
          ],
          [
            5.8671,
            51.9974
          ],
          [
            5.9482,
            51.9224
          ],
          [
            5.9887,
            51.8879
          ],
          [
            6.0348,
            51.856
          ],
          [
            6.1192,
            51.8023
          ],
          [
            6.1635,
            51.7732
          ],
          [
            6.2258,
            51.7321
          ],
          [
            6.2941,
            51.6887
          ],
          [
            6.3629,
            51.6455
          ],
          [
            6.4298,
            51.603
          ],
          [
            6.4996,
            51.5585
          ],
          [
            6.5683,
            51.514
          ],
          [
            6.6331,
            51.4721
          ],
          [
            6.7013,
            51.4278
          ],
          [
            6.7593,
            51.3901
          ],
          [
            6.8109,
            51.3566
          ],
          [
            6.8685,
            51.319
          ],
          [
            6.9218,
            51.2845
          ],
          [
            6.9566,
            51.262
          ],
          [
            7.0028,
            51.2318
          ],
          [
            7.0525,
            51.199
          ],
          [
            7.0983,
            51.1688
          ],
          [
            7.1465,
            51.1371
          ],
          [
            7.1912,
            51.1076
          ],
          [
            7.2392,
            51.0758
          ],
          [
            7.2806,
            51.0483
          ],
          [
            7.3222,
            51.0208
          ],
          [
            7.3453,
            51.0055
          ],
          [
            7.3699,
            50.9886
          ],
          [
            7.3797,
            50.9678
          ],
          [
            7.369,
            50.9498
          ],
          [
            7.3496,
            50.9352
          ],
          [
            7.33,
            50.9223
          ],
          [
            7.3099,
            50.9139
          ],
          [
            7.2868,
            50.9077
          ],
          [
            7.2695,
            50.9037
          ],
          [
            7.2459,
            50.8972
          ],
          [
            7.2352,
            50.8939
          ],
          [
            7.2218,
            50.8898
          ],
          [
            7.2111,
            50.8866
          ],
          [
            7.1981,
            50.8826
          ],
          [
            7.1864,
            50.8791
          ],
          [
            7.1725,
            50.875
          ],
          [
            7.1592,
            50.8709
          ]
        ]
      },
      "properties": {
        "time_europe_berlin": [
          "27.10.2025 17:16:53",
          "27.10.2025 17:17:09",
          "27.10.2025 17:17:25",
          "27.10.2025 17:17:41",
          "27.10.2025 17:17:57",
          "27.10.2025 17:18:15",
          "27.10.2025 17:18:32",
          "27.10.2025 17:18:48",
          "27.10.2025 17:19:04",
          "27.10.2025 17:19:24",
          "27.10.2025 17:19:49",
          "27.10.2025 17:20:14",
          "27.10.2025 17:20:39",
          "27.10.2025 17:21:09",
          "27.10.2025 17:21:39",
          "27.10.2025 17:22:09",
          "27.10.2025 17:22:31",
          "27.10.2025 17:22:49",
          "27.10.2025 17:23:08",
          "27.10.2025 17:23:28",
          "27.10.2025 17:24:07",
          "27.10.2025 17:24:47",
          "27.10.2025 17:25:05",
          "27.10.2025 17:25:49",
          "27.10.2025 17:26:10",
          "27.10.2025 17:26:31",
          "27.10.2025 17:27:10",
          "27.10.2025 17:27:31",
          "27.10.2025 17:28:01",
          "27.10.2025 17:28:31",
          "27.10.2025 17:29:01",
          "27.10.2025 17:29:31",
          "27.10.2025 17:30:01",
          "27.10.2025 17:30:31",
          "27.10.2025 17:31:01",
          "27.10.2025 17:31:31",
          "27.10.2025 17:32:01",
          "27.10.2025 17:32:26",
          "27.10.2025 17:32:56",
          "27.10.2025 17:33:26",
          "27.10.2025 17:33:46",
          "27.10.2025 17:34:16",
          "27.10.2025 17:34:46",
          "27.10.2025 17:35:16",
          "27.10.2025 17:35:46",
          "27.10.2025 17:36:16",
          "27.10.2025 17:36:46",
          "27.10.2025 17:37:16",
          "27.10.2025 17:37:46",
          "27.10.2025 17:38:02",
          "27.10.2025 17:38:21",
          "27.10.2025 17:38:39",
          "27.10.2025 17:38:58",
          "27.10.2025 17:39:18",
          "27.10.2025 17:39:38",
          "27.10.2025 17:39:56",
          "27.10.2025 17:40:17",
          "27.10.2025 17:40:35",
          "27.10.2025 17:41:02",
          "27.10.2025 17:41:17",
          "27.10.2025 17:41:33",
          "27.10.2025 17:41:49",
          "27.10.2025 17:42:05",
          "27.10.2025 17:42:21",
          "27.10.2025 17:42:38",
          "27.10.2025 17:42:54"
        ],
        "course_deg_clockwise_from_north": [
          "222",
          "185",
          "153",
          "122",
          "105",
          "94",
          "90",
          "89",
          "89",
          "90",
          "92",
          "92",
          "92",
          "93",
          "96",
          "95",
          "97",
          "109",
          "126",
          "141",
          "148",
          "147",
          "146",
          "147",
          "140",
          "137",
          "136",
          "137",
          "136",
          "135",
          "136",
          "136",
          "136",
          "136",
          "136",
          "136",
          "136",
          "136",
          "136",
          "136",
          "136",
          "136",
          "137",
          "136",
          "137",
          "137",
          "136",
          "136",
          "136",
          "136",
          "143",
          "182",
          "212",
          "224",
          "229",
          "242",
          "250",
          "249",
          "244",
          "244",
          "245",
          "245",
          "244",
          "245",
          "244",
          "245"
        ],
        "speed_kts": [
          "155",
          "190",
          "221",
          "240",
          "246",
          "243",
          "243",
          "253",
          "262",
          "275",
          "298",
          "322",
          "353",
          "390",
          "422",
          "436",
          "448",
          "456",
          "474",
          "480",
          "475",
          "461",
          "454",
          "439",
          "432",
          "427",
          "416",
          "418",
          "422",
          "424",
          "439",
          "443",
          "444",
          "436",
          "427",
          "417",
          "402",
          "376",
          "357",
          "333",
          "326",
          "319",
          "314",
          "309",
          "305",
          "303",
          "296",
          "279",
          "272",
          "272",
          "271",
          "249",
          "215",
          "198",
          "187",
          "179",
          "152",
          "131",
          "121",
          "113",
          "116",
          "112",
          "114",
          "124",
          "117",
          "121"
        ],
        "speed_mph": [
          "178",
          "219",
          "254",
          "276",
          "283",
          "280",
          "280",
          "291",
          "302",
          "316",
          "343",
          "371",
          "406",
          "449",
          "486",
          "502",
          "516",
          "525",
          "545",
          "552",
          "547",
          "531",
          "522",
          "505",
          "497",
          "491",
          "479",
          "481",
          "486",
          "488",
          "505",
          "510",
          "511",
          "502",
          "491",
          "480",
          "463",
          "433",
          "411",
          "383",
          "375",
          "367",
          "361",
          "356",
          "351",
          "349",
          "341",
          "321",
          "313",
          "313",
          "312",
          "287",
          "247",
          "228",
          "215",
          "206",
          "175",
          "151",
          "139",
          "130",
          "133",
          "129",
          "131",
          "143",
          "135",
          "139"
        ],
        "altitude_ft": [
          "1100",
          "2050",
          "2850",
          "3575",
          "4575",
          "5875",
          "7150",
          "8075",
          "8900",
          "9925",
          "11250",
          "12475",
          "13800",
          "15300",
          "16800",
          "18300",
          "19400",
          "20325",
          "20775",
          "20975",
          "21000",
          "21000",
          "21000",
          "21000",
          "21000",
          "20800",
          "20150",
          "19800",
          "19325",
          "18800",
          "18300",
          "17800",
          "17125",
          "16150",
          "15150",
          "14075",
          "13150",
          "12300",
          "11250",
          "10450",
          "10025",
          "9300",
          "8600",
          "7900",
          "7175",
          "6500",
          "5875",
          "5600",
          "5250",
          "4975",
          "4675",
          "4325",
          "3900",
          "3400",
          "2975",
          "2650",
          "2325",
          "2125",
          "1825",
          "1675",
          "1475",
          "1325",
          "1150",
          "975",
          "800",
          "625"
        ],
        "vertical_rate_fpm": [
          "",
          "3281",
          "2859",
          "3234",
          "4059",
          "4414",
          "4000",
          "3281",
          "3083",
          "3133",
          "3060",
          "3060",
          "3082",
          "3000",
          "3000",
          "3000",
          "3038",
          "2230",
          "1000",
          "229",
          "19",
          "",
          "",
          "",
          "-286",
          "-850",
          "-1000",
          "-971",
          "-1000",
          "-1025",
          "-1000",
          "-1175",
          "-1650",
          "-1975",
          "-2075",
          "-2000",
          "-1936",
          "-2073",
          "-1850",
          "-1470",
          "-1380",
          "-1425",
          "-1400",
          "-1425",
          "-1400",
          "-1300",
          "-900",
          "-625",
          "-815",
          "-986",
          "-1054",
          "-1257",
          "-1423",
          "-1388",
          "-1184",
          "-1000",
          "-808",
          "-667",
          "-643",
          "-677",
          "-656",
          "-609",
          "-656",
          "-636",
          "-636",
          "-656"
        ],
        "reporting_facility": [
          "FlightAware ADS-B(EHVB)",
          "FlightAware ADS-B(EHVB)",
          "FlightAware ADS-B(AMS / EHAM)",
          "FlightAware ADS-B(EHHV)",
          "FlightAware ADS-B(UTC / EHSB)",
          "FlightAware ADS-B(EHHA)",
          "FlightAware ADS-B(EHHV)",
          "FlightAware ADS-B(EHHV)",
          "FlightAware ADS-B(EDLS)",
          "FlightAware ADS-B(AMS / EHAM)",
          "FlightAware ADS-B(AMS / EHAM)",
          "FlightAware ADS-B(EME / EDWE)",
          "FlightAware ADS-B(GLZ / EHGR)",
          "FlightAware ADS-B(EHHV)",
          "FlightAware ADS-B(EHTE)",
          "FlightAware ADS-B(EHDP)",
          "FlightAware ADS-B(AMS / EHAM)",
          "FlightAware ADS-B(EHDL)",
          "FlightAware ADS-B(EHTE)",
          "FlightAware ADS-B(CGN / EDDK)",
          "FlightAware ADS-B(AMS / EHAM)",
          "FlightAware ADS-B(ENS / EHTW)",
          "FlightAware ADS-B(EHDP)",
          "FlightAware ADS-B(EBBL)",
          "FlightAware ADS-B(WOE / EHWO)",
          "FlightAware ADS-B(EHDL)",
          "FlightAware ADS-B(ENS / EHTW)",
          "FlightAware ADS-B(ENS / EHTW)",
          "FlightAware ADS-B(UDE / EHVK)",
          "FlightAware ADS-B(EIN / EHEH)",
          "FlightAware ADS-B(AMS / EHAM)",
          "FlightAware ADS-B(EDGQ)",
          "FlightAware ADS-B(UDE / EHVK)",
          "FlightAware ADS-B(EDVY)",
          "FlightAware ADS-B(EDKB)",
          "FlightAware ADS-B(ENS / EHTW)",
          "FlightAware ADS-B(EDLM)",
          "FlightAware ADS-B(ESS / EDLE)",
          "FlightAware ADS-B(EDKB)",
          "FlightAware ADS-B(ESS / EDLE)",
          "FlightAware ADS-B(ENS / EHTW)",
          "FlightAware ADS-B(DUS / EDDL)",
          "FlightAware ADS-B(DUS / EDDL)",
          "FlightAware ADS-B(DTM / EDLW)",
          "FlightAware ADS-B(EDLM)",
          "FlightAware ADS-B(DTM / EDLW)",
          "FlightAware ADS-B(EDLD)",
          "FlightAware ADS-B(EDKL)",
          "FlightAware ADS-B(CGN / EDDK)",
          "FlightAware ADS-B(EDKD)",
          "FlightAware ADS-B(EDKL)",
          "FlightAware ADS-B(CGN / EDDK)",
          "FlightAware ADS-B(CGN / EDDK)",
          "FlightAware ADS-B(MGL / EDLN)",
          "FlightAware ADS-B(ETNN)",
          "FlightAware ADS-B(CGN / EDDK)",
          "FlightAware ADS-B(EDKB)",
          "FlightAware ADS-B(CGN / EDDK)",
          "Surface and Near-Surface",
          "FlightAware ADS-B(ETNN)",
          "FlightAware ADS-B(CGN / EDDK)",
          "FlightAware ADS-B(CGN / EDDK)",
          "FlightAware ADS-B(EDKB)",
          "FlightAware ADS-B(CGN / EDDK)",
          "FlightAware ADS-B(EDKB)",
          "FlightAware ADS-B(CGN / EDDK)"
        ]
      }
    }
  ]
}