{
  "type": "FeatureCollection",
  "features": [
    {
      "type": "Feature",
      "geometry": {
        "type": "LineString",
        "coordinates": [
          [
            7.1263,
            50.8671
          ],
          [
            7.1156,
            50.8744
          ],
          [
            7.1032,
            50.8845
          ],
          [
            7.0916,
            50.8961
          ],
          [
            7.0808,
            50.9071
          ],
          [
            7.0647,
            50.9121
          ],
          [
            7.0417,
            50.9115
          ],
          [
            7.0151,
            50.9067
          ],
          [
            6.9854,
            50.8994
          ],
          [
            6.9561,
            50.8921
          ],
          [
            6.9204,
            50.8839
          ],
          [
            6.8858,
            50.8779
          ],
          [
            6.8418,
            50.8744
          ],
          [
            6.7945,
            50.8725
          ],
          [
            6.7213,
            50.8698
          ],
          [
            6.6306,
            50.8653
          ],
          [
            6.5839,
            50.8631
          ],
          [
            6.5075,
            50.8593
          ],
          [
            6.3966,
            50.8537
          ],
          [
            6.2988,
            50.8482
          ],
          [
            6.2363,
            50.8451
          ],
          [
            6.1556,
            50.8408
          ],
          [
            6.0442,
            50.8347
          ],
          [
            5.9876,
            50.8317
          ],
          [
            5.9451,
            50.8233
          ],
          [
            5.9034,
            50.8005
          ],
          [
            5.8798,
            50.7709
          ],
          [
            5.8715,
            50.74
          ],
          [
            5.8707,
            50.7052
          ],
          [
            5.8772,
            50.6588
          ],
          [
            5.8904,
            50.5989
          ],
          [
            5.9032,
            50.5393
          ],
          [
            5.9109,
            50.5013
          ],
          [
            5.9131,
            50.4665
          ],
          [
            5.91,
            50.4034
          ],
          [
            5.9064,
            50.3395
          ],
          [
            5.9042,
            50.3021
          ],
          [
            5.9001,
            50.2379
          ],
          [
            5.8971,
            50.185
          ],
          [
            5.9122,
            50.1292
          ],
          [
            5.9363,
            50.0767
          ],
          [
            5.9702,
            50.0101
          ],
          [
            6.0017,
            49.9451
          ],
          [
            6.0267,
            49.8899
          ],
          [
            6.0529,
            49.8276
          ],
          [
            6.0708,
            49.7751
          ],
          [
            6.0884,
            49.7124
          ],
          [
            6.1061,
            49.6499
          ],
          [
            6.1243,
            49.5858
          ],
          [
            6.1422,
            49.5205
          ],
          [
            6.1666,
            49.4547
          ],
          [
            6.1931,
            49.3931
          ],
          [
            6.2175,
            49.3354
          ],
          [
            6.2426,
            49.2732
          ],
          [
            6.2649,
            49.2178
          ],
          [
            6.279,
            49.1666
          ],
          [
            6.2889,
            49.1171
          ],
          [
            6.2984,
            49.0717
          ],
          [
            6.3044,
            49.0251
          ],
          [
            6.3016,
            48.9362
          ],
          [
            6.298,
            48.8713
          ],
          [
            6.2969,
            48.8163
          ],
          [
            6.2942,
            48.7492
          ],
          [
            6.2919,
            48.6847
          ],
          [
            6.2897,
            48.6167
          ],
          [
            6.2876,
            48.5525
          ],
          [
            6.2854,
            48.4885
          ],
          [
            6.2833,
            48.4239
          ],
          [
            6.2812,
            48.3579
          ],
          [
            6.279,
            48.2915
          ],
          [
            6.2768,
            48.2398
          ],
          [
            6.2747,
            48.169
          ],
          [
            6.2727,
            48.1079
          ],
          [
            6.2706,
            48.0409
          ],
          [
            6.2687,
            47.979
          ],
          [
            6.2665,
            47.9158
          ],
          [
            6.2648,
            47.8507
          ],
          [
            6.2621,
            47.7878
          ],
          [
            6.2606,
            47.7258
          ],
          [
            6.258,
            47.6621
          ],
          [
            6.2528,
            47.5958
          ],
          [
            6.2464,
            47.5549
          ],
          [
            6.2368,
            47.4914
          ],
          [
            6.2276,
            47.4295
          ],
          [
            6.2185,
            47.3643
          ],
          [
            6.2095,
            47.303
          ],
          [
            6.2012,
            47.2422
          ],
          [
            6.1921,
            47.1775
          ],
          [
            6.1833,
            47.1172
          ],
          [
            6.1749,
            47.0542
          ],
          [
            6.1657,
            46.9914
          ],
          [
            6.1573,
            46.9276
          ],
          [
            6.1487,
            46.8656
          ],
          [
            6.1394,
            46.8006
          ],
          [
            6.131,
            46.7382
          ],
          [
            6.122,
            46.6758
          ],
          [
            6.1172,
            46.6387
          ],
          [
            6.1077,
            46.5709
          ],
          [
            6.0998,
            46.5099
          ],
          [
            6.0908,
            46.4475
          ],
          [
            6.0826,
            46.3862
          ],
          [
            6.074,
            46.3222
          ],
          [
            6.0654,
            46.2612
          ],
          [
            6.0574,
            46.2004
          ],
          [
            6.0491,
            46.1388
          ],
          [
            6.0442,
            46.108
          ],
          [
            6.0281,
            46.043
          ],
          [
            6.0119,
            45.9809
          ],
          [
            5.9916,
            45.8989
          ],
          [
            5.9766,
            45.8384
          ],
          [
            5.9622,
            45.7826
          ],
          [
            5.9468,
            45.719
          ],
          [
            5.9323,
            45.6603
          ],
          [
            5.9207,
            45.614
          ],
          [
            5.9051,
            45.5733
          ],
          [
            5.891,
            45.5429
          ],
          [
            5.8611,
            45.4819
          ],
          [
            5.8362,
            45.4287
          ],
          [
            5.8093,
            45.3695
          ],
          [
            5.7825,
            45.3134
          ],
          [
            5.7567,
            45.2569
          ],
          [
            5.7298,
            45.1986
          ],
          [
            5.703,
            45.1414
          ],
          [
            5.6771,
            45.0841
          ],
          [
            5.649,
            45.0243
          ],
          [
            5.6242,
            44.9693
          ],
          [
            5.5975,
            44.9112
          ],
          [
            5.5707,
            44.853
          ],
          [
            5.5447,
            44.7947
          ],
          [
            5.518,
            44.7373
          ],
          [
            5.493,
            44.6811
          ],
          [
            5.4657,
            44.6221
          ],
          [
            5.4401,
            44.5643
          ],
          [
            5.4127,
            44.5042
          ],
          [
            5.3874,
            44.4472
          ],
          [
            5.3606,
            44.3884
          ],
          [
            5.3345,
            44.3295
          ],
          [
            5.308,
            44.2727
          ],
          [
            5.2764,
            44.2179
          ],
          [
            5.2417,
            44.1606
          ],
          [
            5.2089,
            44.104
          ],
          [
            5.1749,
            44.0467
          ],
          [
            5.1436,
            43.9925
          ],
          [
            5.1101,
            43.9352
          ],
          [
            5.0778,
            43.8803
          ],
          [
            5.0463,
            43.8248
          ],
          [
            5.0105,
            43.7642
          ],
          [
            4.978,
            43.7075
          ],
          [
            4.9465,
            43.6523
          ],
          [
            4.9136,
            43.5958
          ],
          [
            4.8834,
            43.5421
          ],
          [
            4.8496,
            43.4848
          ],
          [
            4.8192,
            43.4302
          ],
          [
            4.7864,
            43.374
          ],
          [
            4.7553,
            43.3181
          ],
          [
            4.7229,
            43.2628
          ],
          [
            4.6913,
            43.2055
          ],
          [
            4.6586,
            43.1478
          ],
          [
            4.6281,
            43.0951
          ],
          [
            4.5842,
            43.0166
          ],
          [
            4.5518,
            42.9588
          ],
          [
            4.5128,
            42.8897
          ],
          [
            4.4829,
            42.835
          ],
          [
            4.4492,
            42.7769
          ],
          [
            4.409,
            42.7029
          ],
          [
            4.3784,
            42.649
          ],
          [
            4.3472,
            42.5925
          ],
          [
            4.316,
            42.5359
          ],
          [
            4.2843,
            42.4789
          ],
          [
            4.2533,
            42.4227
          ],
          [
            4.2214,
            42.3651
          ],
          [
            4.1884,
            42.2975
          ],
          [
            4.1617,
            42.2345
          ],
          [
            4.1344,
            42.1721
          ],
          [
            4.1098,
            42.1165
          ],
          [
            4.0828,
            42.0559
          ],
          [
            4.0587,
            41.9997
          ],
          [
            4.0378,
            41.9528
          ],
          [
            4.0124,
            41.8944
          ],
          [
            3.9857,
            41.8325
          ],
          [
            3.9618,
            41.7778
          ],
          [
            3.9353,
            41.7175
          ],
          [
            3.9113,
            41.6613
          ],
          [
            3.8862,
            41.6035
          ],
          [
            3.8618,
            41.5473
          ],
          [
            3.8363,
            41.4876
          ],
          [
            3.8117,
            41.4312
          ],
          [
            3.7876,
            41.3745
          ],
          [
            3.7626,
            41.3156
          ],
          [
            3.738,
            41.259
          ],
          [
            3.7136,
            41.2013
          ],
          [
            3.6883,
            41.142
          ],
          [
            3.6636,
            41.0838
          ],
          [
            3.6366,
            41.021
          ],
          [
            3.6108,
            40.9592
          ],
          [
            3.5872,
            40.9036
          ],
          [
            3.5632,
            40.8463
          ],
          [
            3.5404,
            40.7927
          ],
          [
            3.5159,
            40.7346
          ],
          [
            3.4911,
            40.6755
          ],
          [
            3.4665,
            40.6172
          ],
          [
            3.4421,
            40.5585
          ],
          [
            3.4186,
            40.5018
          ],
          [
            3.4032,
            40.4639
          ],
          [
            3.3962,
            40.4278
          ],
          [
            3.3853,
            40.3926
          ],
          [
            3.3408,
            40.3084
          ],
          [
            3.3101,
            40.253
          ],
          [
            3.2787,
            40.1948
          ],
          [
            3.2605,
            40.1583
          ],
          [
            3.2405,
            40.1055
          ],
          [
            3.2242,
            40.0459
          ],
          [
            3.2085,
            39.9887
          ],
          [
            3.1932,
            39.932
          ],
          [
            3.178,
            39.8779
          ],
          [
            3.1677,
            39.8439
          ],
          [
            3.1431,
            39.7946
          ],
          [
            3.1175,
            39.7464
          ],
          [
            3.0932,
            39.6998
          ],
          [
            3.084,
            39.6645
          ],
          [
            3.082,
            39.6225
          ],
          [
            3.0642,
            39.5809
          ],
          [
            3.0446,
            39.5577
          ],
          [
            3.0235,
            39.5367
          ],
          [
            2.9741,
            39.5095
          ],
          [
            2.9329,
            39.4889
          ],
          [
            2.8894,
            39.4669
          ],
          [
            2.8467,
            39.4449
          ],
          [
            2.8177,
            39.4305
          ],
          [
            2.7766,
            39.4188
          ],
          [
            2.7291,
            39.4076
          ],
          [
            2.681,
            39.3962
          ],
          [
            2.6522,
            39.389
          ],
          [
            2.6294,
            39.383
          ],
          [
            2.6046,
            39.3765
          ],
          [
            2.5705,
            39.3678
          ],
          [
            2.5479,
            39.3689
          ],
          [
            2.5308,
            39.3825
          ],
          [
            2.528,
            39.4037
          ],
          [
            2.5285,
            39.4178
          ],
          [
            2.5424,
            39.441
          ],
          [
            2.5592,
            39.4635
          ],
          [
            2.5687,
            39.4762
          ],
          [
            2.58,
            39.4851
          ],
          [
            2.596,
            39.493
          ],
          [
            2.6202,
            39.5042
          ],
          [
            2.6429,
            39.515
          ],
          [
            2.6547,
            39.5206
          ],
          [
            2.6667,
            39.5262
          ],
          [
            2.6773,
            39.5313
          ],
          [
            2.6869,
            39.5358
          ],
          [
            2.6965,
            39.5404
          ],
          [
            2.707,
            39.5454
          ],
          [
            2.717,
            39.5501
          ]
        ]
      },
      "properties": {
        "time_europe_berlin": [
          "09.10.2025 11:54:31",
          "09.10.2025 11:54:47",
          "09.10.2025 11:55:03",
          "09.10.2025 11:55:19",
          "09.10.2025 11:55:35",
          "09.10.2025 11:55:51",
          "09.10.2025 11:56:09",
          "09.10.2025 11:56:28",
          "09.10.2025 11:56:49",
          "09.10.2025 11:57:07",
          "09.10.2025 11:57:26",
          "09.10.2025 11:57:43",
          "09.10.2025 11:58:02",
          "09.10.2025 11:58:24",
          "09.10.2025 11:58:53",
          "09.10.2025 11:59:28",
          "09.10.2025 11:59:45",
          "09.10.2025 12:00:14",
          "09.10.2025 12:00:54",
          "09.10.2025 12:01:28",
          "09.10.2025 12:01:49",
          "09.10.2025 12:02:19",
          "09.10.2025 12:02:58",
          "09.10.2025 12:03:17",
          "09.10.2025 12:03:34",
          "09.10.2025 12:03:52",
          "09.10.2025 12:04:10",
          "09.10.2025 12:04:26",
          "09.10.2025 12:04:42",
          "09.10.2025 12:05:06",
          "09.10.2025 12:05:36",
          "09.10.2025 12:06:05",
          "09.10.2025 12:06:24",
          "09.10.2025 12:06:42",
          "09.10.2025 12:07:12",
          "09.10.2025 12:07:42",
          "09.10.2025 12:07:59",
          "09.10.2025 12:08:29",
          "09.10.2025 12:08:54",
          "09.10.2025 12:09:19",
          "09.10.2025 12:09:47",
          "09.10.2025 12:10:17",
          "09.10.2025 12:10:47",
          "09.10.2025 12:11:15",
          "09.10.2025 12:11:45",
          "09.10.2025 12:12:08",
          "09.10.2025 12:12:38",
          "09.10.2025 12:13:08",
          "09.10.2025 12:13:38",
          "09.10.2025 12:14:08",
          "09.10.2025 12:14:38",
          "09.10.2025 12:15:08",
          "09.10.2025 12:15:38",
          "09.10.2025 12:16:08",
          "09.10.2025 12:16:34",
          "09.10.2025 12:17:00",
          "09.10.2025 12:17:23",
          "09.10.2025 12:17:44",
          "09.10.2025 12:18:06",
          "09.10.2025 12:18:46",
          "09.10.2025 12:19:16",
          "09.10.2025 12:19:41",
          "09.10.2025 12:20:11",
          "09.10.2025 12:20:42",
          "09.10.2025 12:21:13",
          "09.10.2025 12:21:43",
          "09.10.2025 12:22:13",
          "09.10.2025 12:22:43",
          "09.10.2025 12:23:13",
          "09.10.2025 12:23:44",
          "09.10.2025 12:24:09",
          "09.10.2025 12:24:40",
          "09.10.2025 12:25:10",
          "09.10.2025 12:25:41",
          "09.10.2025 12:26:11",
          "09.10.2025 12:26:41",
          "09.10.2025 12:27:11",
          "09.10.2025 12:27:42",
          "09.10.2025 12:28:12",
          "09.10.2025 12:28:42",
          "09.10.2025 12:29:13",
          "09.10.2025 12:29:34",
          "09.10.2025 12:30:04",
          "09.10.2025 12:30:34",
          "09.10.2025 12:31:05",
          "09.10.2025 12:31:35",
          "09.10.2025 12:32:05",
          "09.10.2025 12:32:35",
          "09.10.2025 12:33:05",
          "09.10.2025 12:33:35",
          "09.10.2025 12:34:05",
          "09.10.2025 12:34:36",
          "09.10.2025 12:35:06",
          "09.10.2025 12:35:36",
          "09.10.2025 12:36:06",
          "09.10.2025 12:36:37",
          "09.10.2025 12:36:57",
          "09.10.2025 12:37:27",
          "09.10.2025 12:37:57",
          "09.10.2025 12:38:27",
          "09.10.2025 12:38:57",
          "09.10.2025 12:39:27",
          "09.10.2025 12:39:57",
          "09.10.2025 12:40:27",
          "09.10.2025 12:40:57",
          "09.10.2025 12:41:15",
          "09.10.2025 12:41:45",
          "09.10.2025 12:42:16",
          "09.10.2025 12:42:57",
          "09.10.2025 12:43:27",
          "09.10.2025 12:43:57",
          "09.10.2025 12:44:27",
          "09.10.2025 12:44:57",
          "09.10.2025 12:45:20",
          "09.10.2025 12:45:41",
          "09.10.2025 12:45:57",
          "09.10.2025 12:46:28",
          "09.10.2025 12:46:58",
          "09.10.2025 12:47:28",
          "09.10.2025 12:47:58",
          "09.10.2025 12:48:28",
          "09.10.2025 12:48:58",
          "09.10.2025 12:49:28",
          "09.10.2025 12:49:58",
          "09.10.2025 12:50:28",
          "09.10.2025 12:50:58",
          "09.10.2025 12:51:28",
          "09.10.2025 12:51:58",
          "09.10.2025 12:52:28",
          "09.10.2025 12:52:58",
          "09.10.2025 12:53:28",
          "09.10.2025 12:53:58",
          "09.10.2025 12:54:28",
          "09.10.2025 12:54:59",
          "09.10.2025 12:55:29",
          "09.10.2025 12:55:59",
          "09.10.2025 12:56:29",
          "09.10.2025 12:56:58",
          "09.10.2025 12:57:28",
          "09.10.2025 12:57:59",
          "09.10.2025 12:58:29",
          "09.10.2025 12:58:59",
          "09.10.2025 12:59:29",
          "09.10.2025 12:59:59",
          "09.10.2025 13:00:29",
          "09.10.2025 13:00:59",
          "09.10.2025 13:01:31",
          "09.10.2025 13:02:02",
          "09.10.2025 13:02:32",
          "09.10.2025 13:03:02",
          "09.10.2025 13:03:32",
          "09.10.2025 13:04:02",
          "09.10.2025 13:04:32",
          "09.10.2025 13:05:02",
          "09.10.2025 13:05:33",
          "09.10.2025 13:06:03",
          "09.10.2025 13:06:33",
          "09.10.2025 13:07:04",
          "09.10.2025 13:07:34",
          "09.10.2025 13:08:16",
          "09.10.2025 13:08:47",
          "09.10.2025 13:09:23",
          "09.10.2025 13:09:53",
          "09.10.2025 13:10:24",
          "09.10.2025 13:11:02",
          "09.10.2025 13:11:32",
          "09.10.2025 13:12:02",
          "09.10.2025 13:12:32",
          "09.10.2025 13:13:02",
          "09.10.2025 13:13:32",
          "09.10.2025 13:14:03",
          "09.10.2025 13:14:40",
          "09.10.2025 13:15:12",
          "09.10.2025 13:15:45",
          "09.10.2025 13:16:15",
          "09.10.2025 13:16:46",
          "09.10.2025 13:17:16",
          "09.10.2025 13:17:42",
          "09.10.2025 13:18:12",
          "09.10.2025 13:18:44",
          "09.10.2025 13:19:14",
          "09.10.2025 13:19:45",
          "09.10.2025 13:20:15",
          "09.10.2025 13:20:45",
          "09.10.2025 13:21:15",
          "09.10.2025 13:21:46",
          "09.10.2025 13:22:16",
          "09.10.2025 13:22:46",
          "09.10.2025 13:23:16",
          "09.10.2025 13:23:46",
          "09.10.2025 13:24:17",
          "09.10.2025 13:24:48",
          "09.10.2025 13:25:18",
          "09.10.2025 13:25:52",
          "09.10.2025 13:26:23",
          "09.10.2025 13:26:53",
          "09.10.2025 13:27:23",
          "09.10.2025 13:27:53",
          "09.10.2025 13:28:23",
          "09.10.2025 13:28:54",
          "09.10.2025 13:29:25",
          "09.10.2025 13:29:56",
          "09.10.2025 13:30:26",
          "09.10.2025 13:30:45",
          "09.10.2025 13:31:03",
          "09.10.2025 13:31:20",
          "09.10.2025 13:32:04",
          "09.10.2025 13:32:34",
          "09.10.2025 13:33:04",
          "09.10.2025 13:33:25",
          "09.10.2025 13:33:52",
          "09.10.2025 13:34:23",
          "09.10.2025 13:34:53",
          "09.10.2025 13:35:24",
          "09.10.2025 13:35:54",
          "09.10.2025 13:36:13",
          "09.10.2025 13:36:43",
          "09.10.2025 13:37:13",
          "09.10.2025 13:37:45",
          "09.10.2025 13:38:08",
          "09.10.2025 13:38:39",
          "09.10.2025 13:39:11",
          "09.10.2025 13:39:32",
          "09.10.2025 13:39:51",
          "09.10.2025 13:40:25",
          "09.10.2025 13:40:55",
          "09.10.2025 13:41:25",
          "09.10.2025 13:41:55",
          "09.10.2025 13:42:14",
          "09.10.2025 13:42:40",
          "09.10.2025 13:43:10",
          "09.10.2025 13:43:45",
          "09.10.2025 13:44:05",
          "09.10.2025 13:44:22",
          "09.10.2025 13:44:39",
          "09.10.2025 13:45:04",
          "09.10.2025 13:45:22",
          "09.10.2025 13:45:40",
          "09.10.2025 13:46:04",
          "09.10.2025 13:46:20",
          "09.10.2025 13:46:50",
          "09.10.2025 13:47:21",
          "09.10.2025 13:47:39",
          "09.10.2025 13:47:55",
          "09.10.2025 13:48:16",
          "09.10.2025 13:48:46",
          "09.10.2025 13:49:16",
          "09.10.2025 13:49:33",
          "09.10.2025 13:49:51",
          "09.10.2025 13:50:07",
          "09.10.2025 13:50:23",
          "09.10.2025 13:50:39",
          "09.10.2025 13:50:55",
          "09.10.2025 13:51:11"
        ],
        "course_deg_clockwise_from_north": [
          "317",
          "318",
          "325",
          "330",
          "318",
          "280",
          "260",
          "250",
          "248",
          "249",
          "251",
          "260",
          "265",
          "267",
          "266",
          "266",
          "266",
          "266",
          "265",
          "266",
          "265",
          "265",
          "266",
          "263",
          "239",
          "218",
          "197",
          "185",
          "178",
          "174",
          "172",
          "173",
          "174",
          "181",
          "182",
          "182",
          "182",
          "182",
          "179",
          "165",
          "162",
          "163",
          "163",
          "163",
          "166",
          "169",
          "170",
          "170",
          "170",
          "170",
          "165",
          "164",
          "165",
          "166",
          "166",
          "172",
          "173",
          "172",
          "179",
          "182",
          "182",
          "181",
          "181",
          "181",
          "182",
          "181",
          "182",
          "181",
          "181",
          "182",
          "181",
          "181",
          "182",
          "181",
          "182",
          "182",
          "181",
          "182",
          "182",
          "181",
          "185",
          "187",
          "185",
          "186",
          "185",
          "185",
          "186",
          "185",
          "186",
          "185",
          "185",
          "186",
          "185",
          "186",
          "185",
          "186",
          "185",
          "186",
          "186",
          "185",
          "186",
          "185",
          "185",
          "186",
          "185",
          "189",
          "191",
          "190",
          "190",
          "190",
          "190",
          "189",
          "190",
          "191",
          "197",
          "200",
          "199",
          "198",
          "198",
          "198",
          "198",
          "198",
          "198",
          "198",
          "198",
          "199",
          "198",
          "197",
          "198",
          "198",
          "198",
          "198",
          "198",
          "198",
          "197",
          "198",
          "197",
          "200",
          "204",
          "204",
          "203",
          "202",
          "203",
          "203",
          "203",
          "202",
          "203",
          "202",
          "203",
          "202",
          "203",
          "203",
          "203",
          "203",
          "202",
          "203",
          "202",
          "203",
          "202",
          "202",
          "203",
          "202",
          "203",
          "203",
          "202",
          "202",
          "203",
          "202",
          "202",
          "202",
          "202",
          "197",
          "198",
          "199",
          "198",
          "198",
          "199",
          "198",
          "199",
          "198",
          "198",
          "198",
          "198",
          "198",
          "199",
          "197",
          "198",
          "198",
          "198",
          "197",
          "198",
          "198",
          "197",
          "198",
          "198",
          "197",
          "198",
          "198",
          "198",
          "198",
          "198",
          "197",
          "198",
          "193",
          "187",
          "199",
          "203",
          "203",
          "202",
          "199",
          "193",
          "191",
          "192",
          "192",
          "192",
          "198",
          "202",
          "202",
          "202",
          "184",
          "182",
          "207",
          "216",
          "224",
          "238",
          "238",
          "236",
          "236",
          "241",
          "253",
          "253",
          "253",
          "252",
          "251",
          "251",
          "255",
          "289",
          "339",
          "359",
          "9",
          "30",
          "30",
          "33",
          "53",
          "60",
          "59",
          "59",
          "58",
          "59",
          "58",
          "59",
          "58",
          "59",
          "59"
        ],
        "speed_kts": [
          "141",
          "159",
          "171",
          "176",
          "174",
          "171",
          "181",
          "202",
          "230",
          "254",
          "276",
          "294",
          "313",
          "328",
          "349",
          "365",
          "371",
          "379",
          "388",
          "390",
          "389",
          "387",
          "387",
          "393",
          "405",
          "417",
          "426",
          "431",
          "433",
          "435",
          "438",
          "441",
          "443",
          "443",
          "451",
          "458",
          "462",
          "467",
          "471",
          "473",
          "473",
          "474",
          "474",
          "474",
          "474",
          "473",
          "472",
          "471",
          "471",
          "469",
          "464",
          "459",
          "455",
          "457",
          "455",
          "462",
          "470",
          "474",
          "473",
          "472",
          "472",
          "472",
          "472",
          "472",
          "471",
          "469",
          "467",
          "465",
          "464",
          "463",
          "462",
          "461",
          "459",
          "458",
          "456",
          "456",
          "455",
          "454",
          "453",
          "454",
          "452",
          "452",
          "453",
          "453",
          "453",
          "452",
          "452",
          "453",
          "452",
          "453",
          "453",
          "452",
          "453",
          "453",
          "454",
          "452",
          "453",
          "451",
          "450",
          "449",
          "447",
          "446",
          "444",
          "443",
          "444",
          "441",
          "440",
          "440",
          "439",
          "438",
          "437",
          "436",
          "436",
          "435",
          "434",
          "433",
          "433",
          "433",
          "433",
          "434",
          "433",
          "434",
          "435",
          "437",
          "438",
          "439",
          "438",
          "439",
          "439",
          "440",
          "439",
          "441",
          "441",
          "440",
          "440",
          "441",
          "440",
          "441",
          "440",
          "439",
          "439",
          "438",
          "438",
          "437",
          "436",
          "435",
          "435",
          "433",
          "434",
          "435",
          "434",
          "434",
          "434",
          "434",
          "434",
          "432",
          "433",
          "433",
          "434",
          "436",
          "437",
          "438",
          "439",
          "439",
          "439",
          "438",
          "438",
          "437",
          "437",
          "437",
          "436",
          "434",
          "434",
          "432",
          "431",
          "431",
          "432",
          "431",
          "432",
          "432",
          "431",
          "432",
          "432",
          "432",
          "432",
          "432",
          "432",
          "432",
          "432",
          "432",
          "432",
          "432",
          "433",
          "433",
          "434",
          "430",
          "427",
          "424",
          "424",
          "430",
          "436",
          "438",
          "438",
          "439",
          "441",
          "443",
          "443",
          "441",
          "435",
          "430",
          "427",
          "423",
          "416",
          "408",
          "394",
          "384",
          "374",
          "374",
          "319",
          "313",
          "303",
          "293",
          "292",
          "292",
          "289",
          "288",
          "288",
          "288",
          "289",
          "289",
          "254",
          "247",
          "252",
          "248",
          "242",
          "236",
          "234",
          "214",
          "182",
          "189",
          "175",
          "182",
          "173",
          "162",
          "161",
          "143",
          "146",
          "131",
          "123",
          "126",
          "125",
          "124",
          "120",
          "106"
        ],
        "speed_mph": [
          "162",
          "183",
          "197",
          "203",
          "200",
          "197",
          "208",
          "232",
          "265",
          "292",
          "318",
          "338",
          "360",
          "377",
          "402",
          "420",
          "427",
          "436",
          "447",
          "449",
          "448",
          "445",
          "445",
          "452",
          "466",
          "480",
          "490",
          "496",
          "498",
          "501",
          "504",
          "507",
          "510",
          "510",
          "519",
          "527",
          "532",
          "537",
          "542",
          "544",
          "544",
          "545",
          "545",
          "545",
          "545",
          "544",
          "543",
          "542",
          "542",
          "540",
          "534",
          "528",
          "524",
          "526",
          "524",
          "532",
          "541",
          "545",
          "544",
          "543",
          "543",
          "543",
          "543",
          "543",
          "542",
          "540",
          "537",
          "535",
          "534",
          "533",
          "532",
          "531",
          "528",
          "527",
          "525",
          "525",
          "524",
          "522",
          "521",
          "522",
          "520",
          "520",
          "521",
          "521",
          "521",
          "520",
          "520",
          "521",
          "520",
          "521",
          "521",
          "520",
          "521",
          "521",
          "522",
          "520",
          "521",
          "519",
          "518",
          "517",
          "514",
          "513",
          "511",
          "510",
          "511",
          "507",
          "506",
          "506",
          "505",
          "504",
          "503",
          "502",
          "502",
          "501",
          "499",
          "498",
          "498",
          "498",
          "498",
          "499",
          "498",
          "499",
          "501",
          "503",
          "504",
          "505",
          "504",
          "505",
          "505",
          "506",
          "505",
          "507",
          "507",
          "506",
          "506",
          "507",
          "506",
          "507",
          "506",
          "505",
          "505",
          "504",
          "504",
          "503",
          "502",
          "501",
          "501",
          "498",
          "499",
          "501",
          "499",
          "499",
          "499",
          "499",
          "499",
          "497",
          "498",
          "498",
          "499",
          "502",
          "503",
          "504",
          "505",
          "505",
          "505",
          "504",
          "504",
          "503",
          "503",
          "503",
          "502",
          "499",
          "499",
          "497",
          "496",
          "496",
          "497",
          "496",
          "497",
          "497",
          "496",
          "497",
          "497",
          "497",
          "497",
          "497",
          "497",
          "497",
          "497",
          "497",
          "497",
          "497",
          "498",
          "498",
          "499",
          "495",
          "491",
          "488",
          "488",
          "495",
          "502",
          "504",
          "504",
          "505",
          "507",
          "510",
          "510",
          "507",
          "501",
          "495",
          "491",
          "487",
          "479",
          "470",
          "453",
          "442",
          "430",
          "430",
          "367",
          "360",
          "349",
          "337",
          "336",
          "336",
          "333",
          "331",
          "331",
          "331",
          "333",
          "333",
          "292",
          "284",
          "290",
          "285",
          "278",
          "272",
          "269",
          "246",
          "209",
          "217",
          "201",
          "209",
          "199",
          "186",
          "185",
          "165",
          "168",
          "151",
          "142",
          "145",
          "144",
          "143",
          "138",
          "122"
        ],
        "altitude_ft": [
          "",
          "450",
          "1250",
          "2100",
          "3025",
          "3800",
          "4625",
          "5400",
          "6125",
          "6750",
          "7425",
          "8000",
          "8675",
          "9350",
          "10325",
          "11500",
          "12075",
          "13000",
          "14325",
          "15450",
          "16275",
          "17375",
          "18875",
          "19450",
          "19950",
          "20425",
          "20900",
          "21375",
          "21800",
          "22475",
          "23325",
          "24150",
          "24700",
          "25125",
          "25800",
          "26450",
          "26800",
          "27450",
          "27950",
          "28625",
          "29275",
          "30025",
          "30800",
          "31450",
          "32150",
          "32775",
          "33500",
          "34225",
          "34950",
          "35675",
          "36475",
          "37225",
          "37950",
          "38450",
          "38900",
          "39000",
          "39000",
          "39000",
          "39000",
          "39000",
          "39000",
          "39000",
          "39000",
          "39000",
          "39000",
          "39000",
          "39000",
          "39000",
          "39000",
          "39000",
          "39000",
          "39000",
          "39000",
          "39000",
          "39000",
          "39000",
          "39000",
          "39000",
          "39000",
          "39000",
          "39000",
          "39000",
          "39000",
          "39000",
          "39000",
          "39000",
          "39000",
          "39000",
          "39000",
          "39000",
          "39000",
          "39000",
          "39000",
          "39000",
          "39000",
          "39000",
          "39000",
          "39000",
          "39000",
          "39000",
          "39000",
          "39000",
          "39000",
          "39000",
          "39000",
          "39000",
          "39000",
          "39000",
          "39000",
          "39000",
          "39000",
          "39000",
          "39000",
          "39000",
          "39000",
          "39000",
          "39000",
          "39000",
          "39000",
          "39000",
          "39000",
          "39000",
          "39000",
          "39000",
          "39000",
          "39000",
          "39000",
          "39000",
          "39000",
          "39000",
          "39000",
          "39000",
          "39000",
          "39000",
          "39000",
          "39000",
          "39000",
          "39000",
          "39000",
          "39000",
          "39000",
          "39000",
          "39000",
          "39000",
          "39000",
          "39000",
          "39000",
          "39000",
          "39000",
          "39000",
          "39000",
          "39000",
          "39000",
          "39000",
          "39000",
          "39000",
          "39000",
          "39000",
          "39000",
          "39000",
          "39000",
          "39000",
          "39000",
          "39000",
          "39000",
          "39000",
          "39000",
          "39000",
          "39000",
          "39000",
          "39000",
          "39000",
          "39000",
          "39000",
          "39000",
          "39000",
          "39000",
          "39000",
          "39000",
          "39000",
          "39000",
          "39000",
          "39000",
          "39000",
          "39000",
          "39000",
          "39000",
          "39000",
          "39000",
          "39000",
          "39000",
          "39000",
          "39000",
          "39000",
          "39000",
          "38875",
          "37825",
          "36675",
          "35350",
          "34050",
          "32775",
          "31525",
          "30300",
          "29500",
          "28750",
          "28000",
          "26225",
          "24950",
          "23775",
          "23100",
          "22000",
          "20725",
          "19475",
          "18225",
          "17250",
          "16425",
          "15425",
          "15025",
          "15000",
          "15000",
          "14525",
          "13450",
          "12600",
          "11775",
          "10300",
          "9100",
          "7825",
          "6525",
          "5675",
          "4625",
          "3925",
          "3825",
          "3825",
          "3625",
          "3200",
          "2575",
          "2225",
          "1975",
          "1925",
          "1925",
          "1925",
          "1925",
          "1925",
          "1925",
          "1875",
          "1450",
          "1075",
          "850",
          "675",
          "500",
          "325",
          "150",
          "",
          ""
        ],
        "vertical_rate_fpm": [
          "",
          "2391",
          "3094",
          "3328",
          "3188",
          "2824",
          "2595",
          "2250",
          "2077",
          "2108",
          "2083",
          "2083",
          "1976",
          "1941",
          "2016",
          "2019",
          "1957",
          "1957",
          "1986",
          "2127",
          "2265",
          "2261",
          "2147",
          "1792",
          "1671",
          "1583",
          "1676",
          "1688",
          "1650",
          "1694",
          "1703",
          "1719",
          "1581",
          "1375",
          "1325",
          "1277",
          "1277",
          "1255",
          "1410",
          "1500",
          "1448",
          "1525",
          "1474",
          "1397",
          "1500",
          "1528",
          "1450",
          "1450",
          "1450",
          "1525",
          "1550",
          "1475",
          "1225",
          "1018",
          "635",
          "122",
          "",
          "",
          "",
          "",
          "",
          "",
          "",
          "",
          "",
          "",
          "",
          "",
          "",
          "",
          "",
          "",
          "",
          "",
          "",
          "",
          "",
          "",
          "",
          "",
          "",
          "",
          "",
          "",
          "",
          "",
          "",
          "",
          "",
          "",
          "",
          "",
          "",
          "",
          "",
          "",
          "",
          "",
          "",
          "",
          "",
          "",
          "",
          "",
          "",
          "",
          "",
          "",
          "",
          "",
          "",
          "",
          "",
          "",
          "",
          "",
          "",
          "",
          "",
          "",
          "",
          "",
          "",
          "",
          "",
          "",
          "",
          "",
          "",
          "",
          "",
          "",
          "",
          "",
          "",
          "",
          "",
          "",
          "",
          "",
          "",
          "",
          "",
          "",
          "",
          "",
          "",
          "",
          "",
          "",
          "",
          "",
          "",
          "",
          "",
          "",
          "",
          "",
          "",
          "",
          "",
          "",
          "",
          "",
          "",
          "",
          "",
          "",
          "",
          "",
          "",
          "",
          "",
          "",
          "",
          "",
          "",
          "",
          "",
          "",
          "",
          "",
          "",
          "",
          "",
          "",
          "",
          "",
          "",
          "",
          "",
          "",
          "",
          "",
          "-123",
          "-1175",
          "-2200",
          "-2475",
          "-2582",
          "-2492",
          "-2444",
          "-2434",
          "-2480",
          "-2514",
          "-2571",
          "-2484",
          "-2473",
          "-2450",
          "-2176",
          "-2219",
          "-2457",
          "-2484",
          "-2459",
          "-2189",
          "-2204",
          "-2235",
          "-1400",
          "-411",
          "-27",
          "-528",
          "-1476",
          "-2179",
          "-2513",
          "-2604",
          "-2508",
          "-2475",
          "-2575",
          "-2633",
          "-2533",
          "-1875",
          "-738",
          "-109",
          "-324",
          "-1103",
          "-1500",
          "-1360",
          "-1000",
          "-429",
          "-75",
          "",
          "",
          "",
          "",
          "-81",
          "-559",
          "-800",
          "-766",
          "-686",
          "-618",
          "-656",
          "-656",
          "-594",
          "-563",
          "-563"
        ],
        "reporting_facility": [
          "FlightAware ADS-B(CGN / EDDK)",
          "FlightAware ADS-B(EDKB)",
          "FlightAware ADS-B(CGN / EDDK)",
          "FlightAware ADS-B(EDRA)",
          "FlightAware ADS-B(EDKB)",
          "FlightAware ADS-B(CGN / EDDK)",
          "FlightAware ADS-B(CGN / EDDK)",
          "FlightAware ADS-B(AAH / EDKA)",
          "FlightAware ADS-B(CGN / EDDK)",
          "FlightAware ADS-B(CGN / EDDK)",
          "FlightAware ADS-B(EDKB)",
          "FlightAware ADS-B(CGN / EDDK)",
          "FlightAware ADS-B(AAH / EDKA)",
          "FlightAware ADS-B(CGN / EDDK)",
          "FlightAware ADS-B(GKE / ETNG)",
          "FlightAware ADS-B(MST / EHBK)",
          "FlightAware ADS-B(RTM / EHRD)",
          "FlightAware ADS-B(EDLM)",
          "FlightAware ADS-B(EDLF)",
          "FlightAware ADS-B(ETNN)",
          "FlightAware ADS-B(AAH / EDKA)",
          "FlightAware ADS-B(EDKB)",
          "FlightAware ADS-B(CGN / EDDK)",
          "FlightAware ADS-B(AAH / EDKA)",
          "FlightAware ADS-B(DTM / EDLW)",
          "FlightAware ADS-B(ENS / EHTW)",
          "FlightAware ADS-B(EIN / EHEH)",
          "FlightAware ADS-B(DTM / EDLW)",
          "FlightAware ADS-B(AMS / EHAM)",
          "FlightAware ADS-B(UTC / EHSB)",
          "FlightAware ADS-B(LFAG)",
          "FlightAware ADS-B(LGG / EBLG)",
          "FlightAware ADS-B(LGG / EBLG)",
          "FlightAware ADS-B(RTM / EHRD)",
          "FlightAware ADS-B(LUX / ELLX)",
          "FlightAware ADS-B(EDKN)",
          "FlightAware ADS-B(EBBL)",
          "FlightAware ADS-B(LGG / EBLG)",
          "FlightAware ADS-B(EDLD)",
          "FlightAware ADS-B(LGG / EBLG)",
          "FlightAware ADS-B(BRU / EBBR)",
          "FlightAware ADS-B(EBGB)",
          "FlightAware ADS-B(EDRA)",
          "FlightAware ADS-B(EHBD)",
          "FlightAware ADS-B(EBDT)",
          "FlightAware ADS-B(ETNN)",
          "FlightAware ADS-B(FRA / EDDF)",
          "FlightAware ADS-B(EHDL)",
          "FlightAware ADS-B(EDFA)",
          "FlightAware ADS-B(RMS / ETAR)",
          "FlightAware ADS-B(SCN / EDDR)",
          "FlightAware ADS-B(ZQW / EDRZ)",
          "FlightAware ADS-B(FRA / EDDF)",
          "FlightAware ADS-B(SCN / EDDR)",
          "FlightAware ADS-B(ZRH / LSZH)",
          "FlightAware ADS-B(EDFZ)",
          "FlightAware ADS-B(BRU / EBBR)",
          "FlightAware ADS-B(LFQO)",
          "FlightAware ADS-B(CGN / EDDK)",
          "FlightAware ADS-B(EDFZ)",
          "FlightAware ADS-B(LFPL)",
          "FlightAware ADS-B(EDKV)",
          "FlightAware ADS-B(EDKV)",
          "FlightAware ADS-B(LFEZ)",
          "FlightAware ADS-B(LUX / ELLX)",
          "FlightAware ADS-B(LUX / ELLX)",
          "FlightAware ADS-B(LFEZ)",
          "FlightAware ADS-B(LFEZ)",
          "FlightAware ADS-B(LSGL)",
          "FlightAware ADS-B(LFON)",
          "FlightAware ADS-B(LFSX)",
          "FlightAware ADS-B(LUX / ELLX)",
          "FlightAware ADS-B(STR / EDDS)",
          "FlightAware ADS-B(LUX / ELLX)",
          "FlightAware ADS-B(DIJ / LFSD)",
          "FlightAware ADS-B(LSGL)",
          "FlightAware ADS-B(LSGT)",
          "FlightAware ADS-B(STR / EDDS)",
          "FlightAware ADS-B(LFGI)",
          "FlightAware ADS-B(EDRP)",
          "FlightAware ADS-B(ETED)",
          "FlightAware ADS-B(LSGY)",
          "FlightAware ADS-B(LSPV)",
          "FlightAware ADS-B(EAP / LFSB)",
          "FlightAware ADS-B(ZRH / LSZH)",
          "FlightAware ADS-B(LSGY)",
          "FlightAware ADS-B(LFJU)",
          "FlightAware ADS-B(LSGY)",
          "FlightAware ADS-B(LSTO)",
          "FlightAware ADS-B(LSGY)",
          "FlightAware ADS-B(VIP / LSMP)",
          "FlightAware ADS-B(LSTR)",
          "FlightAware ADS-B(LSGL)",
          "FlightAware ADS-B(LSGL)",
          "FlightAware ADS-B(LSPL)",
          "FlightAware ADS-B(LSPL)",
          "FlightAware ADS-B(LSGN)",
          "FlightAware ADS-B(LSGL)",
          "FlightAware ADS-B(LSGN)",
          "FlightAware ADS-B(LSTB)",
          "FlightAware ADS-B(LSGL)",
          "FlightAware ADS-B(GVA / LSGG)",
          "FlightAware ADS-B(LSGL)",
          "FlightAware ADS-B(LSGL)",
          "FlightAware ADS-B(LSPH)",
          "FlightAware ADS-B(LSTB)",
          "FlightAware ADS-B(EAP / LFSB)",
          "FlightAware ADS-B(VIP / LSMP)",
          "FlightAware ADS-B(ZRH / LSZH)",
          "FlightAware ADS-B(LSTB)",
          "FlightAware ADS-B(LSGN)",
          "FlightAware ADS-B(LFLI)",
          "FlightAware ADS-B(VAF / LFLU)",
          "FlightAware ADS-B(GVA / LSGG)",
          "FlightAware ADS-B(LFLM)",
          "FlightAware ADS-B(LSGN)",
          "FlightAware ADS-B(SYT / LFLN)",
          "FlightAware ADS-B(LIN / LIML)",
          "FlightAware ADS-B(GVA / LSGG)",
          "FlightAware ADS-B(LYN / LFLY)",
          "FlightAware ADS-B(VAF / LFLU)",
          "FlightAware ADS-B(BRN / LSZB)",
          "FlightAware ADS-B(NVS / LFQG)",
          "FlightAware ADS-B(LIMA)",
          "FlightAware ADS-B(LIMA)",
          "FlightAware ADS-B(TRN / LIMF)",
          "FlightAware ADS-B(LFNT)",
          "FlightAware ADS-B(LFXA)",
          "FlightAware ADS-B(LSGL)",
          "FlightAware ADS-B(LSGL)",
          "FlightAware ADS-B(NCY / LFLP)",
          "FlightAware ADS-B(LSHC)",
          "FlightAware ADS-B(LSHC)",
          "FlightAware ADS-B(LSHC)",
          "FlightAware ADS-B(LSHC)",
          "FlightAware ADS-B(LSHC)",
          "FlightAware ADS-B(LSHC)",
          "FlightAware ADS-B(LILN)",
          "FlightAware ADS-B(CTT / LFMQ)",
          "FlightAware ADS-B(GNB / LFLS)",
          "FlightAware ADS-B(GNB / LFLS)",
          "FlightAware ADS-B(OBS / LFHO)",
          "FlightAware ADS-B(CTT / LFMQ)",
          "FlightAware ADS-B(CTT / LFMQ)",
          "FlightAware ADS-B(CTT / LFMQ)",
          "FlightAware ADS-B(MRS / LFML)",
          "FlightAware ADS-B(OBS / LFHO)",
          "FlightAware ADS-B(LFMA)",
          "FlightAware ADS-B(OBS / LFHO)",
          "FlightAware ADS-B(LFMA)",
          "FlightAware ADS-B(LFMA)",
          "FlightAware ADS-B(LFMA)",
          "FlightAware ADS-B(CTT / LFMQ)",
          "FlightAware ADS-B(CTT / LFMQ)",
          "FlightAware ADS-B(CTT / LFMQ)",
          "FlightAware ADS-B(CTT / LFMQ)",
          "FlightAware ADS-B(CTT / LFMQ)",
          "FlightAware ADS-B(GAT / LFNA)",
          "FlightAware ADS-B(CTT / LFMQ)",
          "FlightAware ADS-B(TLN / LFTH)",
          "FlightAware ADS-B(TLN / LFTH)",
          "FlightAware ADS-B(CTT / LFMQ)",
          "FlightAware ADS-B(CTT / LFMQ)",
          "FlightAware ADS-B(CTT / LFMQ)",
          "FlightAware ADS-B(TLS / LFBO)",
          "FlightAware ADS-B(BCN / LEBL)",
          "FlightAware ADS-B(CEQ / LFMD)",
          "FlightAware ADS-B(CTT / LFMQ)",
          "FlightAware ADS-B(BZR / LFMU)",
          "FlightAware ADS-B(LFCQ)",
          "FlightAware ADS-B(BZR / LFMU)",
          "FlightAware ADS-B(LFNE)",
          "FlightAware ADS-B(LFNG)",
          "FlightAware ADS-B(LEAP)",
          "FlightAware ADS-B(TLN / LFTH)",
          "FlightAware ADS-B(LFIT)",
          "FlightAware ADS-B(LFIT)",
          "FlightAware ADS-B(BCN / LEBL)",
          "FlightAware ADS-B(BCN / LEBL)",
          "FlightAware ADS-B(BCN / LEBL)",
          "FlightAware ADS-B(BCN / LEBL)",
          "FlightAware ADS-B(BCN / LEBL)",
          "FlightAware ADS-B(BCN / LEBL)",
          "FlightAware ADS-B(LFHU)",
          "FlightAware ADS-B(BCN / LEBL)",
          "FlightAware ADS-B(BCN / LEBL)",
          "FlightAware ADS-B(BCN / LEBL)",
          "FlightAware ADS-B(LELL)",
          "FlightAware ADS-B(LEAP)",
          "FlightAware ADS-B(LEAP)",
          "FlightAware ADS-B(BCN / LEBL)",
          "FlightAware ADS-B(GRO / LEGE)",
          "FlightAware ADS-B(GRO / LEGE)",
          "FlightAware ADS-B(LFHU)",
          "FlightAware ADS-B(BCN / LEBL)",
          "FlightAware ADS-B(GRO / LEGE)",
          "FlightAware ADS-B(VLC / LEVC)",
          "FlightAware ADS-B(FNU / LIER)",
          "FlightAware ADS-B(BCN / LEBL)",
          "FlightAware ADS-B(VLC / LEVC)",
          "FlightAware ADS-B(BCN / LEBL)",
          "FlightAware ADS-B(BCN / LEBL)",
          "FlightAware ADS-B(GRO / LEGE)",
          "FlightAware ADS-B(BCN / LEBL)",
          "FlightAware ADS-B(BCN / LEBL)",
          "FlightAware ADS-B(VLC / LEVC)",
          "FlightAware ADS-B(BCN / LEBL)",
          "FlightAware ADS-B(PMI / LEPA)",
          "FlightAware ADS-B(LFTN)",
          "FlightAware ADS-B(LEPB)",
          "FlightAware ADS-B(MAH / LEMH)",
          "FlightAware ADS-B(PMI / LEPA)",
          "FlightAware ADS-B(PMI / LEPA)",
          "FlightAware ADS-B(VLC / LEVC)",
          "FlightAware ADS-B(PMI / LEPA)",
          "FlightAware ADS-B(PMI / LEPA)",
          "FlightAware ADS-B(REU / LERS)",
          "FlightAware ADS-B(LEPB)",
          "FlightAware ADS-B(BCN / LEBL)",
          "FlightAware ADS-B(VLC / LEVC)",
          "FlightAware ADS-B(LEPB)",
          "FlightAware ADS-B(PMI / LEPA)",
          "FlightAware ADS-B(VLC / LEVC)",
          "FlightAware ADS-B(PMI / LEPA)",
          "FlightAware ADS-B(PMI / LEPA)",
          "FlightAware ADS-B(LESB)",
          "FlightAware ADS-B(LESB)",
          "FlightAware ADS-B(PMI / LEPA)",
          "FlightAware ADS-B(LEPO)",
          "FlightAware ADS-B(PMI / LEPA)",
          "FlightAware ADS-B(PMI / LEPA)",
          "FlightAware ADS-B(PMI / LEPA)",
          "FlightAware ADS-B(PMI / LEPA)",
          "FlightAware ADS-B(PMI / LEPA)",
          "FlightAware ADS-B(PMI / LEPA)",
          "FlightAware ADS-B(PMI / LEPA)",
          "FlightAware ADS-B(PMI / LEPA)",
          "FlightAware ADS-B(PMI / LEPA)",
          "FlightAware ADS-B(PMI / LEPA)",
          "FlightAware ADS-B(PMI / LEPA)",
          "FlightAware ADS-B(PMI / LEPA)",
          "FlightAware ADS-B(PMI / LEPA)",
          "FlightAware ADS-B(PMI / LEPA)",
          "FlightAware ADS-B(PMI / LEPA)",
          "FlightAware ADS-B(PMI / LEPA)",
          "FlightAware ADS-B(LESB)",
          "FlightAware ADS-B(PMI / LEPA)",
          "Surface and Near-Surface",
          "FlightAware ADS-B(PMI / LEPA)",
          "FlightAware ADS-B(PMI / LEPA)",
          "FlightAware ADS-B(LESB)",
          "FlightAware ADS-B(PMI / LEPA)",
          "FlightAware ADS-B(PMI / LEPA)",
          "FlightAware ADS-B(PMI / LEPA)"
        ]
      }
    }
  ]
}