{
  "type": "FeatureCollection",
  "features": [
    {
      "type": "Feature",
      "geometry": {
        "type": "LineString",
        "coordinates": [
          [
            16.0555,
            45.7343
          ],
          [
            16.0555,
            45.7343
          ],
          [
            16.0477,
            45.7296
          ],
          [
            16.0336,
            45.7211
          ],
          [
            16.0211,
            45.7137
          ],
          [
            16.0057,
            45.7044
          ],
          [
            15.9903,
            45.7037
          ],
          [
            15.9756,
            45.7139
          ],
          [
            15.9578,
            45.7269
          ],
          [
            15.9302,
            45.7402
          ],
          [
            15.8947,
            45.7582
          ],
          [
            15.8301,
            45.7897
          ],
          [
            15.7795,
            45.8148
          ],
          [
            15.724,
            45.8418
          ],
          [
            15.6672,
            45.8694
          ],
          [
            15.6054,
            45.8995
          ],
          [
            15.544,
            45.9292
          ],
          [
            15.4819,
            45.9593
          ],
          [
            15.4192,
            45.9896
          ],
          [
            15.3557,
            46.0202
          ],
          [
            15.291,
            46.0513
          ],
          [
            15.2402,
            46.0733
          ],
          [
            15.1923,
            46.0915
          ],
          [
            15.1496,
            46.1023
          ],
          [
            15.1029,
            46.1033
          ],
          [
            15.0564,
            46.097
          ],
          [
            15.0008,
            46.0877
          ],
          [
            14.9514,
            46.0877
          ],
          [
            14.9005,
            46.0959
          ],
          [
            14.8542,
            46.1085
          ],
          [
            14.784,
            46.1333
          ],
          [
            14.6875,
            46.1716
          ],
          [
            14.6061,
            46.2028
          ],
          [
            14.5252,
            46.2342
          ],
          [
            14.4471,
            46.2647
          ],
          [
            14.3676,
            46.2955
          ],
          [
            14.2882,
            46.3263
          ],
          [
            14.2093,
            46.3569
          ],
          [
            14.1296,
            46.3876
          ],
          [
            14.0477,
            46.4191
          ],
          [
            13.9648,
            46.4509
          ],
          [
            13.8866,
            46.4808
          ],
          [
            13.7807,
            46.5212
          ],
          [
            13.702,
            46.5512
          ],
          [
            13.6437,
            46.5732
          ],
          [
            13.5907,
            46.5964
          ],
          [
            13.4858,
            46.6473
          ],
          [
            13.414,
            46.6807
          ],
          [
            13.3397,
            46.7152
          ],
          [
            13.2648,
            46.7499
          ],
          [
            13.1883,
            46.7856
          ],
          [
            13.1157,
            46.8192
          ],
          [
            13.038,
            46.8551
          ],
          [
            12.9596,
            46.8913
          ],
          [
            12.8848,
            46.9257
          ],
          [
            12.8108,
            46.9596
          ],
          [
            12.734,
            46.9947
          ],
          [
            12.6601,
            47.0284
          ],
          [
            12.5807,
            47.0645
          ],
          [
            12.5038,
            47.0994
          ],
          [
            12.4398,
            47.1283
          ],
          [
            12.3438,
            47.1716
          ],
          [
            12.2655,
            47.2068
          ],
          [
            12.1919,
            47.2398
          ],
          [
            12.1102,
            47.2763
          ],
          [
            12.0313,
            47.3115
          ],
          [
            11.9519,
            47.3468
          ],
          [
            11.8749,
            47.3808
          ],
          [
            11.7924,
            47.4174
          ],
          [
            11.7135,
            47.4521
          ],
          [
            11.6356,
            47.4863
          ],
          [
            11.5558,
            47.5213
          ],
          [
            11.4764,
            47.5559
          ],
          [
            11.3982,
            47.59
          ],
          [
            11.3395,
            47.6155
          ],
          [
            11.2238,
            47.6656
          ],
          [
            11.1465,
            47.6989
          ],
          [
            11.0664,
            47.7335
          ],
          [
            10.9876,
            47.7671
          ],
          [
            10.9142,
            47.7986
          ],
          [
            10.8438,
            47.8288
          ],
          [
            10.7652,
            47.8621
          ],
          [
            10.686,
            47.8957
          ],
          [
            10.6059,
            47.9296
          ],
          [
            10.5268,
            47.963
          ],
          [
            10.4445,
            47.9976
          ],
          [
            10.3672,
            48.03
          ],
          [
            10.2877,
            48.0632
          ],
          [
            10.2151,
            48.0935
          ],
          [
            10.1328,
            48.1277
          ],
          [
            10.0546,
            48.1601
          ],
          [
            9.9989,
            48.1831
          ],
          [
            9.9306,
            48.2114
          ],
          [
            9.8479,
            48.2453
          ],
          [
            9.7708,
            48.2769
          ],
          [
            9.6915,
            48.3094
          ],
          [
            9.6368,
            48.3319
          ],
          [
            9.5699,
            48.3684
          ],
          [
            9.4725,
            48.4303
          ],
          [
            9.4142,
            48.4659
          ],
          [
            9.3258,
            48.5191
          ],
          [
            9.2579,
            48.5608
          ],
          [
            9.2166,
            48.5852
          ],
          [
            9.1254,
            48.6345
          ],
          [
            9.0316,
            48.6825
          ],
          [
            8.9862,
            48.7062
          ],
          [
            8.8503,
            48.777
          ],
          [
            8.775,
            48.8163
          ],
          [
            8.7049,
            48.8527
          ],
          [
            8.6293,
            48.8917
          ],
          [
            8.5622,
            48.9265
          ],
          [
            8.5049,
            48.9559
          ],
          [
            8.3035,
            49.0593
          ],
          [
            8.214,
            49.1049
          ],
          [
            8.1447,
            49.1401
          ],
          [
            8.0378,
            49.1943
          ],
          [
            7.9628,
            49.2322
          ],
          [
            7.9316,
            49.2479
          ],
          [
            7.8521,
            49.2879
          ],
          [
            7.8029,
            49.3126
          ],
          [
            7.7283,
            49.35
          ],
          [
            7.6596,
            49.3842
          ],
          [
            7.6012,
            49.4132
          ],
          [
            7.53,
            49.4482
          ],
          [
            7.4536,
            49.4858
          ],
          [
            7.3798,
            49.522
          ],
          [
            7.3053,
            49.5585
          ],
          [
            7.2301,
            49.5951
          ],
          [
            7.1586,
            49.6298
          ],
          [
            7.0809,
            49.6675
          ],
          [
            7.0072,
            49.7031
          ],
          [
            6.9344,
            49.7381
          ],
          [
            6.8601,
            49.7738
          ],
          [
            6.7782,
            49.8131
          ],
          [
            6.7072,
            49.847
          ],
          [
            6.6295,
            49.8838
          ],
          [
            6.5527,
            49.9203
          ],
          [
            6.4799,
            49.9547
          ],
          [
            6.4033,
            49.9912
          ],
          [
            6.3296,
            50.0257
          ],
          [
            6.2566,
            50.0595
          ],
          [
            6.2056,
            50.0804
          ],
          [
            6.1333,
            50.1083
          ],
          [
            6.0509,
            50.1392
          ],
          [
            5.9729,
            50.1686
          ],
          [
            5.8965,
            50.1979
          ],
          [
            5.8328,
            50.2266
          ],
          [
            5.7613,
            50.2602
          ],
          [
            5.6884,
            50.2931
          ],
          [
            5.6123,
            50.3273
          ],
          [
            5.567,
            50.3477
          ],
          [
            5.4782,
            50.3877
          ],
          [
            5.3848,
            50.4296
          ],
          [
            5.3078,
            50.464
          ],
          [
            5.2466,
            50.4913
          ],
          [
            5.1706,
            50.5253
          ],
          [
            5.1174,
            50.5489
          ],
          [
            5.0164,
            50.5935
          ],
          [
            4.94,
            50.6272
          ],
          [
            4.8594,
            50.6626
          ],
          [
            4.7828,
            50.6963
          ],
          [
            4.6771,
            50.7424
          ],
          [
            4.6195,
            50.7675
          ],
          [
            4.5114,
            50.8145
          ],
          [
            4.4351,
            50.8476
          ],
          [
            4.3596,
            50.8801
          ],
          [
            4.2905,
            50.9099
          ],
          [
            4.2134,
            50.943
          ],
          [
            4.1321,
            50.9777
          ],
          [
            4.0596,
            51.0087
          ],
          [
            3.9774,
            51.0435
          ],
          [
            3.8998,
            51.0766
          ],
          [
            3.823,
            51.1089
          ],
          [
            3.7424,
            51.143
          ],
          [
            3.6929,
            51.1637
          ],
          [
            3.574,
            51.2135
          ],
          [
            3.5235,
            51.2413
          ],
          [
            3.485,
            51.2708
          ],
          [
            3.4432,
            51.3056
          ],
          [
            3.4095,
            51.3306
          ],
          [
            3.3501,
            51.3565
          ],
          [
            3.2112,
            51.3998
          ],
          [
            3.1239,
            51.4258
          ],
          [
            3.037,
            51.4517
          ],
          [
            2.9509,
            51.4777
          ],
          [
            2.8959,
            51.494
          ],
          [
            2.7976,
            51.5157
          ],
          [
            2.681,
            51.5382
          ],
          [
            2.5682,
            51.5603
          ],
          [
            2.5199,
            51.5641
          ],
          [
            2.4779,
            51.5638
          ],
          [
            2.3905,
            51.5596
          ],
          [
            2.3024,
            51.5539
          ],
          [
            2.2134,
            51.5484
          ],
          [
            2.1307,
            51.5441
          ],
          [
            2.0482,
            51.5395
          ],
          [
            1.9649,
            51.535
          ],
          [
            1.8831,
            51.5307
          ],
          [
            1.8024,
            51.5262
          ],
          [
            1.7176,
            51.5215
          ],
          [
            1.639,
            51.5171
          ],
          [
            1.5664,
            51.513
          ],
          [
            1.5062,
            51.5096
          ],
          [
            1.4326,
            51.5043
          ],
          [
            1.3579,
            51.4987
          ],
          [
            1.2893,
            51.4921
          ],
          [
            1.2183,
            51.483
          ],
          [
            1.152,
            51.4741
          ],
          [
            1.0863,
            51.4651
          ],
          [
            1.027,
            51.4576
          ],
          [
            0.9661,
            51.4499
          ],
          [
            0.9114,
            51.443
          ],
          [
            0.8555,
            51.4362
          ],
          [
            0.8022,
            51.4298
          ],
          [
            0.746,
            51.4231
          ],
          [
            0.6887,
            51.4162
          ],
          [
            0.6548,
            51.4124
          ],
          [
            0.6203,
            51.414
          ],
          [
            0.5743,
            51.419
          ],
          [
            0.5201,
            51.4249
          ],
          [
            0.4662,
            51.4305
          ],
          [
            0.4144,
            51.436
          ],
          [
            0.3717,
            51.4407
          ],
          [
            0.3178,
            51.4467
          ],
          [
            0.2726,
            51.4519
          ],
          [
            0.2026,
            51.4597
          ],
          [
            0.1725,
            51.4633
          ],
          [
            0.1478,
            51.4623
          ],
          [
            0.1304,
            51.4561
          ],
          [
            0.1206,
            51.4465
          ],
          [
            0.1139,
            51.4381
          ],
          [
            0.0961,
            51.4143
          ],
          [
            0.0819,
            51.3955
          ],
          [
            0.0759,
            51.3877
          ],
          [
            0.0686,
            51.3781
          ],
          [
            0.061,
            51.3681
          ],
          [
            0.0549,
            51.3603
          ],
          [
            0.0497,
            51.3533
          ],
          [
            0.0433,
            51.3451
          ]
        ]
      },
      "properties": {
        "time_europe_berlin": [
          "22.10.2025 13:37:12",
          "22.10.2025 13:37:12",
          "22.10.2025 13:37:22",
          "22.10.2025 13:37:41",
          "22.10.2025 13:37:57",
          "22.10.2025 13:38:17",
          "22.10.2025 13:38:33",
          "22.10.2025 13:38:51",
          "22.10.2025 13:39:11",
          "22.10.2025 13:39:35",
          "22.10.2025 13:40:05",
          "22.10.2025 13:40:50",
          "22.10.2025 13:41:22",
          "22.10.2025 13:41:52",
          "22.10.2025 13:42:23",
          "22.10.2025 13:42:53",
          "22.10.2025 13:43:23",
          "22.10.2025 13:43:53",
          "22.10.2025 13:44:23",
          "22.10.2025 13:44:53",
          "22.10.2025 13:45:23",
          "22.10.2025 13:45:47",
          "22.10.2025 13:46:07",
          "22.10.2025 13:46:23",
          "22.10.2025 13:46:40",
          "22.10.2025 13:46:56",
          "22.10.2025 13:47:15",
          "22.10.2025 13:47:32",
          "22.10.2025 13:47:49",
          "22.10.2025 13:48:05",
          "22.10.2025 13:48:30",
          "22.10.2025 13:49:08",
          "22.10.2025 13:49:38",
          "22.10.2025 13:50:09",
          "22.10.2025 13:50:39",
          "22.10.2025 13:51:09",
          "22.10.2025 13:51:39",
          "22.10.2025 13:52:09",
          "22.10.2025 13:52:39",
          "22.10.2025 13:53:10",
          "22.10.2025 13:53:40",
          "22.10.2025 13:54:10",
          "22.10.2025 13:54:50",
          "22.10.2025 13:55:20",
          "22.10.2025 13:55:42",
          "22.10.2025 13:56:02",
          "22.10.2025 13:56:44",
          "22.10.2025 13:57:14",
          "22.10.2025 13:57:44",
          "22.10.2025 13:58:14",
          "22.10.2025 13:58:44",
          "22.10.2025 13:59:14",
          "22.10.2025 13:59:44",
          "22.10.2025 14:00:14",
          "22.10.2025 14:00:44",
          "22.10.2025 14:01:14",
          "22.10.2025 14:01:44",
          "22.10.2025 14:02:14",
          "22.10.2025 14:02:44",
          "22.10.2025 14:03:14",
          "22.10.2025 14:03:45",
          "22.10.2025 14:04:16",
          "22.10.2025 14:04:46",
          "22.10.2025 14:05:16",
          "22.10.2025 14:05:46",
          "22.10.2025 14:06:16",
          "22.10.2025 14:06:46",
          "22.10.2025 14:07:16",
          "22.10.2025 14:07:46",
          "22.10.2025 14:08:16",
          "22.10.2025 14:08:46",
          "22.10.2025 14:09:16",
          "22.10.2025 14:09:46",
          "22.10.2025 14:10:16",
          "22.10.2025 14:10:38",
          "22.10.2025 14:11:21",
          "22.10.2025 14:11:51",
          "22.10.2025 14:12:21",
          "22.10.2025 14:12:51",
          "22.10.2025 14:13:19",
          "22.10.2025 14:13:45",
          "22.10.2025 14:14:15",
          "22.10.2025 14:14:45",
          "22.10.2025 14:15:15",
          "22.10.2025 14:15:45",
          "22.10.2025 14:16:15",
          "22.10.2025 14:16:45",
          "22.10.2025 14:17:15",
          "22.10.2025 14:17:43",
          "22.10.2025 14:18:13",
          "22.10.2025 14:18:43",
          "22.10.2025 14:19:06",
          "22.10.2025 14:19:30",
          "22.10.2025 14:20:00",
          "22.10.2025 14:20:30",
          "22.10.2025 14:21:00",
          "22.10.2025 14:21:20",
          "22.10.2025 14:21:48",
          "22.10.2025 14:22:31",
          "22.10.2025 14:22:58",
          "22.10.2025 14:23:37",
          "22.10.2025 14:24:07",
          "22.10.2025 14:24:24",
          "22.10.2025 14:25:02",
          "22.10.2025 14:25:40",
          "22.10.2025 14:25:59",
          "22.10.2025 14:26:54",
          "22.10.2025 14:27:24",
          "22.10.2025 14:27:54",
          "22.10.2025 14:28:24",
          "22.10.2025 14:28:52",
          "22.10.2025 14:29:15",
          "22.10.2025 14:30:37",
          "22.10.2025 14:31:15",
          "22.10.2025 14:31:45",
          "22.10.2025 14:32:28",
          "22.10.2025 14:32:58",
          "22.10.2025 14:33:14",
          "22.10.2025 14:33:44",
          "22.10.2025 14:34:04",
          "22.10.2025 14:34:34",
          "22.10.2025 14:35:04",
          "22.10.2025 14:35:27",
          "22.10.2025 14:35:57",
          "22.10.2025 14:36:27",
          "22.10.2025 14:36:57",
          "22.10.2025 14:37:27",
          "22.10.2025 14:37:57",
          "22.10.2025 14:38:27",
          "22.10.2025 14:38:57",
          "22.10.2025 14:39:27",
          "22.10.2025 14:39:57",
          "22.10.2025 14:40:27",
          "22.10.2025 14:40:58",
          "22.10.2025 14:41:28",
          "22.10.2025 14:41:58",
          "22.10.2025 14:42:28",
          "22.10.2025 14:42:58",
          "22.10.2025 14:43:28",
          "22.10.2025 14:43:58",
          "22.10.2025 14:44:26",
          "22.10.2025 14:44:47",
          "22.10.2025 14:45:14",
          "22.10.2025 14:45:44",
          "22.10.2025 14:46:14",
          "22.10.2025 14:46:44",
          "22.10.2025 14:47:11",
          "22.10.2025 14:47:37",
          "22.10.2025 14:48:07",
          "22.10.2025 14:48:37",
          "22.10.2025 14:48:55",
          "22.10.2025 14:49:31",
          "22.10.2025 14:50:06",
          "22.10.2025 14:50:36",
          "22.10.2025 14:51:00",
          "22.10.2025 14:51:30",
          "22.10.2025 14:51:52",
          "22.10.2025 14:52:31",
          "22.10.2025 14:53:01",
          "22.10.2025 14:53:31",
          "22.10.2025 14:54:01",
          "22.10.2025 14:54:43",
          "22.10.2025 14:55:06",
          "22.10.2025 14:55:47",
          "22.10.2025 14:56:17",
          "22.10.2025 14:56:47",
          "22.10.2025 14:57:13",
          "22.10.2025 14:57:43",
          "22.10.2025 14:58:13",
          "22.10.2025 14:58:43",
          "22.10.2025 14:59:13",
          "22.10.2025 14:59:43",
          "22.10.2025 15:00:13",
          "22.10.2025 15:00:43",
          "22.10.2025 15:01:02",
          "22.10.2025 15:01:47",
          "22.10.2025 15:02:08",
          "22.10.2025 15:02:26",
          "22.10.2025 15:02:47",
          "22.10.2025 15:03:03",
          "22.10.2025 15:03:24",
          "22.10.2025 15:04:12",
          "22.10.2025 15:04:42",
          "22.10.2025 15:05:12",
          "22.10.2025 15:05:42",
          "22.10.2025 15:06:03",
          "22.10.2025 15:06:39",
          "22.10.2025 15:07:20",
          "22.10.2025 15:07:58",
          "22.10.2025 15:08:14",
          "22.10.2025 15:08:30",
          "22.10.2025 15:09:01",
          "22.10.2025 15:09:31",
          "22.10.2025 15:10:01",
          "22.10.2025 15:10:31",
          "22.10.2025 15:11:01",
          "22.10.2025 15:11:31",
          "22.10.2025 15:12:01",
          "22.10.2025 15:12:31",
          "22.10.2025 15:13:01",
          "22.10.2025 15:13:31",
          "22.10.2025 15:14:01",
          "22.10.2025 15:14:24",
          "22.10.2025 15:14:54",
          "22.10.2025 15:15:24",
          "22.10.2025 15:15:51",
          "22.10.2025 15:16:21",
          "22.10.2025 15:16:51",
          "22.10.2025 15:17:21",
          "22.10.2025 15:17:51",
          "22.10.2025 15:18:21",
          "22.10.2025 15:18:51",
          "22.10.2025 15:19:21",
          "22.10.2025 15:19:48",
          "22.10.2025 15:20:18",
          "22.10.2025 15:20:48",
          "22.10.2025 15:21:06",
          "22.10.2025 15:21:24",
          "22.10.2025 15:21:49",
          "22.10.2025 15:22:19",
          "22.10.2025 15:22:49",
          "22.10.2025 15:23:19",
          "22.10.2025 15:23:44",
          "22.10.2025 15:24:14",
          "22.10.2025 15:24:44",
          "22.10.2025 15:25:31",
          "22.10.2025 15:25:50",
          "22.10.2025 15:26:08",
          "22.10.2025 15:26:24",
          "22.10.2025 15:26:40",
          "22.10.2025 15:26:56",
          "22.10.2025 15:27:26",
          "22.10.2025 15:27:54",
          "22.10.2025 15:28:07",
          "22.10.2025 15:28:23",
          "22.10.2025 15:28:39",
          "22.10.2025 15:28:55",
          "22.10.2025 15:29:11",
          "22.10.2025 15:29:27"
        ],
        "course_deg_clockwise_from_north": [
          "229",
          "229",
          "229",
          "229",
          "230",
          "240",
          "292",
          "325",
          "311",
          "305",
          "306",
          "305",
          "305",
          "305",
          "305",
          "305",
          "305",
          "305",
          "304",
          "305",
          "304",
          "300",
          "296",
          "283",
          "266",
          "255",
          "261",
          "277",
          "288",
          "294",
          "299",
          "299",
          "299",
          "299",
          "299",
          "299",
          "299",
          "299",
          "299",
          "299",
          "299",
          "299",
          "300",
          "299",
          "301",
          "304",
          "306",
          "304",
          "304",
          "304",
          "304",
          "304",
          "304",
          "304",
          "304",
          "304",
          "304",
          "304",
          "305",
          "304",
          "304",
          "303",
          "303",
          "303",
          "303",
          "303",
          "303",
          "303",
          "303",
          "303",
          "303",
          "303",
          "303",
          "303",
          "303",
          "303",
          "303",
          "303",
          "302",
          "303",
          "302",
          "302",
          "302",
          "302",
          "302",
          "302",
          "302",
          "302",
          "302",
          "302",
          "302",
          "303",
          "302",
          "302",
          "302",
          "302",
          "303",
          "312",
          "313",
          "312",
          "312",
          "313",
          "310",
          "308",
          "308",
          "308",
          "308",
          "308",
          "308",
          "308",
          "308",
          "308",
          "308",
          "308",
          "308",
          "308",
          "308",
          "308",
          "308",
          "307",
          "307",
          "307",
          "307",
          "307",
          "307",
          "307",
          "307",
          "307",
          "307",
          "307",
          "307",
          "307",
          "307",
          "307",
          "306",
          "306",
          "306",
          "307",
          "306",
          "306",
          "304",
          "302",
          "300",
          "300",
          "301",
          "302",
          "307",
          "305",
          "305",
          "305",
          "305",
          "305",
          "305",
          "305",
          "305",
          "305",
          "305",
          "305",
          "305",
          "305",
          "305",
          "305",
          "305",
          "304",
          "304",
          "304",
          "304",
          "304",
          "304",
          "304",
          "304",
          "304",
          "304",
          "304",
          "304",
          "304",
          "319",
          "322",
          "323",
          "313",
          "298",
          "296",
          "296",
          "296",
          "296",
          "293",
          "288",
          "287",
          "286",
          "271",
          "268",
          "265",
          "264",
          "265",
          "265",
          "265",
          "265",
          "265",
          "265",
          "265",
          "265",
          "265",
          "264",
          "263",
          "263",
          "259",
          "258",
          "258",
          "258",
          "259",
          "258",
          "259",
          "259",
          "260",
          "259",
          "259",
          "263",
          "279",
          "280",
          "280",
          "280",
          "280",
          "280",
          "280",
          "281",
          "280",
          "280",
          "258",
          "227",
          "208",
          "205",
          "205",
          "206",
          "206",
          "204",
          "206",
          "206",
          "206",
          "206"
        ],
        "speed_kts": [
          "143",
          "143",
          "150",
          "155",
          "150",
          "152",
          "173",
          "185",
          "201",
          "220",
          "236",
          "276",
          "311",
          "343",
          "364",
          "377",
          "383",
          "383",
          "386",
          "386",
          "391",
          "398",
          "408",
          "419",
          "428",
          "441",
          "454",
          "463",
          "463",
          "460",
          "452",
          "454",
          "454",
          "457",
          "453",
          "451",
          "453",
          "455",
          "456",
          "455",
          "455",
          "453",
          "452",
          "451",
          "450",
          "451",
          "450",
          "448",
          "448",
          "449",
          "451",
          "452",
          "452",
          "452",
          "452",
          "452",
          "454",
          "455",
          "455",
          "456",
          "456",
          "458",
          "458",
          "459",
          "459",
          "462",
          "462",
          "463",
          "463",
          "464",
          "462",
          "461",
          "461",
          "460",
          "460",
          "460",
          "457",
          "456",
          "456",
          "457",
          "457",
          "457",
          "457",
          "455",
          "456",
          "454",
          "453",
          "452",
          "453",
          "453",
          "453",
          "451",
          "450",
          "451",
          "451",
          "451",
          "450",
          "454",
          "437",
          "435",
          "444",
          "447",
          "447",
          "447",
          "445",
          "445",
          "447",
          "446",
          "445",
          "445",
          "443",
          "442",
          "436",
          "436",
          "436",
          "436",
          "436",
          "436",
          "435",
          "434",
          "434",
          "435",
          "434",
          "435",
          "436",
          "435",
          "435",
          "436",
          "437",
          "437",
          "436",
          "436",
          "435",
          "435",
          "435",
          "435",
          "435",
          "435",
          "434",
          "433",
          "430",
          "430",
          "428",
          "428",
          "427",
          "428",
          "429",
          "427",
          "426",
          "427",
          "426",
          "428",
          "429",
          "430",
          "430",
          "429",
          "431",
          "430",
          "430",
          "430",
          "431",
          "429",
          "429",
          "428",
          "429",
          "428",
          "428",
          "427",
          "427",
          "428",
          "428",
          "429",
          "429",
          "430",
          "431",
          "439",
          "451",
          "456",
          "452",
          "444",
          "436",
          "438",
          "440",
          "441",
          "415",
          "388",
          "391",
          "419",
          "411",
          "386",
          "383",
          "391",
          "394",
          "390",
          "374",
          "374",
          "373",
          "369",
          "364",
          "359",
          "351",
          "344",
          "338",
          "337",
          "344",
          "348",
          "319",
          "298",
          "288",
          "279",
          "263",
          "261",
          "263",
          "262",
          "261",
          "259",
          "260",
          "259",
          "253",
          "245",
          "245",
          "241",
          "234",
          "225",
          "209",
          "204",
          "193",
          "180",
          "169",
          "164",
          "164",
          "168",
          "155",
          "148",
          "141",
          "130",
          "122",
          "115",
          "116"
        ],
        "speed_mph": [
          "165",
          "165",
          "173",
          "178",
          "173",
          "175",
          "199",
          "213",
          "231",
          "253",
          "272",
          "318",
          "358",
          "395",
          "419",
          "434",
          "441",
          "441",
          "444",
          "444",
          "450",
          "458",
          "470",
          "482",
          "493",
          "507",
          "522",
          "533",
          "533",
          "529",
          "520",
          "522",
          "522",
          "526",
          "521",
          "519",
          "521",
          "524",
          "525",
          "524",
          "524",
          "521",
          "520",
          "519",
          "518",
          "519",
          "518",
          "516",
          "516",
          "517",
          "519",
          "520",
          "520",
          "520",
          "520",
          "520",
          "522",
          "524",
          "524",
          "525",
          "525",
          "527",
          "527",
          "528",
          "528",
          "532",
          "532",
          "533",
          "533",
          "534",
          "532",
          "531",
          "531",
          "529",
          "529",
          "529",
          "526",
          "525",
          "525",
          "526",
          "526",
          "526",
          "526",
          "524",
          "525",
          "522",
          "521",
          "520",
          "521",
          "521",
          "521",
          "519",
          "518",
          "519",
          "519",
          "519",
          "518",
          "522",
          "503",
          "501",
          "511",
          "514",
          "514",
          "514",
          "512",
          "512",
          "514",
          "513",
          "512",
          "512",
          "510",
          "509",
          "502",
          "502",
          "502",
          "502",
          "502",
          "502",
          "501",
          "499",
          "499",
          "501",
          "499",
          "501",
          "502",
          "501",
          "501",
          "502",
          "503",
          "503",
          "502",
          "502",
          "501",
          "501",
          "501",
          "501",
          "501",
          "501",
          "499",
          "498",
          "495",
          "495",
          "493",
          "493",
          "491",
          "493",
          "494",
          "491",
          "490",
          "491",
          "490",
          "493",
          "494",
          "495",
          "495",
          "494",
          "496",
          "495",
          "495",
          "495",
          "496",
          "494",
          "494",
          "493",
          "494",
          "493",
          "493",
          "491",
          "491",
          "493",
          "493",
          "494",
          "494",
          "495",
          "496",
          "505",
          "519",
          "525",
          "520",
          "511",
          "502",
          "504",
          "506",
          "507",
          "478",
          "447",
          "450",
          "482",
          "473",
          "444",
          "441",
          "450",
          "453",
          "449",
          "430",
          "430",
          "429",
          "425",
          "419",
          "413",
          "404",
          "396",
          "389",
          "388",
          "396",
          "400",
          "367",
          "343",
          "331",
          "321",
          "303",
          "300",
          "303",
          "302",
          "300",
          "298",
          "299",
          "298",
          "291",
          "282",
          "282",
          "277",
          "269",
          "259",
          "241",
          "235",
          "222",
          "207",
          "194",
          "189",
          "189",
          "193",
          "178",
          "170",
          "162",
          "150",
          "140",
          "132",
          "133"
        ],
        "altitude_ft": [
          "1050",
          "1050",
          "1525",
          "2425",
          "3375",
          "4425",
          "4950",
          "5900",
          "6575",
          "7575",
          "9125",
          "11275",
          "12750",
          "14175",
          "15625",
          "17325",
          "19000",
          "20775",
          "22300",
          "23800",
          "25075",
          "25950",
          "26450",
          "26650",
          "26825",
          "26975",
          "27000",
          "27000",
          "27000",
          "27000",
          "27175",
          "27500",
          "27775",
          "27975",
          "28000",
          "28000",
          "28000",
          "28000",
          "28000",
          "28000",
          "28000",
          "28000",
          "28000",
          "28000",
          "28000",
          "28000",
          "28000",
          "28000",
          "28000",
          "28000",
          "28000",
          "28000",
          "28000",
          "28000",
          "28000",
          "28000",
          "28000",
          "28000",
          "28000",
          "28000",
          "28000",
          "28000",
          "28000",
          "28000",
          "28000",
          "28000",
          "28000",
          "28000",
          "27975",
          "28000",
          "28000",
          "28000",
          "27975",
          "28000",
          "28000",
          "28000",
          "28000",
          "28000",
          "28000",
          "28000",
          "28000",
          "28000",
          "28000",
          "28000",
          "28000",
          "28000",
          "28000",
          "28000",
          "28000",
          "28000",
          "28000",
          "28000",
          "28000",
          "28000",
          "28000",
          "28000",
          "28000",
          "28000",
          "28000",
          "28000",
          "28000",
          "28000",
          "28000",
          "28000",
          "28000",
          "28000",
          "28000",
          "28000",
          "28000",
          "28000",
          "28000",
          "28000",
          "28000",
          "28000",
          "28000",
          "28000",
          "28000",
          "28000",
          "28000",
          "28000",
          "28000",
          "28000",
          "28000",
          "28000",
          "28000",
          "28000",
          "28000",
          "28000",
          "28000",
          "28000",
          "28000",
          "28000",
          "28000",
          "28000",
          "28000",
          "28000",
          "28000",
          "28000",
          "28000",
          "28000",
          "28000",
          "28000",
          "28000",
          "28000",
          "28000",
          "28000",
          "28000",
          "28000",
          "28000",
          "28000",
          "28000",
          "28000",
          "27975",
          "28000",
          "27975",
          "28000",
          "27975",
          "28000",
          "28000",
          "27975",
          "28000",
          "27975",
          "28000",
          "28000",
          "28000",
          "28000",
          "27975",
          "28000",
          "28000",
          "28000",
          "28000",
          "28000",
          "28000",
          "28000",
          "27950",
          "27575",
          "27400",
          "27225",
          "27100",
          "27000",
          "27000",
          "27000",
          "27000",
          "27000",
          "26325",
          "25650",
          "24425",
          "23075",
          "21950",
          "21425",
          "20900",
          "19900",
          "18950",
          "17950",
          "16950",
          "15950",
          "14950",
          "14000",
          "13075",
          "12125",
          "11325",
          "10575",
          "10025",
          "9225",
          "9000",
          "8900",
          "8150",
          "7675",
          "7225",
          "6800",
          "6450",
          "6450",
          "6450",
          "6425",
          "6275",
          "5850",
          "5575",
          "5300",
          "4800",
          "4450",
          "4425",
          "4150",
          "3750",
          "3450",
          "3425",
          "3300",
          "3050",
          "2850",
          "2725",
          "2600",
          "2525",
          "2350",
          "2225",
          "2100",
          "1900",
          "1650",
          "1500",
          "1325",
          "1150"
        ],
        "vertical_rate_fpm": [
          "",
          "2850",
          "2845",
          "3171",
          "3333",
          "2625",
          "2603",
          "2566",
          "2284",
          "2833",
          "2960",
          "2825",
          "2806",
          "2828",
          "3098",
          "3375",
          "3450",
          "3300",
          "3025",
          "2775",
          "2389",
          "1875",
          "1167",
          "682",
          "591",
          "300",
          "42",
          "",
          "",
          "256",
          "476",
          "529",
          "467",
          "221",
          "25",
          "",
          "",
          "",
          "",
          "",
          "",
          "",
          "",
          "",
          "",
          "",
          "",
          "",
          "",
          "",
          "",
          "",
          "",
          "",
          "",
          "",
          "",
          "",
          "",
          "",
          "",
          "",
          "",
          "",
          "",
          "",
          "",
          "-25",
          "",
          "25",
          "",
          "-25",
          "",
          "29",
          "",
          "",
          "",
          "",
          "",
          "",
          "",
          "",
          "",
          "",
          "",
          "",
          "",
          "",
          "",
          "",
          "",
          "",
          "",
          "",
          "",
          "",
          "",
          "",
          "",
          "",
          "",
          "",
          "",
          "",
          "",
          "",
          "",
          "",
          "",
          "",
          "",
          "",
          "",
          "",
          "",
          "",
          "",
          "",
          "",
          "",
          "",
          "",
          "",
          "",
          "",
          "",
          "",
          "",
          "",
          "",
          "",
          "",
          "",
          "",
          "",
          "",
          "",
          "",
          "",
          "",
          "",
          "",
          "",
          "",
          "",
          "",
          "",
          "",
          "",
          "",
          "",
          "-21",
          "",
          "",
          "",
          "",
          "",
          "22",
          "-25",
          "",
          "",
          "",
          "23",
          "",
          "",
          "-27",
          "",
          "25",
          "",
          "",
          "",
          "",
          "",
          "-61",
          "-398",
          "-500",
          "-538",
          "-462",
          "-365",
          "-162",
          "",
          "",
          "",
          "-675",
          "-1588",
          "-2000",
          "-2006",
          "-1880",
          "-1833",
          "-1969",
          "-1947",
          "-1918",
          "-1950",
          "-2000",
          "-2000",
          "-2000",
          "-1950",
          "-1875",
          "-1875",
          "-1750",
          "-1550",
          "-1472",
          "-1528",
          "-1025",
          "-342",
          "-895",
          "-1225",
          "-925",
          "-875",
          "-775",
          "-350",
          "",
          "-26",
          "-184",
          "-575",
          "-875",
          "-917",
          "-1081",
          "-927",
          "-375",
          "-300",
          "-736",
          "-764",
          "-325",
          "-117",
          "-341",
          "-730",
          "-574",
          "-469",
          "-375",
          "-326",
          "-310",
          "-366",
          "-672",
          "-844",
          "-750",
          "-609",
          "-656",
          "-656"
        ],
        "reporting_facility": [
          "Surface and Near-Surface",
          "Surface and Near-Surface",
          "FlightAware ADS-B(LDDD)",
          "FlightAware ADS-B(LDZC)",
          "FlightAware ADS-B(LDZC)",
          "FlightAware ADS-B(LDDD)",
          "FlightAware ADS-B(LDDD)",
          "FlightAware ADS-B(LDZR)",
          "FlightAware ADS-B(LOGH)",
          "FlightAware ADS-B(LDZC)",
          "FlightAware ADS-B(LOGH)",
          "FlightAware ADS-B(LDZC)",
          "FlightAware ADS-B(LDDD)",
          "FlightAware ADS-B(SOB / LHSM)",
          "FlightAware ADS-B(SOB / LHSM)",
          "FlightAware ADS-B(SOB / LHSM)",
          "FlightAware ADS-B(AVB / LIPA)",
          "FlightAware ADS-B(GRZ / LOWG)",
          "FlightAware ADS-B(BLQ / LIPE)",
          "FlightAware ADS-B(GRZ / LOWG)",
          "FlightAware ADS-B(GRZ / LOWG)",
          "FlightAware ADS-B(VIE / LOWW)",
          "FlightAware ADS-B(ZAG / LDZA)",
          "FlightAware ADS-B(LDOR)",
          "FlightAware ADS-B(GRZ / LOWG)",
          "FlightAware ADS-B(LKZN)",
          "FlightAware ADS-B(BTS / LZIB)",
          "FlightAware ADS-B(GRZ / LOWG)",
          "FlightAware ADS-B(LIKO)",
          "FlightAware ADS-B(LJU / LJLJ)",
          "FlightAware ADS-B(AOI / LIPY)",
          "FlightAware ADS-B(AVB / LIPA)",
          "FlightAware ADS-B(SOB / LHSM)",
          "FlightAware ADS-B(LIPF)",
          "FlightAware ADS-B(LIPG)",
          "FlightAware ADS-B(VCE / LIPZ)",
          "FlightAware ADS-B(AVB / LIPA)",
          "FlightAware ADS-B(LOGH)",
          "FlightAware ADS-B(GRZ / LOWG)",
          "FlightAware ADS-B(LIPI)",
          "FlightAware ADS-B(LOGH)",
          "FlightAware ADS-B(LIPI)",
          "FlightAware ADS-B(GRZ / LOWG)",
          "FlightAware ADS-B(AOI / LIPY)",
          "FlightAware ADS-B(VIE / LOWW)",
          "FlightAware ADS-B(LIDH)",
          "FlightAware ADS-B(GRZ / LOWG)",
          "FlightAware ADS-B(LOGH)",
          "FlightAware ADS-B(UDN / LIPD)",
          "FlightAware ADS-B(KLU / LOWK)",
          "FlightAware ADS-B(UDN / LIPD)",
          "FlightAware ADS-B(KLU / LOWK)",
          "FlightAware ADS-B(KLU / LOWK)",
          "FlightAware ADS-B(MUC / EDDM)",
          "FlightAware ADS-B(BZO / LIPB)",
          "FlightAware ADS-B(VCE / LIPZ)",
          "FlightAware ADS-B(KLU / LOWK)",
          "FlightAware ADS-B(BZO / LIPB)",
          "FlightAware ADS-B(MUC / EDDM)",
          "FlightAware ADS-B(ETSA)",
          "FlightAware ADS-B(MUC / EDDM)",
          "FlightAware ADS-B(MUC / EDDM)",
          "FlightAware ADS-B(SZG / LOWS)",
          "FlightAware ADS-B(EDMR)",
          "FlightAware ADS-B(MUC / EDDM)",
          "FlightAware ADS-B(MUC / EDDM)",
          "FlightAware ADS-B(EDNX)",
          "FlightAware ADS-B(BZO / LIPB)",
          "FlightAware ADS-B(MUC / EDDM)",
          "FlightAware ADS-B(FDH / EDNY)",
          "FlightAware ADS-B(MUC / EDDM)",
          "FlightAware ADS-B(AGB / EDMA)",
          "FlightAware ADS-B(MUC / EDDM)",
          "FlightAware ADS-B(LOIZ)",
          "FlightAware ADS-B(INN / LOWI)",
          "FlightAware ADS-B(MUC / EDDM)",
          "FlightAware ADS-B(OBF / EDMO)",
          "FlightAware ADS-B(OBF / EDMO)",
          "FlightAware ADS-B(OBF / EDMO)",
          "FlightAware ADS-B(EDPD)",
          "FlightAware ADS-B(IGS / ETSI)",
          "FlightAware ADS-B(MUC / EDDM)",
          "FlightAware ADS-B(ETHL)",
          "FlightAware ADS-B(EDMR)",
          "FlightAware ADS-B(AGB / EDMA)",
          "FlightAware ADS-B(ETSN)",
          "FlightAware ADS-B(FMM / EDJA)",
          "FlightAware ADS-B(FMM / EDJA)",
          "FlightAware ADS-B(IGS / ETSI)",
          "FlightAware ADS-B(ETHA)",
          "FlightAware ADS-B(AGB / EDMA)",
          "FlightAware ADS-B(MUC / EDDM)",
          "FlightAware ADS-B(LSPV)",
          "FlightAware ADS-B(ETHA)",
          "FlightAware ADS-B(OBF / EDMO)",
          "FlightAware ADS-B(STR / EDDS)",
          "FlightAware ADS-B(EDRY)",
          "FlightAware ADS-B(STR / EDDS)",
          "FlightAware ADS-B(HOH / LOIH)",
          "FlightAware ADS-B(STR / EDDS)",
          "FlightAware ADS-B(STR / EDDS)",
          "FlightAware ADS-B(STR / EDDS)",
          "FlightAware ADS-B(EAP / LFSB)",
          "FlightAware ADS-B(EDPG)",
          "FlightAware ADS-B(ZRH / LSZH)",
          "FlightAware ADS-B(LOJZ)",
          "FlightAware ADS-B(EDFO)",
          "FlightAware ADS-B(STR / EDDS)",
          "FlightAware ADS-B(EDTP)",
          "FlightAware ADS-B(STR / EDDS)",
          "FlightAware ADS-B(FKB / EDSB)",
          "FlightAware ADS-B(FRA / EDDF)",
          "FlightAware ADS-B(MUC / EDDM)",
          "FlightAware ADS-B(EDSH)",
          "FlightAware ADS-B(FRA / EDDF)",
          "FlightAware ADS-B(FKB / EDSB)",
          "FlightAware ADS-B(EDRY)",
          "FlightAware ADS-B(DUS / EDDL)",
          "FlightAware ADS-B(EDEP)",
          "FlightAware ADS-B(EDRY)",
          "FlightAware ADS-B(LOIX)",
          "FlightAware ADS-B(QEF / EDFE)",
          "FlightAware ADS-B(STR / EDDS)",
          "FlightAware ADS-B(FRA / EDDF)",
          "FlightAware ADS-B(EDFC)",
          "FlightAware ADS-B(FRA / EDDF)",
          "FlightAware ADS-B(FRA / EDDF)",
          "FlightAware ADS-B(FRA / EDDF)",
          "FlightAware ADS-B(ETOU)",
          "FlightAware ADS-B(STR / EDDS)",
          "FlightAware ADS-B(EDKL)",
          "FlightAware ADS-B(FRA / EDDF)",
          "FlightAware ADS-B(FRA / EDDF)",
          "FlightAware ADS-B(LUX / ELLX)",
          "FlightAware ADS-B(GKE / ETNG)",
          "FlightAware ADS-B(FRA / EDDF)",
          "FlightAware ADS-B(EDRM)",
          "FlightAware ADS-B(EDKB)",
          "FlightAware ADS-B(GKE / ETNG)",
          "FlightAware ADS-B(LUX / ELLX)",
          "FlightAware ADS-B(MGL / EDLN)",
          "FlightAware ADS-B(GRQ / EHGG)",
          "FlightAware ADS-B(LGG / EBLG)",
          "FlightAware ADS-B(ELUS)",
          "FlightAware ADS-B(BRU / EBBR)",
          "FlightAware ADS-B(EDLF)",
          "FlightAware ADS-B(DUS / EDDL)",
          "FlightAware ADS-B(EHDP)",
          "FlightAware ADS-B(EDKB)",
          "FlightAware ADS-B(EDKB)",
          "FlightAware ADS-B(EHTE)",
          "FlightAware ADS-B(EBBE)",
          "FlightAware ADS-B(MST / EHBK)",
          "FlightAware ADS-B(EIN / EHEH)",
          "FlightAware ADS-B(EDLS)",
          "FlightAware ADS-B(MGL / EDLN)",
          "FlightAware ADS-B(EHMZ)",
          "FlightAware ADS-B(EDXE)",
          "FlightAware ADS-B(EBGB)",
          "FlightAware ADS-B(EBAM)",
          "FlightAware ADS-B(ELNT)",
          "FlightAware ADS-B(MST / EHBK)",
          "FlightAware ADS-B(GLZ / EHGR)",
          "FlightAware ADS-B(EIN / EHEH)",
          "FlightAware ADS-B(MST / EHBK)",
          "FlightAware ADS-B(LIL / LFQQ)",
          "FlightAware ADS-B(EGKH)",
          "FlightAware ADS-B(EBBY)",
          "FlightAware ADS-B(BRU / EBBR)",
          "FlightAware ADS-B(GKE / ETNG)",
          "FlightAware ADS-B(EBSG)",
          "FlightAware ADS-B(GLZ / EHGR)",
          "FlightAware ADS-B(RTM / EHRD)",
          "FlightAware ADS-B(GLZ / EHGR)",
          "FlightAware ADS-B(LUX / ELLX)",
          "FlightAware ADS-B(EHHV)",
          "FlightAware ADS-B(RTM / EHRD)",
          "FlightAware ADS-B(ESH / EGKA)",
          "FlightAware ADS-B(EHTE)",
          "FlightAware ADS-B(EBME)",
          "FlightAware ADS-B(AMS / EHAM)",
          "FlightAware ADS-B(WOE / EHWO)",
          "FlightAware ADS-B(KJK / EBKT)",
          "FlightAware ADS-B(EGSL)",
          "FlightAware ADS-B(EHMZ)",
          "FlightAware ADS-B(WOE / EHWO)",
          "FlightAware ADS-B(GLZ / EHGR)",
          "FlightAware ADS-B(OST / EBOS)",
          "FlightAware ADS-B(EGSQ)",
          "FlightAware ADS-B(OST / EBOS)",
          "FlightAware ADS-B(STN / EGSS)",
          "FlightAware ADS-B(OST / EBOS)",
          "FlightAware ADS-B(EGSL)",
          "FlightAware ADS-B(EGXT)",
          "FlightAware ADS-B(HYC / EGTB)",
          "FlightAware ADS-B(MSE / EGMH)",
          "FlightAware ADS-B(MSE / EGMH)",
          "FlightAware ADS-B(STN / EGSS)",
          "FlightAware ADS-B(RCS / EGTO)",
          "FlightAware ADS-B(MSE / EGMH)",
          "FlightAware ADS-B(MSE / EGMH)",
          "FlightAware ADS-B(EGSL)",
          "FlightAware ADS-B(MME / EGNV)",
          "FlightAware ADS-B(EGSM)",
          "FlightAware ADS-B(EGSR)",
          "FlightAware ADS-B(EGHB)",
          "FlightAware ADS-B(MSE / EGMH)",
          "FlightAware ADS-B(SEN / EGMC)",
          "FlightAware ADS-B(SEN / EGMC)",
          "FlightAware ADS-B(RCS / EGTO)",
          "FlightAware ADS-B(LCY / EGLC)",
          "FlightAware ADS-B(EGHB)",
          "FlightAware ADS-B(STN / EGSS)",
          "FlightAware ADS-B(QUY / EGUY)",
          "FlightAware ADS-B(RCS / EGTO)",
          "FlightAware ADS-B(RCS / EGTO)",
          "FlightAware ADS-B(EGMT)",
          "FlightAware ADS-B(LHR / EGLL)",
          "FlightAware ADS-B(LGW / EGKK)",
          "FlightAware ADS-B(EGTD)",
          "FlightAware ADS-B(EGKE)",
          "FlightAware ADS-B(EGMT)",
          "FlightAware ADS-B(STN / EGSS)",
          "FlightAware ADS-B(EGSR)",
          "FlightAware ADS-B(BQH / EGKB)",
          "FlightAware ADS-B(EGLW)",
          "FlightAware ADS-B(BQH / EGKB)",
          "Surface and Near-Surface",
          "FlightAware ADS-B(EGLW)",
          "FlightAware ADS-B(LCY / EGLC)",
          "FlightAware ADS-B(EGSG)",
          "FlightAware ADS-B(LCY / EGLC)",
          "Surface and Near-Surface",
          "FlightAware ADS-B(EGTF)",
          "FlightAware ADS-B(EGKR)",
          "FlightAware ADS-B(BQH / EGKB)",
          "FlightAware ADS-B(EGML)",
          "FlightAware ADS-B(LHR / EGLL)",
          "FlightAware ADS-B(LCY / EGLC)"
        ]
      }
    }
  ]
}