{
  "type": "FeatureCollection",
  "features": [
    {
      "type": "Feature",
      "geometry": {
        "type": "LineString",
        "coordinates": [
          [
            9.394498,
            51.419083
          ],
          [
            9.387531,
            51.41946
          ],
          [
            9.38839139408867,
            51.419523472906405
          ],
          [
            9.389251788177338,
            51.41958694581281
          ],
          [
            9.390112182266009,
            51.419650418719215
          ],
          [
            9.39097257635468,
            51.41971389162562
          ],
          [
            9.39183297044335,
            51.41977736453202
          ],
          [
            9.392693364532018,
            51.41984083743842
          ],
          [
            9.393553758620689,
            51.419904310344826
          ],
          [
            9.39441415270936,
            51.41996778325123
          ],
          [
            9.39527454679803,
            51.420031256157635
          ],
          [
            9.396134940886698,
            51.42009472906404
          ],
          [
            9.396995334975369,
            51.420158201970445
          ],
          [
            9.39785572906404,
            51.42022167487685
          ],
          [
            9.39871612315271,
            51.420285147783254
          ],
          [
            9.399175,
            51.420319
          ],
          [
            9.409122,
            51.419678
          ],
          [
            9.419144,
            51.419037
          ],
          [
            9.429461,
            51.41835
          ],
          [
            9.432373,
            51.418388
          ],
          [
            9.435697,
            51.418671
          ],
          [
            9.438815,
            51.419128
          ],
          [
            9.441339,
            51.419724
          ],
          [
            9.443714,
            51.420547
          ],
          [
            9.446386,
            51.421738
          ],
          [
            9.448465,
            51.422882
          ],
          [
            9.450247,
            51.424164
          ],
          [
            9.452103,
            51.425949
          ],
          [
            9.453201,
            51.427326
          ],
          [
            9.454255,
            51.429153
          ],
          [
            9.455071,
            51.431259
          ],
          [
            9.455414,
            51.433193
          ],
          [
            9.455566,
            51.435009
          ],
          [
            9.455566,
            51.436451
          ],
          [
            9.455442,
            51.438812
          ],
          [
            9.455295,
            51.440598
          ],
          [
            9.455109,
            51.442226
          ],
          [
            9.454575,
            51.444412
          ],
          [
            9.453964,
            51.446136
          ],
          [
            9.452696,
            51.44838
          ],
          [
            9.451509,
            51.449982
          ],
          [
            9.449875,
            51.451859
          ],
          [
            9.448242,
            51.453323
          ],
          [
            9.446461,
            51.454697
          ],
          [
            9.444456,
            51.455933
          ],
          [
            9.442062,
            51.457169
          ],
          [
            9.439928,
            51.458084
          ],
          [
            9.436646,
            51.459171
          ],
          [
            9.434052,
            51.459774
          ],
          [
            9.431305,
            51.460194
          ],
          [
            9.428635,
            51.460426
          ],
          [
            9.425888,
            51.460472
          ],
          [
            9.423003,
            51.46051
          ],
          [
            9.420624,
            51.460472
          ],
          [
            9.417213,
            51.46051
          ],
          [
            9.414689,
            51.460556
          ],
          [
            9.412091,
            51.460648
          ],
          [
            9.409493,
            51.460739
          ],
          [
            9.406375,
            51.460831
          ],
          [
            9.403257,
            51.460922
          ],
          [
            9.400734,
            51.461014
          ],
          [
            9.397888,
            51.461079
          ],
          [
            9.394647,
            51.461197
          ],
          [
            9.389877,
            51.461311
          ],
          [
            9.381063,
            51.461609
          ],
          [
            9.370522,
            51.461792
          ],
          [
            9.361688,
            51.461884
          ],
          [
            9.353522,
            51.462158
          ],
          [
            9.343491,
            51.462616
          ],
          [
            9.335556,
            51.463081
          ],
          [
            9.32991,
            51.463406
          ],
          [
            9.320679,
            51.463917
          ],
          [
            9.316101,
            51.463917
          ],
          [
            9.312769,
            51.463577
          ],
          [
            9.31076,
            51.463219
          ],
          [
            9.308463,
            51.462662
          ],
          [
            9.306183,
            51.461964
          ],
          [
            9.303787,
            51.460922
          ],
          [
            9.302292,
            51.460102
          ],
          [
            9.300461,
            51.458889
          ],
          [
            9.299481,
            51.458084
          ],
          [
            9.297791,
            51.456238
          ],
          [
            9.296735,
            51.454559
          ],
          [
            9.296066,
            51.452957
          ],
          [
            9.295807,
            51.451721
          ],
          [
            9.295621,
            51.450256
          ],
          [
            9.295654,
            51.448788
          ],
          [
            9.295959,
            51.447205
          ],
          [
            9.296417,
            51.44595
          ],
          [
            9.297104,
            51.444458
          ],
          [
            9.297867,
            51.443295
          ],
          [
            9.298962,
            51.441788
          ],
          [
            9.300001,
            51.440689
          ],
          [
            9.301376,
            51.439293
          ],
          [
            9.302599,
            51.438126
          ],
          [
            9.303589,
            51.437199
          ],
          [
            9.305267,
            51.435753
          ],
          [
            9.306259,
            51.434917
          ],
          [
            9.308092,
            51.433456
          ],
          [
            9.30928,
            51.432495
          ],
          [
            9.310764,
            51.431351
          ],
          [
            9.311676,
            51.430679
          ],
          [
            9.313126,
            51.429607
          ],
          [
            9.31455,
            51.42865
          ],
          [
            9.31611,
            51.427643
          ],
          [
            9.31752,
            51.42691
          ],
          [
            9.319078,
            51.42627
          ],
          [
            9.321009,
            51.425629
          ],
          [
            9.322891,
            51.42514
          ],
          [
            9.324722,
            51.424812
          ],
          [
            9.326172,
            51.42458
          ],
          [
            9.329025,
            51.424255
          ],
          [
            9.330368,
            51.424114
          ],
          [
            9.333725,
            51.423836
          ],
          [
            9.335855,
            51.423706
          ],
          [
            9.338303,
            51.423603
          ],
          [
            9.340897,
            51.423512
          ],
          [
            9.344392,
            51.42334
          ],
          [
            9.346248,
            51.423248
          ],
          [
            9.350739,
            51.423046
          ],
          [
            9.352493,
            51.422951
          ],
          [
            9.3605,
            51.422516
          ],
          [
            9.395278,
            51.420639
          ]
        ]
      },
      "properties": {
        "time_europe_berlin": [
          "01.10.2025 10:21:41",
          "01.10.2025 10:22:43",
          "01.10.2025 10:23:13",
          "01.10.2025 10:23:43",
          "01.10.2025 10:24:13",
          "01.10.2025 10:24:43",
          "01.10.2025 10:25:13",
          "01.10.2025 10:25:43",
          "01.10.2025 10:26:13",
          "01.10.2025 10:26:43",
          "01.10.2025 10:27:13",
          "01.10.2025 10:27:43",
          "01.10.2025 10:28:13",
          "01.10.2025 10:28:43",
          "01.10.2025 10:29:13",
          "01.10.2025 10:29:29",
          "01.10.2025 10:29:38",
          "01.10.2025 10:29:46",
          "01.10.2025 10:29:55",
          "01.10.2025 10:29:57",
          "01.10.2025 10:29:59",
          "01.10.2025 10:30:01",
          "01.10.2025 10:30:03",
          "01.10.2025 10:30:06",
          "01.10.2025 10:30:08",
          "01.10.2025 10:30:10",
          "01.10.2025 10:30:12",
          "01.10.2025 10:30:14",
          "01.10.2025 10:30:16",
          "01.10.2025 10:30:19",
          "01.10.2025 10:30:21",
          "01.10.2025 10:30:23",
          "01.10.2025 10:30:25",
          "01.10.2025 10:30:27",
          "01.10.2025 10:30:29",
          "01.10.2025 10:30:31",
          "01.10.2025 10:30:33",
          "01.10.2025 10:30:35",
          "01.10.2025 10:30:37",
          "01.10.2025 10:30:40",
          "01.10.2025 10:30:42",
          "01.10.2025 10:30:44",
          "01.10.2025 10:30:46",
          "01.10.2025 10:30:48",
          "01.10.2025 10:30:51",
          "01.10.2025 10:30:53",
          "01.10.2025 10:30:55",
          "01.10.2025 10:30:57",
          "01.10.2025 10:30:59",
          "01.10.2025 10:31:01",
          "01.10.2025 10:31:03",
          "01.10.2025 10:31:05",
          "01.10.2025 10:31:07",
          "01.10.2025 10:31:09",
          "01.10.2025 10:31:11",
          "01.10.2025 10:31:13",
          "01.10.2025 10:31:15",
          "01.10.2025 10:31:18",
          "01.10.2025 10:31:20",
          "01.10.2025 10:31:22",
          "01.10.2025 10:31:24",
          "01.10.2025 10:31:27",
          "01.10.2025 10:31:29",
          "01.10.2025 10:31:33",
          "01.10.2025 10:31:40",
          "01.10.2025 10:31:49",
          "01.10.2025 10:31:55",
          "01.10.2025 10:32:02",
          "01.10.2025 10:32:11",
          "01.10.2025 10:32:18",
          "01.10.2025 10:32:22",
          "01.10.2025 10:32:31",
          "01.10.2025 10:32:35",
          "01.10.2025 10:32:37",
          "01.10.2025 10:32:39",
          "01.10.2025 10:32:42",
          "01.10.2025 10:32:44",
          "01.10.2025 10:32:46",
          "01.10.2025 10:32:48",
          "01.10.2025 10:32:50",
          "01.10.2025 10:32:52",
          "01.10.2025 10:32:55",
          "01.10.2025 10:32:57",
          "01.10.2025 10:33:00",
          "01.10.2025 10:33:02",
          "01.10.2025 10:33:04",
          "01.10.2025 10:33:06",
          "01.10.2025 10:33:09",
          "01.10.2025 10:33:11",
          "01.10.2025 10:33:13",
          "01.10.2025 10:33:15",
          "01.10.2025 10:33:18",
          "01.10.2025 10:33:20",
          "01.10.2025 10:33:22",
          "01.10.2025 10:33:24",
          "01.10.2025 10:33:27",
          "01.10.2025 10:33:29",
          "01.10.2025 10:33:31",
          "01.10.2025 10:33:33",
          "01.10.2025 10:33:36",
          "01.10.2025 10:33:38",
          "01.10.2025 10:33:40",
          "01.10.2025 10:33:42",
          "01.10.2025 10:33:44",
          "01.10.2025 10:33:46",
          "01.10.2025 10:33:48",
          "01.10.2025 10:33:50",
          "01.10.2025 10:33:53",
          "01.10.2025 10:33:55",
          "01.10.2025 10:33:57",
          "01.10.2025 10:33:59",
          "01.10.2025 10:34:01",
          "01.10.2025 10:34:03",
          "01.10.2025 10:34:06",
          "01.10.2025 10:34:09",
          "01.10.2025 10:34:11",
          "01.10.2025 10:34:15",
          "01.10.2025 10:34:18",
          "01.10.2025 10:34:21",
          "01.10.2025 10:34:25",
          "01.10.2025 10:34:28",
          "01.10.2025 10:34:36",
          "01.10.2025 10:35:27"
        ],
        "course_deg_clockwise_from_north": [
          275,
          275,
          262,
          248,
          235,
          222,
          208,
          195,
          182,
          169,
          155,
          142,
          129,
          115,
          102,
          95,
          95,
          96,
          93,
          88,
          82,
          79,
          67,
          61,
          54,
          48,
          41,
          31,
          24,
          17,
          11,
          6,
          2,
          359,
          357,
          357,
          354,
          350,
          345,
          340,
          333,
          328,
          323,
          319,
          313,
          308,
          303,
          296,
          290,
          283,
          277,
          273,
          270,
          270,
          270,
          271,
          272,
          272,
          272,
          272,
          272,
          272,
          273,
          272,
          272,
          271,
          271,
          273,
          274,
          275,
          275,
          274,
          264,
          259,
          252,
          247,
          241,
          236,
          227,
          221,
          214,
          209,
          202,
          193,
          186,
          181,
          176,
          171,
          169,
          162,
          157,
          153,
          150,
          147,
          145,
          144,
          143,
          142,
          142,
          141,
          140,
          139,
          138,
          136,
          134,
          129,
          123,
          116,
          111,
          105,
          103,
          100,
          98,
          97,
          95,
          94,
          93,
          94,
          94,
          94,
          95,
          94,
          95
        ],
        "speed_kts": [
          0,
          0,
          11,
          22,
          33,
          44,
          55,
          67,
          78,
          89,
          100,
          111,
          122,
          133,
          144,
          150,
          154,
          169,
          176,
          177,
          177,
          177,
          181,
          183,
          184,
          186,
          187,
          189,
          190,
          191,
          193,
          194,
          195,
          195,
          196,
          196,
          196,
          195,
          196,
          194,
          192,
          191,
          191,
          192,
          191,
          192,
          192,
          191,
          190,
          188,
          184,
          182,
          179,
          177,
          176,
          175,
          175,
          175,
          174,
          174,
          174,
          173,
          170,
          168,
          171,
          168,
          164,
          160,
          157,
          158,
          158,
          155,
          154,
          154,
          153,
          153,
          153,
          152,
          152,
          151,
          152,
          152,
          152,
          149,
          146,
          146,
          144,
          142,
          141,
          138,
          137,
          136,
          136,
          137,
          137,
          137,
          136,
          135,
          134,
          133,
          131,
          129,
          127,
          127,
          126,
          125,
          124,
          123,
          125,
          128,
          130,
          130,
          130,
          128,
          128,
          127,
          126,
          124,
          124,
          122,
          121,
          118,
          46
        ],
        "speed_mph": [
          0.0,
          0.0,
          13.0,
          25.0,
          38.0,
          51.0,
          63.0,
          77.0,
          90.0,
          102.0,
          115.0,
          128.0,
          140.0,
          153.0,
          166.0,
          173.0,
          177.0,
          194.0,
          203.0,
          204.0,
          204.0,
          204.0,
          208.0,
          211.0,
          212.0,
          214.0,
          215.0,
          217.0,
          219.0,
          220.0,
          222.0,
          223.0,
          224.0,
          224.0,
          226.0,
          226.0,
          226.0,
          224.0,
          226.0,
          223.0,
          221.0,
          220.0,
          220.0,
          221.0,
          220.0,
          221.0,
          221.0,
          220.0,
          219.0,
          216.0,
          212.0,
          209.0,
          206.0,
          204.0,
          203.0,
          201.0,
          201.0,
          201.0,
          200.0,
          200.0,
          200.0,
          199.0,
          196.0,
          193.0,
          197.0,
          193.0,
          189.0,
          184.0,
          181.0,
          182.0,
          182.0,
          178.0,
          177.0,
          177.0,
          176.0,
          176.0,
          176.0,
          175.0,
          175.0,
          174.0,
          175.0,
          175.0,
          175.0,
          171.0,
          168.0,
          168.0,
          166.0,
          163.0,
          162.0,
          159.0,
          158.0,
          157.0,
          157.0,
          158.0,
          158.0,
          158.0,
          157.0,
          155.0,
          154.0,
          153.0,
          151.0,
          148.0,
          146.0,
          146.0,
          145.0,
          144.0,
          143.0,
          142.0,
          144.0,
          147.0,
          150.0,
          150.0,
          150.0,
          147.0,
          147.0,
          146.0,
          145.0,
          143.0,
          143.0,
          140.0,
          139.0,
          136.0,
          53.0
        ],
        "altitude_ft": [
          0,
          0,
          55,
          111,
          166,
          222,
          277,
          333,
          388,
          443,
          499,
          554,
          610,
          665,
          720,
          750,
          1175,
          1325,
          1450,
          1500,
          1525,
          1550,
          1575,
          1575,
          1550,
          1550,
          1550,
          1550,
          1550,
          1525,
          1500,
          1475,
          1475,
          1475,
          1450,
          1450,
          1450,
          1450,
          1450,
          1450,
          1450,
          1450,
          1450,
          1450,
          1425,
          1375,
          1350,
          1325,
          1300,
          1300,
          1300,
          1300,
          1325,
          1325,
          1325,
          1325,
          1325,
          1350,
          1350,
          1375,
          1375,
          1375,
          1400,
          1450,
          1425,
          1425,
          1375,
          1350,
          1350,
          1350,
          1350,
          1400,
          1425,
          1400,
          1400,
          1375,
          1375,
          1350,
          1325,
          1300,
          1300,
          1250,
          1225,
          1225,
          1225,
          1225,
          1200,
          1200,
          1225,
          1225,
          1225,
          1225,
          1225,
          1225,
          1225,
          1200,
          1200,
          1200,
          1200,
          1200,
          1200,
          1225,
          1225,
          1250,
          1250,
          1250,
          1250,
          1225,
          1175,
          1150,
          1125,
          1075,
          1025,
          975,
          925,
          875,
          850,
          800,
          775,
          725,
          675,
          575,
          0
        ],
        "vertical_rate_fpm": [
          0.0,
          0.0,
          0.0,
          0.0,
          0.0,
          0.0,
          0.0,
          0.0,
          0.0,
          0.0,
          0.0,
          0.0,
          0.0,
          0.0,
          0.0,
          0.0,
          0.0,
          0.0,
          0.0,
          0.0,
          0.0,
          0.0,
          0.0,
          0.0,
          0.0,
          0.0,
          0.0,
          0.0,
          0.0,
          0.0,
          0.0,
          0.0,
          0.0,
          0.0,
          0.0,
          0.0,
          0.0,
          0.0,
          0.0,
          0.0,
          0.0,
          0.0,
          0.0,
          0.0,
          0.0,
          0.0,
          0.0,
          0.0,
          0.0,
          0.0,
          0.0,
          0.0,
          0.0,
          0.0,
          0.0,
          0.0,
          0.0,
          0.0,
          0.0,
          0.0,
          0.0,
          0.0,
          0.0,
          0.0,
          0.0,
          0.0,
          0.0,
          0.0,
          0.0,
          0.0,
          0.0,
          0.0,
          0.0,
          0.0,
          0.0,
          0.0,
          0.0,
          0.0,
          0.0,
          0.0,
          0.0,
          0.0,
          0.0,
          0.0,
          0.0,
          0.0,
          0.0,
          0.0,
          0.0,
          0.0,
          0.0,
          0.0,
          0.0,
          0.0,
          0.0,
          0.0,
          0.0,
          0.0,
          0.0,
          0.0,
          0.0,
          0.0,
          0.0,
          0.0,
          0.0,
          0.0,
          0.0,
          0.0,
          0.0,
          0.0,
          0.0,
          0.0,
          0.0,
          0.0,
          0.0,
          0.0,
          0.0,
          0.0,
          0.0,
          0.0,
          0.0,
          0.0,
          0.0
        ]
      }
    }
  ]
}