{
  "type": "FeatureCollection",
  "features": [
    {
      "type": "Feature",
      "geometry": {
        "type": "LineString",
        "coordinates": [
          [
            2.7559,
            39.5526
          ],
          [
            2.7687,
            39.5585
          ],
          [
            2.7861,
            39.5665
          ],
          [
            2.8026,
            39.5743
          ],
          [
            2.821,
            39.583
          ],
          [
            2.8382,
            39.5914
          ],
          [
            2.8696,
            39.6062
          ],
          [
            2.8885,
            39.6154
          ],
          [
            2.9085,
            39.6253
          ],
          [
            2.9249,
            39.6386
          ],
          [
            2.9289,
            39.6636
          ],
          [
            2.9116,
            39.6852
          ],
          [
            2.8709,
            39.6944
          ],
          [
            2.7983,
            39.6899
          ],
          [
            2.734,
            39.6855
          ],
          [
            2.6852,
            39.6969
          ],
          [
            2.6588,
            39.7079
          ],
          [
            2.5993,
            39.7336
          ],
          [
            2.5333,
            39.7575
          ],
          [
            2.4722,
            39.7786
          ],
          [
            2.4049,
            39.8017
          ],
          [
            2.3389,
            39.824
          ],
          [
            2.2716,
            39.8458
          ],
          [
            2.2065,
            39.8665
          ],
          [
            2.1434,
            39.8872
          ],
          [
            2.0685,
            39.911
          ],
          [
            2.0004,
            39.9327
          ],
          [
            1.9615,
            39.9454
          ],
          [
            1.9247,
            39.9663
          ],
          [
            1.8903,
            40.0101
          ],
          [
            1.8568,
            40.0592
          ],
          [
            1.8224,
            40.1105
          ],
          [
            1.7912,
            40.1569
          ],
          [
            1.7582,
            40.2074
          ],
          [
            1.7267,
            40.2561
          ],
          [
            1.6908,
            40.3093
          ],
          [
            1.6694,
            40.3411
          ],
          [
            1.6557,
            40.3713
          ],
          [
            1.6417,
            40.428
          ],
          [
            1.6271,
            40.4862
          ],
          [
            1.6118,
            40.5424
          ],
          [
            1.5955,
            40.6035
          ],
          [
            1.5806,
            40.6594
          ],
          [
            1.5654,
            40.717
          ],
          [
            1.5498,
            40.7753
          ],
          [
            1.5345,
            40.8323
          ],
          [
            1.5194,
            40.8888
          ],
          [
            1.5039,
            40.9469
          ],
          [
            1.4938,
            40.9835
          ],
          [
            1.4728,
            41.0394
          ],
          [
            1.4594,
            41.0717
          ],
          [
            1.4506,
            41.1031
          ],
          [
            1.4347,
            41.1623
          ],
          [
            1.42,
            41.217
          ],
          [
            1.4045,
            41.276
          ],
          [
            1.3892,
            41.3338
          ],
          [
            1.3735,
            41.3926
          ],
          [
            1.3579,
            41.4506
          ],
          [
            1.3403,
            41.5177
          ],
          [
            1.3233,
            41.5812
          ],
          [
            1.3074,
            41.6406
          ],
          [
            1.2912,
            41.701
          ],
          [
            1.2749,
            41.7616
          ],
          [
            1.2578,
            41.8246
          ],
          [
            1.241,
            41.8866
          ],
          [
            1.2234,
            41.9518
          ],
          [
            1.2067,
            42.0121
          ],
          [
            1.1859,
            42.0794
          ],
          [
            1.1681,
            42.138
          ],
          [
            1.1495,
            42.2012
          ],
          [
            1.1306,
            42.2611
          ],
          [
            1.1131,
            42.3197
          ],
          [
            1.0944,
            42.3815
          ],
          [
            1.0735,
            42.4494
          ],
          [
            1.0554,
            42.509
          ],
          [
            1.0365,
            42.57
          ],
          [
            1.0184,
            42.6291
          ],
          [
            0.9992,
            42.6914
          ],
          [
            0.9797,
            42.7546
          ],
          [
            0.961,
            42.8149
          ],
          [
            0.9417,
            42.8768
          ],
          [
            0.9236,
            42.9367
          ],
          [
            0.9046,
            42.997
          ],
          [
            0.8852,
            43.0581
          ],
          [
            0.8661,
            43.1207
          ],
          [
            0.8472,
            43.1801
          ],
          [
            0.8279,
            43.2417
          ],
          [
            0.8085,
            43.3034
          ],
          [
            0.7899,
            43.3631
          ],
          [
            0.7704,
            43.4244
          ],
          [
            0.7507,
            43.4857
          ],
          [
            0.7318,
            43.5466
          ],
          [
            0.7123,
            43.6073
          ],
          [
            0.6925,
            43.67
          ],
          [
            0.6727,
            43.732
          ],
          [
            0.6534,
            43.7918
          ],
          [
            0.634,
            43.8533
          ],
          [
            0.615,
            43.9126
          ],
          [
            0.5944,
            43.9757
          ],
          [
            0.575,
            44.0357
          ],
          [
            0.5553,
            44.0974
          ],
          [
            0.5354,
            44.158
          ],
          [
            0.5162,
            44.2174
          ],
          [
            0.4971,
            44.2764
          ],
          [
            0.4778,
            44.3357
          ],
          [
            0.4579,
            44.3965
          ],
          [
            0.4383,
            44.4566
          ],
          [
            0.4181,
            44.5182
          ],
          [
            0.3993,
            44.5754
          ],
          [
            0.3796,
            44.6353
          ],
          [
            0.3601,
            44.6934
          ],
          [
            0.3406,
            44.7537
          ],
          [
            0.3211,
            44.8118
          ],
          [
            0.3016,
            44.8707
          ],
          [
            0.282,
            44.9295
          ],
          [
            0.2631,
            44.9859
          ],
          [
            0.2418,
            45.0504
          ],
          [
            0.2221,
            45.1092
          ],
          [
            0.2027,
            45.1669
          ],
          [
            0.182,
            45.2275
          ],
          [
            0.1628,
            45.2857
          ],
          [
            0.1428,
            45.3447
          ],
          [
            0.1221,
            45.4049
          ],
          [
            0.1017,
            45.4661
          ],
          [
            0.0814,
            45.5264
          ],
          [
            0.0608,
            45.5846
          ],
          [
            0.0411,
            45.6443
          ],
          [
            0.0203,
            45.7043
          ],
          [
            -0.0003,
            45.7645
          ],
          [
            -0.0198,
            45.8214
          ],
          [
            -0.0414,
            45.883
          ],
          [
            -0.0612,
            45.9425
          ],
          [
            -0.0831,
            46.004
          ],
          [
            -0.1046,
            46.0664
          ],
          [
            -0.1264,
            46.1292
          ],
          [
            -0.147,
            46.1883
          ],
          [
            -0.1679,
            46.2482
          ],
          [
            -0.1888,
            46.3084
          ],
          [
            -0.2098,
            46.3676
          ],
          [
            -0.2316,
            46.43
          ],
          [
            -0.2527,
            46.4896
          ],
          [
            -0.2737,
            46.5494
          ],
          [
            -0.2949,
            46.6089
          ],
          [
            -0.3165,
            46.6701
          ],
          [
            -0.339,
            46.7329
          ],
          [
            -0.3601,
            46.793
          ],
          [
            -0.3821,
            46.8537
          ],
          [
            -0.4037,
            46.9145
          ],
          [
            -0.4249,
            46.9735
          ],
          [
            -0.4469,
            47.0343
          ],
          [
            -0.4684,
            47.0941
          ],
          [
            -0.4895,
            47.1527
          ],
          [
            -0.5107,
            47.2112
          ],
          [
            -0.5345,
            47.277
          ],
          [
            -0.5562,
            47.3366
          ],
          [
            -0.5782,
            47.3961
          ],
          [
            -0.6008,
            47.4581
          ],
          [
            -0.6229,
            47.5178
          ],
          [
            -0.6453,
            47.5795
          ],
          [
            -0.6673,
            47.6399
          ],
          [
            -0.6903,
            47.6998
          ],
          [
            -0.7117,
            47.76
          ],
          [
            -0.7333,
            47.8182
          ],
          [
            -0.7566,
            47.8796
          ],
          [
            -0.78,
            47.9429
          ],
          [
            -0.8022,
            48.0025
          ],
          [
            -0.8244,
            48.0617
          ],
          [
            -0.8474,
            48.1227
          ],
          [
            -0.8712,
            48.1861
          ],
          [
            -0.8924,
            48.2424
          ],
          [
            -0.9147,
            48.3013
          ],
          [
            -0.9277,
            48.3353
          ],
          [
            -0.9495,
            48.3928
          ],
          [
            -0.9769,
            48.4646
          ],
          [
            -0.9995,
            48.5249
          ],
          [
            -1.0214,
            48.5813
          ],
          [
            -1.0441,
            48.6404
          ],
          [
            -1.0657,
            48.6973
          ],
          [
            -1.0881,
            48.7544
          ],
          [
            -1.1099,
            48.8117
          ],
          [
            -1.1319,
            48.8678
          ],
          [
            -1.1541,
            48.9257
          ],
          [
            -1.1759,
            48.9804
          ],
          [
            -1.1983,
            49.0393
          ],
          [
            -1.2201,
            49.094
          ],
          [
            -1.2415,
            49.15
          ],
          [
            -1.2635,
            49.2052
          ],
          [
            -1.2856,
            49.2619
          ],
          [
            -1.3197,
            49.3471
          ],
          [
            -1.336,
            49.3891
          ],
          [
            -1.3424,
            49.4231
          ],
          [
            -1.3397,
            49.4556
          ],
          [
            -1.3278,
            49.5039
          ],
          [
            -1.308,
            49.567
          ],
          [
            -1.2952,
            49.6113
          ],
          [
            -1.2855,
            49.6457
          ],
          [
            -1.2757,
            49.6799
          ],
          [
            -1.2659,
            49.714
          ],
          [
            -1.2487,
            49.7719
          ],
          [
            -1.2393,
            49.805
          ],
          [
            -1.2225,
            49.8625
          ],
          [
            -1.2086,
            49.9105
          ],
          [
            -1.1976,
            49.9484
          ],
          [
            -1.1721,
            50.0354
          ],
          [
            -1.1557,
            50.0922
          ],
          [
            -1.1384,
            50.1499
          ],
          [
            -1.1223,
            50.2054
          ],
          [
            -1.1049,
            50.263
          ],
          [
            -1.0932,
            50.3022
          ],
          [
            -1.0761,
            50.3619
          ],
          [
            -1.0586,
            50.4196
          ],
          [
            -1.0302,
            50.5147
          ],
          [
            -1.0141,
            50.5691
          ],
          [
            -0.9962,
            50.6278
          ],
          [
            -0.9794,
            50.685
          ],
          [
            -0.9648,
            50.7328
          ],
          [
            -0.9425,
            50.8063
          ],
          [
            -0.9244,
            50.8488
          ],
          [
            -0.8792,
            50.9337
          ],
          [
            -0.8513,
            50.9878
          ],
          [
            -0.8233,
            51.0426
          ],
          [
            -0.7933,
            51.0996
          ],
          [
            -0.7644,
            51.1556
          ],
          [
            -0.7345,
            51.2126
          ],
          [
            -0.7061,
            51.2666
          ],
          [
            -0.6755,
            51.3254
          ],
          [
            -0.6471,
            51.3784
          ],
          [
            -0.5884,
            51.4897
          ],
          [
            -0.5606,
            51.542
          ],
          [
            -0.5299,
            51.5997
          ],
          [
            -0.5005,
            51.6546
          ],
          [
            -0.4704,
            51.7107
          ],
          [
            -0.4415,
            51.7647
          ],
          [
            -0.4249,
            51.7964
          ],
          [
            -0.4098,
            51.8342
          ],
          [
            -0.3955,
            51.881
          ],
          [
            -0.381,
            51.935
          ],
          [
            -0.379,
            51.9669
          ],
          [
            -0.3942,
            52.0169
          ],
          [
            -0.4374,
            52.0913
          ],
          [
            -0.4717,
            52.1447
          ],
          [
            -0.5044,
            52.197
          ],
          [
            -0.5384,
            52.2525
          ],
          [
            -0.5713,
            52.3048
          ],
          [
            -0.5999,
            52.3471
          ],
          [
            -0.6487,
            52.4189
          ],
          [
            -0.6868,
            52.4758
          ],
          [
            -0.7228,
            52.5279
          ],
          [
            -0.7577,
            52.5799
          ],
          [
            -0.7957,
            52.6349
          ],
          [
            -0.831,
            52.6871
          ],
          [
            -0.8828,
            52.7618
          ],
          [
            -0.9193,
            52.8147
          ],
          [
            -0.9562,
            52.8681
          ],
          [
            -0.992,
            52.9193
          ],
          [
            -1.029,
            52.973
          ],
          [
            -1.0537,
            53.0083
          ],
          [
            -1.0772,
            53.0414
          ],
          [
            -1.1099,
            53.0835
          ],
          [
            -1.1508,
            53.1349
          ],
          [
            -1.173,
            53.1639
          ],
          [
            -1.2134,
            53.2152
          ],
          [
            -1.2502,
            53.2615
          ],
          [
            -1.2785,
            53.298
          ],
          [
            -1.3201,
            53.3511
          ],
          [
            -1.3597,
            53.4004
          ],
          [
            -1.383,
            53.4285
          ],
          [
            -1.439,
            53.4924
          ],
          [
            -1.4807,
            53.5421
          ],
          [
            -1.5165,
            53.5843
          ],
          [
            -1.561,
            53.6364
          ],
          [
            -1.5999,
            53.6837
          ],
          [
            -1.6444,
            53.7384
          ],
          [
            -1.6855,
            53.7883
          ],
          [
            -1.7296,
            53.8409
          ],
          [
            -1.7738,
            53.8924
          ],
          [
            -1.8174,
            53.9436
          ],
          [
            -1.8634,
            53.9996
          ],
          [
            -1.8944,
            54.0389
          ],
          [
            -1.9351,
            54.0923
          ],
          [
            -1.9574,
            54.1262
          ],
          [
            -1.9618,
            54.1584
          ],
          [
            -1.9472,
            54.1954
          ],
          [
            -1.9215,
            54.2328
          ],
          [
            -1.8982,
            54.262
          ],
          [
            -1.8599,
            54.3085
          ],
          [
            -1.8228,
            54.3562
          ],
          [
            -1.7952,
            54.3917
          ],
          [
            -1.7724,
            54.4359
          ],
          [
            -1.7648,
            54.4592
          ],
          [
            -1.7511,
            54.5075
          ],
          [
            -1.7385,
            54.5523
          ],
          [
            -1.7296,
            54.5806
          ],
          [
            -1.715,
            54.6239
          ],
          [
            -1.7105,
            54.6501
          ],
          [
            -1.7049,
            54.6698
          ],
          [
            -1.6926,
            54.6924
          ],
          [
            -1.6727,
            54.7241
          ],
          [
            -1.6511,
            54.7597
          ],
          [
            -1.6304,
            54.7943
          ],
          [
            -1.614,
            54.8143
          ],
          [
            -1.58,
            54.8425
          ],
          [
            -1.5454,
            54.8696
          ],
          [
            -1.5113,
            54.8959
          ],
          [
            -1.4773,
            54.9227
          ],
          [
            -1.4454,
            54.9485
          ],
          [
            -1.4117,
            54.9746
          ],
          [
            -1.388,
            54.9944
          ],
          [
            -1.3848,
            55.0099
          ],
          [
            -1.3915,
            55.0234
          ],
          [
            -1.4015,
            55.0398
          ],
          [
            -1.4158,
            55.0637
          ],
          [
            -1.4248,
            55.0783
          ],
          [
            -1.4448,
            55.0843
          ],
          [
            -1.4773,
            55.0873
          ],
          [
            -1.5118,
            55.0821
          ],
          [
            -1.5393,
            55.0761
          ],
          [
            -1.5773,
            55.0674
          ],
          [
            -1.5913,
            55.0639
          ],
          [
            -1.6035,
            55.0607
          ],
          [
            -1.6156,
            55.0576
          ],
          [
            -1.6266,
            55.0548
          ],
          [
            -1.6384,
            55.0517
          ],
          [
            -1.6504,
            55.0485
          ],
          [
            -1.6623,
            55.0454
          ],
          [
            -1.6747,
            55.042
          ]
        ]
      },
      "properties": {
        "time_europe_berlin": [
          "09.10.2025 14:45:54",
          "09.10.2025 14:46:10",
          "09.10.2025 14:46:28",
          "09.10.2025 14:46:44",
          "09.10.2025 14:47:02",
          "09.10.2025 14:47:20",
          "09.10.2025 14:47:51",
          "09.10.2025 14:48:07",
          "09.10.2025 14:48:23",
          "09.10.2025 14:48:39",
          "09.10.2025 14:49:00",
          "09.10.2025 14:49:19",
          "09.10.2025 14:49:44",
          "09.10.2025 14:50:23",
          "09.10.2025 14:50:58",
          "09.10.2025 14:51:23",
          "09.10.2025 14:51:40",
          "09.10.2025 14:52:12",
          "09.10.2025 14:52:44",
          "09.10.2025 14:53:14",
          "09.10.2025 14:53:44",
          "09.10.2025 14:54:15",
          "09.10.2025 14:54:45",
          "09.10.2025 14:55:15",
          "09.10.2025 14:55:46",
          "09.10.2025 14:56:19",
          "09.10.2025 14:56:49",
          "09.10.2025 14:57:05",
          "09.10.2025 14:57:24",
          "09.10.2025 14:57:51",
          "09.10.2025 14:58:21",
          "09.10.2025 14:58:51",
          "09.10.2025 14:59:21",
          "09.10.2025 14:59:51",
          "09.10.2025 15:00:21",
          "09.10.2025 15:00:51",
          "09.10.2025 15:01:11",
          "09.10.2025 15:01:28",
          "09.10.2025 15:01:58",
          "09.10.2025 15:02:28",
          "09.10.2025 15:02:58",
          "09.10.2025 15:03:29",
          "09.10.2025 15:03:59",
          "09.10.2025 15:04:29",
          "09.10.2025 15:04:59",
          "09.10.2025 15:05:29",
          "09.10.2025 15:05:59",
          "09.10.2025 15:06:29",
          "09.10.2025 15:06:48",
          "09.10.2025 15:07:18",
          "09.10.2025 15:07:34",
          "09.10.2025 15:07:51",
          "09.10.2025 15:08:21",
          "09.10.2025 15:08:51",
          "09.10.2025 15:09:21",
          "09.10.2025 15:09:51",
          "09.10.2025 15:10:21",
          "09.10.2025 15:10:51",
          "09.10.2025 15:11:26",
          "09.10.2025 15:11:57",
          "09.10.2025 15:12:27",
          "09.10.2025 15:12:57",
          "09.10.2025 15:13:27",
          "09.10.2025 15:13:59",
          "09.10.2025 15:14:30",
          "09.10.2025 15:15:02",
          "09.10.2025 15:15:32",
          "09.10.2025 15:16:04",
          "09.10.2025 15:16:34",
          "09.10.2025 15:17:05",
          "09.10.2025 15:17:35",
          "09.10.2025 15:18:05",
          "09.10.2025 15:18:36",
          "09.10.2025 15:19:09",
          "09.10.2025 15:19:39",
          "09.10.2025 15:20:09",
          "09.10.2025 15:20:39",
          "09.10.2025 15:21:09",
          "09.10.2025 15:21:40",
          "09.10.2025 15:22:10",
          "09.10.2025 15:22:40",
          "09.10.2025 15:23:10",
          "09.10.2025 15:23:40",
          "09.10.2025 15:24:10",
          "09.10.2025 15:24:41",
          "09.10.2025 15:25:11",
          "09.10.2025 15:25:41",
          "09.10.2025 15:26:11",
          "09.10.2025 15:26:41",
          "09.10.2025 15:27:11",
          "09.10.2025 15:27:41",
          "09.10.2025 15:28:11",
          "09.10.2025 15:28:41",
          "09.10.2025 15:29:11",
          "09.10.2025 15:29:42",
          "09.10.2025 15:30:12",
          "09.10.2025 15:30:42",
          "09.10.2025 15:31:12",
          "09.10.2025 15:31:43",
          "09.10.2025 15:32:13",
          "09.10.2025 15:32:44",
          "09.10.2025 15:33:14",
          "09.10.2025 15:33:44",
          "09.10.2025 15:34:14",
          "09.10.2025 15:34:44",
          "09.10.2025 15:35:14",
          "09.10.2025 15:35:45",
          "09.10.2025 15:36:16",
          "09.10.2025 15:36:46",
          "09.10.2025 15:37:16",
          "09.10.2025 15:37:46",
          "09.10.2025 15:38:16",
          "09.10.2025 15:38:47",
          "09.10.2025 15:39:17",
          "09.10.2025 15:39:47",
          "09.10.2025 15:40:17",
          "09.10.2025 15:40:49",
          "09.10.2025 15:41:19",
          "09.10.2025 15:41:50",
          "09.10.2025 15:42:20",
          "09.10.2025 15:42:50",
          "09.10.2025 15:43:20",
          "09.10.2025 15:43:50",
          "09.10.2025 15:44:21",
          "09.10.2025 15:44:51",
          "09.10.2025 15:45:21",
          "09.10.2025 15:45:51",
          "09.10.2025 15:46:21",
          "09.10.2025 15:46:51",
          "09.10.2025 15:47:21",
          "09.10.2025 15:47:51",
          "09.10.2025 15:48:21",
          "09.10.2025 15:48:52",
          "09.10.2025 15:49:23",
          "09.10.2025 15:49:55",
          "09.10.2025 15:50:25",
          "09.10.2025 15:50:55",
          "09.10.2025 15:51:25",
          "09.10.2025 15:51:56",
          "09.10.2025 15:52:26",
          "09.10.2025 15:52:56",
          "09.10.2025 15:53:26",
          "09.10.2025 15:53:56",
          "09.10.2025 15:54:26",
          "09.10.2025 15:54:57",
          "09.10.2025 15:55:27",
          "09.10.2025 15:55:57",
          "09.10.2025 15:56:27",
          "09.10.2025 15:56:57",
          "09.10.2025 15:57:27",
          "09.10.2025 15:57:57",
          "09.10.2025 15:58:27",
          "09.10.2025 15:58:57",
          "09.10.2025 15:59:29",
          "09.10.2025 15:59:59",
          "09.10.2025 16:00:29",
          "09.10.2025 16:01:00",
          "09.10.2025 16:01:30",
          "09.10.2025 16:02:01",
          "09.10.2025 16:02:31",
          "09.10.2025 16:03:01",
          "09.10.2025 16:03:31",
          "09.10.2025 16:04:01",
          "09.10.2025 16:04:31",
          "09.10.2025 16:05:02",
          "09.10.2025 16:05:32",
          "09.10.2025 16:06:02",
          "09.10.2025 16:06:32",
          "09.10.2025 16:07:02",
          "09.10.2025 16:07:32",
          "09.10.2025 16:08:02",
          "09.10.2025 16:08:18",
          "09.10.2025 16:08:48",
          "09.10.2025 16:09:25",
          "09.10.2025 16:09:55",
          "09.10.2025 16:10:25",
          "09.10.2025 16:10:55",
          "09.10.2025 16:11:25",
          "09.10.2025 16:11:55",
          "09.10.2025 16:12:25",
          "09.10.2025 16:12:55",
          "09.10.2025 16:13:26",
          "09.10.2025 16:13:56",
          "09.10.2025 16:14:26",
          "09.10.2025 16:14:56",
          "09.10.2025 16:15:26",
          "09.10.2025 16:15:55",
          "09.10.2025 16:16:25",
          "09.10.2025 16:17:10",
          "09.10.2025 16:17:31",
          "09.10.2025 16:17:50",
          "09.10.2025 16:18:07",
          "09.10.2025 16:18:31",
          "09.10.2025 16:19:05",
          "09.10.2025 16:19:28",
          "09.10.2025 16:19:46",
          "09.10.2025 16:20:04",
          "09.10.2025 16:20:22",
          "09.10.2025 16:20:52",
          "09.10.2025 16:21:09",
          "09.10.2025 16:21:39",
          "09.10.2025 16:22:05",
          "09.10.2025 16:22:24",
          "09.10.2025 16:23:09",
          "09.10.2025 16:23:39",
          "09.10.2025 16:24:09",
          "09.10.2025 16:24:39",
          "09.10.2025 16:25:08",
          "09.10.2025 16:25:29",
          "09.10.2025 16:25:59",
          "09.10.2025 16:26:29",
          "09.10.2025 16:27:18",
          "09.10.2025 16:27:46",
          "09.10.2025 16:28:16",
          "09.10.2025 16:28:46",
          "09.10.2025 16:29:09",
          "09.10.2025 16:29:48",
          "09.10.2025 16:30:10",
          "09.10.2025 16:30:55",
          "09.10.2025 16:31:23",
          "09.10.2025 16:31:53",
          "09.10.2025 16:32:23",
          "09.10.2025 16:32:53",
          "09.10.2025 16:33:23",
          "09.10.2025 16:33:53",
          "09.10.2025 16:34:23",
          "09.10.2025 16:34:53",
          "09.10.2025 16:35:51",
          "09.10.2025 16:36:21",
          "09.10.2025 16:36:51",
          "09.10.2025 16:37:21",
          "09.10.2025 16:37:51",
          "09.10.2025 16:38:21",
          "09.10.2025 16:38:38",
          "09.10.2025 16:38:57",
          "09.10.2025 16:39:22",
          "09.10.2025 16:39:51",
          "09.10.2025 16:40:09",
          "09.10.2025 16:40:36",
          "09.10.2025 16:41:17",
          "09.10.2025 16:41:47",
          "09.10.2025 16:42:18",
          "09.10.2025 16:42:49",
          "09.10.2025 16:43:19",
          "09.10.2025 16:43:43",
          "09.10.2025 16:44:26",
          "09.10.2025 16:44:56",
          "09.10.2025 16:45:26",
          "09.10.2025 16:45:56",
          "09.10.2025 16:46:26",
          "09.10.2025 16:46:56",
          "09.10.2025 16:47:37",
          "09.10.2025 16:48:07",
          "09.10.2025 16:48:37",
          "09.10.2025 16:49:07",
          "09.10.2025 16:49:37",
          "09.10.2025 16:49:57",
          "09.10.2025 16:50:16",
          "09.10.2025 16:50:41",
          "09.10.2025 16:51:11",
          "09.10.2025 16:51:29",
          "09.10.2025 16:51:59",
          "09.10.2025 16:52:27",
          "09.10.2025 16:52:48",
          "09.10.2025 16:53:18",
          "09.10.2025 16:53:48",
          "09.10.2025 16:54:05",
          "09.10.2025 16:54:44",
          "09.10.2025 16:55:14",
          "09.10.2025 16:55:41",
          "09.10.2025 16:56:11",
          "09.10.2025 16:56:43",
          "09.10.2025 16:57:13",
          "09.10.2025 16:57:43",
          "09.10.2025 16:58:13",
          "09.10.2025 16:58:43",
          "09.10.2025 16:59:13",
          "09.10.2025 16:59:44",
          "09.10.2025 17:00:07",
          "09.10.2025 17:00:37",
          "09.10.2025 17:00:55",
          "09.10.2025 17:01:14",
          "09.10.2025 17:01:34",
          "09.10.2025 17:01:54",
          "09.10.2025 17:02:11",
          "09.10.2025 17:02:41",
          "09.10.2025 17:03:11",
          "09.10.2025 17:03:33",
          "09.10.2025 17:03:58",
          "09.10.2025 17:04:14",
          "09.10.2025 17:04:44",
          "09.10.2025 17:05:14",
          "09.10.2025 17:05:33",
          "09.10.2025 17:06:03",
          "09.10.2025 17:06:22",
          "09.10.2025 17:06:38",
          "09.10.2025 17:06:55",
          "09.10.2025 17:07:22",
          "09.10.2025 17:07:52",
          "09.10.2025 17:08:22",
          "09.10.2025 17:08:40",
          "09.10.2025 17:09:09",
          "09.10.2025 17:09:39",
          "09.10.2025 17:10:10",
          "09.10.2025 17:10:40",
          "09.10.2025 17:11:10",
          "09.10.2025 17:11:40",
          "09.10.2025 17:12:02",
          "09.10.2025 17:12:18",
          "09.10.2025 17:12:34",
          "09.10.2025 17:12:54",
          "09.10.2025 17:13:24",
          "09.10.2025 17:13:42",
          "09.10.2025 17:14:01",
          "09.10.2025 17:14:26",
          "09.10.2025 17:14:54",
          "09.10.2025 17:15:15",
          "09.10.2025 17:15:47",
          "09.10.2025 17:16:01",
          "09.10.2025 17:16:17",
          "09.10.2025 17:16:33",
          "09.10.2025 17:16:49",
          "09.10.2025 17:17:05",
          "09.10.2025 17:17:21",
          "09.10.2025 17:17:37",
          "09.10.2025 17:17:53"
        ],
        "course_deg_clockwise_from_north": [
          59,
          59,
          59,
          59,
          58,
          58,
          58,
          58,
          58,
          28,
          348,
          310,
          269,
          264,
          266,
          297,
          299,
          298,
          294,
          294,
          294,
          293,
          292,
          293,
          293,
          292,
          293,
          294,
          317,
          331,
          333,
          333,
          333,
          334,
          333,
          333,
          334,
          346,
          351,
          348,
          348,
          349,
          348,
          349,
          348,
          349,
          349,
          349,
          347,
          343,
          344,
          349,
          349,
          349,
          349,
          349,
          349,
          349,
          349,
          348,
          349,
          348,
          348,
          349,
          348,
          348,
          348,
          347,
          348,
          347,
          348,
          348,
          347,
          347,
          347,
          347,
          347,
          347,
          348,
          347,
          347,
          348,
          346,
          347,
          347,
          347,
          347,
          347,
          347,
          347,
          347,
          347,
          347,
          347,
          347,
          347,
          347,
          347,
          346,
          347,
          347,
          346,
          347,
          346,
          347,
          347,
          347,
          347,
          347,
          347,
          346,
          347,
          347,
          346,
          346,
          347,
          347,
          347,
          347,
          346,
          347,
          347,
          346,
          346,
          347,
          347,
          346,
          346,
          347,
          346,
          346,
          346,
          346,
          347,
          346,
          346,
          347,
          347,
          347,
          346,
          347,
          346,
          346,
          346,
          346,
          346,
          346,
          346,
          346,
          346,
          346,
          346,
          346,
          346,
          346,
          347,
          346,
          346,
          346,
          346,
          346,
          346,
          346,
          346,
          345,
          346,
          346,
          346,
          346,
          346,
          346,
          346,
          346,
          346,
          347,
          346,
          346,
          345,
          346,
          347,
          347,
          346,
          347,
          346,
          345,
          345,
          347,
          346,
          345,
          347,
          358,
          6,
          11,
          11,
          10,
          11,
          10,
          11,
          11,
          10,
          11,
          11,
          10,
          10,
          11,
          11,
          10,
          11,
          10,
          11,
          10,
          11,
          11,
          11,
          11,
          11,
          12,
          17,
          19,
          18,
          18,
          18,
          19,
          19,
          18,
          18,
          19,
          19,
          18,
          18,
          19,
          18,
          18,
          16,
          12,
          10,
          8,
          357,
          343,
          339,
          339,
          339,
          339,
          339,
          337,
          338,
          337,
          337,
          337,
          338,
          337,
          338,
          337,
          338,
          337,
          338,
          337,
          336,
          334,
          335,
          335,
          334,
          335,
          335,
          334,
          335,
          332,
          333,
          334,
          333,
          334,
          334,
          334,
          334,
          333,
          333,
          334,
          335,
          336,
          337,
          346,
          7,
          19,
          24,
          26,
          25,
          24,
          24,
          13,
          10,
          10,
          10,
          11,
          10,
          4,
          14,
          19,
          20,
          20,
          19,
          32,
          36,
          37,
          36,
          36,
          37,
          36,
          28,
          350,
          342,
          341,
          342,
          331,
          281,
          277,
          247,
          250,
          247,
          246,
          246,
          245,
          246,
          245,
          245,
          245,
          245
        ],
        "speed_kts": [
          161,
          171,
          192,
          194,
          194,
          196,
          215,
          233,
          247,
          265,
          282,
          286,
          287,
          311,
          328,
          337,
          339,
          350,
          381,
          399,
          406,
          395,
          385,
          377,
          392,
          412,
          422,
          418,
          412,
          408,
          404,
          400,
          392,
          397,
          405,
          410,
          414,
          416,
          416,
          422,
          421,
          423,
          424,
          424,
          420,
          418,
          425,
          427,
          426,
          416,
          419,
          423,
          425,
          424,
          432,
          433,
          429,
          427,
          433,
          438,
          441,
          443,
          443,
          443,
          444,
          444,
          444,
          444,
          446,
          447,
          447,
          448,
          448,
          449,
          449,
          448,
          449,
          450,
          449,
          449,
          449,
          448,
          450,
          450,
          450,
          450,
          450,
          450,
          450,
          450,
          450,
          451,
          451,
          450,
          449,
          449,
          448,
          447,
          446,
          445,
          444,
          444,
          442,
          442,
          440,
          438,
          437,
          437,
          435,
          434,
          434,
          434,
          434,
          433,
          433,
          433,
          432,
          433,
          434,
          436,
          437,
          438,
          439,
          441,
          441,
          442,
          442,
          442,
          443,
          443,
          443,
          443,
          443,
          443,
          442,
          441,
          442,
          443,
          445,
          446,
          447,
          448,
          449,
          449,
          449,
          448,
          449,
          448,
          448,
          446,
          445,
          444,
          444,
          444,
          443,
          443,
          444,
          445,
          447,
          447,
          447,
          447,
          448,
          449,
          449,
          450,
          449,
          448,
          447,
          446,
          443,
          442,
          437,
          435,
          432,
          431,
          428,
          425,
          424,
          422,
          421,
          420,
          420,
          420,
          420,
          421,
          421,
          422,
          422,
          422,
          420,
          421,
          420,
          420,
          421,
          422,
          423,
          423,
          423,
          423,
          423,
          423,
          422,
          423,
          423,
          423,
          424,
          424,
          426,
          427,
          427,
          428,
          429,
          429,
          430,
          431,
          430,
          430,
          432,
          433,
          430,
          429,
          428,
          426,
          426,
          426,
          426,
          423,
          424,
          424,
          424,
          424,
          423,
          422,
          419,
          414,
          413,
          410,
          409,
          407,
          407,
          406,
          405,
          407,
          407,
          411,
          414,
          417,
          420,
          420,
          418,
          418,
          416,
          416,
          414,
          413,
          411,
          409,
          407,
          406,
          405,
          405,
          405,
          406,
          406,
          409,
          416,
          401,
          397,
          397,
          401,
          398,
          401,
          410,
          414,
          418,
          422,
          421,
          421,
          417,
          414,
          414,
          410,
          402,
          397,
          390,
          383,
          379,
          365,
          360,
          339,
          325,
          322,
          304,
          290,
          284,
          279,
          274,
          266,
          262,
          265,
          255,
          237,
          230,
          235,
          233,
          228,
          223,
          205,
          195,
          192,
          179,
          170,
          153,
          159,
          173,
          166,
          145,
          124,
          104,
          97,
          97,
          101,
          103,
          107,
          111
        ],
        "speed_mph": [
          185.0,
          197.0,
          221.0,
          223.0,
          223.0,
          226.0,
          247.0,
          268.0,
          284.0,
          305.0,
          325.0,
          329.0,
          330.0,
          358.0,
          377.0,
          388.0,
          390.0,
          403.0,
          438.0,
          459.0,
          467.0,
          455.0,
          443.0,
          434.0,
          451.0,
          474.0,
          486.0,
          481.0,
          474.0,
          470.0,
          465.0,
          460.0,
          451.0,
          457.0,
          466.0,
          472.0,
          476.0,
          479.0,
          479.0,
          486.0,
          484.0,
          487.0,
          488.0,
          488.0,
          483.0,
          481.0,
          489.0,
          491.0,
          490.0,
          479.0,
          482.0,
          487.0,
          489.0,
          488.0,
          497.0,
          498.0,
          494.0,
          491.0,
          498.0,
          504.0,
          507.0,
          510.0,
          510.0,
          510.0,
          511.0,
          511.0,
          511.0,
          511.0,
          513.0,
          514.0,
          514.0,
          516.0,
          516.0,
          517.0,
          517.0,
          516.0,
          517.0,
          518.0,
          517.0,
          517.0,
          517.0,
          516.0,
          518.0,
          518.0,
          518.0,
          518.0,
          518.0,
          518.0,
          518.0,
          518.0,
          518.0,
          519.0,
          519.0,
          518.0,
          517.0,
          517.0,
          516.0,
          514.0,
          513.0,
          512.0,
          511.0,
          511.0,
          509.0,
          509.0,
          506.0,
          504.0,
          503.0,
          503.0,
          501.0,
          499.0,
          499.0,
          499.0,
          499.0,
          498.0,
          498.0,
          498.0,
          497.0,
          498.0,
          499.0,
          502.0,
          503.0,
          504.0,
          505.0,
          507.0,
          507.0,
          509.0,
          509.0,
          509.0,
          510.0,
          510.0,
          510.0,
          510.0,
          510.0,
          510.0,
          509.0,
          507.0,
          509.0,
          510.0,
          512.0,
          513.0,
          514.0,
          516.0,
          517.0,
          517.0,
          517.0,
          516.0,
          517.0,
          516.0,
          516.0,
          513.0,
          512.0,
          511.0,
          511.0,
          511.0,
          510.0,
          510.0,
          511.0,
          512.0,
          514.0,
          514.0,
          514.0,
          514.0,
          516.0,
          517.0,
          517.0,
          518.0,
          517.0,
          516.0,
          514.0,
          513.0,
          510.0,
          509.0,
          503.0,
          501.0,
          497.0,
          496.0,
          493.0,
          489.0,
          488.0,
          486.0,
          484.0,
          483.0,
          483.0,
          483.0,
          483.0,
          484.0,
          484.0,
          486.0,
          486.0,
          486.0,
          483.0,
          484.0,
          483.0,
          483.0,
          484.0,
          486.0,
          487.0,
          487.0,
          487.0,
          487.0,
          487.0,
          487.0,
          486.0,
          487.0,
          487.0,
          487.0,
          488.0,
          488.0,
          490.0,
          491.0,
          491.0,
          493.0,
          494.0,
          494.0,
          495.0,
          496.0,
          495.0,
          495.0,
          497.0,
          498.0,
          495.0,
          494.0,
          493.0,
          490.0,
          490.0,
          490.0,
          490.0,
          487.0,
          488.0,
          488.0,
          488.0,
          488.0,
          487.0,
          486.0,
          482.0,
          476.0,
          475.0,
          472.0,
          471.0,
          468.0,
          468.0,
          467.0,
          466.0,
          468.0,
          468.0,
          473.0,
          476.0,
          480.0,
          483.0,
          483.0,
          481.0,
          481.0,
          479.0,
          479.0,
          476.0,
          475.0,
          473.0,
          471.0,
          468.0,
          467.0,
          466.0,
          466.0,
          466.0,
          467.0,
          467.0,
          471.0,
          479.0,
          461.0,
          457.0,
          457.0,
          461.0,
          458.0,
          461.0,
          472.0,
          476.0,
          481.0,
          486.0,
          484.0,
          484.0,
          480.0,
          476.0,
          476.0,
          472.0,
          463.0,
          457.0,
          449.0,
          441.0,
          436.0,
          420.0,
          414.0,
          390.0,
          374.0,
          371.0,
          350.0,
          334.0,
          327.0,
          321.0,
          315.0,
          306.0,
          302.0,
          305.0,
          293.0,
          273.0,
          265.0,
          270.0,
          268.0,
          262.0,
          257.0,
          236.0,
          224.0,
          221.0,
          206.0,
          196.0,
          176.0,
          183.0,
          199.0,
          191.0,
          167.0,
          143.0,
          120.0,
          112.0,
          112.0,
          116.0,
          119.0,
          123.0,
          128.0
        ],
        "altitude_ft": [
          225,
          875,
          1675,
          2550,
          3550,
          4400,
          5750,
          6350,
          6925,
          7425,
          8200,
          9150,
          10450,
          11875,
          12975,
          14000,
          14600,
          15700,
          16000,
          16000,
          16000,
          16950,
          18250,
          19500,
          19975,
          20000,
          20000,
          20325,
          20875,
          21775,
          22750,
          23800,
          24925,
          25750,
          26375,
          27100,
          27575,
          28000,
          28775,
          29375,
          30225,
          30975,
          31700,
          32500,
          33425,
          34250,
          34800,
          35375,
          35850,
          36750,
          37025,
          37250,
          37725,
          38250,
          38425,
          38775,
          39350,
          39675,
          39750,
          39875,
          40000,
          40000,
          40000,
          40000,
          40000,
          40000,
          40000,
          40000,
          40000,
          40000,
          40000,
          40000,
          40000,
          40000,
          40000,
          40000,
          40000,
          40000,
          40000,
          40000,
          40000,
          40000,
          40000,
          40000,
          40000,
          40000,
          40000,
          40000,
          40000,
          40000,
          40000,
          40000,
          40000,
          40000,
          40000,
          40000,
          40000,
          40000,
          40000,
          40000,
          40000,
          40000,
          40000,
          40000,
          40000,
          40000,
          40000,
          40000,
          40000,
          40000,
          40000,
          40000,
          40000,
          40000,
          40000,
          40000,
          40000,
          40000,
          40000,
          40000,
          40000,
          40000,
          40000,
          40000,
          40000,
          40000,
          40000,
          40000,
          40000,
          40000,
          40000,
          40000,
          40000,
          40000,
          40000,
          40000,
          40000,
          40000,
          40000,
          40000,
          40000,
          40000,
          40000,
          40000,
          40000,
          40000,
          40000,
          40000,
          40000,
          40000,
          40000,
          40000,
          40000,
          40000,
          40000,
          40000,
          40000,
          40000,
          40000,
          40000,
          40000,
          40000,
          40000,
          40000,
          40000,
          40000,
          40000,
          40000,
          40000,
          40000,
          40000,
          40000,
          40000,
          40000,
          40000,
          40000,
          40000,
          40000,
          40000,
          40000,
          40000,
          40000,
          40000,
          40000,
          40000,
          40000,
          40000,
          40000,
          40000,
          40000,
          40000,
          40000,
          40000,
          40000,
          40000,
          40000,
          40000,
          40000,
          40000,
          40000,
          40000,
          40000,
          40000,
          40000,
          40000,
          40000,
          40000,
          40000,
          40000,
          40000,
          40000,
          40000,
          40000,
          40000,
          40000,
          40000,
          40000,
          40000,
          40000,
          40000,
          40000,
          40000,
          40000,
          40000,
          40000,
          40000,
          40000,
          40000,
          40000,
          40000,
          40000,
          40000,
          40000,
          40000,
          40000,
          40000,
          40000,
          40000,
          40000,
          40000,
          40000,
          40000,
          40000,
          40000,
          40000,
          40000,
          40000,
          40000,
          40000,
          40000,
          40000,
          40000,
          40000,
          40000,
          40000,
          40000,
          40000,
          40000,
          40000,
          40000,
          40000,
          40000,
          40000,
          40000,
          40000,
          39675,
          38950,
          37425,
          36175,
          35050,
          33775,
          33050,
          33000,
          33000,
          32925,
          31575,
          30100,
          28475,
          27350,
          25825,
          24850,
          23950,
          22975,
          21925,
          21125,
          19550,
          18025,
          16950,
          15625,
          14850,
          13675,
          12300,
          11325,
          10050,
          9450,
          8975,
          8375,
          7475,
          6425,
          5425,
          4800,
          3925,
          3225,
          3150,
          3150,
          3150,
          3150,
          3150,
          3025,
          2800,
          2475,
          2000,
          1725,
          1650,
          1650,
          1650,
          1600,
          1175,
          1000,
          850,
          675,
          550,
          425,
          250,
          75,
          75
        ],
        "vertical_rate_fpm": [
          0.0,
          2559.0,
          2956.0,
          3309.0,
          3083.0,
          2694.0,
          2489.0,
          2203.0,
          2016.0,
          2068.0,
          2588.0,
          3068.0,
          2555.0,
          2047.0,
          2125.0,
          2321.0,
          2082.0,
          1313.0,
          290.0,
          0.0,
          934.0,
          2213.0,
          2550.0,
          1697.0,
          469.0,
          24.0,
          424.0,
          1500.0,
          1891.0,
          1974.0,
          2025.0,
          2175.0,
          1950.0,
          1450.0,
          1350.0,
          1440.0,
          1459.0,
          1532.0,
          1375.0,
          1450.0,
          1574.0,
          1451.0,
          1525.0,
          1725.0,
          1750.0,
          1375.0,
          1125.0,
          1286.0,
          1684.0,
          1533.0,
          909.0,
          894.0,
          1000.0,
          700.0,
          525.0,
          925.0,
          900.0,
          369.0,
          182.0,
          246.0,
          125.0,
          0.0,
          0.0,
          0.0,
          0.0,
          0.0,
          0.0,
          0.0,
          0.0,
          0.0,
          0.0,
          0.0,
          0.0,
          0.0,
          0.0,
          0.0,
          0.0,
          0.0,
          0.0,
          0.0,
          0.0,
          0.0,
          0.0,
          0.0,
          0.0,
          0.0,
          0.0,
          0.0,
          0.0,
          0.0,
          0.0,
          0.0,
          0.0,
          0.0,
          0.0,
          0.0,
          0.0,
          0.0,
          0.0,
          0.0,
          0.0,
          0.0,
          0.0,
          0.0,
          0.0,
          0.0,
          0.0,
          0.0,
          0.0,
          0.0,
          0.0,
          0.0,
          0.0,
          0.0,
          0.0,
          0.0,
          0.0,
          0.0,
          0.0,
          0.0,
          0.0,
          0.0,
          0.0,
          0.0,
          0.0,
          0.0,
          0.0,
          0.0,
          0.0,
          0.0,
          0.0,
          0.0,
          0.0,
          0.0,
          0.0,
          0.0,
          0.0,
          0.0,
          0.0,
          0.0,
          0.0,
          0.0,
          0.0,
          0.0,
          0.0,
          0.0,
          0.0,
          0.0,
          0.0,
          0.0,
          0.0,
          0.0,
          0.0,
          0.0,
          0.0,
          0.0,
          0.0,
          0.0,
          0.0,
          0.0,
          0.0,
          0.0,
          0.0,
          0.0,
          0.0,
          0.0,
          0.0,
          0.0,
          0.0,
          0.0,
          0.0,
          0.0,
          0.0,
          0.0,
          0.0,
          0.0,
          0.0,
          0.0,
          0.0,
          0.0,
          0.0,
          0.0,
          0.0,
          0.0,
          0.0,
          0.0,
          0.0,
          0.0,
          0.0,
          0.0,
          0.0,
          0.0,
          0.0,
          0.0,
          0.0,
          0.0,
          0.0,
          0.0,
          0.0,
          0.0,
          0.0,
          0.0,
          0.0,
          0.0,
          0.0,
          0.0,
          0.0,
          0.0,
          0.0,
          0.0,
          0.0,
          0.0,
          0.0,
          0.0,
          0.0,
          0.0,
          0.0,
          0.0,
          0.0,
          0.0,
          0.0,
          0.0,
          0.0,
          0.0,
          0.0,
          0.0,
          0.0,
          0.0,
          0.0,
          0.0,
          0.0,
          0.0,
          0.0,
          0.0,
          0.0,
          0.0,
          0.0,
          0.0,
          0.0,
          0.0,
          0.0,
          0.0,
          0.0,
          0.0,
          0.0,
          0.0,
          0.0,
          0.0,
          0.0,
          0.0,
          0.0,
          0.0,
          0.0,
          0.0,
          0.0,
          0.0,
          0.0,
          0.0,
          0.0,
          0.0,
          0.0,
          0.0,
          0.0,
          0.0,
          -325.0,
          -1340.0,
          -2411.0,
          -2413.0,
          -2500.0,
          -2526.0,
          -1935.0,
          -750.0,
          -50.0,
          -75.0,
          -1425.0,
          -2825.0,
          -3049.0,
          -3056.0,
          -3000.0,
          -3125.0,
          -3041.0,
          -2885.0,
          -3038.0,
          -3000.0,
          -3032.0,
          -3100.0,
          -3000.0,
          -3064.0,
          -3073.0,
          -2543.0,
          -2550.0,
          -2878.0,
          -2755.0,
          -2296.0,
          -1843.0,
          -1955.0,
          -2045.0,
          -2053.0,
          -2050.0,
          -2031.0,
          -1915.0,
          -1602.0,
          -762.0,
          -74.0,
          0.0,
          0.0,
          0.0,
          -197.0,
          -656.0,
          -917.0,
          -960.0,
          -938.0,
          -568.0,
          -102.0,
          0.0,
          -61.0,
          -538.0,
          -783.0,
          -650.0,
          -609.0,
          -563.0,
          -469.0,
          -563.0,
          -656.0,
          -563.0,
          -469.0
        ]
      }
    }
  ]
}