{
  "type": "FeatureCollection",
  "features": [
    {
      "type": "Feature",
      "geometry": {
        "type": "LineString",
        "coordinates": [
          [
            7.1634,
            50.8565
          ],
          [
            7.1747,
            50.8481
          ],
          [
            7.1873,
            50.8383
          ],
          [
            7.2016,
            50.8279
          ],
          [
            7.2176,
            50.8173
          ],
          [
            7.2363,
            50.8108
          ],
          [
            7.2598,
            50.8087
          ],
          [
            7.291,
            50.8079
          ],
          [
            7.3288,
            50.8062
          ],
          [
            7.3759,
            50.8023
          ],
          [
            7.4576,
            50.7952
          ],
          [
            7.5249,
            50.7879
          ],
          [
            7.6011,
            50.7782
          ],
          [
            7.6781,
            50.7681
          ],
          [
            7.761,
            50.7572
          ],
          [
            7.8149,
            50.75
          ],
          [
            7.9044,
            50.7392
          ],
          [
            7.9552,
            50.7332
          ],
          [
            7.9993,
            50.717
          ],
          [
            8.0343,
            50.6966
          ],
          [
            8.0963,
            50.6569
          ],
          [
            8.1389,
            50.6319
          ],
          [
            8.2427,
            50.5755
          ],
          [
            8.3083,
            50.5397
          ],
          [
            8.396,
            50.4927
          ],
          [
            8.4615,
            50.4575
          ],
          [
            8.5312,
            50.4202
          ],
          [
            8.5998,
            50.3835
          ],
          [
            8.6678,
            50.3467
          ],
          [
            8.7159,
            50.3207
          ],
          [
            8.8484,
            50.2494
          ],
          [
            8.9203,
            50.2101
          ],
          [
            8.9895,
            50.1726
          ],
          [
            9.0649,
            50.1327
          ],
          [
            9.1395,
            50.0962
          ],
          [
            9.2126,
            50.0592
          ],
          [
            9.2862,
            50.0217
          ],
          [
            9.3609,
            49.984
          ],
          [
            9.4307,
            49.9484
          ],
          [
            9.5009,
            49.9126
          ],
          [
            9.5702,
            49.8773
          ],
          [
            9.6379,
            49.8426
          ],
          [
            9.7115,
            49.8046
          ],
          [
            9.7818,
            49.7684
          ],
          [
            9.8533,
            49.7316
          ],
          [
            9.9282,
            49.6927
          ],
          [
            10.004,
            49.6533
          ],
          [
            10.0761,
            49.6157
          ],
          [
            10.1531,
            49.5754
          ],
          [
            10.2276,
            49.5363
          ],
          [
            10.3019,
            49.4974
          ],
          [
            10.3749,
            49.4589
          ],
          [
            10.4299,
            49.4299
          ],
          [
            10.4929,
            49.3965
          ],
          [
            10.5632,
            49.3592
          ],
          [
            10.6371,
            49.3199
          ],
          [
            10.7534,
            49.2577
          ],
          [
            10.8256,
            49.219
          ],
          [
            10.8991,
            49.1796
          ],
          [
            10.9722,
            49.1401
          ],
          [
            11.1006,
            49.0707
          ],
          [
            11.1713,
            49.0322
          ],
          [
            11.2462,
            48.9914
          ],
          [
            11.3333,
            48.9439
          ],
          [
            11.4021,
            48.9061
          ],
          [
            11.4731,
            48.8671
          ],
          [
            11.5458,
            48.8271
          ],
          [
            11.6587,
            48.7647
          ],
          [
            11.7301,
            48.7251
          ],
          [
            11.7988,
            48.6868
          ],
          [
            11.8714,
            48.6464
          ],
          [
            11.9419,
            48.6069
          ],
          [
            12.0128,
            48.5672
          ],
          [
            12.0818,
            48.5284
          ],
          [
            12.1535,
            48.488
          ],
          [
            12.2246,
            48.4478
          ],
          [
            12.2979,
            48.4062
          ],
          [
            12.3655,
            48.3678
          ],
          [
            12.4391,
            48.326
          ],
          [
            12.505,
            48.2882
          ],
          [
            12.5728,
            48.2494
          ],
          [
            12.643,
            48.2091
          ],
          [
            12.7141,
            48.1681
          ],
          [
            12.7861,
            48.1266
          ],
          [
            12.8489,
            48.0904
          ],
          [
            12.9226,
            48.0475
          ],
          [
            12.9926,
            48.0067
          ],
          [
            13.0616,
            47.9665
          ],
          [
            13.1318,
            47.9255
          ],
          [
            13.2005,
            47.8852
          ],
          [
            13.2692,
            47.8449
          ],
          [
            13.3386,
            47.804
          ],
          [
            13.4076,
            47.7632
          ],
          [
            13.4769,
            47.7221
          ],
          [
            13.5452,
            47.6816
          ],
          [
            13.612,
            47.6418
          ],
          [
            13.6815,
            47.6003
          ],
          [
            13.7483,
            47.5603
          ],
          [
            13.8157,
            47.5199
          ],
          [
            13.882,
            47.4799
          ],
          [
            13.9476,
            47.4404
          ],
          [
            14.0161,
            47.3991
          ],
          [
            14.0833,
            47.3583
          ],
          [
            14.1514,
            47.317
          ],
          [
            14.2196,
            47.2754
          ],
          [
            14.2885,
            47.2332
          ],
          [
            14.3571,
            47.1913
          ],
          [
            14.4255,
            47.1493
          ],
          [
            14.4937,
            47.1073
          ],
          [
            14.5638,
            47.0641
          ],
          [
            14.6301,
            47.0232
          ],
          [
            14.6958,
            46.9824
          ],
          [
            14.7658,
            46.9389
          ],
          [
            14.8314,
            46.8979
          ],
          [
            14.8992,
            46.8556
          ],
          [
            14.9673,
            46.813
          ],
          [
            15.0328,
            46.7719
          ],
          [
            15.099,
            46.7302
          ],
          [
            15.1653,
            46.6884
          ],
          [
            15.2317,
            46.6463
          ],
          [
            15.2952,
            46.6061
          ],
          [
            15.372,
            46.5573
          ],
          [
            15.4405,
            46.5136
          ],
          [
            15.5059,
            46.4718
          ],
          [
            15.5705,
            46.4305
          ],
          [
            15.6362,
            46.3884
          ],
          [
            15.7021,
            46.3464
          ],
          [
            15.7688,
            46.3054
          ],
          [
            15.8348,
            46.264
          ],
          [
            15.9059,
            46.2195
          ],
          [
            15.9712,
            46.1788
          ],
          [
            16.0394,
            46.1357
          ],
          [
            16.1077,
            46.0929
          ],
          [
            16.1706,
            46.0532
          ],
          [
            16.2375,
            46.0109
          ],
          [
            16.3039,
            45.9689
          ],
          [
            16.3701,
            45.9267
          ],
          [
            16.4368,
            45.8843
          ],
          [
            16.503,
            45.8421
          ],
          [
            16.5689,
            45.7999
          ],
          [
            16.6351,
            45.7573
          ],
          [
            16.7005,
            45.7154
          ],
          [
            16.7664,
            45.6728
          ],
          [
            16.8321,
            45.6305
          ],
          [
            16.8953,
            45.5894
          ],
          [
            16.965,
            45.5442
          ],
          [
            17.0286,
            45.5029
          ],
          [
            17.0965,
            45.4586
          ],
          [
            17.1638,
            45.4146
          ],
          [
            17.2311,
            45.3704
          ],
          [
            17.3003,
            45.325
          ],
          [
            17.3633,
            45.2835
          ],
          [
            17.4284,
            45.2404
          ],
          [
            17.4928,
            45.1979
          ],
          [
            17.56,
            45.1533
          ],
          [
            17.6255,
            45.1097
          ],
          [
            17.6675,
            45.0816
          ],
          [
            17.7339,
            45.0374
          ],
          [
            17.8009,
            44.9926
          ],
          [
            17.8621,
            44.9515
          ],
          [
            17.9257,
            44.9087
          ],
          [
            17.9924,
            44.8637
          ],
          [
            18.0543,
            44.8219
          ],
          [
            18.123,
            44.7754
          ],
          [
            18.1888,
            44.7308
          ],
          [
            18.2522,
            44.6875
          ],
          [
            18.3184,
            44.6425
          ],
          [
            18.384,
            44.5976
          ],
          [
            18.4491,
            44.553
          ],
          [
            18.5132,
            44.5089
          ],
          [
            18.5765,
            44.4653
          ],
          [
            18.6424,
            44.42
          ],
          [
            18.7062,
            44.3757
          ],
          [
            18.7698,
            44.3316
          ],
          [
            18.838,
            44.2842
          ],
          [
            18.9024,
            44.2393
          ],
          [
            18.9659,
            44.1951
          ],
          [
            19.0311,
            44.1495
          ],
          [
            19.0952,
            44.1043
          ],
          [
            19.1568,
            44.061
          ],
          [
            19.222,
            44.0142
          ],
          [
            19.2885,
            43.9668
          ],
          [
            19.3505,
            43.9223
          ],
          [
            19.4145,
            43.8764
          ],
          [
            19.4775,
            43.831
          ],
          [
            19.5425,
            43.7842
          ],
          [
            19.6027,
            43.7408
          ],
          [
            19.6697,
            43.6923
          ],
          [
            19.73,
            43.6484
          ],
          [
            19.7919,
            43.6033
          ],
          [
            19.8535,
            43.5585
          ],
          [
            19.9178,
            43.5115
          ],
          [
            19.98,
            43.4659
          ],
          [
            20.0416,
            43.4207
          ],
          [
            20.1056,
            43.3737
          ],
          [
            20.1674,
            43.328
          ],
          [
            20.2292,
            43.2823
          ],
          [
            20.2926,
            43.2353
          ],
          [
            20.3504,
            43.1924
          ],
          [
            20.4114,
            43.147
          ],
          [
            20.4747,
            43.0998
          ],
          [
            20.5364,
            43.0538
          ],
          [
            20.5976,
            43.008
          ],
          [
            20.6574,
            42.963
          ],
          [
            20.7204,
            42.9155
          ],
          [
            20.7815,
            42.8696
          ],
          [
            20.8411,
            42.8245
          ],
          [
            20.9046,
            42.7765
          ],
          [
            20.9621,
            42.7327
          ],
          [
            21.0229,
            42.6864
          ],
          [
            21.0863,
            42.6384
          ],
          [
            21.1464,
            42.5923
          ],
          [
            21.2044,
            42.5478
          ],
          [
            21.2651,
            42.5012
          ],
          [
            21.3267,
            42.4541
          ],
          [
            21.3868,
            42.4077
          ],
          [
            21.4454,
            42.3624
          ],
          [
            21.5057,
            42.3158
          ],
          [
            21.5667,
            42.2685
          ],
          [
            21.6253,
            42.2228
          ],
          [
            21.6875,
            42.1765
          ],
          [
            21.7492,
            42.1304
          ],
          [
            21.8092,
            42.0847
          ],
          [
            21.8714,
            42.0376
          ],
          [
            21.931,
            41.9926
          ],
          [
            22.0011,
            41.9393
          ],
          [
            22.0672,
            41.8888
          ],
          [
            22.1295,
            41.8415
          ],
          [
            22.189,
            41.7959
          ],
          [
            22.251,
            41.7483
          ],
          [
            22.3115,
            41.7018
          ],
          [
            22.3727,
            41.6545
          ],
          [
            22.4343,
            41.607
          ],
          [
            22.4945,
            41.5605
          ],
          [
            22.5556,
            41.5132
          ],
          [
            22.6158,
            41.4663
          ],
          [
            22.6781,
            41.4178
          ],
          [
            22.738,
            41.371
          ],
          [
            22.7923,
            41.3293
          ],
          [
            22.8681,
            41.2792
          ],
          [
            22.9374,
            41.2353
          ],
          [
            23.0057,
            41.1905
          ],
          [
            23.0729,
            41.1467
          ],
          [
            23.1401,
            41.1031
          ],
          [
            23.2131,
            41.0552
          ],
          [
            23.2827,
            41.0098
          ],
          [
            23.3555,
            40.962
          ],
          [
            23.4204,
            40.9193
          ],
          [
            23.4868,
            40.8756
          ],
          [
            23.5572,
            40.8289
          ],
          [
            23.6255,
            40.7836
          ],
          [
            23.7315,
            40.7132
          ],
          [
            23.7974,
            40.6695
          ],
          [
            23.8623,
            40.6262
          ],
          [
            23.9258,
            40.5835
          ],
          [
            23.9946,
            40.5374
          ],
          [
            24.0602,
            40.4932
          ],
          [
            24.1266,
            40.4485
          ],
          [
            24.1935,
            40.4035
          ],
          [
            24.2584,
            40.3596
          ],
          [
            24.3234,
            40.3154
          ],
          [
            24.3863,
            40.2728
          ],
          [
            24.452,
            40.228
          ],
          [
            24.5212,
            40.1809
          ],
          [
            24.5862,
            40.1364
          ],
          [
            24.6507,
            40.0921
          ],
          [
            24.72,
            40.0446
          ],
          [
            24.7847,
            40.0
          ],
          [
            24.8495,
            39.9554
          ],
          [
            24.9143,
            39.9105
          ],
          [
            24.9786,
            39.8659
          ],
          [
            25.0457,
            39.8196
          ],
          [
            25.1159,
            39.7707
          ],
          [
            25.18,
            39.7259
          ],
          [
            25.2445,
            39.6808
          ],
          [
            25.3098,
            39.6351
          ],
          [
            25.3742,
            39.59
          ],
          [
            25.4381,
            39.545
          ],
          [
            25.5059,
            39.4973
          ],
          [
            25.5696,
            39.4523
          ],
          [
            25.6346,
            39.4063
          ],
          [
            25.6986,
            39.361
          ],
          [
            25.7613,
            39.3165
          ],
          [
            25.8267,
            39.2698
          ],
          [
            25.8893,
            39.225
          ],
          [
            25.9529,
            39.1797
          ],
          [
            26.0164,
            39.1342
          ],
          [
            26.0798,
            39.0887
          ],
          [
            26.1431,
            39.0431
          ],
          [
            26.2079,
            38.9964
          ],
          [
            26.2713,
            38.9507
          ],
          [
            26.3351,
            38.9046
          ],
          [
            26.3787,
            38.8742
          ],
          [
            26.415,
            38.855
          ],
          [
            26.4654,
            38.837
          ],
          [
            26.5231,
            38.8246
          ],
          [
            26.6083,
            38.813
          ],
          [
            26.6971,
            38.8036
          ],
          [
            26.7853,
            38.7935
          ],
          [
            26.8658,
            38.7835
          ],
          [
            26.94,
            38.7646
          ],
          [
            26.9816,
            38.7463
          ],
          [
            27.025,
            38.7188
          ],
          [
            27.0699,
            38.676
          ],
          [
            27.1171,
            38.6189
          ],
          [
            27.1655,
            38.5633
          ],
          [
            27.2141,
            38.5102
          ],
          [
            27.2648,
            38.4544
          ],
          [
            27.3169,
            38.3983
          ],
          [
            27.3693,
            38.3429
          ],
          [
            27.4186,
            38.2903
          ],
          [
            27.4689,
            38.2366
          ],
          [
            27.5191,
            38.1829
          ],
          [
            27.5706,
            38.1278
          ],
          [
            27.6231,
            38.0711
          ],
          [
            27.6722,
            38.018
          ],
          [
            27.7221,
            37.9638
          ],
          [
            27.7721,
            37.9097
          ],
          [
            27.8206,
            37.8568
          ],
          [
            27.8728,
            37.8
          ],
          [
            27.9204,
            37.748
          ],
          [
            27.9704,
            37.6934
          ],
          [
            28.0196,
            37.6397
          ],
          [
            28.0705,
            37.5835
          ],
          [
            28.1202,
            37.529
          ],
          [
            28.1685,
            37.4761
          ],
          [
            28.2171,
            37.4221
          ],
          [
            28.267,
            37.3672
          ],
          [
            28.3158,
            37.3131
          ],
          [
            28.3645,
            37.259
          ],
          [
            28.4148,
            37.203
          ],
          [
            28.4641,
            37.1485
          ],
          [
            28.5129,
            37.094
          ],
          [
            28.5631,
            37.0376
          ],
          [
            28.6123,
            36.9828
          ],
          [
            28.6609,
            36.9282
          ],
          [
            28.7107,
            36.8722
          ],
          [
            28.7595,
            36.8173
          ],
          [
            28.8078,
            36.7628
          ],
          [
            28.8565,
            36.7078
          ],
          [
            28.9048,
            36.6531
          ],
          [
            28.955,
            36.5963
          ],
          [
            29.0047,
            36.54
          ],
          [
            29.0536,
            36.4842
          ],
          [
            29.1026,
            36.4282
          ],
          [
            29.1518,
            36.3723
          ],
          [
            29.2017,
            36.3152
          ],
          [
            29.2498,
            36.2598
          ],
          [
            29.2973,
            36.2086
          ],
          [
            29.3876,
            36.1476
          ],
          [
            29.4616,
            36.1088
          ],
          [
            29.5374,
            36.0712
          ],
          [
            29.6105,
            36.0336
          ],
          [
            29.6839,
            35.9957
          ],
          [
            29.76,
            35.957
          ],
          [
            29.8322,
            35.9198
          ],
          [
            29.9189,
            35.8751
          ],
          [
            29.9874,
            35.8406
          ],
          [
            30.1122,
            35.8031
          ],
          [
            30.1984,
            35.7831
          ],
          [
            30.2682,
            35.7655
          ],
          [
            30.3483,
            35.7352
          ],
          [
            30.4319,
            35.6975
          ],
          [
            30.5085,
            35.6623
          ],
          [
            30.5853,
            35.628
          ],
          [
            30.6692,
            35.5903
          ],
          [
            30.7458,
            35.556
          ],
          [
            30.8226,
            35.5215
          ],
          [
            30.8972,
            35.4877
          ],
          [
            30.9694,
            35.4551
          ],
          [
            31.0407,
            35.423
          ],
          [
            31.114,
            35.3896
          ],
          [
            31.1839,
            35.3579
          ],
          [
            31.2568,
            35.3247
          ],
          [
            31.3289,
            35.2918
          ],
          [
            31.3964,
            35.261
          ],
          [
            31.4626,
            35.2305
          ],
          [
            31.5313,
            35.199
          ],
          [
            31.6013,
            35.1669
          ],
          [
            31.6721,
            35.1342
          ],
          [
            31.7403,
            35.1027
          ],
          [
            31.8078,
            35.0715
          ],
          [
            31.8736,
            35.041
          ],
          [
            31.9343,
            35.0129
          ],
          [
            31.9941,
            34.985
          ],
          [
            32.0548,
            34.9563
          ],
          [
            32.1053,
            34.9295
          ],
          [
            32.1538,
            34.9026
          ],
          [
            32.2011,
            34.8771
          ],
          [
            32.2445,
            34.8536
          ],
          [
            32.2767,
            34.8361
          ],
          [
            32.2989,
            34.8241
          ],
          [
            32.3398,
            34.8019
          ],
          [
            32.3782,
            34.781
          ],
          [
            32.4117,
            34.7628
          ],
          [
            32.4435,
            34.7455
          ],
          [
            32.461,
            34.736
          ],
          [
            32.4757,
            34.7281
          ],
          [
            32.4936,
            34.7182
          ],
          [
            32.51,
            34.7092
          ],
          [
            32.525,
            34.6997
          ],
          [
            32.5393,
            34.6897
          ],
          [
            32.5566,
            34.6767
          ],
          [
            32.5714,
            34.666
          ],
          [
            32.6005,
            34.6464
          ],
          [
            32.614,
            34.6373
          ],
          [
            32.6283,
            34.6274
          ],
          [
            32.6442,
            34.6162
          ],
          [
            32.6581,
            34.6086
          ],
          [
            32.6795,
            34.6085
          ],
          [
            32.695,
            34.6186
          ],
          [
            32.7004,
            34.6334
          ],
          [
            32.695,
            34.6477
          ],
          [
            32.6763,
            34.6597
          ],
          [
            32.6566,
            34.6656
          ],
          [
            32.6414,
            34.6702
          ],
          [
            32.624,
            34.6757
          ],
          [
            32.6084,
            34.6805
          ],
          [
            32.581,
            34.6888
          ],
          [
            32.5666,
            34.6932
          ]
        ]
      },
      "properties": {
        "time_europe_berlin": [
          "03.12.2025 12:10:54",
          "03.12.2025 12:11:10",
          "03.12.2025 12:11:26",
          "03.12.2025 12:11:42",
          "03.12.2025 12:11:58",
          "03.12.2025 12:12:14",
          "03.12.2025 12:12:32",
          "03.12.2025 12:12:53",
          "03.12.2025 12:13:17",
          "03.12.2025 12:13:47",
          "03.12.2025 12:14:32",
          "03.12.2025 12:15:02",
          "03.12.2025 12:15:32",
          "03.12.2025 12:16:02",
          "03.12.2025 12:16:32",
          "03.12.2025 12:16:52",
          "03.12.2025 12:17:22",
          "03.12.2025 12:17:40",
          "03.12.2025 12:17:57",
          "03.12.2025 12:18:14",
          "03.12.2025 12:18:44",
          "03.12.2025 12:19:04",
          "03.12.2025 12:19:49",
          "03.12.2025 12:20:19",
          "03.12.2025 12:21:00",
          "03.12.2025 12:21:30",
          "03.12.2025 12:22:00",
          "03.12.2025 12:22:30",
          "03.12.2025 12:23:00",
          "03.12.2025 12:23:19",
          "03.12.2025 12:24:16",
          "03.12.2025 12:24:46",
          "03.12.2025 12:25:16",
          "03.12.2025 12:25:46",
          "03.12.2025 12:26:16",
          "03.12.2025 12:26:46",
          "03.12.2025 12:27:16",
          "03.12.2025 12:27:46",
          "03.12.2025 12:28:16",
          "03.12.2025 12:28:46",
          "03.12.2025 12:29:16",
          "03.12.2025 12:29:45",
          "03.12.2025 12:30:15",
          "03.12.2025 12:30:45",
          "03.12.2025 12:31:15",
          "03.12.2025 12:31:45",
          "03.12.2025 12:32:15",
          "03.12.2025 12:32:45",
          "03.12.2025 12:33:16",
          "03.12.2025 12:33:46",
          "03.12.2025 12:34:16",
          "03.12.2025 12:34:46",
          "03.12.2025 12:35:08",
          "03.12.2025 12:35:33",
          "03.12.2025 12:36:03",
          "03.12.2025 12:36:33",
          "03.12.2025 12:37:21",
          "03.12.2025 12:37:51",
          "03.12.2025 12:38:22",
          "03.12.2025 12:38:52",
          "03.12.2025 12:39:46",
          "03.12.2025 12:40:16",
          "03.12.2025 12:40:46",
          "03.12.2025 12:41:23",
          "03.12.2025 12:41:53",
          "03.12.2025 12:42:23",
          "03.12.2025 12:42:53",
          "03.12.2025 12:43:41",
          "03.12.2025 12:44:11",
          "03.12.2025 12:44:41",
          "03.12.2025 12:45:11",
          "03.12.2025 12:45:41",
          "03.12.2025 12:46:11",
          "03.12.2025 12:46:41",
          "03.12.2025 12:47:11",
          "03.12.2025 12:47:41",
          "03.12.2025 12:48:12",
          "03.12.2025 12:48:42",
          "03.12.2025 12:49:12",
          "03.12.2025 12:49:42",
          "03.12.2025 12:50:12",
          "03.12.2025 12:50:42",
          "03.12.2025 12:51:12",
          "03.12.2025 12:51:42",
          "03.12.2025 12:52:12",
          "03.12.2025 12:52:42",
          "03.12.2025 12:53:12",
          "03.12.2025 12:53:42",
          "03.12.2025 12:54:12",
          "03.12.2025 12:54:42",
          "03.12.2025 12:55:12",
          "03.12.2025 12:55:42",
          "03.12.2025 12:56:12",
          "03.12.2025 12:56:42",
          "03.12.2025 12:57:12",
          "03.12.2025 12:57:42",
          "03.12.2025 12:58:12",
          "03.12.2025 12:58:42",
          "03.12.2025 12:59:12",
          "03.12.2025 12:59:42",
          "03.12.2025 13:00:12",
          "03.12.2025 13:00:42",
          "03.12.2025 13:01:12",
          "03.12.2025 13:01:42",
          "03.12.2025 13:02:12",
          "03.12.2025 13:02:42",
          "03.12.2025 13:03:12",
          "03.12.2025 13:03:42",
          "03.12.2025 13:04:12",
          "03.12.2025 13:04:42",
          "03.12.2025 13:05:12",
          "03.12.2025 13:05:42",
          "03.12.2025 13:06:12",
          "03.12.2025 13:06:42",
          "03.12.2025 13:07:12",
          "03.12.2025 13:07:42",
          "03.12.2025 13:08:12",
          "03.12.2025 13:08:42",
          "03.12.2025 13:09:12",
          "03.12.2025 13:09:42",
          "03.12.2025 13:10:12",
          "03.12.2025 13:10:45",
          "03.12.2025 13:11:17",
          "03.12.2025 13:11:47",
          "03.12.2025 13:12:17",
          "03.12.2025 13:12:47",
          "03.12.2025 13:13:17",
          "03.12.2025 13:13:47",
          "03.12.2025 13:14:17",
          "03.12.2025 13:14:47",
          "03.12.2025 13:15:17",
          "03.12.2025 13:15:48",
          "03.12.2025 13:16:18",
          "03.12.2025 13:16:48",
          "03.12.2025 13:17:18",
          "03.12.2025 13:17:48",
          "03.12.2025 13:18:18",
          "03.12.2025 13:18:48",
          "03.12.2025 13:19:18",
          "03.12.2025 13:19:48",
          "03.12.2025 13:20:18",
          "03.12.2025 13:20:48",
          "03.12.2025 13:21:18",
          "03.12.2025 13:21:48",
          "03.12.2025 13:22:18",
          "03.12.2025 13:22:49",
          "03.12.2025 13:23:19",
          "03.12.2025 13:23:50",
          "03.12.2025 13:24:21",
          "03.12.2025 13:24:52",
          "03.12.2025 13:25:22",
          "03.12.2025 13:25:52",
          "03.12.2025 13:26:22",
          "03.12.2025 13:26:52",
          "03.12.2025 13:27:23",
          "03.12.2025 13:27:53",
          "03.12.2025 13:28:13",
          "03.12.2025 13:28:43",
          "03.12.2025 13:29:13",
          "03.12.2025 13:29:43",
          "03.12.2025 13:30:13",
          "03.12.2025 13:30:43",
          "03.12.2025 13:31:13",
          "03.12.2025 13:31:44",
          "03.12.2025 13:32:15",
          "03.12.2025 13:32:45",
          "03.12.2025 13:33:15",
          "03.12.2025 13:33:46",
          "03.12.2025 13:34:16",
          "03.12.2025 13:34:46",
          "03.12.2025 13:35:16",
          "03.12.2025 13:35:46",
          "03.12.2025 13:36:16",
          "03.12.2025 13:36:46",
          "03.12.2025 13:37:18",
          "03.12.2025 13:37:48",
          "03.12.2025 13:38:19",
          "03.12.2025 13:38:49",
          "03.12.2025 13:39:19",
          "03.12.2025 13:39:49",
          "03.12.2025 13:40:20",
          "03.12.2025 13:40:50",
          "03.12.2025 13:41:20",
          "03.12.2025 13:41:51",
          "03.12.2025 13:42:21",
          "03.12.2025 13:42:51",
          "03.12.2025 13:43:21",
          "03.12.2025 13:43:51",
          "03.12.2025 13:44:21",
          "03.12.2025 13:44:51",
          "03.12.2025 13:45:21",
          "03.12.2025 13:45:53",
          "03.12.2025 13:46:23",
          "03.12.2025 13:46:53",
          "03.12.2025 13:47:24",
          "03.12.2025 13:47:55",
          "03.12.2025 13:48:25",
          "03.12.2025 13:48:55",
          "03.12.2025 13:49:25",
          "03.12.2025 13:49:55",
          "03.12.2025 13:50:26",
          "03.12.2025 13:50:56",
          "03.12.2025 13:51:26",
          "03.12.2025 13:51:56",
          "03.12.2025 13:52:26",
          "03.12.2025 13:52:56",
          "03.12.2025 13:53:26",
          "03.12.2025 13:53:56",
          "03.12.2025 13:54:26",
          "03.12.2025 13:54:56",
          "03.12.2025 13:55:26",
          "03.12.2025 13:55:56",
          "03.12.2025 13:56:27",
          "03.12.2025 13:56:57",
          "03.12.2025 13:57:27",
          "03.12.2025 13:57:57",
          "03.12.2025 13:58:28",
          "03.12.2025 13:58:58",
          "03.12.2025 13:59:28",
          "03.12.2025 13:59:58",
          "03.12.2025 14:00:28",
          "03.12.2025 14:00:58",
          "03.12.2025 14:01:28",
          "03.12.2025 14:01:58",
          "03.12.2025 14:02:28",
          "03.12.2025 14:03:02",
          "03.12.2025 14:03:35",
          "03.12.2025 14:04:05",
          "03.12.2025 14:04:35",
          "03.12.2025 14:05:05",
          "03.12.2025 14:05:35",
          "03.12.2025 14:06:05",
          "03.12.2025 14:06:35",
          "03.12.2025 14:07:05",
          "03.12.2025 14:07:35",
          "03.12.2025 14:08:05",
          "03.12.2025 14:08:35",
          "03.12.2025 14:09:06",
          "03.12.2025 14:09:33",
          "03.12.2025 14:10:07",
          "03.12.2025 14:10:37",
          "03.12.2025 14:11:08",
          "03.12.2025 14:11:38",
          "03.12.2025 14:12:09",
          "03.12.2025 14:12:41",
          "03.12.2025 14:13:13",
          "03.12.2025 14:13:45",
          "03.12.2025 14:14:15",
          "03.12.2025 14:14:45",
          "03.12.2025 14:15:17",
          "03.12.2025 14:15:49",
          "03.12.2025 14:16:35",
          "03.12.2025 14:17:05",
          "03.12.2025 14:17:35",
          "03.12.2025 14:18:05",
          "03.12.2025 14:18:35",
          "03.12.2025 14:19:05",
          "03.12.2025 14:19:35",
          "03.12.2025 14:20:05",
          "03.12.2025 14:20:35",
          "03.12.2025 14:21:05",
          "03.12.2025 14:21:35",
          "03.12.2025 14:22:05",
          "03.12.2025 14:22:36",
          "03.12.2025 14:23:06",
          "03.12.2025 14:23:36",
          "03.12.2025 14:24:07",
          "03.12.2025 14:24:37",
          "03.12.2025 14:25:08",
          "03.12.2025 14:25:38",
          "03.12.2025 14:26:08",
          "03.12.2025 14:26:40",
          "03.12.2025 14:27:11",
          "03.12.2025 14:27:42",
          "03.12.2025 14:28:12",
          "03.12.2025 14:28:43",
          "03.12.2025 14:29:13",
          "03.12.2025 14:29:44",
          "03.12.2025 14:30:15",
          "03.12.2025 14:30:45",
          "03.12.2025 14:31:16",
          "03.12.2025 14:31:46",
          "03.12.2025 14:32:16",
          "03.12.2025 14:32:46",
          "03.12.2025 14:33:16",
          "03.12.2025 14:33:46",
          "03.12.2025 14:34:16",
          "03.12.2025 14:34:46",
          "03.12.2025 14:35:16",
          "03.12.2025 14:35:46",
          "03.12.2025 14:36:16",
          "03.12.2025 14:36:47",
          "03.12.2025 14:37:07",
          "03.12.2025 14:37:23",
          "03.12.2025 14:37:42",
          "03.12.2025 14:38:02",
          "03.12.2025 14:38:32",
          "03.12.2025 14:39:02",
          "03.12.2025 14:39:32",
          "03.12.2025 14:40:00",
          "03.12.2025 14:40:26",
          "03.12.2025 14:40:42",
          "03.12.2025 14:41:02",
          "03.12.2025 14:41:27",
          "03.12.2025 14:41:57",
          "03.12.2025 14:42:28",
          "03.12.2025 14:42:58",
          "03.12.2025 14:43:28",
          "03.12.2025 14:43:59",
          "03.12.2025 14:44:29",
          "03.12.2025 14:44:59",
          "03.12.2025 14:45:29",
          "03.12.2025 14:45:59",
          "03.12.2025 14:46:31",
          "03.12.2025 14:47:02",
          "03.12.2025 14:47:32",
          "03.12.2025 14:48:02",
          "03.12.2025 14:48:32",
          "03.12.2025 14:49:02",
          "03.12.2025 14:49:33",
          "03.12.2025 14:50:03",
          "03.12.2025 14:50:33",
          "03.12.2025 14:51:03",
          "03.12.2025 14:51:33",
          "03.12.2025 14:52:03",
          "03.12.2025 14:52:33",
          "03.12.2025 14:53:03",
          "03.12.2025 14:53:33",
          "03.12.2025 14:54:03",
          "03.12.2025 14:54:33",
          "03.12.2025 14:55:03",
          "03.12.2025 14:55:33",
          "03.12.2025 14:56:03",
          "03.12.2025 14:56:33",
          "03.12.2025 14:57:03",
          "03.12.2025 14:57:33",
          "03.12.2025 14:58:04",
          "03.12.2025 14:58:34",
          "03.12.2025 14:59:04",
          "03.12.2025 14:59:34",
          "03.12.2025 15:00:04",
          "03.12.2025 15:00:34",
          "03.12.2025 15:01:04",
          "03.12.2025 15:01:35",
          "03.12.2025 15:02:05",
          "03.12.2025 15:02:35",
          "03.12.2025 15:03:05",
          "03.12.2025 15:03:35",
          "03.12.2025 15:04:03",
          "03.12.2025 15:04:43",
          "03.12.2025 15:05:14",
          "03.12.2025 15:05:44",
          "03.12.2025 15:06:14",
          "03.12.2025 15:06:44",
          "03.12.2025 15:07:14",
          "03.12.2025 15:07:44",
          "03.12.2025 15:08:18",
          "03.12.2025 15:08:46",
          "03.12.2025 15:09:32",
          "03.12.2025 15:10:04",
          "03.12.2025 15:10:27",
          "03.12.2025 15:10:58",
          "03.12.2025 15:11:31",
          "03.12.2025 15:12:01",
          "03.12.2025 15:12:31",
          "03.12.2025 15:13:04",
          "03.12.2025 15:13:34",
          "03.12.2025 15:14:04",
          "03.12.2025 15:14:34",
          "03.12.2025 15:15:04",
          "03.12.2025 15:15:34",
          "03.12.2025 15:16:04",
          "03.12.2025 15:16:34",
          "03.12.2025 15:17:04",
          "03.12.2025 15:17:34",
          "03.12.2025 15:18:04",
          "03.12.2025 15:18:34",
          "03.12.2025 15:19:04",
          "03.12.2025 15:19:34",
          "03.12.2025 15:20:04",
          "03.12.2025 15:20:34",
          "03.12.2025 15:21:04",
          "03.12.2025 15:21:34",
          "03.12.2025 15:22:04",
          "03.12.2025 15:22:34",
          "03.12.2025 15:23:06",
          "03.12.2025 15:23:36",
          "03.12.2025 15:24:06",
          "03.12.2025 15:24:36",
          "03.12.2025 15:25:06",
          "03.12.2025 15:25:28",
          "03.12.2025 15:25:44",
          "03.12.2025 15:26:14",
          "03.12.2025 15:26:45",
          "03.12.2025 15:27:15",
          "03.12.2025 15:27:46",
          "03.12.2025 15:28:01",
          "03.12.2025 15:28:17",
          "03.12.2025 15:28:34",
          "03.12.2025 15:28:50",
          "03.12.2025 15:29:06",
          "03.12.2025 15:29:22",
          "03.12.2025 15:29:41",
          "03.12.2025 15:29:57",
          "03.12.2025 15:30:28",
          "03.12.2025 15:30:45",
          "03.12.2025 15:31:01",
          "03.12.2025 15:31:18",
          "03.12.2025 15:31:35",
          "03.12.2025 15:31:54",
          "03.12.2025 15:32:12",
          "03.12.2025 15:32:30",
          "03.12.2025 15:32:47",
          "03.12.2025 15:33:07",
          "03.12.2025 15:33:27",
          "03.12.2025 15:33:43",
          "03.12.2025 15:34:00",
          "03.12.2025 15:34:16",
          "03.12.2025 15:34:47",
          "03.12.2025 15:35:04"
        ],
        "course_deg_clockwise_from_north": [
          138,
          141,
          140,
          138,
          134,
          108,
          93,
          93,
          96,
          98,
          99,
          101,
          102,
          102,
          102,
          102,
          100,
          108,
          129,
          135,
          134,
          131,
          131,
          130,
          130,
          130,
          130,
          130,
          130,
          130,
          130,
          130,
          130,
          128,
          128,
          128,
          128,
          128,
          128,
          128,
          128,
          129,
          129,
          129,
          129,
          129,
          129,
          129,
          129,
          129,
          129,
          129,
          129,
          129,
          129,
          129,
          129,
          129,
          130,
          129,
          130,
          130,
          130,
          130,
          130,
          130,
          130,
          130,
          130,
          130,
          130,
          130,
          130,
          130,
          131,
          130,
          131,
          131,
          131,
          131,
          131,
          131,
          131,
          131,
          131,
          131,
          131,
          131,
          131,
          131,
          131,
          131,
          131,
          131,
          131,
          131,
          132,
          131,
          132,
          132,
          132,
          132,
          132,
          132,
          132,
          132,
          132,
          132,
          132,
          132,
          132,
          132,
          132,
          132,
          132,
          133,
          132,
          132,
          133,
          133,
          133,
          133,
          133,
          133,
          133,
          133,
          132,
          132,
          132,
          132,
          132,
          132,
          132,
          132,
          132,
          132,
          133,
          132,
          132,
          133,
          133,
          133,
          133,
          133,
          133,
          133,
          133,
          133,
          133,
          133,
          133,
          133,
          133,
          133,
          133,
          134,
          133,
          133,
          133,
          133,
          134,
          134,
          134,
          134,
          134,
          134,
          134,
          134,
          134,
          134,
          134,
          134,
          134,
          134,
          134,
          134,
          134,
          134,
          135,
          135,
          135,
          134,
          135,
          135,
          135,
          135,
          135,
          135,
          135,
          135,
          135,
          135,
          135,
          135,
          135,
          135,
          135,
          135,
          135,
          135,
          136,
          135,
          136,
          136,
          136,
          136,
          136,
          136,
          136,
          136,
          136,
          136,
          136,
          136,
          136,
          136,
          136,
          136,
          136,
          136,
          135,
          136,
          136,
          135,
          136,
          136,
          136,
          136,
          136,
          136,
          136,
          136,
          136,
          136,
          136,
          136,
          136,
          136,
          134,
          130,
          131,
          131,
          131,
          131,
          131,
          131,
          131,
          131,
          131,
          131,
          131,
          131,
          131,
          131,
          131,
          132,
          131,
          131,
          132,
          132,
          132,
          132,
          132,
          132,
          132,
          132,
          132,
          132,
          132,
          132,
          132,
          132,
          132,
          132,
          132,
          132,
          132,
          132,
          132,
          133,
          132,
          132,
          132,
          133,
          133,
          133,
          133,
          133,
          133,
          133,
          133,
          133,
          130,
          120,
          110,
          102,
          98,
          98,
          99,
          101,
          115,
          123,
          135,
          146,
          147,
          145,
          145,
          145,
          143,
          143,
          144,
          144,
          144,
          144,
          144,
          144,
          144,
          144,
          144,
          144,
          144,
          144,
          144,
          144,
          144,
          144,
          144,
          144,
          144,
          144,
          144,
          144,
          144,
          144,
          144,
          145,
          144,
          145,
          144,
          145,
          144,
          145,
          145,
          145,
          145,
          145,
          145,
          145,
          138,
          125,
          122,
          122,
          123,
          122,
          122,
          122,
          122,
          119,
          107,
          106,
          109,
          118,
          120,
          119,
          119,
          119,
          119,
          119,
          119,
          119,
          119,
          119,
          119,
          119,
          119,
          119,
          119,
          119,
          119,
          119,
          119,
          120,
          120,
          120,
          120,
          121,
          124,
          123,
          123,
          124,
          123,
          123,
          123,
          123,
          123,
          123,
          123,
          124,
          124,
          124,
          129,
          132,
          132,
          130,
          129,
          130,
          130,
          130,
          111,
          73,
          35,
          3,
          327,
          294,
          289,
          291,
          291,
          290,
          290,
          290
        ],
        "speed_kts": [
          145,
          156,
          173,
          186,
          185,
          188,
          195,
          207,
          214,
          227,
          287,
          328,
          360,
          377,
          390,
          397,
          403,
          404,
          398,
          399,
          402,
          404,
          402,
          397,
          398,
          407,
          413,
          418,
          422,
          425,
          434,
          436,
          438,
          440,
          440,
          436,
          431,
          424,
          416,
          413,
          417,
          423,
          428,
          433,
          438,
          442,
          445,
          447,
          450,
          449,
          448,
          447,
          446,
          445,
          444,
          443,
          441,
          441,
          441,
          441,
          443,
          442,
          440,
          440,
          440,
          439,
          440,
          441,
          441,
          442,
          441,
          442,
          442,
          442,
          442,
          442,
          442,
          442,
          442,
          442,
          443,
          444,
          445,
          445,
          445,
          445,
          445,
          446,
          445,
          445,
          446,
          446,
          446,
          447,
          445,
          441,
          439,
          437,
          436,
          436,
          439,
          443,
          446,
          449,
          452,
          453,
          453,
          452,
          453,
          453,
          453,
          452,
          451,
          451,
          451,
          449,
          447,
          445,
          442,
          443,
          445,
          447,
          447,
          448,
          447,
          447,
          448,
          449,
          448,
          449,
          450,
          450,
          450,
          451,
          451,
          452,
          452,
          452,
          451,
          452,
          451,
          451,
          452,
          451,
          451,
          451,
          451,
          452,
          453,
          453,
          454,
          455,
          455,
          455,
          456,
          456,
          3,
          457,
          456,
          456,
          456,
          456,
          456,
          457,
          458,
          458,
          459,
          460,
          460,
          459,
          460,
          459,
          460,
          461,
          461,
          462,
          463,
          463,
          463,
          463,
          465,
          465,
          464,
          464,
          464,
          463,
          462,
          460,
          460,
          460,
          460,
          459,
          458,
          458,
          458,
          457,
          458,
          459,
          459,
          460,
          462,
          463,
          463,
          463,
          463,
          463,
          463,
          461,
          461,
          462,
          462,
          461,
          460,
          461,
          460,
          460,
          463,
          463,
          463,
          465,
          466,
          467,
          467,
          467,
          470,
          470,
          470,
          469,
          470,
          471,
          472,
          472,
          472,
          472,
          472,
          474,
          474,
          475,
          477,
          479,
          480,
          481,
          480,
          480,
          479,
          479,
          479,
          480,
          480,
          481,
          481,
          483,
          483,
          484,
          485,
          485,
          484,
          485,
          485,
          483,
          483,
          482,
          483,
          482,
          482,
          482,
          482,
          482,
          482,
          480,
          481,
          481,
          482,
          481,
          481,
          482,
          481,
          482,
          482,
          481,
          484,
          486,
          484,
          483,
          483,
          484,
          484,
          485,
          484,
          483,
          482,
          484,
          485,
          490,
          495,
          497,
          498,
          500,
          500,
          500,
          495,
          492,
          484,
          477,
          477,
          480,
          482,
          482,
          481,
          482,
          481,
          481,
          481,
          481,
          481,
          480,
          481,
          480,
          479,
          479,
          480,
          481,
          482,
          483,
          484,
          485,
          485,
          486,
          487,
          487,
          488,
          488,
          487,
          487,
          487,
          486,
          487,
          485,
          486,
          486,
          488,
          491,
          493,
          492,
          494,
          495,
          493,
          494,
          499,
          510,
          513,
          513,
          513,
          513,
          512,
          511,
          509,
          513,
          518,
          520,
          518,
          514,
          513,
          514,
          513,
          513,
          516,
          507,
          493,
          487,
          485,
          485,
          485,
          483,
          474,
          458,
          452,
          462,
          467,
          469,
          462,
          454,
          435,
          412,
          392,
          376,
          357,
          338,
          320,
          306,
          298,
          293,
          280,
          255,
          232,
          218,
          227,
          223,
          214,
          211,
          210,
          213,
          216,
          215,
          210,
          202,
          202,
          202,
          196,
          195,
          193,
          198,
          201,
          193,
          193,
          191,
          181,
          175,
          163,
          153
        ],
        "speed_mph": [
          167.0,
          180.0,
          199.0,
          214.0,
          213.0,
          216.0,
          224.0,
          238.0,
          246.0,
          261.0,
          330.0,
          377.0,
          414.0,
          434.0,
          449.0,
          457.0,
          464.0,
          465.0,
          458.0,
          459.0,
          463.0,
          465.0,
          463.0,
          457.0,
          458.0,
          468.0,
          475.0,
          481.0,
          486.0,
          489.0,
          499.0,
          502.0,
          504.0,
          506.0,
          506.0,
          502.0,
          496.0,
          488.0,
          479.0,
          475.0,
          480.0,
          487.0,
          493.0,
          498.0,
          504.0,
          509.0,
          512.0,
          514.0,
          518.0,
          517.0,
          516.0,
          514.0,
          513.0,
          512.0,
          511.0,
          510.0,
          507.0,
          507.0,
          507.0,
          507.0,
          510.0,
          509.0,
          506.0,
          506.0,
          506.0,
          505.0,
          506.0,
          507.0,
          507.0,
          509.0,
          507.0,
          509.0,
          509.0,
          509.0,
          509.0,
          509.0,
          509.0,
          509.0,
          509.0,
          509.0,
          510.0,
          511.0,
          512.0,
          512.0,
          512.0,
          512.0,
          512.0,
          513.0,
          512.0,
          512.0,
          513.0,
          513.0,
          513.0,
          514.0,
          512.0,
          507.0,
          505.0,
          503.0,
          502.0,
          502.0,
          505.0,
          510.0,
          513.0,
          517.0,
          520.0,
          521.0,
          521.0,
          520.0,
          521.0,
          521.0,
          521.0,
          520.0,
          519.0,
          519.0,
          519.0,
          517.0,
          514.0,
          512.0,
          509.0,
          510.0,
          512.0,
          514.0,
          514.0,
          516.0,
          514.0,
          514.0,
          516.0,
          517.0,
          516.0,
          517.0,
          518.0,
          518.0,
          518.0,
          519.0,
          519.0,
          520.0,
          520.0,
          520.0,
          519.0,
          520.0,
          519.0,
          519.0,
          520.0,
          519.0,
          519.0,
          519.0,
          519.0,
          520.0,
          521.0,
          521.0,
          522.0,
          524.0,
          524.0,
          524.0,
          525.0,
          525.0,
          3.0,
          526.0,
          525.0,
          525.0,
          525.0,
          525.0,
          525.0,
          526.0,
          527.0,
          527.0,
          528.0,
          529.0,
          529.0,
          528.0,
          529.0,
          528.0,
          529.0,
          531.0,
          531.0,
          532.0,
          533.0,
          533.0,
          533.0,
          533.0,
          535.0,
          535.0,
          534.0,
          534.0,
          534.0,
          533.0,
          532.0,
          529.0,
          529.0,
          529.0,
          529.0,
          528.0,
          527.0,
          527.0,
          527.0,
          526.0,
          527.0,
          528.0,
          528.0,
          529.0,
          532.0,
          533.0,
          533.0,
          533.0,
          533.0,
          533.0,
          533.0,
          531.0,
          531.0,
          532.0,
          532.0,
          531.0,
          529.0,
          531.0,
          529.0,
          529.0,
          533.0,
          533.0,
          533.0,
          535.0,
          536.0,
          537.0,
          537.0,
          537.0,
          541.0,
          541.0,
          541.0,
          540.0,
          541.0,
          542.0,
          543.0,
          543.0,
          543.0,
          543.0,
          543.0,
          545.0,
          545.0,
          547.0,
          549.0,
          551.0,
          552.0,
          554.0,
          552.0,
          552.0,
          551.0,
          551.0,
          551.0,
          552.0,
          552.0,
          554.0,
          554.0,
          556.0,
          556.0,
          557.0,
          558.0,
          558.0,
          557.0,
          558.0,
          558.0,
          556.0,
          556.0,
          555.0,
          556.0,
          555.0,
          555.0,
          555.0,
          555.0,
          555.0,
          555.0,
          552.0,
          554.0,
          554.0,
          555.0,
          554.0,
          554.0,
          555.0,
          554.0,
          555.0,
          555.0,
          554.0,
          557.0,
          559.0,
          557.0,
          556.0,
          556.0,
          557.0,
          557.0,
          558.0,
          557.0,
          556.0,
          555.0,
          557.0,
          558.0,
          564.0,
          570.0,
          572.0,
          573.0,
          575.0,
          575.0,
          575.0,
          570.0,
          566.0,
          557.0,
          549.0,
          549.0,
          552.0,
          555.0,
          555.0,
          554.0,
          555.0,
          554.0,
          554.0,
          554.0,
          554.0,
          554.0,
          552.0,
          554.0,
          552.0,
          551.0,
          551.0,
          552.0,
          554.0,
          555.0,
          556.0,
          557.0,
          558.0,
          558.0,
          559.0,
          560.0,
          560.0,
          562.0,
          562.0,
          560.0,
          560.0,
          560.0,
          559.0,
          560.0,
          558.0,
          559.0,
          559.0,
          562.0,
          565.0,
          567.0,
          566.0,
          568.0,
          570.0,
          567.0,
          568.0,
          574.0,
          587.0,
          590.0,
          590.0,
          590.0,
          590.0,
          589.0,
          588.0,
          586.0,
          590.0,
          596.0,
          598.0,
          596.0,
          592.0,
          590.0,
          592.0,
          590.0,
          590.0,
          594.0,
          583.0,
          567.0,
          560.0,
          558.0,
          558.0,
          558.0,
          556.0,
          545.0,
          527.0,
          520.0,
          532.0,
          537.0,
          540.0,
          532.0,
          522.0,
          501.0,
          474.0,
          451.0,
          433.0,
          411.0,
          389.0,
          368.0,
          352.0,
          343.0,
          337.0,
          322.0,
          293.0,
          267.0,
          251.0,
          261.0,
          257.0,
          246.0,
          243.0,
          242.0,
          245.0,
          249.0,
          247.0,
          242.0,
          232.0,
          232.0,
          232.0,
          226.0,
          224.0,
          222.0,
          228.0,
          231.0,
          222.0,
          222.0,
          220.0,
          208.0,
          201.0,
          188.0,
          176.0
        ],
        "altitude_ft": [
          925,
          1575,
          2150,
          2775,
          3625,
          4625,
          5450,
          6400,
          7575,
          9175,
          10825,
          11875,
          13075,
          14675,
          16475,
          17600,
          19450,
          20450,
          21425,
          22275,
          23800,
          24775,
          27150,
          28650,
          30250,
          31050,
          31825,
          32575,
          33325,
          33700,
          34675,
          35200,
          35725,
          36250,
          36775,
          37350,
          37975,
          38675,
          39375,
          39950,
          40200,
          40325,
          40425,
          40550,
          40675,
          40800,
          40925,
          41000,
          41000,
          41000,
          41000,
          41000,
          41000,
          41000,
          41000,
          41000,
          41000,
          41000,
          41000,
          41000,
          41000,
          41000,
          41000,
          41000,
          41000,
          41000,
          41000,
          41000,
          41000,
          41000,
          41000,
          41000,
          41000,
          41000,
          41000,
          41000,
          41000,
          41000,
          41000,
          41000,
          41000,
          41000,
          41000,
          41000,
          41000,
          41000,
          41000,
          41000,
          41000,
          41000,
          41000,
          41000,
          41050,
          41225,
          41450,
          41675,
          41925,
          42150,
          42375,
          42575,
          42725,
          42825,
          42925,
          43025,
          43100,
          43175,
          43300,
          43425,
          43575,
          43700,
          43825,
          43975,
          44125,
          44250,
          44375,
          44525,
          44650,
          44800,
          44950,
          45000,
          45000,
          45000,
          45000,
          45000,
          45000,
          45000,
          45000,
          45000,
          45000,
          45000,
          45000,
          45000,
          45000,
          45000,
          45000,
          45000,
          45000,
          45000,
          45000,
          45000,
          45000,
          45000,
          45000,
          45000,
          45000,
          45000,
          45000,
          45000,
          45000,
          45000,
          45000,
          45000,
          45000,
          45000,
          45000,
          45000,
          45000,
          45000,
          45000,
          45000,
          45000,
          45000,
          45000,
          45000,
          45000,
          45000,
          45000,
          45000,
          45000,
          45000,
          45000,
          45000,
          45000,
          45000,
          45000,
          45000,
          45000,
          45000,
          45000,
          45000,
          45000,
          45000,
          45000,
          45000,
          45000,
          45000,
          45000,
          45000,
          45000,
          45000,
          45000,
          45000,
          45000,
          45000,
          45000,
          45000,
          45000,
          45000,
          45000,
          45000,
          45000,
          45000,
          45000,
          45000,
          45000,
          45000,
          45000,
          45000,
          45000,
          45000,
          45000,
          45000,
          45025,
          45000,
          45000,
          45000,
          45000,
          45000,
          45000,
          45000,
          45000,
          45000,
          44975,
          45000,
          45000,
          45000,
          45000,
          45000,
          45000,
          45000,
          45000,
          45000,
          45000,
          45000,
          45000,
          45000,
          45000,
          45000,
          45000,
          45000,
          45000,
          45000,
          45000,
          45000,
          45000,
          45000,
          45000,
          45000,
          45000,
          45000,
          45000,
          45000,
          45000,
          45000,
          45000,
          45000,
          45000,
          45000,
          45000,
          45000,
          45000,
          45000,
          45000,
          45000,
          45000,
          45000,
          45000,
          45000,
          45000,
          45000,
          45000,
          45000,
          45000,
          45000,
          45000,
          45000,
          45000,
          45000,
          45000,
          45000,
          45000,
          45000,
          45000,
          45000,
          45000,
          45000,
          45000,
          45000,
          45000,
          45000,
          45000,
          45000,
          45000,
          45000,
          45000,
          45000,
          45000,
          45000,
          45000,
          45000,
          45000,
          45000,
          45000,
          45000,
          45000,
          45000,
          45000,
          45000,
          45000,
          45000,
          45000,
          45000,
          45000,
          45000,
          45000,
          45000,
          45000,
          45000,
          45000,
          45000,
          45000,
          45000,
          45000,
          45000,
          45000,
          45000,
          45000,
          45000,
          45000,
          45000,
          45000,
          45000,
          45000,
          45000,
          45000,
          45000,
          45000,
          45000,
          45000,
          45000,
          45000,
          45000,
          45000,
          45000,
          45000,
          45000,
          45000,
          45000,
          45000,
          45000,
          45000,
          45000,
          45000,
          45000,
          45000,
          45000,
          45000,
          45000,
          45000,
          45000,
          45000,
          45000,
          45000,
          45000,
          45000,
          45000,
          44625,
          43650,
          42650,
          41475,
          40150,
          38550,
          36900,
          35125,
          33350,
          31675,
          30000,
          28300,
          26675,
          25075,
          23425,
          21825,
          20225,
          18750,
          17250,
          15625,
          14275,
          13075,
          11925,
          10825,
          9975,
          9400,
          8250,
          7100,
          5950,
          4800,
          4200,
          3900,
          3825,
          3850,
          3700,
          3425,
          3075,
          2800,
          2375,
          2325,
          2325,
          2325,
          2325,
          2325,
          2325,
          2200,
          2075,
          1950,
          1925,
          1925,
          1950,
          1775,
          1325,
          1075
        ],
        "vertical_rate_fpm": [
          0.0,
          2297.0,
          2250.0,
          2766.0,
          3469.0,
          3221.0,
          2731.0,
          2833.0,
          3083.0,
          2600.0,
          2160.0,
          2250.0,
          2800.0,
          3400.0,
          3510.0,
          3570.0,
          3563.0,
          3386.0,
          3221.0,
          3032.0,
          3000.0,
          3092.0,
          3100.0,
          2620.0,
          2028.0,
          1575.0,
          1525.0,
          1500.0,
          1378.0,
          1066.0,
          1034.0,
          1050.0,
          1050.0,
          1050.0,
          1100.0,
          1200.0,
          1325.0,
          1400.0,
          1275.0,
          825.0,
          381.0,
          229.0,
          225.0,
          250.0,
          250.0,
          250.0,
          200.0,
          74.0,
          0.0,
          0.0,
          0.0,
          0.0,
          0.0,
          0.0,
          0.0,
          0.0,
          0.0,
          0.0,
          0.0,
          0.0,
          0.0,
          0.0,
          0.0,
          0.0,
          0.0,
          0.0,
          0.0,
          0.0,
          0.0,
          0.0,
          0.0,
          0.0,
          0.0,
          0.0,
          0.0,
          0.0,
          0.0,
          0.0,
          0.0,
          0.0,
          0.0,
          0.0,
          0.0,
          0.0,
          0.0,
          0.0,
          0.0,
          0.0,
          0.0,
          0.0,
          0.0,
          50.0,
          225.0,
          400.0,
          450.0,
          475.0,
          475.0,
          450.0,
          425.0,
          350.0,
          250.0,
          200.0,
          200.0,
          175.0,
          150.0,
          200.0,
          250.0,
          275.0,
          275.0,
          250.0,
          275.0,
          300.0,
          275.0,
          250.0,
          275.0,
          275.0,
          275.0,
          300.0,
          200.0,
          50.0,
          0.0,
          0.0,
          0.0,
          0.0,
          0.0,
          0.0,
          0.0,
          0.0,
          0.0,
          0.0,
          0.0,
          0.0,
          0.0,
          0.0,
          0.0,
          0.0,
          0.0,
          0.0,
          0.0,
          0.0,
          0.0,
          0.0,
          0.0,
          0.0,
          0.0,
          0.0,
          0.0,
          0.0,
          0.0,
          0.0,
          0.0,
          0.0,
          0.0,
          0.0,
          0.0,
          0.0,
          0.0,
          0.0,
          0.0,
          0.0,
          0.0,
          0.0,
          0.0,
          0.0,
          0.0,
          0.0,
          0.0,
          0.0,
          0.0,
          0.0,
          0.0,
          0.0,
          0.0,
          0.0,
          0.0,
          0.0,
          0.0,
          0.0,
          0.0,
          0.0,
          0.0,
          0.0,
          0.0,
          0.0,
          0.0,
          0.0,
          0.0,
          0.0,
          0.0,
          0.0,
          0.0,
          0.0,
          0.0,
          0.0,
          0.0,
          0.0,
          0.0,
          0.0,
          0.0,
          0.0,
          0.0,
          0.0,
          0.0,
          0.0,
          0.0,
          0.0,
          0.0,
          0.0,
          0.0,
          0.0,
          0.0,
          25.0,
          0.0,
          -25.0,
          0.0,
          0.0,
          0.0,
          0.0,
          0.0,
          0.0,
          0.0,
          -25.0,
          0.0,
          25.0,
          0.0,
          0.0,
          0.0,
          0.0,
          0.0,
          0.0,
          0.0,
          0.0,
          0.0,
          0.0,
          0.0,
          0.0,
          0.0,
          0.0,
          0.0,
          0.0,
          0.0,
          0.0,
          0.0,
          0.0,
          0.0,
          0.0,
          0.0,
          0.0,
          0.0,
          0.0,
          0.0,
          0.0,
          0.0,
          0.0,
          0.0,
          0.0,
          0.0,
          0.0,
          0.0,
          0.0,
          0.0,
          0.0,
          0.0,
          0.0,
          0.0,
          0.0,
          0.0,
          0.0,
          0.0,
          0.0,
          0.0,
          0.0,
          0.0,
          0.0,
          0.0,
          0.0,
          0.0,
          0.0,
          0.0,
          0.0,
          0.0,
          0.0,
          0.0,
          0.0,
          0.0,
          0.0,
          0.0,
          0.0,
          0.0,
          0.0,
          0.0,
          0.0,
          0.0,
          0.0,
          0.0,
          0.0,
          0.0,
          0.0,
          0.0,
          0.0,
          0.0,
          0.0,
          0.0,
          0.0,
          0.0,
          0.0,
          0.0,
          0.0,
          0.0,
          0.0,
          0.0,
          0.0,
          0.0,
          0.0,
          0.0,
          0.0,
          0.0,
          0.0,
          0.0,
          0.0,
          0.0,
          0.0,
          0.0,
          0.0,
          0.0,
          0.0,
          0.0,
          0.0,
          0.0,
          0.0,
          0.0,
          0.0,
          0.0,
          0.0,
          0.0,
          0.0,
          0.0,
          0.0,
          0.0,
          0.0,
          0.0,
          0.0,
          0.0,
          0.0,
          0.0,
          0.0,
          0.0,
          0.0,
          0.0,
          0.0,
          0.0,
          0.0,
          0.0,
          0.0,
          0.0,
          0.0,
          0.0,
          0.0,
          0.0,
          0.0,
          0.0,
          0.0,
          0.0,
          0.0,
          0.0,
          -357.0,
          -1350.0,
          -1975.0,
          -2175.0,
          -2500.0,
          -2925.0,
          -3250.0,
          -3425.0,
          -3550.0,
          -3450.0,
          -3350.0,
          -3375.0,
          -3325.0,
          -3225.0,
          -3250.0,
          -3250.0,
          -3200.0,
          -3075.0,
          -2975.0,
          -3024.0,
          -2879.0,
          -2550.0,
          -2350.0,
          -2250.0,
          -2250.0,
          -2250.0,
          -2250.0,
          -2262.0,
          -2262.0,
          -2262.0,
          -2283.0,
          -1742.0,
          -682.0,
          -91.0,
          -234.0,
          -797.0,
          -1071.0,
          -1071.0,
          -894.0,
          -594.0,
          -91.0,
          0.0,
          0.0,
          0.0,
          0.0,
          -208.0,
          -429.0,
          -405.0,
          -225.0,
          -42.0,
          45.0,
          -273.0,
          -798.0,
          -875.0,
          -882.0
        ]
      }
    }
  ]
}