{
  "type": "FeatureCollection",
  "features": [
    {
      "type": "Feature",
      "geometry": {
        "type": "LineString",
        "coordinates": [
          [
            78.4457,
            17.2292
          ],
          [
            78.4575,
            17.2294
          ],
          [
            78.471,
            17.2295
          ],
          [
            78.4834,
            17.2297
          ],
          [
            78.4973,
            17.23
          ],
          [
            78.5157,
            17.2302
          ],
          [
            78.5314,
            17.2367
          ],
          [
            78.5403,
            17.2552
          ],
          [
            78.5419,
            17.2738
          ],
          [
            78.5411,
            17.2973
          ],
          [
            78.5377,
            17.3262
          ],
          [
            78.5215,
            17.3493
          ],
          [
            78.4893,
            17.3658
          ],
          [
            78.4161,
            17.3895
          ],
          [
            78.3621,
            17.4074
          ],
          [
            78.3024,
            17.4265
          ],
          [
            78.2443,
            17.4453
          ],
          [
            78.1847,
            17.4645
          ],
          [
            78.1274,
            17.4829
          ],
          [
            78.0669,
            17.5025
          ],
          [
            78.0072,
            17.5215
          ],
          [
            77.9467,
            17.5411
          ],
          [
            77.8861,
            17.5605
          ],
          [
            77.825,
            17.5799
          ],
          [
            77.7502,
            17.6039
          ],
          [
            77.6896,
            17.6232
          ],
          [
            77.6284,
            17.6428
          ],
          [
            77.5659,
            17.6623
          ],
          [
            77.5067,
            17.6819
          ],
          [
            77.4461,
            17.7006
          ],
          [
            77.3848,
            17.7199
          ],
          [
            77.322,
            17.7402
          ],
          [
            77.2501,
            17.7628
          ],
          [
            77.1887,
            17.7821
          ],
          [
            77.1258,
            17.8022
          ],
          [
            77.0628,
            17.8218
          ],
          [
            77.0,
            17.8416
          ],
          [
            76.9378,
            17.8612
          ],
          [
            76.8739,
            17.8815
          ],
          [
            76.8125,
            17.9008
          ],
          [
            76.7524,
            17.9193
          ],
          [
            76.6904,
            17.9388
          ],
          [
            76.6299,
            17.9578
          ],
          [
            76.5684,
            17.9768
          ],
          [
            76.507,
            17.9961
          ],
          [
            76.4488,
            18.0141
          ],
          [
            76.3838,
            18.0344
          ],
          [
            76.3224,
            18.0534
          ],
          [
            76.264,
            18.0716
          ],
          [
            76.2008,
            18.091
          ],
          [
            76.1383,
            18.1105
          ],
          [
            76.0788,
            18.1289
          ],
          [
            76.0205,
            18.1469
          ],
          [
            75.9591,
            18.1658
          ],
          [
            75.8991,
            18.1843
          ],
          [
            75.839,
            18.2028
          ],
          [
            75.7795,
            18.2211
          ],
          [
            75.7198,
            18.2394
          ],
          [
            75.6604,
            18.2577
          ],
          [
            75.5972,
            18.2768
          ],
          [
            75.5269,
            18.2985
          ],
          [
            75.4655,
            18.3173
          ],
          [
            75.388,
            18.3408
          ],
          [
            75.3218,
            18.3609
          ],
          [
            75.2584,
            18.3804
          ],
          [
            75.1937,
            18.4001
          ],
          [
            75.1214,
            18.4308
          ],
          [
            75.064,
            18.4573
          ],
          [
            75.0051,
            18.4837
          ],
          [
            74.9448,
            18.5106
          ],
          [
            74.884,
            18.5379
          ],
          [
            74.8253,
            18.5637
          ],
          [
            74.7629,
            18.5915
          ],
          [
            74.7026,
            18.6182
          ],
          [
            74.6452,
            18.6436
          ],
          [
            74.5864,
            18.6696
          ],
          [
            74.5285,
            18.6952
          ],
          [
            74.457,
            18.7269
          ],
          [
            74.3992,
            18.7522
          ],
          [
            74.3416,
            18.7777
          ],
          [
            74.2836,
            18.8031
          ],
          [
            74.2257,
            18.8286
          ],
          [
            74.1679,
            18.8542
          ],
          [
            74.1094,
            18.8797
          ],
          [
            74.0521,
            18.9047
          ],
          [
            73.9941,
            18.9303
          ],
          [
            73.9364,
            18.9555
          ],
          [
            73.8774,
            18.9812
          ],
          [
            73.8194,
            19.0066
          ],
          [
            73.7615,
            19.0317
          ],
          [
            73.7028,
            19.0574
          ],
          [
            73.6448,
            19.0826
          ],
          [
            73.5868,
            19.1077
          ],
          [
            73.5289,
            19.1329
          ],
          [
            73.4715,
            19.158
          ],
          [
            73.4165,
            19.1816
          ],
          [
            73.3575,
            19.2072
          ],
          [
            73.3033,
            19.2307
          ],
          [
            73.245,
            19.2557
          ],
          [
            73.19,
            19.2795
          ],
          [
            73.1348,
            19.3034
          ],
          [
            73.0771,
            19.3283
          ],
          [
            73.0204,
            19.3527
          ],
          [
            72.9634,
            19.3771
          ],
          [
            72.9065,
            19.4016
          ],
          [
            72.8524,
            19.4248
          ],
          [
            72.7899,
            19.4518
          ],
          [
            72.733,
            19.4757
          ],
          [
            72.6566,
            19.5088
          ],
          [
            72.6002,
            19.5327
          ],
          [
            72.5447,
            19.5564
          ],
          [
            72.487,
            19.5811
          ],
          [
            72.4309,
            19.605
          ],
          [
            72.3728,
            19.6296
          ],
          [
            72.3106,
            19.6561
          ],
          [
            72.2559,
            19.6792
          ],
          [
            72.1979,
            19.7038
          ],
          [
            72.141,
            19.728
          ],
          [
            72.0843,
            19.7519
          ],
          [
            72.0269,
            19.7763
          ],
          [
            71.9574,
            19.8056
          ],
          [
            71.8994,
            19.83
          ],
          [
            71.8428,
            19.8537
          ],
          [
            71.7843,
            19.8785
          ],
          [
            71.7171,
            19.9068
          ],
          [
            71.6567,
            19.9318
          ],
          [
            71.58,
            19.9644
          ],
          [
            71.5065,
            19.9949
          ],
          [
            71.4463,
            20.0202
          ],
          [
            71.3876,
            20.0447
          ],
          [
            71.3264,
            20.0702
          ],
          [
            71.2512,
            20.1019
          ],
          [
            71.1756,
            20.1328
          ],
          [
            71.1169,
            20.1574
          ],
          [
            71.0599,
            20.1811
          ],
          [
            70.9982,
            20.2067
          ],
          [
            70.9386,
            20.2314
          ],
          [
            70.88,
            20.2555
          ],
          [
            70.8201,
            20.2803
          ],
          [
            70.7611,
            20.3047
          ],
          [
            70.6594,
            20.3467
          ],
          [
            70.5971,
            20.3722
          ],
          [
            70.5361,
            20.3973
          ],
          [
            70.4765,
            20.4216
          ],
          [
            70.3586,
            20.4701
          ],
          [
            70.3001,
            20.494
          ],
          [
            70.241,
            20.5181
          ],
          [
            70.1827,
            20.542
          ],
          [
            70.1228,
            20.5664
          ],
          [
            70.0647,
            20.5901
          ],
          [
            70.0054,
            20.6141
          ],
          [
            69.9303,
            20.6449
          ],
          [
            69.8426,
            20.6802
          ],
          [
            69.7758,
            20.7074
          ],
          [
            69.716,
            20.7314
          ],
          [
            69.64,
            20.7622
          ],
          [
            69.5496,
            20.7986
          ],
          [
            69.4938,
            20.8211
          ],
          [
            69.4223,
            20.8498
          ],
          [
            69.367,
            20.8722
          ],
          [
            69.2625,
            20.9141
          ],
          [
            69.1453,
            20.9608
          ],
          [
            69.0889,
            20.9837
          ],
          [
            68.9735,
            21.0321
          ],
          [
            68.9153,
            21.0561
          ],
          [
            68.8131,
            21.0986
          ],
          [
            68.7559,
            21.1225
          ],
          [
            68.6989,
            21.1464
          ],
          [
            68.6421,
            21.17
          ],
          [
            68.5853,
            21.1934
          ],
          [
            68.5286,
            21.2171
          ],
          [
            68.4699,
            21.2413
          ],
          [
            68.4124,
            21.2651
          ],
          [
            68.3548,
            21.2889
          ],
          [
            68.2977,
            21.3124
          ],
          [
            68.2406,
            21.336
          ],
          [
            68.1834,
            21.3595
          ],
          [
            68.1262,
            21.3832
          ],
          [
            68.069,
            21.4066
          ],
          [
            68.0109,
            21.4304
          ],
          [
            67.9537,
            21.4539
          ],
          [
            67.8863,
            21.4814
          ],
          [
            67.8111,
            21.5121
          ],
          [
            67.699,
            21.5578
          ],
          [
            67.6394,
            21.5823
          ],
          [
            67.5819,
            21.6055
          ],
          [
            67.4731,
            21.6498
          ],
          [
            67.416,
            21.6728
          ],
          [
            67.3593,
            21.6958
          ],
          [
            67.3026,
            21.7186
          ],
          [
            67.2454,
            21.7419
          ],
          [
            67.1868,
            21.7656
          ],
          [
            67.128,
            21.7892
          ],
          [
            67.0207,
            21.8322
          ],
          [
            66.9647,
            21.8549
          ],
          [
            66.9086,
            21.8775
          ],
          [
            66.852,
            21.9
          ],
          [
            66.795,
            21.9229
          ],
          [
            66.739,
            21.9452
          ],
          [
            66.6822,
            21.9679
          ],
          [
            66.6248,
            21.9907
          ],
          [
            66.5681,
            22.0135
          ],
          [
            66.5111,
            22.036
          ],
          [
            66.4546,
            22.0587
          ],
          [
            66.3615,
            22.0953
          ],
          [
            66.2805,
            22.1277
          ],
          [
            66.1826,
            22.1661
          ],
          [
            66.1181,
            22.1917
          ],
          [
            66.0542,
            22.217
          ],
          [
            65.9896,
            22.2421
          ],
          [
            65.9291,
            22.2661
          ],
          [
            65.8561,
            22.2947
          ],
          [
            65.7797,
            22.3246
          ],
          [
            65.716,
            22.3496
          ],
          [
            65.6329,
            22.382
          ],
          [
            65.5765,
            22.4041
          ],
          [
            65.5166,
            22.4274
          ],
          [
            65.4321,
            22.4601
          ],
          [
            65.366,
            22.486
          ],
          [
            65.305,
            22.5095
          ],
          [
            65.247,
            22.5321
          ],
          [
            65.1605,
            22.5656
          ],
          [
            65.0821,
            22.5958
          ],
          [
            65.0206,
            22.6194
          ],
          [
            64.963,
            22.6418
          ],
          [
            64.8473,
            22.6862
          ],
          [
            64.7889,
            22.7084
          ],
          [
            64.6715,
            22.7533
          ],
          [
            64.5842,
            22.7868
          ],
          [
            64.4954,
            22.8209
          ],
          [
            64.4372,
            22.8426
          ],
          [
            64.3805,
            22.8643
          ],
          [
            64.3204,
            22.8873
          ],
          [
            64.2605,
            22.9099
          ],
          [
            64.2014,
            22.9322
          ],
          [
            64.142,
            22.9546
          ],
          [
            64.0826,
            22.9772
          ],
          [
            64.0245,
            22.9992
          ],
          [
            63.9645,
            23.0216
          ],
          [
            63.906,
            23.0435
          ],
          [
            63.8521,
            23.0587
          ],
          [
            63.7816,
            23.0684
          ],
          [
            63.6759,
            23.078
          ],
          [
            63.5509,
            23.0911
          ],
          [
            63.4237,
            23.1042
          ],
          [
            63.3565,
            23.1111
          ],
          [
            63.2938,
            23.1174
          ],
          [
            63.2288,
            23.1241
          ],
          [
            63.1655,
            23.1302
          ],
          [
            63.0375,
            23.1433
          ],
          [
            62.9741,
            23.1495
          ],
          [
            62.9099,
            23.1558
          ],
          [
            62.7316,
            23.1735
          ],
          [
            62.6525,
            23.1809
          ],
          [
            62.6096,
            23.185
          ],
          [
            62.4597,
            23.1997
          ],
          [
            62.3933,
            23.206
          ],
          [
            62.3077,
            23.214
          ],
          [
            62.244,
            23.2198
          ],
          [
            62.1787,
            23.2264
          ],
          [
            62.1151,
            23.2323
          ],
          [
            62.0514,
            23.2383
          ],
          [
            61.9883,
            23.2441
          ],
          [
            61.8837,
            23.2537
          ],
          [
            61.7593,
            23.2651
          ],
          [
            61.6903,
            23.2716
          ],
          [
            61.6257,
            23.2772
          ],
          [
            61.5123,
            23.2877
          ],
          [
            61.45,
            23.2928
          ],
          [
            61.388,
            23.2987
          ],
          [
            61.3262,
            23.3042
          ],
          [
            61.2632,
            23.31
          ],
          [
            61.1989,
            23.315
          ],
          [
            61.1362,
            23.3208
          ],
          [
            61.0368,
            23.335
          ],
          [
            60.9741,
            23.3433
          ],
          [
            60.9081,
            23.3512
          ],
          [
            60.8444,
            23.3593
          ],
          [
            60.7814,
            23.3672
          ],
          [
            60.7182,
            23.3748
          ],
          [
            60.656,
            23.3837
          ],
          [
            60.6255,
            23.3918
          ],
          [
            60.5264,
            23.4275
          ],
          [
            60.4599,
            23.4523
          ],
          [
            60.4001,
            23.4736
          ],
          [
            60.3386,
            23.4965
          ],
          [
            60.2791,
            23.5177
          ],
          [
            60.2201,
            23.5391
          ],
          [
            60.1423,
            23.5675
          ],
          [
            60.0824,
            23.5891
          ],
          [
            60.0225,
            23.6108
          ],
          [
            59.9631,
            23.6323
          ],
          [
            59.9026,
            23.6542
          ],
          [
            59.8438,
            23.6754
          ],
          [
            59.78,
            23.6982
          ],
          [
            59.7158,
            23.7215
          ],
          [
            59.6546,
            23.7431
          ],
          [
            59.5902,
            23.7665
          ],
          [
            59.5313,
            23.7875
          ],
          [
            59.4696,
            23.8095
          ],
          [
            59.4081,
            23.8314
          ],
          [
            59.3478,
            23.853
          ],
          [
            59.2871,
            23.8741
          ],
          [
            59.2255,
            23.8965
          ],
          [
            59.1649,
            23.9179
          ],
          [
            59.1043,
            23.9409
          ],
          [
            59.0354,
            23.9714
          ],
          [
            58.9762,
            23.9971
          ],
          [
            58.9167,
            24.0221
          ],
          [
            58.8574,
            24.0474
          ],
          [
            58.7976,
            24.0727
          ],
          [
            58.738,
            24.0981
          ],
          [
            58.6789,
            24.1234
          ],
          [
            58.6189,
            24.1485
          ],
          [
            58.5596,
            24.174
          ],
          [
            58.5,
            24.199
          ],
          [
            58.4409,
            24.224
          ],
          [
            58.3724,
            24.2531
          ],
          [
            58.31,
            24.2793
          ],
          [
            58.2485,
            24.3053
          ],
          [
            58.189,
            24.3305
          ],
          [
            58.1294,
            24.3552
          ],
          [
            58.0691,
            24.3807
          ],
          [
            58.0094,
            24.4058
          ],
          [
            57.9495,
            24.4308
          ],
          [
            57.8839,
            24.458
          ],
          [
            57.82,
            24.4851
          ],
          [
            57.7599,
            24.5095
          ],
          [
            57.6998,
            24.5317
          ],
          [
            57.6397,
            24.5542
          ],
          [
            57.5792,
            24.5777
          ],
          [
            57.5175,
            24.6009
          ],
          [
            57.4559,
            24.6243
          ],
          [
            57.3935,
            24.6481
          ],
          [
            57.3309,
            24.6709
          ],
          [
            57.2693,
            24.6945
          ],
          [
            57.2072,
            24.7183
          ],
          [
            57.1467,
            24.7406
          ],
          [
            57.0837,
            24.7642
          ],
          [
            57.0217,
            24.7874
          ],
          [
            56.963,
            24.8093
          ],
          [
            56.8977,
            24.834
          ],
          [
            56.8329,
            24.8579
          ],
          [
            56.7732,
            24.8799
          ],
          [
            56.713,
            24.9021
          ],
          [
            56.6527,
            24.9247
          ],
          [
            56.5959,
            24.9463
          ],
          [
            56.554,
            24.9616
          ],
          [
            56.5209,
            24.9779
          ],
          [
            56.4703,
            25.0076
          ],
          [
            56.4189,
            25.0398
          ],
          [
            56.3733,
            25.068
          ],
          [
            56.324,
            25.0975
          ],
          [
            56.2743,
            25.1272
          ],
          [
            56.2222,
            25.1571
          ],
          [
            56.1711,
            25.1874
          ],
          [
            56.132,
            25.2108
          ],
          [
            56.0901,
            25.2287
          ],
          [
            56.0631,
            25.2382
          ],
          [
            56.0313,
            25.2491
          ],
          [
            55.9817,
            25.2694
          ],
          [
            55.9527,
            25.2809
          ],
          [
            55.9199,
            25.2883
          ],
          [
            55.887,
            25.3003
          ],
          [
            55.8353,
            25.3225
          ],
          [
            55.7914,
            25.3409
          ],
          [
            55.7404,
            25.361
          ],
          [
            55.6882,
            25.3811
          ],
          [
            55.6393,
            25.4003
          ],
          [
            55.5909,
            25.4188
          ],
          [
            55.5675,
            25.4281
          ],
          [
            55.5223,
            25.4455
          ],
          [
            55.4825,
            25.4605
          ],
          [
            55.4626,
            25.4684
          ],
          [
            55.4262,
            25.4823
          ],
          [
            55.4036,
            25.4871
          ],
          [
            55.3816,
            25.4774
          ],
          [
            55.3691,
            25.4619
          ],
          [
            55.3642,
            25.4394
          ],
          [
            55.3717,
            25.4217
          ],
          [
            55.3864,
            25.4046
          ],
          [
            55.4062,
            25.3942
          ],
          [
            55.4329,
            25.3795
          ],
          [
            55.4456,
            25.3723
          ],
          [
            55.4526,
            25.3683
          ],
          [
            55.4562,
            25.3662
          ],
          [
            55.4696,
            25.3587
          ],
          [
            55.4786,
            25.3535
          ],
          [
            55.4877,
            25.3483
          ],
          [
            55.4978,
            25.3425
          ],
          [
            55.5092,
            25.3359
          ]
        ]
      },
      "properties": {
        "time_europe_berlin": [
          "25.11.2025 18:25:55",
          "25.11.2025 18:26:11",
          "25.11.2025 18:26:27",
          "25.11.2025 18:26:44",
          "25.11.2025 18:27:00",
          "25.11.2025 18:27:18",
          "25.11.2025 18:27:35",
          "25.11.2025 18:27:55",
          "25.11.2025 18:28:11",
          "25.11.2025 18:28:30",
          "25.11.2025 18:28:51",
          "25.11.2025 18:29:10",
          "25.11.2025 18:29:33",
          "25.11.2025 18:30:16",
          "25.11.2025 18:30:46",
          "25.11.2025 18:31:18",
          "25.11.2025 18:31:48",
          "25.11.2025 18:32:18",
          "25.11.2025 18:32:48",
          "25.11.2025 18:33:18",
          "25.11.2025 18:33:48",
          "25.11.2025 18:34:18",
          "25.11.2025 18:34:50",
          "25.11.2025 18:35:20",
          "25.11.2025 18:35:58",
          "25.11.2025 18:36:28",
          "25.11.2025 18:36:58",
          "25.11.2025 18:37:28",
          "25.11.2025 18:37:58",
          "25.11.2025 18:38:28",
          "25.11.2025 18:38:58",
          "25.11.2025 18:39:28",
          "25.11.2025 18:40:04",
          "25.11.2025 18:40:34",
          "25.11.2025 18:41:04",
          "25.11.2025 18:41:35",
          "25.11.2025 18:42:05",
          "25.11.2025 18:42:35",
          "25.11.2025 18:43:06",
          "25.11.2025 18:43:36",
          "25.11.2025 18:44:06",
          "25.11.2025 18:44:36",
          "25.11.2025 18:45:06",
          "25.11.2025 18:45:36",
          "25.11.2025 18:46:06",
          "25.11.2025 18:46:36",
          "25.11.2025 18:47:07",
          "25.11.2025 18:47:37",
          "25.11.2025 18:48:07",
          "25.11.2025 18:48:38",
          "25.11.2025 18:49:08",
          "25.11.2025 18:49:38",
          "25.11.2025 18:50:08",
          "25.11.2025 18:50:38",
          "25.11.2025 18:51:08",
          "25.11.2025 18:51:38",
          "25.11.2025 18:52:09",
          "25.11.2025 18:52:39",
          "25.11.2025 18:53:09",
          "25.11.2025 18:53:41",
          "25.11.2025 18:54:17",
          "25.11.2025 18:54:47",
          "25.11.2025 18:55:26",
          "25.11.2025 18:55:58",
          "25.11.2025 18:56:31",
          "25.11.2025 18:57:02",
          "25.11.2025 18:57:39",
          "25.11.2025 18:58:09",
          "25.11.2025 18:58:39",
          "25.11.2025 18:59:09",
          "25.11.2025 18:59:41",
          "25.11.2025 19:00:11",
          "25.11.2025 19:00:42",
          "25.11.2025 19:01:14",
          "25.11.2025 19:01:44",
          "25.11.2025 19:02:14",
          "25.11.2025 19:02:44",
          "25.11.2025 19:03:21",
          "25.11.2025 19:03:51",
          "25.11.2025 19:04:22",
          "25.11.2025 19:04:52",
          "25.11.2025 19:05:22",
          "25.11.2025 19:05:52",
          "25.11.2025 19:06:22",
          "25.11.2025 19:06:52",
          "25.11.2025 19:07:23",
          "25.11.2025 19:07:53",
          "25.11.2025 19:08:23",
          "25.11.2025 19:08:53",
          "25.11.2025 19:09:23",
          "25.11.2025 19:09:53",
          "25.11.2025 19:10:23",
          "25.11.2025 19:10:53",
          "25.11.2025 19:11:23",
          "25.11.2025 19:11:53",
          "25.11.2025 19:12:23",
          "25.11.2025 19:12:53",
          "25.11.2025 19:13:23",
          "25.11.2025 19:13:53",
          "25.11.2025 19:14:23",
          "25.11.2025 19:14:53",
          "25.11.2025 19:15:24",
          "25.11.2025 19:15:55",
          "25.11.2025 19:16:25",
          "25.11.2025 19:16:55",
          "25.11.2025 19:17:25",
          "25.11.2025 19:17:58",
          "25.11.2025 19:18:28",
          "25.11.2025 19:19:08",
          "25.11.2025 19:19:38",
          "25.11.2025 19:20:08",
          "25.11.2025 19:20:38",
          "25.11.2025 19:21:08",
          "25.11.2025 19:21:38",
          "25.11.2025 19:22:10",
          "25.11.2025 19:22:40",
          "25.11.2025 19:23:11",
          "25.11.2025 19:23:41",
          "25.11.2025 19:24:11",
          "25.11.2025 19:24:42",
          "25.11.2025 19:25:18",
          "25.11.2025 19:25:48",
          "25.11.2025 19:26:18",
          "25.11.2025 19:26:48",
          "25.11.2025 19:27:24",
          "25.11.2025 19:27:56",
          "25.11.2025 19:28:35",
          "25.11.2025 19:29:14",
          "25.11.2025 19:29:45",
          "25.11.2025 19:30:15",
          "25.11.2025 19:30:47",
          "25.11.2025 19:31:25",
          "25.11.2025 19:32:04",
          "25.11.2025 19:32:34",
          "25.11.2025 19:33:04",
          "25.11.2025 19:33:35",
          "25.11.2025 19:34:06",
          "25.11.2025 19:34:36",
          "25.11.2025 19:35:06",
          "25.11.2025 19:35:36",
          "25.11.2025 19:36:28",
          "25.11.2025 19:36:59",
          "25.11.2025 19:37:30",
          "25.11.2025 19:38:00",
          "25.11.2025 19:39:00",
          "25.11.2025 19:39:30",
          "25.11.2025 19:40:00",
          "25.11.2025 19:40:30",
          "25.11.2025 19:41:00",
          "25.11.2025 19:41:31",
          "25.11.2025 19:42:01",
          "25.11.2025 19:42:40",
          "25.11.2025 19:43:24",
          "25.11.2025 19:43:59",
          "25.11.2025 19:44:30",
          "25.11.2025 19:45:08",
          "25.11.2025 19:45:55",
          "25.11.2025 19:46:26",
          "25.11.2025 19:47:01",
          "25.11.2025 19:47:31",
          "25.11.2025 19:48:26",
          "25.11.2025 19:49:26",
          "25.11.2025 19:49:56",
          "25.11.2025 19:50:56",
          "25.11.2025 19:51:26",
          "25.11.2025 19:52:20",
          "25.11.2025 19:52:50",
          "25.11.2025 19:53:20",
          "25.11.2025 19:53:50",
          "25.11.2025 19:54:20",
          "25.11.2025 19:54:50",
          "25.11.2025 19:55:20",
          "25.11.2025 19:55:50",
          "25.11.2025 19:56:20",
          "25.11.2025 19:56:51",
          "25.11.2025 19:57:21",
          "25.11.2025 19:57:51",
          "25.11.2025 19:58:21",
          "25.11.2025 19:58:51",
          "25.11.2025 19:59:21",
          "25.11.2025 19:59:51",
          "25.11.2025 20:00:26",
          "25.11.2025 20:01:07",
          "25.11.2025 20:02:05",
          "25.11.2025 20:02:37",
          "25.11.2025 20:03:07",
          "25.11.2025 20:04:04",
          "25.11.2025 20:04:34",
          "25.11.2025 20:05:04",
          "25.11.2025 20:05:34",
          "25.11.2025 20:06:05",
          "25.11.2025 20:06:37",
          "25.11.2025 20:07:08",
          "25.11.2025 20:08:05",
          "25.11.2025 20:08:35",
          "25.11.2025 20:09:05",
          "25.11.2025 20:09:35",
          "25.11.2025 20:10:05",
          "25.11.2025 20:10:35",
          "25.11.2025 20:11:05",
          "25.11.2025 20:11:36",
          "25.11.2025 20:12:06",
          "25.11.2025 20:12:36",
          "25.11.2025 20:13:06",
          "25.11.2025 20:13:55",
          "25.11.2025 20:14:36",
          "25.11.2025 20:15:28",
          "25.11.2025 20:16:01",
          "25.11.2025 20:16:34",
          "25.11.2025 20:17:07",
          "25.11.2025 20:17:39",
          "25.11.2025 20:18:18",
          "25.11.2025 20:18:56",
          "25.11.2025 20:19:29",
          "25.11.2025 20:20:12",
          "25.11.2025 20:20:42",
          "25.11.2025 20:21:12",
          "25.11.2025 20:21:57",
          "25.11.2025 20:22:32",
          "25.11.2025 20:23:03",
          "25.11.2025 20:23:33",
          "25.11.2025 20:24:18",
          "25.11.2025 20:24:59",
          "25.11.2025 20:25:31",
          "25.11.2025 20:26:01",
          "25.11.2025 20:27:01",
          "25.11.2025 20:27:31",
          "25.11.2025 20:28:32",
          "25.11.2025 20:29:17",
          "25.11.2025 20:30:02",
          "25.11.2025 20:30:32",
          "25.11.2025 20:31:02",
          "25.11.2025 20:31:32",
          "25.11.2025 20:32:02",
          "25.11.2025 20:32:32",
          "25.11.2025 20:33:02",
          "25.11.2025 20:33:33",
          "25.11.2025 20:34:03",
          "25.11.2025 20:34:33",
          "25.11.2025 20:35:03",
          "25.11.2025 20:35:30",
          "25.11.2025 20:36:04",
          "25.11.2025 20:36:54",
          "25.11.2025 20:37:54",
          "25.11.2025 20:38:55",
          "25.11.2025 20:39:27",
          "25.11.2025 20:39:57",
          "25.11.2025 20:40:27",
          "25.11.2025 20:40:57",
          "25.11.2025 20:41:57",
          "25.11.2025 20:42:28",
          "25.11.2025 20:42:58",
          "25.11.2025 20:44:21",
          "25.11.2025 20:44:58",
          "25.11.2025 20:45:43",
          "25.11.2025 20:46:28",
          "25.11.2025 20:46:59",
          "25.11.2025 20:47:39",
          "25.11.2025 20:48:09",
          "25.11.2025 20:48:39",
          "25.11.2025 20:49:09",
          "25.11.2025 20:49:40",
          "25.11.2025 20:50:10",
          "25.11.2025 20:51:00",
          "25.11.2025 20:52:01",
          "25.11.2025 20:52:34",
          "25.11.2025 20:53:05",
          "25.11.2025 20:54:01",
          "25.11.2025 20:54:31",
          "25.11.2025 20:55:02",
          "25.11.2025 20:55:32",
          "25.11.2025 20:56:02",
          "25.11.2025 20:56:32",
          "25.11.2025 20:57:02",
          "25.11.2025 20:57:49",
          "25.11.2025 20:58:20",
          "25.11.2025 20:58:51",
          "25.11.2025 20:59:21",
          "25.11.2025 20:59:51",
          "25.11.2025 21:00:21",
          "25.11.2025 21:00:50",
          "25.11.2025 21:01:06",
          "25.11.2025 21:01:56",
          "25.11.2025 21:02:30",
          "25.11.2025 21:03:00",
          "25.11.2025 21:03:30",
          "25.11.2025 21:04:01",
          "25.11.2025 21:04:31",
          "25.11.2025 21:05:08",
          "25.11.2025 21:05:38",
          "25.11.2025 21:06:08",
          "25.11.2025 21:06:38",
          "25.11.2025 21:07:08",
          "25.11.2025 21:07:38",
          "25.11.2025 21:08:11",
          "25.11.2025 21:08:44",
          "25.11.2025 21:09:15",
          "25.11.2025 21:09:46",
          "25.11.2025 21:10:16",
          "25.11.2025 21:10:47",
          "25.11.2025 21:11:17",
          "25.11.2025 21:11:47",
          "25.11.2025 21:12:17",
          "25.11.2025 21:12:48",
          "25.11.2025 21:13:18",
          "25.11.2025 21:13:48",
          "25.11.2025 21:14:22",
          "25.11.2025 21:14:52",
          "25.11.2025 21:15:22",
          "25.11.2025 21:15:52",
          "25.11.2025 21:16:23",
          "25.11.2025 21:16:53",
          "25.11.2025 21:17:23",
          "25.11.2025 21:17:53",
          "25.11.2025 21:18:23",
          "25.11.2025 21:18:53",
          "25.11.2025 21:19:23",
          "25.11.2025 21:19:59",
          "25.11.2025 21:20:30",
          "25.11.2025 21:21:01",
          "25.11.2025 21:21:31",
          "25.11.2025 21:22:01",
          "25.11.2025 21:22:32",
          "25.11.2025 21:23:02",
          "25.11.2025 21:23:32",
          "25.11.2025 21:24:06",
          "25.11.2025 21:24:37",
          "25.11.2025 21:25:07",
          "25.11.2025 21:25:38",
          "25.11.2025 21:26:08",
          "25.11.2025 21:26:38",
          "25.11.2025 21:27:08",
          "25.11.2025 21:27:38",
          "25.11.2025 21:28:08",
          "25.11.2025 21:28:38",
          "25.11.2025 21:29:09",
          "25.11.2025 21:29:39",
          "25.11.2025 21:30:09",
          "25.11.2025 21:30:39",
          "25.11.2025 21:31:09",
          "25.11.2025 21:31:39",
          "25.11.2025 21:32:10",
          "25.11.2025 21:32:42",
          "25.11.2025 21:33:12",
          "25.11.2025 21:33:42",
          "25.11.2025 21:34:12",
          "25.11.2025 21:34:42",
          "25.11.2025 21:35:05",
          "25.11.2025 21:35:23",
          "25.11.2025 21:35:53",
          "25.11.2025 21:36:23",
          "25.11.2025 21:36:53",
          "25.11.2025 21:37:23",
          "25.11.2025 21:37:53",
          "25.11.2025 21:38:25",
          "25.11.2025 21:38:55",
          "25.11.2025 21:39:20",
          "25.11.2025 21:39:44",
          "25.11.2025 21:40:00",
          "25.11.2025 21:40:17",
          "25.11.2025 21:40:46",
          "25.11.2025 21:41:02",
          "25.11.2025 21:41:20",
          "25.11.2025 21:41:39",
          "25.11.2025 21:42:09",
          "25.11.2025 21:42:35",
          "25.11.2025 21:43:05",
          "25.11.2025 21:43:35",
          "25.11.2025 21:44:05",
          "25.11.2025 21:44:35",
          "25.11.2025 21:44:51",
          "25.11.2025 21:45:22",
          "25.11.2025 21:45:52",
          "25.11.2025 21:46:08",
          "25.11.2025 21:46:38",
          "25.11.2025 21:46:56",
          "25.11.2025 21:47:15",
          "25.11.2025 21:47:31",
          "25.11.2025 21:47:50",
          "25.11.2025 21:48:06",
          "25.11.2025 21:48:25",
          "25.11.2025 21:48:45",
          "25.11.2025 21:49:15",
          "25.11.2025 21:49:31",
          "25.11.2025 21:49:42",
          "25.11.2025 21:49:47",
          "25.11.2025 21:50:07",
          "25.11.2025 21:50:23",
          "25.11.2025 21:50:39",
          "25.11.2025 21:50:57",
          "25.11.2025 21:51:21"
        ],
        "course_deg_clockwise_from_north": [
          88,
          89,
          90,
          88,
          89,
          88,
          46,
          12,
          0,
          357,
          347,
          311,
          291,
          289,
          289,
          289,
          288,
          289,
          289,
          288,
          288,
          289,
          289,
          289,
          289,
          288,
          288,
          289,
          288,
          287,
          289,
          289,
          288,
          288,
          289,
          288,
          288,
          288,
          288,
          288,
          288,
          288,
          288,
          288,
          288,
          288,
          288,
          288,
          288,
          288,
          288,
          288,
          288,
          288,
          288,
          288,
          288,
          288,
          288,
          288,
          288,
          287,
          288,
          288,
          288,
          290,
          296,
          295,
          295,
          295,
          295,
          295,
          295,
          295,
          295,
          295,
          295,
          295,
          295,
          295,
          295,
          295,
          295,
          294,
          294,
          295,
          295,
          294,
          295,
          295,
          295,
          295,
          294,
          295,
          294,
          295,
          295,
          295,
          294,
          295,
          294,
          295,
          294,
          295,
          294,
          295,
          294,
          295,
          294,
          294,
          294,
          294,
          294,
          294,
          294,
          295,
          294,
          294,
          294,
          294,
          294,
          294,
          294,
          294,
          294,
          294,
          294,
          294,
          294,
          293,
          294,
          294,
          293,
          294,
          294,
          294,
          293,
          294,
          294,
          293,
          294,
          294,
          294,
          294,
          293,
          294,
          294,
          293,
          294,
          293,
          294,
          293,
          293,
          293,
          293,
          293,
          293,
          293,
          293,
          293,
          293,
          293,
          294,
          294,
          294,
          294,
          294,
          294,
          294,
          294,
          294,
          294,
          294,
          294,
          294,
          293,
          294,
          294,
          294,
          294,
          294,
          293,
          294,
          293,
          294,
          293,
          294,
          293,
          293,
          294,
          293,
          293,
          293,
          294,
          293,
          293,
          293,
          293,
          293,
          293,
          293,
          293,
          293,
          293,
          293,
          293,
          293,
          293,
          293,
          293,
          293,
          293,
          293,
          293,
          293,
          293,
          293,
          293,
          293,
          293,
          293,
          292,
          293,
          292,
          293,
          293,
          293,
          292,
          292,
          292,
          292,
          292,
          292,
          292,
          292,
          292,
          292,
          292,
          292,
          293,
          282,
          276,
          276,
          276,
          277,
          276,
          276,
          276,
          276,
          276,
          276,
          276,
          276,
          276,
          276,
          276,
          276,
          275,
          276,
          276,
          276,
          276,
          275,
          276,
          276,
          275,
          276,
          276,
          276,
          275,
          276,
          276,
          275,
          277,
          279,
          277,
          278,
          278,
          278,
          278,
          283,
          288,
          293,
          291,
          292,
          292,
          291,
          292,
          292,
          292,
          291,
          292,
          292,
          292,
          291,
          292,
          291,
          292,
          291,
          291,
          291,
          291,
          291,
          292,
          290,
          295,
          296,
          295,
          295,
          295,
          295,
          295,
          295,
          295,
          295,
          295,
          295,
          295,
          295,
          295,
          295,
          295,
          295,
          295,
          294,
          295,
          295,
          293,
          292,
          293,
          293,
          292,
          293,
          292,
          292,
          292,
          292,
          292,
          292,
          293,
          292,
          292,
          293,
          291,
          292,
          292,
          292,
          294,
          300,
          304,
          305,
          303,
          304,
          303,
          303,
          303,
          300,
          293,
          290,
          292,
          295,
          288,
          288,
          294,
          296,
          293,
          293,
          294,
          293,
          293,
          294,
          292,
          293,
          294,
          292,
          267,
          223,
          212,
          173,
          154,
          126,
          120,
          122,
          122,
          122,
          122,
          123,
          123,
          123,
          122,
          123
        ],
        "speed_kts": [
          152,
          158,
          159,
          173,
          197,
          204,
          214,
          239,
          257,
          281,
          305,
          326,
          348,
          382,
          402,
          415,
          422,
          426,
          430,
          432,
          433,
          434,
          435,
          436,
          439,
          442,
          441,
          441,
          440,
          441,
          442,
          442,
          446,
          448,
          450,
          451,
          452,
          450,
          446,
          442,
          440,
          441,
          441,
          442,
          441,
          441,
          441,
          440,
          439,
          438,
          436,
          434,
          432,
          431,
          431,
          429,
          429,
          427,
          425,
          425,
          429,
          433,
          435,
          436,
          436,
          438,
          443,
          444,
          444,
          444,
          443,
          443,
          442,
          440,
          438,
          438,
          437,
          435,
          435,
          434,
          434,
          434,
          434,
          434,
          434,
          434,
          434,
          436,
          436,
          435,
          435,
          436,
          436,
          434,
          431,
          428,
          425,
          422,
          418,
          418,
          416,
          415,
          417,
          420,
          421,
          422,
          424,
          425,
          425,
          424,
          423,
          422,
          423,
          422,
          422,
          422,
          422,
          422,
          423,
          424,
          425,
          426,
          428,
          429,
          428,
          428,
          428,
          429,
          431,
          430,
          432,
          432,
          433,
          434,
          434,
          435,
          435,
          438,
          439,
          439,
          438,
          439,
          438,
          437,
          435,
          434,
          434,
          433,
          433,
          431,
          431,
          430,
          430,
          429,
          427,
          426,
          426,
          424,
          423,
          423,
          423,
          424,
          423,
          423,
          423,
          422,
          422,
          422,
          421,
          421,
          421,
          421,
          421,
          421,
          421,
          421,
          420,
          421,
          421,
          421,
          420,
          419,
          418,
          418,
          418,
          417,
          416,
          416,
          415,
          414,
          413,
          413,
          411,
          409,
          409,
          410,
          410,
          411,
          411,
          413,
          414,
          415,
          416,
          416,
          417,
          418,
          419,
          420,
          421,
          421,
          421,
          420,
          420,
          421,
          421,
          420,
          420,
          418,
          418,
          419,
          418,
          417,
          416,
          416,
          417,
          419,
          420,
          419,
          420,
          422,
          422,
          423,
          423,
          422,
          423,
          423,
          423,
          424,
          425,
          426,
          422,
          421,
          420,
          420,
          421,
          422,
          423,
          424,
          425,
          427,
          427,
          428,
          429,
          429,
          430,
          429,
          431,
          428,
          429,
          426,
          424,
          422,
          421,
          415,
          410,
          409,
          409,
          409,
          410,
          413,
          416,
          419,
          421,
          422,
          423,
          422,
          422,
          422,
          421,
          420,
          421,
          422,
          425,
          425,
          426,
          426,
          427,
          427,
          427,
          426,
          426,
          426,
          425,
          424,
          424,
          424,
          425,
          426,
          426,
          426,
          428,
          428,
          429,
          429,
          429,
          431,
          432,
          433,
          432,
          432,
          431,
          430,
          430,
          430,
          429,
          430,
          429,
          430,
          429,
          429,
          429,
          428,
          430,
          430,
          431,
          432,
          435,
          431,
          427,
          423,
          431,
          439,
          443,
          440,
          440,
          438,
          435,
          434,
          437,
          436,
          436,
          434,
          430,
          426,
          421,
          412,
          405,
          401,
          398,
          396,
          390,
          382,
          382,
          385,
          385,
          382,
          377,
          374,
          372,
          370,
          372,
          375,
          376,
          373,
          369,
          366,
          364,
          360,
          345,
          329,
          322,
          295,
          271,
          262,
          257,
          255,
          258,
          260,
          261,
          251,
          237,
          216,
          187,
          173,
          162,
          159,
          146,
          130,
          130,
          123,
          117
        ],
        "speed_mph": [
          175.0,
          182.0,
          183.0,
          199.0,
          227.0,
          235.0,
          246.0,
          275.0,
          296.0,
          323.0,
          351.0,
          375.0,
          400.0,
          440.0,
          463.0,
          478.0,
          486.0,
          490.0,
          495.0,
          497.0,
          498.0,
          499.0,
          501.0,
          502.0,
          505.0,
          509.0,
          507.0,
          507.0,
          506.0,
          507.0,
          509.0,
          509.0,
          513.0,
          516.0,
          518.0,
          519.0,
          520.0,
          518.0,
          513.0,
          509.0,
          506.0,
          507.0,
          507.0,
          509.0,
          507.0,
          507.0,
          507.0,
          506.0,
          505.0,
          504.0,
          502.0,
          499.0,
          497.0,
          496.0,
          496.0,
          494.0,
          494.0,
          491.0,
          489.0,
          489.0,
          494.0,
          498.0,
          501.0,
          502.0,
          502.0,
          504.0,
          510.0,
          511.0,
          511.0,
          511.0,
          510.0,
          510.0,
          509.0,
          506.0,
          504.0,
          504.0,
          503.0,
          501.0,
          501.0,
          499.0,
          499.0,
          499.0,
          499.0,
          499.0,
          499.0,
          499.0,
          499.0,
          502.0,
          502.0,
          501.0,
          501.0,
          502.0,
          502.0,
          499.0,
          496.0,
          493.0,
          489.0,
          486.0,
          481.0,
          481.0,
          479.0,
          478.0,
          480.0,
          483.0,
          484.0,
          486.0,
          488.0,
          489.0,
          489.0,
          488.0,
          487.0,
          486.0,
          487.0,
          486.0,
          486.0,
          486.0,
          486.0,
          486.0,
          487.0,
          488.0,
          489.0,
          490.0,
          493.0,
          494.0,
          493.0,
          493.0,
          493.0,
          494.0,
          496.0,
          495.0,
          497.0,
          497.0,
          498.0,
          499.0,
          499.0,
          501.0,
          501.0,
          504.0,
          505.0,
          505.0,
          504.0,
          505.0,
          504.0,
          503.0,
          501.0,
          499.0,
          499.0,
          498.0,
          498.0,
          496.0,
          496.0,
          495.0,
          495.0,
          494.0,
          491.0,
          490.0,
          490.0,
          488.0,
          487.0,
          487.0,
          487.0,
          488.0,
          487.0,
          487.0,
          487.0,
          486.0,
          486.0,
          486.0,
          484.0,
          484.0,
          484.0,
          484.0,
          484.0,
          484.0,
          484.0,
          484.0,
          483.0,
          484.0,
          484.0,
          484.0,
          483.0,
          482.0,
          481.0,
          481.0,
          481.0,
          480.0,
          479.0,
          479.0,
          478.0,
          476.0,
          475.0,
          475.0,
          473.0,
          471.0,
          471.0,
          472.0,
          472.0,
          473.0,
          473.0,
          475.0,
          476.0,
          478.0,
          479.0,
          479.0,
          480.0,
          481.0,
          482.0,
          483.0,
          484.0,
          484.0,
          484.0,
          483.0,
          483.0,
          484.0,
          484.0,
          483.0,
          483.0,
          481.0,
          481.0,
          482.0,
          481.0,
          480.0,
          479.0,
          479.0,
          480.0,
          482.0,
          483.0,
          482.0,
          483.0,
          486.0,
          486.0,
          487.0,
          487.0,
          486.0,
          487.0,
          487.0,
          487.0,
          488.0,
          489.0,
          490.0,
          486.0,
          484.0,
          483.0,
          483.0,
          484.0,
          486.0,
          487.0,
          488.0,
          489.0,
          491.0,
          491.0,
          493.0,
          494.0,
          494.0,
          495.0,
          494.0,
          496.0,
          493.0,
          494.0,
          490.0,
          488.0,
          486.0,
          484.0,
          478.0,
          472.0,
          471.0,
          471.0,
          471.0,
          472.0,
          475.0,
          479.0,
          482.0,
          484.0,
          486.0,
          487.0,
          486.0,
          486.0,
          486.0,
          484.0,
          483.0,
          484.0,
          486.0,
          489.0,
          489.0,
          490.0,
          490.0,
          491.0,
          491.0,
          491.0,
          490.0,
          490.0,
          490.0,
          489.0,
          488.0,
          488.0,
          488.0,
          489.0,
          490.0,
          490.0,
          490.0,
          493.0,
          493.0,
          494.0,
          494.0,
          494.0,
          496.0,
          497.0,
          498.0,
          497.0,
          497.0,
          496.0,
          495.0,
          495.0,
          495.0,
          494.0,
          495.0,
          494.0,
          495.0,
          494.0,
          494.0,
          494.0,
          493.0,
          495.0,
          495.0,
          496.0,
          497.0,
          501.0,
          496.0,
          491.0,
          487.0,
          496.0,
          505.0,
          510.0,
          506.0,
          506.0,
          504.0,
          501.0,
          499.0,
          503.0,
          502.0,
          502.0,
          499.0,
          495.0,
          490.0,
          484.0,
          474.0,
          466.0,
          461.0,
          458.0,
          456.0,
          449.0,
          440.0,
          440.0,
          443.0,
          443.0,
          440.0,
          434.0,
          430.0,
          428.0,
          426.0,
          428.0,
          432.0,
          433.0,
          429.0,
          425.0,
          421.0,
          419.0,
          414.0,
          397.0,
          379.0,
          371.0,
          339.0,
          312.0,
          302.0,
          296.0,
          293.0,
          297.0,
          299.0,
          300.0,
          289.0,
          273.0,
          249.0,
          215.0,
          199.0,
          186.0,
          183.0,
          168.0,
          150.0,
          150.0,
          142.0,
          135.0
        ],
        "altitude_ft": [
          2425,
          3175,
          4125,
          4775,
          5175,
          6000,
          6800,
          7575,
          8200,
          8850,
          9575,
          10225,
          11000,
          12525,
          13600,
          14725,
          15900,
          17150,
          18375,
          19600,
          20800,
          22000,
          23200,
          24350,
          25625,
          26550,
          27525,
          28400,
          29250,
          30000,
          30750,
          31450,
          32025,
          32525,
          33025,
          33500,
          34000,
          34525,
          35125,
          35725,
          36275,
          36700,
          37075,
          37475,
          37875,
          38225,
          38650,
          39025,
          39400,
          39825,
          40200,
          40600,
          40975,
          41300,
          41575,
          41875,
          42175,
          42475,
          42750,
          42975,
          43000,
          43000,
          43000,
          43000,
          43000,
          43000,
          43000,
          43000,
          43000,
          43000,
          43000,
          43000,
          43000,
          43000,
          43000,
          43000,
          43000,
          43000,
          43000,
          43000,
          43000,
          43000,
          43000,
          43000,
          43000,
          43000,
          43000,
          43000,
          43000,
          43000,
          43000,
          43000,
          43000,
          43225,
          43475,
          43750,
          44000,
          44250,
          44525,
          44675,
          44825,
          44975,
          45000,
          45000,
          45000,
          45000,
          45000,
          45000,
          45000,
          45000,
          45000,
          45000,
          45000,
          45000,
          45000,
          45000,
          45000,
          45000,
          45000,
          45000,
          45000,
          45000,
          45000,
          45000,
          45000,
          45000,
          45000,
          45000,
          45000,
          45000,
          45000,
          45000,
          45000,
          45000,
          45000,
          45000,
          45000,
          45000,
          45000,
          45000,
          45000,
          45000,
          45000,
          45000,
          45000,
          45000,
          45000,
          45000,
          45000,
          45000,
          45000,
          45000,
          45000,
          45000,
          45000,
          45000,
          45000,
          45000,
          45000,
          45000,
          45000,
          45000,
          45000,
          45000,
          45000,
          45000,
          45000,
          45000,
          45000,
          45000,
          45000,
          45000,
          45000,
          45000,
          45000,
          45000,
          45000,
          45000,
          45000,
          45000,
          45000,
          45000,
          45000,
          45000,
          45000,
          45000,
          45000,
          45000,
          45000,
          45000,
          45000,
          45000,
          45000,
          45000,
          45000,
          45000,
          45000,
          45000,
          45000,
          45000,
          45000,
          45000,
          45000,
          45000,
          45000,
          45000,
          45000,
          45000,
          45000,
          45000,
          45000,
          45000,
          44975,
          45000,
          45000,
          45000,
          45000,
          45000,
          45000,
          45000,
          45000,
          45000,
          45000,
          45000,
          45000,
          45000,
          45000,
          45000,
          45000,
          45000,
          45000,
          45000,
          45000,
          45000,
          45000,
          45000,
          45000,
          45000,
          45000,
          45000,
          45000,
          45000,
          45000,
          45000,
          45000,
          45000,
          45000,
          45000,
          45000,
          45000,
          45000,
          45000,
          45000,
          45000,
          45000,
          45000,
          44825,
          44500,
          44225,
          43975,
          43700,
          43425,
          43175,
          43000,
          43000,
          43000,
          43000,
          43000,
          43000,
          43000,
          43000,
          43000,
          43000,
          43000,
          43000,
          43000,
          43000,
          43000,
          43000,
          43000,
          43000,
          43000,
          43000,
          43000,
          43000,
          43000,
          43000,
          43000,
          43000,
          43000,
          43000,
          43000,
          43000,
          43000,
          43000,
          43000,
          43000,
          43000,
          43000,
          43000,
          43000,
          43000,
          43000,
          43000,
          43000,
          43000,
          43000,
          43000,
          43000,
          43000,
          43000,
          43000,
          43000,
          43000,
          43000,
          43000,
          43000,
          43000,
          43000,
          43000,
          43000,
          43000,
          43000,
          43000,
          43000,
          42675,
          41450,
          40225,
          39000,
          37750,
          36550,
          35300,
          34075,
          32825,
          31600,
          30375,
          29125,
          27900,
          26625,
          25400,
          24225,
          22900,
          21600,
          20450,
          19250,
          18050,
          16875,
          16000,
          15275,
          14300,
          13600,
          13025,
          12375,
          11725,
          11050,
          10375,
          10025,
          9825,
          9700,
          9575,
          9350,
          9200,
          9075,
          8925,
          8575,
          8250,
          7875,
          7275,
          6600,
          5900,
          5550,
          4850,
          4275,
          3950,
          3500,
          3250,
          3000,
          2800,
          2550,
          2400,
          2150,
          1925,
          1475,
          1225,
          1075,
          1025,
          750,
          575,
          400,
          200,
          200
        ],
        "vertical_rate_fpm": [
          0.0,
          3188.0,
          2909.0,
          1909.0,
          2162.0,
          2786.0,
          2554.0,
          2333.0,
          2186.0,
          2063.0,
          2063.0,
          2036.0,
          2091.0,
          2137.0,
          2129.0,
          2226.0,
          2425.0,
          2475.0,
          2450.0,
          2425.0,
          2400.0,
          2323.0,
          2274.0,
          2140.0,
          1941.0,
          1900.0,
          1850.0,
          1725.0,
          1600.0,
          1500.0,
          1450.0,
          1159.0,
          977.0,
          1000.0,
          959.0,
          959.0,
          1025.0,
          1107.0,
          1180.0,
          1150.0,
          975.0,
          800.0,
          775.0,
          800.0,
          750.0,
          762.0,
          787.0,
          750.0,
          787.0,
          787.0,
          775.0,
          775.0,
          700.0,
          600.0,
          575.0,
          590.0,
          590.0,
          575.0,
          484.0,
          221.0,
          23.0,
          0.0,
          0.0,
          0.0,
          0.0,
          0.0,
          0.0,
          0.0,
          0.0,
          0.0,
          0.0,
          0.0,
          0.0,
          0.0,
          0.0,
          0.0,
          0.0,
          0.0,
          0.0,
          0.0,
          0.0,
          0.0,
          0.0,
          0.0,
          0.0,
          0.0,
          0.0,
          0.0,
          0.0,
          0.0,
          0.0,
          0.0,
          225.0,
          475.0,
          525.0,
          525.0,
          500.0,
          525.0,
          425.0,
          300.0,
          295.0,
          169.0,
          25.0,
          0.0,
          0.0,
          0.0,
          0.0,
          0.0,
          0.0,
          0.0,
          0.0,
          0.0,
          0.0,
          0.0,
          0.0,
          0.0,
          0.0,
          0.0,
          0.0,
          0.0,
          0.0,
          0.0,
          0.0,
          0.0,
          0.0,
          0.0,
          0.0,
          0.0,
          0.0,
          0.0,
          0.0,
          0.0,
          0.0,
          0.0,
          0.0,
          0.0,
          0.0,
          0.0,
          0.0,
          0.0,
          0.0,
          0.0,
          0.0,
          0.0,
          0.0,
          0.0,
          0.0,
          0.0,
          0.0,
          0.0,
          0.0,
          0.0,
          0.0,
          0.0,
          0.0,
          0.0,
          0.0,
          0.0,
          0.0,
          0.0,
          0.0,
          0.0,
          0.0,
          0.0,
          0.0,
          0.0,
          0.0,
          0.0,
          0.0,
          0.0,
          0.0,
          0.0,
          0.0,
          0.0,
          0.0,
          0.0,
          0.0,
          0.0,
          0.0,
          0.0,
          0.0,
          0.0,
          0.0,
          0.0,
          0.0,
          0.0,
          0.0,
          0.0,
          0.0,
          0.0,
          0.0,
          0.0,
          0.0,
          0.0,
          0.0,
          0.0,
          0.0,
          0.0,
          0.0,
          0.0,
          0.0,
          0.0,
          0.0,
          0.0,
          0.0,
          0.0,
          0.0,
          0.0,
          0.0,
          0.0,
          0.0,
          -19.0,
          0.0,
          20.0,
          0.0,
          0.0,
          0.0,
          0.0,
          0.0,
          0.0,
          0.0,
          0.0,
          0.0,
          0.0,
          0.0,
          0.0,
          0.0,
          0.0,
          0.0,
          0.0,
          0.0,
          0.0,
          0.0,
          0.0,
          0.0,
          0.0,
          0.0,
          0.0,
          0.0,
          0.0,
          0.0,
          0.0,
          0.0,
          0.0,
          0.0,
          0.0,
          0.0,
          0.0,
          0.0,
          0.0,
          0.0,
          0.0,
          0.0,
          0.0,
          0.0,
          -138.0,
          -423.0,
          -514.0,
          -525.0,
          -525.0,
          -541.0,
          -516.0,
          -319.0,
          -95.0,
          0.0,
          0.0,
          0.0,
          0.0,
          0.0,
          0.0,
          0.0,
          0.0,
          0.0,
          0.0,
          0.0,
          0.0,
          0.0,
          0.0,
          0.0,
          0.0,
          0.0,
          0.0,
          0.0,
          0.0,
          0.0,
          0.0,
          0.0,
          0.0,
          0.0,
          0.0,
          0.0,
          0.0,
          0.0,
          0.0,
          0.0,
          0.0,
          0.0,
          0.0,
          0.0,
          0.0,
          0.0,
          0.0,
          0.0,
          0.0,
          0.0,
          0.0,
          0.0,
          0.0,
          0.0,
          0.0,
          0.0,
          0.0,
          0.0,
          0.0,
          0.0,
          0.0,
          0.0,
          0.0,
          0.0,
          0.0,
          0.0,
          0.0,
          0.0,
          0.0,
          -305.0,
          -1431.0,
          -2410.0,
          -2410.0,
          -2434.0,
          -2450.0,
          -2450.0,
          -2475.0,
          -2475.0,
          -2475.0,
          -2410.0,
          -2434.0,
          -2475.0,
          -2500.0,
          -2500.0,
          -2400.0,
          -2459.0,
          -2500.0,
          -2371.0,
          -2350.0,
          -2400.0,
          -2375.0,
          -2321.0,
          -2341.0,
          -2125.0,
          -1675.0,
          -1275.0,
          -1225.0,
          -1300.0,
          -1282.0,
          -1306.0,
          -1118.0,
          -673.0,
          -488.0,
          -455.0,
          -457.0,
          -500.0,
          -485.0,
          -446.0,
          -612.0,
          -723.0,
          -750.0,
          -975.0,
          -1275.0,
          -1375.0,
          -1370.0,
          -1340.0,
          -1254.0,
          -1174.0,
          -1011.0,
          -875.0,
          -811.0,
          -771.0,
          -771.0,
          -686.0,
          -686.0,
          -731.0,
          -810.0,
          -913.0,
          -889.0,
          -750.0,
          -780.0,
          -750.0,
          -656.0,
          -662.0,
          -667.0,
          -500.0
        ]
      }
    }
  ]
}