{
  "type": "FeatureCollection",
  "features": [
    {
      "type": "Feature",
      "geometry": {
        "type": "LineString",
        "coordinates": [
          [
            -4.8655,
            41.6971
          ],
          [
            -4.8655,
            41.6971
          ],
          [
            -4.8679,
            41.6846
          ],
          [
            -4.8515,
            41.6743
          ],
          [
            -4.8296,
            41.6763
          ],
          [
            -4.7991,
            41.6894
          ],
          [
            -4.7566,
            41.7109
          ],
          [
            -4.7336,
            41.7227
          ],
          [
            -4.657,
            41.7601
          ],
          [
            -4.5988,
            41.789
          ],
          [
            -4.5441,
            41.8203
          ],
          [
            -4.492,
            41.8519
          ],
          [
            -4.4339,
            41.8859
          ],
          [
            -4.3751,
            41.9202
          ],
          [
            -4.3159,
            41.9551
          ],
          [
            -4.2516,
            41.9925
          ],
          [
            -4.1895,
            42.0286
          ],
          [
            -4.1274,
            42.0647
          ],
          [
            -4.0659,
            42.1005
          ],
          [
            -3.9984,
            42.1395
          ],
          [
            -3.9266,
            42.1809
          ],
          [
            -3.8571,
            42.221
          ],
          [
            -3.7854,
            42.2622
          ],
          [
            -3.7186,
            42.3005
          ],
          [
            -3.6476,
            42.3411
          ],
          [
            -3.577,
            42.3813
          ],
          [
            -3.5122,
            42.4182
          ],
          [
            -3.4431,
            42.4575
          ],
          [
            -3.3735,
            42.4969
          ],
          [
            -3.2986,
            42.5393
          ],
          [
            -3.2286,
            42.5788
          ],
          [
            -3.1625,
            42.6161
          ],
          [
            -3.0999,
            42.6511
          ],
          [
            -3.0266,
            42.6921
          ],
          [
            -2.96,
            42.7294
          ],
          [
            -2.8888,
            42.7691
          ],
          [
            -2.8195,
            42.8078
          ],
          [
            -2.7464,
            42.8482
          ],
          [
            -2.6745,
            42.8881
          ],
          [
            -2.5983,
            42.9301
          ],
          [
            -2.5327,
            42.9661
          ],
          [
            -2.4643,
            43.0038
          ],
          [
            -2.3923,
            43.0434
          ],
          [
            -2.3249,
            43.0802
          ],
          [
            -2.2565,
            43.1176
          ],
          [
            -2.186,
            43.1559
          ],
          [
            -2.1174,
            43.1932
          ],
          [
            -2.048,
            43.2308
          ],
          [
            -1.9744,
            43.2706
          ],
          [
            -1.9041,
            43.3085
          ],
          [
            -1.8451,
            43.3405
          ],
          [
            -1.7881,
            43.3841
          ],
          [
            -1.7483,
            43.4307
          ],
          [
            -1.7094,
            43.4879
          ],
          [
            -1.6672,
            43.5557
          ],
          [
            -1.6281,
            43.617
          ],
          [
            -1.5903,
            43.6764
          ],
          [
            -1.5514,
            43.7377
          ],
          [
            -1.5155,
            43.7943
          ],
          [
            -1.4771,
            43.8544
          ],
          [
            -1.4381,
            43.9156
          ],
          [
            -1.402,
            43.972
          ],
          [
            -1.3602,
            44.0371
          ],
          [
            -1.3219,
            44.0966
          ],
          [
            -1.2853,
            44.1532
          ],
          [
            -1.2487,
            44.2101
          ],
          [
            -1.2114,
            44.2676
          ],
          [
            -1.1747,
            44.3244
          ],
          [
            -1.1361,
            44.3837
          ],
          [
            -1.0982,
            44.4418
          ],
          [
            -1.0385,
            44.5155
          ],
          [
            -0.9874,
            44.5662
          ],
          [
            -0.9351,
            44.6189
          ],
          [
            -0.8816,
            44.6742
          ],
          [
            -0.8342,
            44.7222
          ],
          [
            -0.7835,
            44.7738
          ],
          [
            -0.7311,
            44.8271
          ],
          [
            -0.6821,
            44.8768
          ],
          [
            -0.6298,
            44.9297
          ],
          [
            -0.5787,
            44.9813
          ],
          [
            -0.5272,
            45.0333
          ],
          [
            -0.4772,
            45.0835
          ],
          [
            -0.4255,
            45.1354
          ],
          [
            -0.3729,
            45.1881
          ],
          [
            -0.3177,
            45.2432
          ],
          [
            -0.2658,
            45.2949
          ],
          [
            -0.215,
            45.3455
          ],
          [
            -0.1627,
            45.3974
          ],
          [
            -0.1107,
            45.4489
          ],
          [
            -0.0589,
            45.5001
          ],
          [
            -0.0073,
            45.5508
          ],
          [
            0.0498,
            45.6069
          ],
          [
            0.0983,
            45.6545
          ],
          [
            0.1535,
            45.7085
          ],
          [
            0.2053,
            45.7591
          ],
          [
            0.255,
            45.8075
          ],
          [
            0.3114,
            45.8624
          ],
          [
            0.3638,
            45.9131
          ],
          [
            0.4162,
            45.9638
          ],
          [
            0.4694,
            46.0152
          ],
          [
            0.522,
            46.0658
          ],
          [
            0.5749,
            46.1166
          ],
          [
            0.6283,
            46.1677
          ],
          [
            0.6812,
            46.2182
          ],
          [
            0.7349,
            46.2695
          ],
          [
            0.7901,
            46.3221
          ],
          [
            0.8427,
            46.3719
          ],
          [
            0.8972,
            46.4235
          ],
          [
            0.9506,
            46.4742
          ],
          [
            1.0048,
            46.5251
          ],
          [
            1.0592,
            46.5762
          ],
          [
            1.1133,
            46.627
          ],
          [
            1.1683,
            46.6784
          ],
          [
            1.2212,
            46.7279
          ],
          [
            1.2764,
            46.7793
          ],
          [
            1.3311,
            46.8301
          ],
          [
            1.3875,
            46.8823
          ],
          [
            1.4435,
            46.9341
          ],
          [
            1.4975,
            46.984
          ],
          [
            1.5524,
            47.0344
          ],
          [
            1.609,
            47.0864
          ],
          [
            1.665,
            47.1377
          ],
          [
            1.7214,
            47.1892
          ],
          [
            1.7761,
            47.239
          ],
          [
            1.8328,
            47.2906
          ],
          [
            1.8909,
            47.3432
          ],
          [
            1.9465,
            47.3936
          ],
          [
            2.0016,
            47.4432
          ],
          [
            2.0586,
            47.4945
          ],
          [
            2.1141,
            47.5444
          ],
          [
            2.1721,
            47.5963
          ],
          [
            2.228,
            47.6462
          ],
          [
            2.2847,
            47.6968
          ],
          [
            2.3427,
            47.7483
          ],
          [
            2.3997,
            47.7988
          ],
          [
            2.4586,
            47.8509
          ],
          [
            2.5158,
            47.9014
          ],
          [
            2.5731,
            47.9518
          ],
          [
            2.631,
            48.0026
          ],
          [
            2.6921,
            48.056
          ],
          [
            2.75,
            48.1067
          ],
          [
            2.8085,
            48.1576
          ],
          [
            2.8648,
            48.2065
          ],
          [
            2.9232,
            48.2571
          ],
          [
            2.9825,
            48.3084
          ],
          [
            3.0401,
            48.358
          ],
          [
            3.0981,
            48.4078
          ],
          [
            3.1566,
            48.458
          ],
          [
            3.2158,
            48.5086
          ],
          [
            3.2746,
            48.5588
          ],
          [
            3.3312,
            48.6071
          ],
          [
            3.3924,
            48.6589
          ],
          [
            3.428,
            48.6916
          ],
          [
            3.4545,
            48.725
          ],
          [
            3.5106,
            48.8106
          ],
          [
            3.5486,
            48.8687
          ],
          [
            3.5744,
            48.9067
          ],
          [
            3.6111,
            48.9447
          ],
          [
            3.6608,
            48.9828
          ],
          [
            3.7057,
            49.0129
          ],
          [
            3.7763,
            49.0577
          ],
          [
            3.8449,
            49.1027
          ],
          [
            3.9113,
            49.1459
          ],
          [
            3.9783,
            49.1893
          ],
          [
            4.0444,
            49.2321
          ],
          [
            4.1139,
            49.2768
          ],
          [
            4.1827,
            49.3212
          ],
          [
            4.2495,
            49.3639
          ],
          [
            4.3197,
            49.4088
          ],
          [
            4.389,
            49.453
          ],
          [
            4.4578,
            49.4968
          ],
          [
            4.524,
            49.5388
          ],
          [
            4.5923,
            49.5819
          ],
          [
            4.6604,
            49.6251
          ],
          [
            4.7284,
            49.6677
          ],
          [
            4.795,
            49.7096
          ],
          [
            4.8637,
            49.7527
          ],
          [
            4.9257,
            49.7913
          ],
          [
            4.993,
            49.8332
          ],
          [
            5.0627,
            49.8765
          ],
          [
            5.1328,
            49.92
          ],
          [
            5.2034,
            49.9636
          ],
          [
            5.2749,
            50.0076
          ],
          [
            5.347,
            50.0518
          ],
          [
            5.4226,
            50.0982
          ],
          [
            5.4961,
            50.143
          ],
          [
            5.572,
            50.1892
          ],
          [
            5.6517,
            50.2374
          ],
          [
            5.7322,
            50.2851
          ],
          [
            5.8069,
            50.3289
          ],
          [
            5.8916,
            50.3788
          ],
          [
            5.9685,
            50.4238
          ],
          [
            6.0498,
            50.4712
          ],
          [
            6.1296,
            50.5176
          ],
          [
            6.2099,
            50.5642
          ],
          [
            6.2923,
            50.6119
          ],
          [
            6.3949,
            50.671
          ],
          [
            6.4429,
            50.6985
          ],
          [
            6.5243,
            50.7451
          ],
          [
            6.6019,
            50.7893
          ],
          [
            6.6808,
            50.8344
          ],
          [
            6.7586,
            50.8785
          ],
          [
            6.8334,
            50.9208
          ],
          [
            6.9028,
            50.9599
          ],
          [
            6.9778,
            51.002
          ],
          [
            7.0797,
            51.0592
          ],
          [
            7.149,
            51.0979
          ],
          [
            7.2105,
            51.1321
          ],
          [
            7.2733,
            51.167
          ],
          [
            7.3246,
            51.1955
          ],
          [
            7.3802,
            51.2261
          ],
          [
            7.4332,
            51.2554
          ],
          [
            7.4816,
            51.2821
          ],
          [
            7.5359,
            51.3119
          ],
          [
            7.5845,
            51.3385
          ],
          [
            7.6345,
            51.366
          ],
          [
            7.6834,
            51.3928
          ],
          [
            7.7346,
            51.4207
          ],
          [
            7.7834,
            51.4471
          ],
          [
            7.8298,
            51.4724
          ],
          [
            7.8711,
            51.4949
          ],
          [
            7.8899,
            51.5156
          ],
          [
            7.8969,
            51.5396
          ],
          [
            7.9053,
            51.5684
          ],
          [
            7.9097,
            51.5831
          ],
          [
            7.9037,
            51.5959
          ],
          [
            7.8836,
            51.6005
          ],
          [
            7.8648,
            51.6008
          ],
          [
            7.8427,
            51.5965
          ],
          [
            7.8239,
            51.5912
          ],
          [
            7.7982,
            51.5831
          ],
          [
            7.7679,
            51.5729
          ],
          [
            7.7404,
            51.5633
          ],
          [
            7.7134,
            51.5538
          ],
          [
            7.7005,
            51.5493
          ],
          [
            7.689,
            51.5452
          ],
          [
            7.6777,
            51.5413
          ],
          [
            7.6659,
            51.5371
          ],
          [
            7.6555,
            51.5335
          ],
          [
            7.6427,
            51.529
          ],
          [
            7.6309,
            51.525
          ]
        ]
      },
      "properties": {
        "time_europe_berlin": [
          "09.12.2025 16:08:41",
          "09.12.2025 16:08:41",
          "09.12.2025 16:09:00",
          "09.12.2025 16:09:21",
          "09.12.2025 16:09:37",
          "09.12.2025 16:10:00",
          "09.12.2025 16:10:30",
          "09.12.2025 16:10:47",
          "09.12.2025 16:11:32",
          "09.12.2025 16:12:04",
          "09.12.2025 16:12:34",
          "09.12.2025 16:13:04",
          "09.12.2025 16:13:35",
          "09.12.2025 16:14:05",
          "09.12.2025 16:14:35",
          "09.12.2025 16:15:05",
          "09.12.2025 16:15:35",
          "09.12.2025 16:16:05",
          "09.12.2025 16:16:35",
          "09.12.2025 16:17:06",
          "09.12.2025 16:17:37",
          "09.12.2025 16:18:08",
          "09.12.2025 16:18:39",
          "09.12.2025 16:19:09",
          "09.12.2025 16:19:39",
          "09.12.2025 16:20:09",
          "09.12.2025 16:20:39",
          "09.12.2025 16:21:09",
          "09.12.2025 16:21:39",
          "09.12.2025 16:22:11",
          "09.12.2025 16:22:41",
          "09.12.2025 16:23:11",
          "09.12.2025 16:23:41",
          "09.12.2025 16:24:12",
          "09.12.2025 16:24:42",
          "09.12.2025 16:25:12",
          "09.12.2025 16:25:42",
          "09.12.2025 16:26:14",
          "09.12.2025 16:26:44",
          "09.12.2025 16:27:15",
          "09.12.2025 16:27:45",
          "09.12.2025 16:28:15",
          "09.12.2025 16:28:46",
          "09.12.2025 16:29:16",
          "09.12.2025 16:29:46",
          "09.12.2025 16:30:16",
          "09.12.2025 16:30:46",
          "09.12.2025 16:31:16",
          "09.12.2025 16:31:46",
          "09.12.2025 16:32:16",
          "09.12.2025 16:32:42",
          "09.12.2025 16:33:08",
          "09.12.2025 16:33:35",
          "09.12.2025 16:34:05",
          "09.12.2025 16:34:38",
          "09.12.2025 16:35:11",
          "09.12.2025 16:35:42",
          "09.12.2025 16:36:12",
          "09.12.2025 16:36:42",
          "09.12.2025 16:37:14",
          "09.12.2025 16:37:45",
          "09.12.2025 16:38:15",
          "09.12.2025 16:38:48",
          "09.12.2025 16:39:19",
          "09.12.2025 16:39:49",
          "09.12.2025 16:40:19",
          "09.12.2025 16:40:49",
          "09.12.2025 16:41:19",
          "09.12.2025 16:41:49",
          "09.12.2025 16:42:21",
          "09.12.2025 16:43:00",
          "09.12.2025 16:43:31",
          "09.12.2025 16:44:01",
          "09.12.2025 16:44:32",
          "09.12.2025 16:45:02",
          "09.12.2025 16:45:32",
          "09.12.2025 16:46:02",
          "09.12.2025 16:46:32",
          "09.12.2025 16:47:02",
          "09.12.2025 16:47:32",
          "09.12.2025 16:48:02",
          "09.12.2025 16:48:32",
          "09.12.2025 16:49:02",
          "09.12.2025 16:49:33",
          "09.12.2025 16:50:04",
          "09.12.2025 16:50:34",
          "09.12.2025 16:51:04",
          "09.12.2025 16:51:34",
          "09.12.2025 16:52:04",
          "09.12.2025 16:52:34",
          "09.12.2025 16:53:04",
          "09.12.2025 16:53:35",
          "09.12.2025 16:54:05",
          "09.12.2025 16:54:35",
          "09.12.2025 16:55:05",
          "09.12.2025 16:55:35",
          "09.12.2025 16:56:05",
          "09.12.2025 16:56:36",
          "09.12.2025 16:57:06",
          "09.12.2025 16:57:36",
          "09.12.2025 16:58:06",
          "09.12.2025 16:58:36",
          "09.12.2025 16:59:06",
          "09.12.2025 16:59:36",
          "09.12.2025 17:00:07",
          "09.12.2025 17:00:37",
          "09.12.2025 17:01:07",
          "09.12.2025 17:01:37",
          "09.12.2025 17:02:07",
          "09.12.2025 17:02:37",
          "09.12.2025 17:03:07",
          "09.12.2025 17:03:37",
          "09.12.2025 17:04:07",
          "09.12.2025 17:04:37",
          "09.12.2025 17:05:07",
          "09.12.2025 17:05:37",
          "09.12.2025 17:06:07",
          "09.12.2025 17:06:38",
          "09.12.2025 17:07:08",
          "09.12.2025 17:07:38",
          "09.12.2025 17:08:08",
          "09.12.2025 17:08:39",
          "09.12.2025 17:09:09",
          "09.12.2025 17:09:39",
          "09.12.2025 17:10:09",
          "09.12.2025 17:10:40",
          "09.12.2025 17:11:10",
          "09.12.2025 17:11:40",
          "09.12.2025 17:12:10",
          "09.12.2025 17:12:40",
          "09.12.2025 17:13:10",
          "09.12.2025 17:13:40",
          "09.12.2025 17:14:10",
          "09.12.2025 17:14:40",
          "09.12.2025 17:15:10",
          "09.12.2025 17:15:41",
          "09.12.2025 17:16:12",
          "09.12.2025 17:16:42",
          "09.12.2025 17:17:12",
          "09.12.2025 17:17:44",
          "09.12.2025 17:18:14",
          "09.12.2025 17:18:44",
          "09.12.2025 17:19:14",
          "09.12.2025 17:19:44",
          "09.12.2025 17:20:14",
          "09.12.2025 17:20:44",
          "09.12.2025 17:21:14",
          "09.12.2025 17:21:44",
          "09.12.2025 17:22:14",
          "09.12.2025 17:22:44",
          "09.12.2025 17:23:14",
          "09.12.2025 17:23:44",
          "09.12.2025 17:24:03",
          "09.12.2025 17:24:21",
          "09.12.2025 17:25:05",
          "09.12.2025 17:25:35",
          "09.12.2025 17:25:54",
          "09.12.2025 17:26:15",
          "09.12.2025 17:26:40",
          "09.12.2025 17:27:00",
          "09.12.2025 17:27:30",
          "09.12.2025 17:28:00",
          "09.12.2025 17:28:30",
          "09.12.2025 17:29:00",
          "09.12.2025 17:29:30",
          "09.12.2025 17:30:00",
          "09.12.2025 17:30:30",
          "09.12.2025 17:31:00",
          "09.12.2025 17:31:30",
          "09.12.2025 17:32:01",
          "09.12.2025 17:32:31",
          "09.12.2025 17:33:01",
          "09.12.2025 17:33:31",
          "09.12.2025 17:34:01",
          "09.12.2025 17:34:31",
          "09.12.2025 17:35:01",
          "09.12.2025 17:35:31",
          "09.12.2025 17:36:01",
          "09.12.2025 17:36:31",
          "09.12.2025 17:37:01",
          "09.12.2025 17:37:31",
          "09.12.2025 17:38:01",
          "09.12.2025 17:38:31",
          "09.12.2025 17:39:01",
          "09.12.2025 17:39:31",
          "09.12.2025 17:40:01",
          "09.12.2025 17:40:31",
          "09.12.2025 17:41:01",
          "09.12.2025 17:41:31",
          "09.12.2025 17:42:01",
          "09.12.2025 17:42:31",
          "09.12.2025 17:43:01",
          "09.12.2025 17:43:31",
          "09.12.2025 17:44:01",
          "09.12.2025 17:44:31",
          "09.12.2025 17:45:01",
          "09.12.2025 17:45:38",
          "09.12.2025 17:45:57",
          "09.12.2025 17:46:27",
          "09.12.2025 17:46:57",
          "09.12.2025 17:47:27",
          "09.12.2025 17:47:57",
          "09.12.2025 17:48:27",
          "09.12.2025 17:48:57",
          "09.12.2025 17:49:27",
          "09.12.2025 17:50:12",
          "09.12.2025 17:50:42",
          "09.12.2025 17:51:12",
          "09.12.2025 17:51:42",
          "09.12.2025 17:52:12",
          "09.12.2025 17:52:42",
          "09.12.2025 17:53:12",
          "09.12.2025 17:53:42",
          "09.12.2025 17:54:12",
          "09.12.2025 17:54:42",
          "09.12.2025 17:55:12",
          "09.12.2025 17:55:42",
          "09.12.2025 17:56:12",
          "09.12.2025 17:56:42",
          "09.12.2025 17:57:12",
          "09.12.2025 17:57:39",
          "09.12.2025 17:58:00",
          "09.12.2025 17:58:25",
          "09.12.2025 17:58:55",
          "09.12.2025 17:59:12",
          "09.12.2025 17:59:28",
          "09.12.2025 17:59:45",
          "09.12.2025 18:00:03",
          "09.12.2025 18:00:22",
          "09.12.2025 18:00:40",
          "09.12.2025 18:01:04",
          "09.12.2025 18:01:34",
          "09.12.2025 18:02:04",
          "09.12.2025 18:02:33",
          "09.12.2025 18:02:49",
          "09.12.2025 18:03:05",
          "09.12.2025 18:03:21",
          "09.12.2025 18:03:37",
          "09.12.2025 18:03:53",
          "09.12.2025 18:04:09",
          "09.12.2025 18:04:25"
        ],
        "course_deg_clockwise_from_north": [
          226,
          226,
          168,
          105,
          67,
          58,
          55,
          56,
          57,
          55,
          51,
          52,
          52,
          52,
          52,
          52,
          52,
          52,
          52,
          52,
          52,
          52,
          52,
          52,
          52,
          53,
          53,
          53,
          53,
          53,
          53,
          53,
          53,
          53,
          53,
          53,
          53,
          53,
          53,
          53,
          53,
          53,
          53,
          53,
          53,
          53,
          53,
          54,
          54,
          54,
          52,
          37,
          29,
          25,
          24,
          25,
          25,
          25,
          25,
          25,
          25,
          25,
          25,
          25,
          25,
          25,
          25,
          25,
          25,
          25,
          34,
          36,
          35,
          35,
          35,
          35,
          35,
          35,
          35,
          35,
          35,
          35,
          35,
          35,
          35,
          35,
          35,
          35,
          36,
          36,
          36,
          36,
          36,
          36,
          36,
          36,
          36,
          36,
          36,
          36,
          36,
          36,
          36,
          36,
          36,
          36,
          36,
          36,
          36,
          36,
          36,
          36,
          36,
          36,
          36,
          37,
          36,
          37,
          37,
          37,
          37,
          37,
          37,
          37,
          37,
          37,
          37,
          37,
          37,
          37,
          37,
          37,
          37,
          37,
          37,
          37,
          37,
          37,
          38,
          38,
          37,
          38,
          38,
          38,
          38,
          38,
          38,
          38,
          38,
          38,
          38,
          38,
          33,
          25,
          23,
          24,
          25,
          36,
          43,
          46,
          46,
          45,
          45,
          45,
          45,
          46,
          46,
          46,
          46,
          46,
          46,
          46,
          46,
          46,
          46,
          46,
          46,
          46,
          46,
          46,
          46,
          46,
          46,
          46,
          47,
          46,
          47,
          47,
          48,
          47,
          47,
          48,
          48,
          48,
          48,
          48,
          48,
          48,
          48,
          48,
          48,
          48,
          48,
          48,
          48,
          49,
          48,
          49,
          49,
          49,
          49,
          49,
          49,
          49,
          49,
          49,
          49,
          49,
          49,
          49,
          48,
          13,
          10,
          11,
          5,
          315,
          279,
          261,
          248,
          245,
          242,
          241,
          241,
          241,
          242,
          240,
          241,
          240,
          241,
          240,
          241
        ],
        "speed_kts": [
          153,
          153,
          155,
          198,
          223,
          254,
          293,
          308,
          334,
          358,
          375,
          382,
          396,
          403,
          409,
          418,
          425,
          436,
          441,
          448,
          458,
          460,
          461,
          467,
          471,
          468,
          466,
          462,
          456,
          459,
          452,
          447,
          451,
          455,
          459,
          465,
          470,
          473,
          476,
          459,
          449,
          451,
          453,
          454,
          454,
          454,
          456,
          461,
          466,
          467,
          469,
          465,
          465,
          463,
          463,
          463,
          462,
          462,
          461,
          462,
          460,
          460,
          459,
          457,
          455,
          455,
          455,
          455,
          454,
          454,
          455,
          454,
          454,
          454,
          454,
          454,
          454,
          454,
          454,
          456,
          456,
          456,
          456,
          457,
          457,
          456,
          456,
          456,
          456,
          456,
          456,
          456,
          455,
          455,
          454,
          454,
          454,
          454,
          455,
          454,
          453,
          453,
          454,
          454,
          454,
          454,
          454,
          455,
          456,
          455,
          455,
          455,
          455,
          456,
          456,
          457,
          456,
          457,
          457,
          456,
          455,
          455,
          455,
          456,
          456,
          457,
          458,
          458,
          457,
          458,
          458,
          458,
          457,
          458,
          457,
          457,
          458,
          458,
          458,
          459,
          457,
          457,
          458,
          458,
          459,
          458,
          459,
          459,
          459,
          460,
          460,
          460,
          460,
          458,
          457,
          456,
          456,
          456,
          457,
          458,
          455,
          453,
          452,
          452,
          452,
          451,
          450,
          449,
          448,
          447,
          447,
          447,
          447,
          446,
          439,
          428,
          428,
          433,
          440,
          446,
          453,
          458,
          465,
          474,
          481,
          487,
          490,
          492,
          496,
          498,
          501,
          501,
          500,
          501,
          506,
          510,
          496,
          502,
          497,
          484,
          475,
          467,
          450,
          443,
          431,
          409,
          395,
          379,
          346,
          326,
          313,
          312,
          311,
          305,
          298,
          294,
          302,
          301,
          288,
          272,
          270,
          225,
          212,
          205,
          197,
          161,
          156,
          157,
          159,
          162,
          158,
          149,
          138,
          140,
          120,
          112,
          110,
          109,
          112,
          117,
          127
        ],
        "speed_mph": [
          176.0,
          176.0,
          178.0,
          228.0,
          257.0,
          292.0,
          337.0,
          354.0,
          384.0,
          412.0,
          432.0,
          440.0,
          456.0,
          464.0,
          471.0,
          481.0,
          489.0,
          502.0,
          507.0,
          516.0,
          527.0,
          529.0,
          531.0,
          537.0,
          542.0,
          539.0,
          536.0,
          532.0,
          525.0,
          528.0,
          520.0,
          514.0,
          519.0,
          524.0,
          528.0,
          535.0,
          541.0,
          544.0,
          548.0,
          528.0,
          517.0,
          519.0,
          521.0,
          522.0,
          522.0,
          522.0,
          525.0,
          531.0,
          536.0,
          537.0,
          540.0,
          535.0,
          535.0,
          533.0,
          533.0,
          533.0,
          532.0,
          532.0,
          531.0,
          532.0,
          529.0,
          529.0,
          528.0,
          526.0,
          524.0,
          524.0,
          524.0,
          524.0,
          522.0,
          522.0,
          524.0,
          522.0,
          522.0,
          522.0,
          522.0,
          522.0,
          522.0,
          522.0,
          522.0,
          525.0,
          525.0,
          525.0,
          525.0,
          526.0,
          526.0,
          525.0,
          525.0,
          525.0,
          525.0,
          525.0,
          525.0,
          525.0,
          524.0,
          524.0,
          522.0,
          522.0,
          522.0,
          522.0,
          524.0,
          522.0,
          521.0,
          521.0,
          522.0,
          522.0,
          522.0,
          522.0,
          522.0,
          524.0,
          525.0,
          524.0,
          524.0,
          524.0,
          524.0,
          525.0,
          525.0,
          526.0,
          525.0,
          526.0,
          526.0,
          525.0,
          524.0,
          524.0,
          524.0,
          525.0,
          525.0,
          526.0,
          527.0,
          527.0,
          526.0,
          527.0,
          527.0,
          527.0,
          526.0,
          527.0,
          526.0,
          526.0,
          527.0,
          527.0,
          527.0,
          528.0,
          526.0,
          526.0,
          527.0,
          527.0,
          528.0,
          527.0,
          528.0,
          528.0,
          528.0,
          529.0,
          529.0,
          529.0,
          529.0,
          527.0,
          526.0,
          525.0,
          525.0,
          525.0,
          526.0,
          527.0,
          524.0,
          521.0,
          520.0,
          520.0,
          520.0,
          519.0,
          518.0,
          517.0,
          516.0,
          514.0,
          514.0,
          514.0,
          514.0,
          513.0,
          505.0,
          493.0,
          493.0,
          498.0,
          506.0,
          513.0,
          521.0,
          527.0,
          535.0,
          545.0,
          554.0,
          560.0,
          564.0,
          566.0,
          571.0,
          573.0,
          577.0,
          577.0,
          575.0,
          577.0,
          582.0,
          587.0,
          571.0,
          578.0,
          572.0,
          557.0,
          547.0,
          537.0,
          518.0,
          510.0,
          496.0,
          471.0,
          455.0,
          436.0,
          398.0,
          375.0,
          360.0,
          359.0,
          358.0,
          351.0,
          343.0,
          338.0,
          348.0,
          346.0,
          331.0,
          313.0,
          311.0,
          259.0,
          244.0,
          236.0,
          227.0,
          185.0,
          180.0,
          181.0,
          183.0,
          186.0,
          182.0,
          171.0,
          159.0,
          161.0,
          138.0,
          129.0,
          127.0,
          125.0,
          129.0,
          135.0,
          146.0
        ],
        "altitude_ft": [
          3775,
          3842,
          4925,
          5825,
          6475,
          7325,
          8425,
          9075,
          11575,
          12800,
          13900,
          15050,
          16100,
          17300,
          18575,
          20200,
          21750,
          23000,
          24275,
          25525,
          26600,
          27775,
          28950,
          29800,
          30650,
          31725,
          32700,
          33775,
          34950,
          35725,
          36650,
          37500,
          37975,
          38425,
          38750,
          39000,
          39250,
          39550,
          39825,
          40700,
          41500,
          41775,
          42050,
          42325,
          42600,
          42850,
          43000,
          43000,
          43000,
          43000,
          43000,
          43025,
          43000,
          43000,
          43000,
          43000,
          43000,
          43000,
          43000,
          43000,
          43000,
          43000,
          43000,
          43000,
          43000,
          43000,
          43000,
          43000,
          43000,
          43000,
          43000,
          43000,
          43000,
          43000,
          43000,
          43000,
          43000,
          43000,
          43000,
          43000,
          43000,
          43000,
          43000,
          43000,
          43000,
          43000,
          43000,
          43000,
          43000,
          43000,
          43000,
          43000,
          43000,
          43000,
          43000,
          43000,
          43000,
          43000,
          43000,
          43000,
          43000,
          43000,
          43000,
          43000,
          43000,
          43000,
          43000,
          43000,
          43000,
          43000,
          43000,
          43000,
          43000,
          43000,
          43000,
          43000,
          43000,
          43000,
          43000,
          43000,
          43000,
          43000,
          43000,
          43000,
          43000,
          43000,
          43000,
          43000,
          43000,
          43000,
          43000,
          43000,
          43000,
          43000,
          43000,
          43000,
          43000,
          43000,
          43000,
          43000,
          43000,
          43000,
          43000,
          43000,
          43000,
          43000,
          43000,
          43000,
          43000,
          43000,
          43000,
          43000,
          43000,
          43000,
          43000,
          43000,
          43000,
          43000,
          43000,
          43000,
          43000,
          43000,
          43000,
          43000,
          43000,
          43000,
          43000,
          43000,
          43000,
          43000,
          43000,
          43000,
          43000,
          43000,
          42575,
          41825,
          41025,
          40325,
          39550,
          38775,
          38025,
          37275,
          36350,
          35375,
          34350,
          33350,
          32350,
          31325,
          30275,
          29250,
          28250,
          27250,
          26250,
          25225,
          25000,
          25000,
          24025,
          23225,
          21975,
          20725,
          19450,
          18150,
          17075,
          15950,
          14600,
          12875,
          11775,
          10800,
          9975,
          9225,
          8275,
          7200,
          6450,
          5700,
          5125,
          5050,
          4675,
          4175,
          4050,
          4025,
          3625,
          3575,
          3550,
          3450,
          3175,
          3075,
          3050,
          3050,
          3050,
          3050,
          2925,
          2500,
          2150,
          1775,
          1575,
          1425,
          1275,
          1125,
          975,
          800,
          600
        ],
        "vertical_rate_fpm": [
          0.0,
          3632.0,
          2975.0,
          2514.0,
          2308.0,
          2208.0,
          2234.0,
          3048.0,
          2903.0,
          2250.0,
          2250.0,
          2164.0,
          2213.0,
          2475.0,
          2900.0,
          3175.0,
          2800.0,
          2525.0,
          2484.0,
          2250.0,
          2177.0,
          2274.0,
          1992.0,
          1700.0,
          1925.0,
          2050.0,
          2050.0,
          2250.0,
          1887.0,
          1645.0,
          1775.0,
          1325.0,
          910.0,
          762.0,
          575.0,
          500.0,
          532.0,
          556.0,
          1131.0,
          1648.0,
          1075.0,
          541.0,
          541.0,
          550.0,
          525.0,
          400.0,
          150.0,
          0.0,
          0.0,
          0.0,
          29.0,
          0.0,
          -26.0,
          0.0,
          0.0,
          0.0,
          0.0,
          0.0,
          0.0,
          0.0,
          0.0,
          0.0,
          0.0,
          0.0,
          0.0,
          0.0,
          0.0,
          0.0,
          0.0,
          0.0,
          0.0,
          0.0,
          0.0,
          0.0,
          0.0,
          0.0,
          0.0,
          0.0,
          0.0,
          0.0,
          0.0,
          0.0,
          0.0,
          0.0,
          0.0,
          0.0,
          0.0,
          0.0,
          0.0,
          0.0,
          0.0,
          0.0,
          0.0,
          0.0,
          0.0,
          0.0,
          0.0,
          0.0,
          0.0,
          0.0,
          0.0,
          0.0,
          0.0,
          0.0,
          0.0,
          0.0,
          0.0,
          0.0,
          0.0,
          0.0,
          0.0,
          0.0,
          0.0,
          0.0,
          0.0,
          0.0,
          0.0,
          0.0,
          0.0,
          0.0,
          0.0,
          0.0,
          0.0,
          0.0,
          0.0,
          0.0,
          0.0,
          0.0,
          0.0,
          0.0,
          0.0,
          0.0,
          0.0,
          0.0,
          0.0,
          0.0,
          0.0,
          0.0,
          0.0,
          0.0,
          0.0,
          0.0,
          0.0,
          0.0,
          0.0,
          0.0,
          0.0,
          0.0,
          0.0,
          0.0,
          0.0,
          0.0,
          0.0,
          0.0,
          0.0,
          0.0,
          0.0,
          0.0,
          0.0,
          0.0,
          0.0,
          0.0,
          0.0,
          0.0,
          0.0,
          0.0,
          0.0,
          0.0,
          0.0,
          0.0,
          0.0,
          0.0,
          0.0,
          -425.0,
          -1175.0,
          -1550.0,
          -1500.0,
          -1475.0,
          -1550.0,
          -1525.0,
          -1500.0,
          -1675.0,
          -1900.0,
          -2000.0,
          -2025.0,
          -2000.0,
          -2025.0,
          -2075.0,
          -2075.0,
          -2025.0,
          -2000.0,
          -2000.0,
          -2025.0,
          -1250.0,
          -225.0,
          -873.0,
          -1902.0,
          -2510.0,
          -2500.0,
          -2525.0,
          -2575.0,
          -2375.0,
          -2200.0,
          -2475.0,
          -2460.0,
          -2260.0,
          -2075.0,
          -1800.0,
          -1575.0,
          -1700.0,
          -2025.0,
          -1825.0,
          -1500.0,
          -1325.0,
          -650.0,
          -450.0,
          -875.0,
          -625.0,
          -150.0,
          -447.0,
          -563.0,
          -98.0,
          -136.0,
          -479.0,
          -682.0,
          -227.0,
          -43.0,
          0.0,
          0.0,
          -179.0,
          -611.0,
          -775.0,
          -737.0,
          -767.0,
          -656.0,
          -563.0,
          -563.0,
          -563.0,
          -609.0,
          -703.0,
          -750.0
        ]
      }
    }
  ]
}