{
  "type": "FeatureCollection",
  "features": [
    {
      "type": "Feature",
      "geometry": {
        "type": "LineString",
        "coordinates": [
          [
            7.1427,
            50.8562
          ],
          [
            7.1551,
            50.8483
          ],
          [
            7.1706,
            50.8392
          ],
          [
            7.1861,
            50.8307
          ],
          [
            7.2033,
            50.822
          ],
          [
            7.2191,
            50.8145
          ],
          [
            7.2425,
            50.8028
          ],
          [
            7.2582,
            50.7893
          ],
          [
            7.255,
            50.773
          ],
          [
            7.2339,
            50.7623
          ],
          [
            7.2056,
            50.7587
          ],
          [
            7.1738,
            50.7591
          ],
          [
            7.1357,
            50.7608
          ],
          [
            7.1042,
            50.7591
          ],
          [
            7.0038,
            50.7462
          ],
          [
            6.9261,
            50.7364
          ],
          [
            6.8503,
            50.7275
          ],
          [
            6.7448,
            50.7146
          ],
          [
            6.6802,
            50.7068
          ],
          [
            6.6007,
            50.6971
          ],
          [
            6.5251,
            50.688
          ],
          [
            6.4802,
            50.6823
          ],
          [
            6.4216,
            50.6643
          ],
          [
            6.3402,
            50.626
          ],
          [
            6.2679,
            50.5902
          ],
          [
            6.2002,
            50.5586
          ],
          [
            6.1016,
            50.5117
          ],
          [
            6.0301,
            50.4777
          ],
          [
            5.963,
            50.446
          ],
          [
            5.8899,
            50.4112
          ],
          [
            5.8402,
            50.3875
          ],
          [
            5.7719,
            50.355
          ],
          [
            5.7041,
            50.3226
          ],
          [
            5.6621,
            50.3024
          ],
          [
            5.5586,
            50.2525
          ],
          [
            5.4891,
            50.219
          ],
          [
            5.4184,
            50.1847
          ],
          [
            5.3447,
            50.149
          ],
          [
            5.2935,
            50.1237
          ],
          [
            5.2049,
            50.0719
          ],
          [
            5.1391,
            50.0316
          ],
          [
            5.0729,
            49.9924
          ],
          [
            5.0075,
            49.9532
          ],
          [
            4.9435,
            49.9146
          ],
          [
            4.8726,
            49.8722
          ],
          [
            4.8089,
            49.8338
          ],
          [
            4.741,
            49.7929
          ],
          [
            4.6744,
            49.7525
          ],
          [
            4.6046,
            49.7101
          ],
          [
            4.5352,
            49.668
          ],
          [
            4.4697,
            49.628
          ],
          [
            4.4009,
            49.5859
          ],
          [
            4.3297,
            49.5423
          ],
          [
            4.2669,
            49.5038
          ],
          [
            4.2265,
            49.4789
          ],
          [
            4.1563,
            49.4355
          ],
          [
            4.0925,
            49.396
          ],
          [
            4.0295,
            49.357
          ],
          [
            3.963,
            49.3156
          ],
          [
            3.901,
            49.2769
          ],
          [
            3.8368,
            49.2367
          ],
          [
            3.7727,
            49.1966
          ],
          [
            3.7123,
            49.1587
          ],
          [
            3.6477,
            49.118
          ],
          [
            3.5823,
            49.0767
          ],
          [
            3.516,
            49.0347
          ],
          [
            3.4508,
            48.9934
          ],
          [
            3.3855,
            48.9518
          ],
          [
            3.3214,
            48.9109
          ],
          [
            3.254,
            48.8679
          ],
          [
            3.1891,
            48.8262
          ],
          [
            3.1255,
            48.7853
          ],
          [
            3.0594,
            48.7428
          ],
          [
            2.9971,
            48.7024
          ],
          [
            2.9315,
            48.6599
          ],
          [
            2.8672,
            48.6183
          ],
          [
            2.8026,
            48.5762
          ],
          [
            2.7395,
            48.5349
          ],
          [
            2.6755,
            48.4931
          ],
          [
            2.6322,
            48.4614
          ],
          [
            2.6008,
            48.4248
          ],
          [
            2.5604,
            48.3381
          ],
          [
            2.5378,
            48.2783
          ],
          [
            2.5124,
            48.2163
          ],
          [
            2.4868,
            48.154
          ],
          [
            2.4619,
            48.0924
          ],
          [
            2.4377,
            48.0333
          ],
          [
            2.4129,
            47.9726
          ],
          [
            2.3886,
            47.9127
          ],
          [
            2.363,
            47.8495
          ],
          [
            2.3389,
            47.79
          ],
          [
            2.3134,
            47.7268
          ],
          [
            2.2892,
            47.6667
          ],
          [
            2.2643,
            47.6046
          ],
          [
            2.2396,
            47.5431
          ],
          [
            2.2165,
            47.4852
          ],
          [
            2.1907,
            47.421
          ],
          [
            2.1663,
            47.3592
          ],
          [
            2.1418,
            47.2978
          ],
          [
            2.1186,
            47.2388
          ],
          [
            2.0939,
            47.1766
          ],
          [
            2.0699,
            47.1157
          ],
          [
            2.0458,
            47.0543
          ],
          [
            2.022,
            46.9938
          ],
          [
            1.9981,
            46.9324
          ],
          [
            1.9754,
            46.8747
          ],
          [
            1.9526,
            46.8126
          ],
          [
            1.9315,
            46.7536
          ],
          [
            1.9076,
            46.6885
          ],
          [
            1.8858,
            46.6285
          ],
          [
            1.8637,
            46.5672
          ],
          [
            1.8414,
            46.5055
          ],
          [
            1.8193,
            46.4439
          ],
          [
            1.7972,
            46.3824
          ],
          [
            1.7755,
            46.3221
          ],
          [
            1.7542,
            46.2622
          ],
          [
            1.7326,
            46.2017
          ],
          [
            1.7106,
            46.1404
          ],
          [
            1.6883,
            46.0769
          ],
          [
            1.6668,
            46.0167
          ],
          [
            1.6454,
            45.9557
          ],
          [
            1.6234,
            45.8936
          ],
          [
            1.6024,
            45.8337
          ],
          [
            1.5808,
            45.7722
          ],
          [
            1.5595,
            45.7116
          ],
          [
            1.5379,
            45.6496
          ],
          [
            1.5168,
            45.5888
          ],
          [
            1.4956,
            45.5281
          ],
          [
            1.4753,
            45.4695
          ],
          [
            1.4511,
            45.3995
          ],
          [
            1.4307,
            45.3406
          ],
          [
            1.4089,
            45.2772
          ],
          [
            1.3879,
            45.2162
          ],
          [
            1.3673,
            45.1564
          ],
          [
            1.3461,
            45.0942
          ],
          [
            1.3259,
            45.0355
          ],
          [
            1.3046,
            44.9726
          ],
          [
            1.2839,
            44.9115
          ],
          [
            1.2623,
            44.8484
          ],
          [
            1.2418,
            44.7874
          ],
          [
            1.221,
            44.7259
          ],
          [
            1.2001,
            44.6645
          ],
          [
            1.1789,
            44.6007
          ],
          [
            1.1562,
            44.5337
          ],
          [
            1.1365,
            44.4744
          ],
          [
            1.1162,
            44.4136
          ],
          [
            1.0948,
            44.3499
          ],
          [
            1.0742,
            44.2882
          ],
          [
            1.053,
            44.2239
          ],
          [
            1.0328,
            44.1624
          ],
          [
            1.012,
            44.1001
          ],
          [
            0.9918,
            44.0386
          ],
          [
            0.9714,
            43.9767
          ],
          [
            0.9502,
            43.912
          ],
          [
            0.9303,
            43.8516
          ],
          [
            0.9099,
            43.7892
          ],
          [
            0.8905,
            43.7301
          ],
          [
            0.87,
            43.6666
          ],
          [
            0.8488,
            43.6014
          ],
          [
            0.829,
            43.5402
          ],
          [
            0.8091,
            43.4787
          ],
          [
            0.7884,
            43.4148
          ],
          [
            0.7692,
            43.3552
          ],
          [
            0.7485,
            43.2911
          ],
          [
            0.729,
            43.2294
          ],
          [
            0.7089,
            43.1671
          ],
          [
            0.6893,
            43.1058
          ],
          [
            0.669,
            43.0417
          ],
          [
            0.649,
            42.9793
          ],
          [
            0.6291,
            42.9164
          ],
          [
            0.6071,
            42.833
          ],
          [
            0.5888,
            42.7641
          ],
          [
            0.5721,
            42.7021
          ],
          [
            0.5566,
            42.643
          ],
          [
            0.5388,
            42.5754
          ],
          [
            0.5222,
            42.5129
          ],
          [
            0.5054,
            42.4496
          ],
          [
            0.4889,
            42.3868
          ],
          [
            0.4728,
            42.3249
          ],
          [
            0.4561,
            42.2615
          ],
          [
            0.4387,
            42.1949
          ],
          [
            0.4213,
            42.1283
          ],
          [
            0.4054,
            42.0671
          ],
          [
            0.3895,
            42.0058
          ],
          [
            0.3731,
            41.9411
          ],
          [
            0.3602,
            41.8816
          ],
          [
            0.346,
            41.8188
          ],
          [
            0.3314,
            41.7556
          ],
          [
            0.3171,
            41.691
          ],
          [
            0.3024,
            41.6257
          ],
          [
            0.2878,
            41.5609
          ],
          [
            0.2738,
            41.4974
          ],
          [
            0.2599,
            41.4358
          ],
          [
            0.2455,
            41.3707
          ],
          [
            0.231,
            41.3059
          ],
          [
            0.2172,
            41.2434
          ],
          [
            0.2024,
            41.1764
          ],
          [
            0.1873,
            41.1084
          ],
          [
            0.1727,
            41.042
          ],
          [
            0.1582,
            40.9761
          ],
          [
            0.1443,
            40.9128
          ],
          [
            0.1304,
            40.8488
          ],
          [
            0.1165,
            40.7858
          ],
          [
            0.1026,
            40.7225
          ],
          [
            0.0896,
            40.6623
          ],
          [
            0.0757,
            40.598
          ],
          [
            0.0622,
            40.5364
          ],
          [
            0.0488,
            40.4747
          ],
          [
            0.036,
            40.4151
          ],
          [
            0.0222,
            40.3508
          ],
          [
            0.0098,
            40.2928
          ],
          [
            -0.0024,
            40.2359
          ],
          [
            -0.0134,
            40.1851
          ],
          [
            -0.024,
            40.1359
          ],
          [
            -0.035,
            40.0845
          ],
          [
            -0.0455,
            40.0352
          ],
          [
            -0.056,
            39.9858
          ],
          [
            -0.0661,
            39.9385
          ],
          [
            -0.0766,
            39.8894
          ],
          [
            -0.0862,
            39.844
          ],
          [
            -0.0913,
            39.8199
          ],
          [
            -0.1005,
            39.7768
          ],
          [
            -0.1094,
            39.7349
          ],
          [
            -0.118,
            39.6936
          ],
          [
            -0.1249,
            39.6636
          ],
          [
            -0.1388,
            39.6346
          ],
          [
            -0.1601,
            39.5994
          ],
          [
            -0.1709,
            39.581
          ],
          [
            -0.1884,
            39.5492
          ],
          [
            -0.2041,
            39.5211
          ],
          [
            -0.2185,
            39.4961
          ],
          [
            -0.2325,
            39.4713
          ],
          [
            -0.2466,
            39.4459
          ],
          [
            -0.2571,
            39.4275
          ],
          [
            -0.2731,
            39.4183
          ],
          [
            -0.291,
            39.4185
          ],
          [
            -0.3182,
            39.4273
          ],
          [
            -0.3461,
            39.4378
          ],
          [
            -0.3736,
            39.4482
          ],
          [
            -0.3981,
            39.4575
          ],
          [
            -0.4084,
            39.4614
          ],
          [
            -0.4202,
            39.4659
          ],
          [
            -0.4307,
            39.4699
          ],
          [
            -0.4416,
            39.4742
          ],
          [
            -0.451,
            39.4776
          ],
          [
            -0.4609,
            39.4815
          ],
          [
            -0.4706,
            39.4851
          ]
        ]
      },
      "properties": {
        "time_europe_berlin": [
          "07.12.2025 05:57:19",
          "07.12.2025 05:57:35",
          "07.12.2025 05:57:51",
          "07.12.2025 05:58:07",
          "07.12.2025 05:58:23",
          "07.12.2025 05:58:39",
          "07.12.2025 05:58:59",
          "07.12.2025 05:59:16",
          "07.12.2025 05:59:34",
          "07.12.2025 05:59:52",
          "07.12.2025 06:00:10",
          "07.12.2025 06:00:28",
          "07.12.2025 06:00:48",
          "07.12.2025 06:01:04",
          "07.12.2025 06:01:49",
          "07.12.2025 06:02:19",
          "07.12.2025 06:02:49",
          "07.12.2025 06:03:28",
          "07.12.2025 06:03:52",
          "07.12.2025 06:04:22",
          "07.12.2025 06:04:52",
          "07.12.2025 06:05:12",
          "07.12.2025 06:05:35",
          "07.12.2025 06:06:12",
          "07.12.2025 06:06:42",
          "07.12.2025 06:07:12",
          "07.12.2025 06:07:53",
          "07.12.2025 06:08:23",
          "07.12.2025 06:08:53",
          "07.12.2025 06:09:23",
          "07.12.2025 06:09:46",
          "07.12.2025 06:10:16",
          "07.12.2025 06:10:46",
          "07.12.2025 06:11:04",
          "07.12.2025 06:11:48",
          "07.12.2025 06:12:18",
          "07.12.2025 06:12:48",
          "07.12.2025 06:13:18",
          "07.12.2025 06:13:40",
          "07.12.2025 06:14:20",
          "07.12.2025 06:14:50",
          "07.12.2025 06:15:20",
          "07.12.2025 06:15:50",
          "07.12.2025 06:16:20",
          "07.12.2025 06:16:50",
          "07.12.2025 06:17:20",
          "07.12.2025 06:17:50",
          "07.12.2025 06:18:20",
          "07.12.2025 06:18:50",
          "07.12.2025 06:19:21",
          "07.12.2025 06:19:51",
          "07.12.2025 06:20:22",
          "07.12.2025 06:20:52",
          "07.12.2025 06:21:22",
          "07.12.2025 06:21:42",
          "07.12.2025 06:22:12",
          "07.12.2025 06:22:42",
          "07.12.2025 06:23:12",
          "07.12.2025 06:23:42",
          "07.12.2025 06:24:12",
          "07.12.2025 06:24:42",
          "07.12.2025 06:25:12",
          "07.12.2025 06:25:42",
          "07.12.2025 06:26:12",
          "07.12.2025 06:26:42",
          "07.12.2025 06:27:13",
          "07.12.2025 06:27:43",
          "07.12.2025 06:28:13",
          "07.12.2025 06:28:43",
          "07.12.2025 06:29:13",
          "07.12.2025 06:29:43",
          "07.12.2025 06:30:13",
          "07.12.2025 06:30:43",
          "07.12.2025 06:31:13",
          "07.12.2025 06:31:43",
          "07.12.2025 06:32:13",
          "07.12.2025 06:32:44",
          "07.12.2025 06:33:14",
          "07.12.2025 06:33:44",
          "07.12.2025 06:34:06",
          "07.12.2025 06:34:26",
          "07.12.2025 06:35:10",
          "07.12.2025 06:35:40",
          "07.12.2025 06:36:11",
          "07.12.2025 06:36:41",
          "07.12.2025 06:37:12",
          "07.12.2025 06:37:42",
          "07.12.2025 06:38:12",
          "07.12.2025 06:38:42",
          "07.12.2025 06:39:13",
          "07.12.2025 06:39:43",
          "07.12.2025 06:40:14",
          "07.12.2025 06:40:44",
          "07.12.2025 06:41:15",
          "07.12.2025 06:41:45",
          "07.12.2025 06:42:15",
          "07.12.2025 06:42:46",
          "07.12.2025 06:43:17",
          "07.12.2025 06:43:47",
          "07.12.2025 06:44:17",
          "07.12.2025 06:44:48",
          "07.12.2025 06:45:18",
          "07.12.2025 06:45:48",
          "07.12.2025 06:46:18",
          "07.12.2025 06:46:48",
          "07.12.2025 06:47:18",
          "07.12.2025 06:47:48",
          "07.12.2025 06:48:18",
          "07.12.2025 06:48:48",
          "07.12.2025 06:49:18",
          "07.12.2025 06:49:48",
          "07.12.2025 06:50:18",
          "07.12.2025 06:50:48",
          "07.12.2025 06:51:18",
          "07.12.2025 06:51:48",
          "07.12.2025 06:52:18",
          "07.12.2025 06:52:48",
          "07.12.2025 06:53:18",
          "07.12.2025 06:53:49",
          "07.12.2025 06:54:19",
          "07.12.2025 06:54:49",
          "07.12.2025 06:55:19",
          "07.12.2025 06:55:49",
          "07.12.2025 06:56:20",
          "07.12.2025 06:56:50",
          "07.12.2025 06:57:20",
          "07.12.2025 06:57:50",
          "07.12.2025 06:58:20",
          "07.12.2025 06:58:50",
          "07.12.2025 06:59:23",
          "07.12.2025 06:59:53",
          "07.12.2025 07:00:24",
          "07.12.2025 07:00:54",
          "07.12.2025 07:01:24",
          "07.12.2025 07:01:54",
          "07.12.2025 07:02:24",
          "07.12.2025 07:02:55",
          "07.12.2025 07:03:25",
          "07.12.2025 07:03:56",
          "07.12.2025 07:04:26",
          "07.12.2025 07:04:56",
          "07.12.2025 07:05:26",
          "07.12.2025 07:05:57",
          "07.12.2025 07:06:28",
          "07.12.2025 07:06:58",
          "07.12.2025 07:07:28",
          "07.12.2025 07:07:59",
          "07.12.2025 07:08:29",
          "07.12.2025 07:09:00",
          "07.12.2025 07:09:30",
          "07.12.2025 07:10:00",
          "07.12.2025 07:10:30",
          "07.12.2025 07:11:00",
          "07.12.2025 07:11:31",
          "07.12.2025 07:12:01",
          "07.12.2025 07:12:31",
          "07.12.2025 07:13:01",
          "07.12.2025 07:13:31",
          "07.12.2025 07:14:02",
          "07.12.2025 07:14:32",
          "07.12.2025 07:15:02",
          "07.12.2025 07:15:32",
          "07.12.2025 07:16:02",
          "07.12.2025 07:16:33",
          "07.12.2025 07:17:03",
          "07.12.2025 07:17:33",
          "07.12.2025 07:18:03",
          "07.12.2025 07:18:33",
          "07.12.2025 07:19:04",
          "07.12.2025 07:19:34",
          "07.12.2025 07:20:16",
          "07.12.2025 07:20:47",
          "07.12.2025 07:21:17",
          "07.12.2025 07:21:47",
          "07.12.2025 07:22:18",
          "07.12.2025 07:22:49",
          "07.12.2025 07:23:19",
          "07.12.2025 07:23:49",
          "07.12.2025 07:24:20",
          "07.12.2025 07:24:50",
          "07.12.2025 07:25:22",
          "07.12.2025 07:25:53",
          "07.12.2025 07:26:23",
          "07.12.2025 07:26:53",
          "07.12.2025 07:27:24",
          "07.12.2025 07:27:54",
          "07.12.2025 07:28:25",
          "07.12.2025 07:28:55",
          "07.12.2025 07:29:26",
          "07.12.2025 07:29:57",
          "07.12.2025 07:30:27",
          "07.12.2025 07:30:57",
          "07.12.2025 07:31:27",
          "07.12.2025 07:31:57",
          "07.12.2025 07:32:27",
          "07.12.2025 07:32:57",
          "07.12.2025 07:33:30",
          "07.12.2025 07:34:01",
          "07.12.2025 07:34:31",
          "07.12.2025 07:35:01",
          "07.12.2025 07:35:31",
          "07.12.2025 07:36:01",
          "07.12.2025 07:36:31",
          "07.12.2025 07:37:01",
          "07.12.2025 07:37:31",
          "07.12.2025 07:38:01",
          "07.12.2025 07:38:31",
          "07.12.2025 07:39:02",
          "07.12.2025 07:39:32",
          "07.12.2025 07:40:03",
          "07.12.2025 07:40:34",
          "07.12.2025 07:41:04",
          "07.12.2025 07:41:34",
          "07.12.2025 07:42:04",
          "07.12.2025 07:42:34",
          "07.12.2025 07:43:04",
          "07.12.2025 07:43:34",
          "07.12.2025 07:44:04",
          "07.12.2025 07:44:35",
          "07.12.2025 07:45:05",
          "07.12.2025 07:45:22",
          "07.12.2025 07:45:52",
          "07.12.2025 07:46:22",
          "07.12.2025 07:46:52",
          "07.12.2025 07:47:16",
          "07.12.2025 07:47:41",
          "07.12.2025 07:48:11",
          "07.12.2025 07:48:27",
          "07.12.2025 07:48:57",
          "07.12.2025 07:49:27",
          "07.12.2025 07:49:57",
          "07.12.2025 07:50:27",
          "07.12.2025 07:50:57",
          "07.12.2025 07:51:19",
          "07.12.2025 07:51:39",
          "07.12.2025 07:51:57",
          "07.12.2025 07:52:26",
          "07.12.2025 07:52:56",
          "07.12.2025 07:53:26",
          "07.12.2025 07:53:58",
          "07.12.2025 07:54:12",
          "07.12.2025 07:54:28",
          "07.12.2025 07:54:44",
          "07.12.2025 07:55:00",
          "07.12.2025 07:55:16",
          "07.12.2025 07:55:32",
          "07.12.2025 07:55:48"
        ],
        "course_deg_clockwise_from_north": [
          136,
          134,
          132,
          130,
          127,
          127,
          130,
          161,
          210,
          248,
          265,
          274,
          271,
          262,
          258,
          260,
          259,
          259,
          259,
          259,
          259,
          254,
          238,
          232,
          233,
          234,
          233,
          233,
          234,
          233,
          233,
          233,
          233,
          233,
          233,
          233,
          233,
          233,
          231,
          226,
          227,
          227,
          227,
          227,
          227,
          227,
          227,
          227,
          227,
          227,
          227,
          227,
          227,
          227,
          228,
          227,
          226,
          226,
          226,
          226,
          226,
          226,
          226,
          226,
          226,
          226,
          226,
          226,
          226,
          226,
          226,
          226,
          226,
          226,
          226,
          226,
          226,
          226,
          226,
          216,
          204,
          194,
          195,
          196,
          195,
          195,
          195,
          195,
          195,
          195,
          195,
          195,
          195,
          195,
          195,
          195,
          195,
          195,
          195,
          195,
          195,
          195,
          195,
          195,
          195,
          195,
          194,
          194,
          194,
          194,
          194,
          194,
          194,
          194,
          194,
          194,
          194,
          194,
          194,
          194,
          194,
          194,
          194,
          194,
          194,
          194,
          194,
          194,
          194,
          194,
          194,
          194,
          194,
          194,
          194,
          194,
          194,
          194,
          194,
          193,
          194,
          194,
          193,
          194,
          193,
          194,
          194,
          194,
          193,
          194,
          193,
          193,
          193,
          193,
          193,
          193,
          193,
          193,
          193,
          193,
          193,
          193,
          193,
          193,
          193,
          193,
          193,
          193,
          193,
          193,
          191,
          191,
          191,
          191,
          191,
          191,
          191,
          191,
          191,
          191,
          191,
          191,
          191,
          191,
          190,
          189,
          190,
          190,
          190,
          190,
          189,
          190,
          190,
          190,
          189,
          190,
          190,
          190,
          190,
          190,
          189,
          189,
          190,
          189,
          189,
          189,
          189,
          189,
          189,
          189,
          189,
          190,
          189,
          190,
          189,
          189,
          189,
          189,
          190,
          189,
          190,
          189,
          189,
          189,
          195,
          204,
          205,
          204,
          203,
          204,
          204,
          203,
          203,
          207,
          257,
          280,
          298,
          295,
          296,
          296,
          297,
          296,
          296,
          296,
          295,
          297,
          296
        ],
        "speed_kts": [
          149,
          162,
          174,
          180,
          186,
          191,
          207,
          210,
          207,
          213,
          228,
          250,
          270,
          290,
          338,
          359,
          374,
          372,
          363,
          352,
          353,
          359,
          380,
          397,
          401,
          404,
          410,
          405,
          398,
          393,
          389,
          389,
          396,
          401,
          411,
          416,
          417,
          416,
          418,
          418,
          412,
          415,
          420,
          424,
          427,
          430,
          432,
          434,
          434,
          433,
          433,
          431,
          430,
          427,
          426,
          422,
          419,
          417,
          416,
          415,
          415,
          415,
          417,
          421,
          425,
          428,
          431,
          433,
          434,
          433,
          431,
          429,
          429,
          428,
          428,
          427,
          428,
          428,
          428,
          435,
          445,
          451,
          452,
          452,
          452,
          452,
          451,
          452,
          452,
          451,
          452,
          452,
          453,
          452,
          451,
          451,
          450,
          451,
          451,
          453,
          453,
          452,
          452,
          453,
          452,
          452,
          454,
          455,
          455,
          455,
          456,
          456,
          456,
          454,
          454,
          453,
          452,
          453,
          454,
          454,
          452,
          452,
          451,
          451,
          451,
          452,
          452,
          451,
          450,
          448,
          449,
          451,
          450,
          449,
          450,
          452,
          453,
          454,
          455,
          455,
          457,
          458,
          458,
          458,
          458,
          458,
          458,
          458,
          459,
          459,
          458,
          459,
          459,
          458,
          457,
          456,
          457,
          458,
          460,
          459,
          459,
          457,
          456,
          457,
          457,
          458,
          459,
          459,
          458,
          457,
          458,
          458,
          460,
          459,
          460,
          459,
          459,
          458,
          458,
          457,
          456,
          452,
          451,
          450,
          452,
          455,
          457,
          457,
          459,
          469,
          467,
          466,
          464,
          464,
          464,
          463,
          461,
          466,
          472,
          473,
          470,
          466,
          462,
          457,
          455,
          453,
          452,
          449,
          445,
          433,
          414,
          386,
          357,
          369,
          369,
          361,
          356,
          352,
          341,
          314,
          309,
          310,
          313,
          280,
          267,
          276,
          273,
          267,
          237,
          206,
          190,
          197,
          200,
          187,
          167,
          173,
          172,
          174,
          157,
          140,
          141,
          131,
          119,
          115,
          115,
          116,
          113
        ],
        "speed_mph": [
          171.0,
          186.0,
          200.0,
          207.0,
          214.0,
          220.0,
          238.0,
          242.0,
          238.0,
          245.0,
          262.0,
          288.0,
          311.0,
          334.0,
          389.0,
          413.0,
          430.0,
          428.0,
          418.0,
          405.0,
          406.0,
          413.0,
          437.0,
          457.0,
          461.0,
          465.0,
          472.0,
          466.0,
          458.0,
          452.0,
          448.0,
          448.0,
          456.0,
          461.0,
          473.0,
          479.0,
          480.0,
          479.0,
          481.0,
          481.0,
          474.0,
          478.0,
          483.0,
          488.0,
          491.0,
          495.0,
          497.0,
          499.0,
          499.0,
          498.0,
          498.0,
          496.0,
          495.0,
          491.0,
          490.0,
          486.0,
          482.0,
          480.0,
          479.0,
          478.0,
          478.0,
          478.0,
          480.0,
          484.0,
          489.0,
          493.0,
          496.0,
          498.0,
          499.0,
          498.0,
          496.0,
          494.0,
          494.0,
          493.0,
          493.0,
          491.0,
          493.0,
          493.0,
          493.0,
          501.0,
          512.0,
          519.0,
          520.0,
          520.0,
          520.0,
          520.0,
          519.0,
          520.0,
          520.0,
          519.0,
          520.0,
          520.0,
          521.0,
          520.0,
          519.0,
          519.0,
          518.0,
          519.0,
          519.0,
          521.0,
          521.0,
          520.0,
          520.0,
          521.0,
          520.0,
          520.0,
          522.0,
          524.0,
          524.0,
          524.0,
          525.0,
          525.0,
          525.0,
          522.0,
          522.0,
          521.0,
          520.0,
          521.0,
          522.0,
          522.0,
          520.0,
          520.0,
          519.0,
          519.0,
          519.0,
          520.0,
          520.0,
          519.0,
          518.0,
          516.0,
          517.0,
          519.0,
          518.0,
          517.0,
          518.0,
          520.0,
          521.0,
          522.0,
          524.0,
          524.0,
          526.0,
          527.0,
          527.0,
          527.0,
          527.0,
          527.0,
          527.0,
          527.0,
          528.0,
          528.0,
          527.0,
          528.0,
          528.0,
          527.0,
          526.0,
          525.0,
          526.0,
          527.0,
          529.0,
          528.0,
          528.0,
          526.0,
          525.0,
          526.0,
          526.0,
          527.0,
          528.0,
          528.0,
          527.0,
          526.0,
          527.0,
          527.0,
          529.0,
          528.0,
          529.0,
          528.0,
          528.0,
          527.0,
          527.0,
          526.0,
          525.0,
          520.0,
          519.0,
          518.0,
          520.0,
          524.0,
          526.0,
          526.0,
          528.0,
          540.0,
          537.0,
          536.0,
          534.0,
          534.0,
          534.0,
          533.0,
          531.0,
          536.0,
          543.0,
          544.0,
          541.0,
          536.0,
          532.0,
          526.0,
          524.0,
          521.0,
          520.0,
          517.0,
          512.0,
          498.0,
          476.0,
          444.0,
          411.0,
          425.0,
          425.0,
          415.0,
          410.0,
          405.0,
          392.0,
          361.0,
          356.0,
          357.0,
          360.0,
          322.0,
          307.0,
          318.0,
          314.0,
          307.0,
          273.0,
          237.0,
          219.0,
          227.0,
          230.0,
          215.0,
          192.0,
          199.0,
          198.0,
          200.0,
          181.0,
          161.0,
          162.0,
          151.0,
          137.0,
          132.0,
          132.0,
          133.0,
          130.0
        ],
        "altitude_ft": [
          1000,
          1725,
          2550,
          3325,
          4100,
          4900,
          5800,
          6525,
          7325,
          8100,
          8850,
          9600,
          10550,
          11275,
          13350,
          14925,
          16650,
          19325,
          21175,
          23400,
          24925,
          25850,
          26925,
          28250,
          29275,
          30200,
          31350,
          32425,
          33525,
          34575,
          35250,
          36025,
          36425,
          36650,
          37200,
          37575,
          38025,
          38525,
          38850,
          39550,
          40075,
          40350,
          40575,
          40800,
          41025,
          41250,
          41475,
          41700,
          41925,
          42150,
          42375,
          42625,
          42850,
          43125,
          43325,
          43625,
          43900,
          44150,
          44400,
          44600,
          44825,
          45000,
          45000,
          45000,
          45000,
          45000,
          45000,
          45000,
          45000,
          45000,
          45000,
          45000,
          45000,
          45000,
          45000,
          45000,
          45000,
          45000,
          45000,
          45000,
          45000,
          45000,
          45000,
          45000,
          45000,
          45000,
          45000,
          45000,
          45000,
          45000,
          45000,
          45000,
          45000,
          45000,
          45000,
          45000,
          45000,
          45000,
          45000,
          45000,
          45000,
          45000,
          45000,
          45000,
          45000,
          45000,
          45000,
          45000,
          45000,
          45000,
          45000,
          45000,
          45000,
          45000,
          45000,
          45000,
          45000,
          45000,
          45000,
          45000,
          45000,
          45000,
          45000,
          45000,
          45000,
          45000,
          45000,
          45000,
          45000,
          45000,
          45000,
          45000,
          45000,
          45000,
          45000,
          45000,
          45000,
          45000,
          45000,
          45000,
          45000,
          45000,
          45000,
          45000,
          45000,
          45000,
          45000,
          45000,
          45000,
          45000,
          45000,
          45000,
          45000,
          45000,
          45000,
          45000,
          45000,
          45000,
          45000,
          45000,
          45000,
          45000,
          45000,
          45000,
          45000,
          45000,
          45000,
          45000,
          45000,
          45000,
          45000,
          45000,
          45000,
          45000,
          45000,
          45000,
          45000,
          45000,
          45000,
          45000,
          44975,
          44700,
          44450,
          44175,
          43900,
          43300,
          42300,
          41250,
          40225,
          39200,
          38175,
          37175,
          36200,
          35150,
          34125,
          33125,
          32050,
          30975,
          29950,
          28900,
          27900,
          26925,
          25900,
          24900,
          23900,
          22875,
          21875,
          20850,
          19875,
          18775,
          17775,
          16725,
          15700,
          14725,
          13925,
          13175,
          12400,
          11675,
          10875,
          10125,
          9750,
          9100,
          8400,
          7950,
          7725,
          7400,
          6575,
          6150,
          5300,
          4550,
          3850,
          3200,
          2575,
          2325,
          2300,
          2300,
          2300,
          2075,
          1625,
          1225,
          1050,
          850,
          675,
          475,
          325,
          150,
          25
        ],
        "vertical_rate_fpm": [
          0.0,
          2906.0,
          3000.0,
          2906.0,
          2953.0,
          2833.0,
          2635.0,
          2614.0,
          2625.0,
          2542.0,
          2500.0,
          2684.0,
          2792.0,
          2754.0,
          2920.0,
          3300.0,
          3826.0,
          4310.0,
          4528.0,
          3750.0,
          2940.0,
          2791.0,
          2400.0,
          2104.0,
          1950.0,
          1754.0,
          1880.0,
          2175.0,
          2150.0,
          1953.0,
          1642.0,
          1175.0,
          781.0,
          750.0,
          750.0,
          825.0,
          950.0,
          952.0,
          992.0,
          1050.0,
          800.0,
          500.0,
          450.0,
          450.0,
          450.0,
          450.0,
          450.0,
          450.0,
          443.0,
          443.0,
          467.0,
          467.0,
          500.0,
          570.0,
          600.0,
          575.0,
          525.0,
          500.0,
          450.0,
          425.0,
          400.0,
          175.0,
          0.0,
          0.0,
          0.0,
          0.0,
          0.0,
          0.0,
          0.0,
          0.0,
          0.0,
          0.0,
          0.0,
          0.0,
          0.0,
          0.0,
          0.0,
          0.0,
          0.0,
          0.0,
          0.0,
          0.0,
          0.0,
          0.0,
          0.0,
          0.0,
          0.0,
          0.0,
          0.0,
          0.0,
          0.0,
          0.0,
          0.0,
          0.0,
          0.0,
          0.0,
          0.0,
          0.0,
          0.0,
          0.0,
          0.0,
          0.0,
          0.0,
          0.0,
          0.0,
          0.0,
          0.0,
          0.0,
          0.0,
          0.0,
          0.0,
          0.0,
          0.0,
          0.0,
          0.0,
          0.0,
          0.0,
          0.0,
          0.0,
          0.0,
          0.0,
          0.0,
          0.0,
          0.0,
          0.0,
          0.0,
          0.0,
          0.0,
          0.0,
          0.0,
          0.0,
          0.0,
          0.0,
          0.0,
          0.0,
          0.0,
          0.0,
          0.0,
          0.0,
          0.0,
          0.0,
          0.0,
          0.0,
          0.0,
          0.0,
          0.0,
          0.0,
          0.0,
          0.0,
          0.0,
          0.0,
          0.0,
          0.0,
          0.0,
          0.0,
          0.0,
          0.0,
          0.0,
          0.0,
          0.0,
          0.0,
          0.0,
          0.0,
          0.0,
          0.0,
          0.0,
          0.0,
          0.0,
          0.0,
          0.0,
          0.0,
          0.0,
          0.0,
          0.0,
          0.0,
          0.0,
          0.0,
          0.0,
          0.0,
          -24.0,
          -286.0,
          -516.0,
          -525.0,
          -541.0,
          -861.0,
          -1574.0,
          -2016.0,
          -2041.0,
          -1984.0,
          -2016.0,
          -2025.0,
          -1975.0,
          -2025.0,
          -2075.0,
          -2025.0,
          -1976.0,
          -2016.0,
          -2066.0,
          -2075.0,
          -2050.0,
          -1975.0,
          -2000.0,
          -2025.0,
          -2000.0,
          -2025.0,
          -2025.0,
          -1992.0,
          -1967.0,
          -2041.0,
          -2032.0,
          -2016.0,
          -2075.0,
          -2000.0,
          -1775.0,
          -1550.0,
          -1525.0,
          -1500.0,
          -1500.0,
          -1525.0,
          -1436.0,
          -1309.0,
          -1350.0,
          -1150.0,
          -750.0,
          -673.0,
          -1255.0,
          -1630.0,
          -1663.0,
          -1600.0,
          -1450.0,
          -1350.0,
          -1275.0,
          -1010.0,
          -393.0,
          -39.0,
          0.0,
          -229.0,
          -675.0,
          -823.0,
          -750.0,
          -750.0,
          -703.0,
          -703.0,
          -656.0,
          -609.0,
          -563.0,
          -469.0
        ]
      }
    }
  ]
}