{
  "type": "FeatureCollection",
  "features": [
    {
      "type": "Feature",
      "geometry": {
        "type": "LineString",
        "coordinates": [
          [
            7.1453,
            50.8542
          ],
          [
            7.1571,
            50.847
          ],
          [
            7.1724,
            50.8382
          ],
          [
            7.1888,
            50.8296
          ],
          [
            7.2073,
            50.8204
          ],
          [
            7.232,
            50.8134
          ],
          [
            7.2605,
            50.8097
          ],
          [
            7.3096,
            50.8063
          ],
          [
            7.3571,
            50.8036
          ],
          [
            7.4197,
            50.7985
          ],
          [
            7.4721,
            50.7935
          ],
          [
            7.5411,
            50.7856
          ],
          [
            7.6164,
            50.7781
          ],
          [
            7.6884,
            50.7728
          ],
          [
            7.7514,
            50.7686
          ],
          [
            7.7944,
            50.757
          ],
          [
            7.8277,
            50.7354
          ],
          [
            7.8947,
            50.6633
          ],
          [
            7.9402,
            50.6115
          ],
          [
            7.9582,
            50.5914
          ],
          [
            7.9797,
            50.567
          ],
          [
            8.003,
            50.5404
          ],
          [
            8.0399,
            50.4984
          ],
          [
            8.0793,
            50.4532
          ],
          [
            8.1168,
            50.4104
          ],
          [
            8.1588,
            50.3625
          ],
          [
            8.1968,
            50.3191
          ],
          [
            8.2369,
            50.2728
          ],
          [
            8.2651,
            50.24
          ],
          [
            8.2909,
            50.2104
          ],
          [
            8.3344,
            50.1602
          ],
          [
            8.3669,
            50.1222
          ],
          [
            8.4122,
            50.07
          ],
          [
            8.49,
            49.9795
          ],
          [
            8.5264,
            49.9367
          ],
          [
            8.5692,
            49.886
          ],
          [
            8.6146,
            49.8327
          ],
          [
            8.6796,
            49.7555
          ],
          [
            8.6974,
            49.7282
          ],
          [
            8.7156,
            49.6958
          ],
          [
            8.745,
            49.6388
          ],
          [
            8.7782,
            49.5766
          ],
          [
            8.8065,
            49.524
          ],
          [
            8.8257,
            49.488
          ],
          [
            8.8581,
            49.4266
          ],
          [
            8.8879,
            49.3695
          ],
          [
            8.9176,
            49.3143
          ],
          [
            8.9467,
            49.2581
          ],
          [
            8.977,
            49.2001
          ],
          [
            8.9982,
            49.1597
          ],
          [
            9.029,
            49.1002
          ],
          [
            9.0515,
            49.0573
          ],
          [
            9.081,
            49.0004
          ],
          [
            9.1061,
            48.9521
          ],
          [
            9.1363,
            48.8936
          ],
          [
            9.1679,
            48.8322
          ],
          [
            9.1848,
            48.803
          ],
          [
            9.2093,
            48.7726
          ],
          [
            9.249,
            48.7319
          ],
          [
            9.2816,
            48.7011
          ],
          [
            9.3209,
            48.6651
          ],
          [
            9.4719,
            48.523
          ],
          [
            9.5294,
            48.4683
          ],
          [
            9.5872,
            48.413
          ],
          [
            9.6416,
            48.3604
          ],
          [
            9.6982,
            48.3058
          ],
          [
            9.7528,
            48.253
          ],
          [
            9.8091,
            48.1981
          ],
          [
            9.8627,
            48.146
          ],
          [
            9.9177,
            48.0925
          ],
          [
            9.9519,
            48.0588
          ],
          [
            10.007,
            48.0048
          ],
          [
            10.0612,
            47.9515
          ],
          [
            10.1171,
            47.8967
          ],
          [
            10.1705,
            47.8437
          ],
          [
            10.2261,
            47.7888
          ],
          [
            10.2685,
            47.7466
          ],
          [
            10.3207,
            47.6945
          ],
          [
            10.3754,
            47.6403
          ],
          [
            10.448,
            47.5674
          ],
          [
            10.4861,
            47.5291
          ],
          [
            10.5382,
            47.4772
          ],
          [
            10.5922,
            47.422
          ],
          [
            10.6466,
            47.3676
          ],
          [
            10.7021,
            47.3112
          ],
          [
            10.7569,
            47.2559
          ],
          [
            10.8102,
            47.2012
          ],
          [
            10.8646,
            47.1456
          ],
          [
            10.9186,
            47.0907
          ],
          [
            10.9729,
            47.0351
          ],
          [
            11.027,
            46.979
          ],
          [
            11.0825,
            46.9221
          ],
          [
            11.1368,
            46.8658
          ],
          [
            11.1923,
            46.8085
          ],
          [
            11.2712,
            46.7262
          ],
          [
            11.3257,
            46.6695
          ],
          [
            11.3788,
            46.614
          ],
          [
            11.4316,
            46.5587
          ],
          [
            11.4847,
            46.5028
          ],
          [
            11.5381,
            46.4466
          ],
          [
            11.5916,
            46.39
          ],
          [
            11.6462,
            46.3324
          ],
          [
            11.7013,
            46.2737
          ],
          [
            11.7555,
            46.2162
          ],
          [
            11.8084,
            46.1598
          ],
          [
            11.8635,
            46.1007
          ],
          [
            11.9169,
            46.0434
          ],
          [
            11.9716,
            45.9846
          ],
          [
            12.0227,
            45.9297
          ],
          [
            12.0784,
            45.8694
          ],
          [
            12.1317,
            45.8118
          ],
          [
            12.1871,
            45.7516
          ],
          [
            12.2403,
            45.6934
          ],
          [
            12.2924,
            45.6367
          ],
          [
            12.3309,
            45.5945
          ],
          [
            12.3838,
            45.5367
          ],
          [
            12.4386,
            45.4764
          ],
          [
            12.4957,
            45.4135
          ],
          [
            12.5304,
            45.3768
          ],
          [
            12.6165,
            45.2921
          ],
          [
            12.6879,
            45.2217
          ],
          [
            12.7459,
            45.1638
          ],
          [
            12.8061,
            45.1039
          ],
          [
            12.862,
            45.0482
          ],
          [
            12.9263,
            44.9838
          ],
          [
            12.9795,
            44.9302
          ],
          [
            13.035,
            44.8742
          ],
          [
            13.0912,
            44.8177
          ],
          [
            13.1462,
            44.762
          ],
          [
            13.2005,
            44.7068
          ],
          [
            13.2557,
            44.651
          ],
          [
            13.3124,
            44.5929
          ],
          [
            13.3694,
            44.5346
          ],
          [
            13.4309,
            44.4715
          ],
          [
            13.4877,
            44.4131
          ],
          [
            13.5431,
            44.356
          ],
          [
            13.6034,
            44.2941
          ],
          [
            13.6613,
            44.2341
          ],
          [
            13.7217,
            44.1712
          ],
          [
            13.7789,
            44.1117
          ],
          [
            13.8358,
            44.0522
          ],
          [
            13.8925,
            43.9929
          ],
          [
            13.9501,
            43.9327
          ],
          [
            14.0073,
            43.8725
          ],
          [
            14.064,
            43.813
          ],
          [
            14.12,
            43.7536
          ],
          [
            14.1765,
            43.6941
          ],
          [
            14.233,
            43.6336
          ],
          [
            14.2864,
            43.5768
          ],
          [
            14.3402,
            43.5196
          ],
          [
            14.3974,
            43.4585
          ],
          [
            14.4515,
            43.4007
          ],
          [
            14.5146,
            43.3327
          ],
          [
            14.57,
            43.273
          ],
          [
            14.6223,
            43.2166
          ],
          [
            14.6766,
            43.1579
          ],
          [
            14.7283,
            43.1016
          ],
          [
            14.7875,
            43.0378
          ],
          [
            14.8417,
            42.9783
          ],
          [
            14.8943,
            42.9208
          ],
          [
            14.9505,
            42.8595
          ],
          [
            15.0032,
            42.8015
          ],
          [
            15.0593,
            42.7398
          ],
          [
            15.1132,
            42.68
          ],
          [
            15.1652,
            42.6224
          ],
          [
            15.2214,
            42.5605
          ],
          [
            15.2759,
            42.5001
          ],
          [
            15.33,
            42.44
          ],
          [
            15.3856,
            42.3776
          ],
          [
            15.4388,
            42.3183
          ],
          [
            15.4915,
            42.2594
          ],
          [
            15.5444,
            42.1988
          ],
          [
            15.598,
            42.1378
          ],
          [
            15.6818,
            42.0616
          ],
          [
            15.779,
            41.9882
          ],
          [
            15.8336,
            41.9513
          ],
          [
            15.9009,
            41.9188
          ],
          [
            15.9854,
            41.8856
          ],
          [
            16.0716,
            41.8542
          ],
          [
            16.1583,
            41.8229
          ],
          [
            16.2432,
            41.7912
          ],
          [
            16.3333,
            41.7577
          ],
          [
            16.4221,
            41.7241
          ],
          [
            16.4985,
            41.6949
          ],
          [
            16.5725,
            41.6671
          ],
          [
            16.6527,
            41.6363
          ],
          [
            16.7227,
            41.6096
          ],
          [
            16.7929,
            41.5828
          ],
          [
            16.8688,
            41.5536
          ],
          [
            16.9067,
            41.5374
          ],
          [
            16.9512,
            41.4926
          ],
          [
            16.9845,
            41.4368
          ],
          [
            17.0053,
            41.3942
          ],
          [
            17.017,
            41.3725
          ],
          [
            17.0364,
            41.357
          ],
          [
            17.066,
            41.3495
          ],
          [
            17.0953,
            41.3498
          ],
          [
            17.1453,
            41.359
          ],
          [
            17.1766,
            41.3669
          ],
          [
            17.207,
            41.3641
          ],
          [
            17.2246,
            41.3469
          ],
          [
            17.2241,
            41.3271
          ],
          [
            17.2164,
            41.3121
          ],
          [
            17.1998,
            41.295
          ],
          [
            17.1803,
            41.2806
          ],
          [
            17.1635,
            41.2703
          ],
          [
            17.1469,
            41.2608
          ],
          [
            17.1307,
            41.2512
          ],
          [
            17.0989,
            41.2317
          ],
          [
            17.0779,
            41.2192
          ],
          [
            17.0591,
            41.2122
          ],
          [
            17.0302,
            41.2072
          ],
          [
            16.9896,
            41.2026
          ],
          [
            16.9652,
            41.1966
          ],
          [
            16.9337,
            41.1874
          ],
          [
            16.9008,
            41.178
          ],
          [
            16.8843,
            41.1735
          ],
          [
            16.8677,
            41.1688
          ],
          [
            16.8489,
            41.1634
          ],
          [
            16.8348,
            41.1594
          ],
          [
            16.8218,
            41.1558
          ],
          [
            16.8098,
            41.1524
          ],
          [
            16.7953,
            41.1483
          ],
          [
            16.7841,
            41.1452
          ],
          [
            16.7717,
            41.1417
          ]
        ]
      },
      "properties": {
        "time_europe_berlin": [
          "23.10.2025 08:10:15",
          "23.10.2025 08:10:31",
          "23.10.2025 08:10:47",
          "23.10.2025 08:11:03",
          "23.10.2025 08:11:19",
          "23.10.2025 08:11:35",
          "23.10.2025 08:11:54",
          "23.10.2025 08:12:23",
          "23.10.2025 08:12:49",
          "23.10.2025 08:13:19",
          "23.10.2025 08:13:42",
          "23.10.2025 08:14:12",
          "23.10.2025 08:14:42",
          "23.10.2025 08:15:12",
          "23.10.2025 08:15:35",
          "23.10.2025 08:15:55",
          "23.10.2025 08:16:14",
          "23.10.2025 08:17:11",
          "23.10.2025 08:17:50",
          "23.10.2025 08:18:06",
          "23.10.2025 08:18:25",
          "23.10.2025 08:18:43",
          "23.10.2025 08:19:13",
          "23.10.2025 08:19:43",
          "23.10.2025 08:20:11",
          "23.10.2025 08:20:41",
          "23.10.2025 08:21:10",
          "23.10.2025 08:21:40",
          "23.10.2025 08:22:01",
          "23.10.2025 08:22:21",
          "23.10.2025 08:22:51",
          "23.10.2025 08:23:15",
          "23.10.2025 08:23:45",
          "23.10.2025 08:24:36",
          "23.10.2025 08:25:01",
          "23.10.2025 08:25:31",
          "23.10.2025 08:26:01",
          "23.10.2025 08:26:42",
          "23.10.2025 08:26:58",
          "23.10.2025 08:27:14",
          "23.10.2025 08:27:43",
          "23.10.2025 08:28:13",
          "23.10.2025 08:28:41",
          "23.10.2025 08:29:01",
          "23.10.2025 08:29:31",
          "23.10.2025 08:30:01",
          "23.10.2025 08:30:31",
          "23.10.2025 08:31:01",
          "23.10.2025 08:31:31",
          "23.10.2025 08:31:52",
          "23.10.2025 08:32:22",
          "23.10.2025 08:32:43",
          "23.10.2025 08:33:13",
          "23.10.2025 08:33:37",
          "23.10.2025 08:34:07",
          "23.10.2025 08:34:37",
          "23.10.2025 08:34:53",
          "23.10.2025 08:35:09",
          "23.10.2025 08:35:31",
          "23.10.2025 08:35:48",
          "23.10.2025 08:36:08",
          "23.10.2025 08:37:28",
          "23.10.2025 08:37:59",
          "23.10.2025 08:38:29",
          "23.10.2025 08:38:59",
          "23.10.2025 08:39:29",
          "23.10.2025 08:39:59",
          "23.10.2025 08:40:29",
          "23.10.2025 08:40:59",
          "23.10.2025 08:41:29",
          "23.10.2025 08:41:48",
          "23.10.2025 08:42:18",
          "23.10.2025 08:42:48",
          "23.10.2025 08:43:18",
          "23.10.2025 08:43:48",
          "23.10.2025 08:44:18",
          "23.10.2025 08:44:40",
          "23.10.2025 08:45:10",
          "23.10.2025 08:45:40",
          "23.10.2025 08:46:19",
          "23.10.2025 08:46:40",
          "23.10.2025 08:47:10",
          "23.10.2025 08:47:40",
          "23.10.2025 08:48:10",
          "23.10.2025 08:48:41",
          "23.10.2025 08:49:12",
          "23.10.2025 08:49:42",
          "23.10.2025 08:50:12",
          "23.10.2025 08:50:42",
          "23.10.2025 08:51:12",
          "23.10.2025 08:51:42",
          "23.10.2025 08:52:12",
          "23.10.2025 08:52:42",
          "23.10.2025 08:53:12",
          "23.10.2025 08:53:57",
          "23.10.2025 08:54:27",
          "23.10.2025 08:54:57",
          "23.10.2025 08:55:27",
          "23.10.2025 08:55:57",
          "23.10.2025 08:56:27",
          "23.10.2025 08:56:57",
          "23.10.2025 08:57:27",
          "23.10.2025 08:57:57",
          "23.10.2025 08:58:28",
          "23.10.2025 08:58:58",
          "23.10.2025 08:59:29",
          "23.10.2025 08:59:59",
          "23.10.2025 09:00:29",
          "23.10.2025 09:00:59",
          "23.10.2025 09:01:30",
          "23.10.2025 09:02:01",
          "23.10.2025 09:02:32",
          "23.10.2025 09:03:02",
          "23.10.2025 09:03:32",
          "23.10.2025 09:03:53",
          "23.10.2025 09:04:24",
          "23.10.2025 09:04:54",
          "23.10.2025 09:05:26",
          "23.10.2025 09:05:45",
          "23.10.2025 09:06:30",
          "23.10.2025 09:07:07",
          "23.10.2025 09:07:38",
          "23.10.2025 09:08:08",
          "23.10.2025 09:08:38",
          "23.10.2025 09:09:12",
          "23.10.2025 09:09:42",
          "23.10.2025 09:10:12",
          "23.10.2025 09:10:42",
          "23.10.2025 09:11:12",
          "23.10.2025 09:11:42",
          "23.10.2025 09:12:12",
          "23.10.2025 09:12:43",
          "23.10.2025 09:13:14",
          "23.10.2025 09:13:46",
          "23.10.2025 09:14:16",
          "23.10.2025 09:14:46",
          "23.10.2025 09:15:16",
          "23.10.2025 09:15:47",
          "23.10.2025 09:16:17",
          "23.10.2025 09:16:48",
          "23.10.2025 09:17:18",
          "23.10.2025 09:17:48",
          "23.10.2025 09:18:18",
          "23.10.2025 09:18:48",
          "23.10.2025 09:19:18",
          "23.10.2025 09:19:48",
          "23.10.2025 09:20:18",
          "23.10.2025 09:20:48",
          "23.10.2025 09:21:18",
          "23.10.2025 09:21:48",
          "23.10.2025 09:22:18",
          "23.10.2025 09:22:48",
          "23.10.2025 09:23:21",
          "23.10.2025 09:23:52",
          "23.10.2025 09:24:22",
          "23.10.2025 09:24:52",
          "23.10.2025 09:25:22",
          "23.10.2025 09:25:54",
          "23.10.2025 09:26:24",
          "23.10.2025 09:26:54",
          "23.10.2025 09:27:25",
          "23.10.2025 09:27:55",
          "23.10.2025 09:28:26",
          "23.10.2025 09:28:56",
          "23.10.2025 09:29:26",
          "23.10.2025 09:29:56",
          "23.10.2025 09:30:26",
          "23.10.2025 09:30:56",
          "23.10.2025 09:31:26",
          "23.10.2025 09:31:56",
          "23.10.2025 09:32:26",
          "23.10.2025 09:32:56",
          "23.10.2025 09:33:26",
          "23.10.2025 09:34:05",
          "23.10.2025 09:34:44",
          "23.10.2025 09:35:07",
          "23.10.2025 09:35:30",
          "23.10.2025 09:36:00",
          "23.10.2025 09:36:30",
          "23.10.2025 09:37:00",
          "23.10.2025 09:37:30",
          "23.10.2025 09:38:02",
          "23.10.2025 09:38:35",
          "23.10.2025 09:39:05",
          "23.10.2025 09:39:35",
          "23.10.2025 09:40:05",
          "23.10.2025 09:40:35",
          "23.10.2025 09:41:05",
          "23.10.2025 09:41:35",
          "23.10.2025 09:41:52",
          "23.10.2025 09:42:23",
          "23.10.2025 09:42:59",
          "23.10.2025 09:43:29",
          "23.10.2025 09:43:46",
          "23.10.2025 09:44:02",
          "23.10.2025 09:44:19",
          "23.10.2025 09:44:38",
          "23.10.2025 09:45:08",
          "23.10.2025 09:45:28",
          "23.10.2025 09:45:48",
          "23.10.2025 09:46:06",
          "23.10.2025 09:46:26",
          "23.10.2025 09:46:42",
          "23.10.2025 09:47:03",
          "23.10.2025 09:47:23",
          "23.10.2025 09:47:39",
          "23.10.2025 09:47:55",
          "23.10.2025 09:48:11",
          "23.10.2025 09:48:41",
          "23.10.2025 09:49:00",
          "23.10.2025 09:49:17",
          "23.10.2025 09:49:39",
          "23.10.2025 09:50:08",
          "23.10.2025 09:50:28",
          "23.10.2025 09:50:58",
          "23.10.2025 09:51:28",
          "23.10.2025 09:51:44",
          "23.10.2025 09:52:01",
          "23.10.2025 09:52:21",
          "23.10.2025 09:52:37",
          "23.10.2025 09:52:53",
          "23.10.2025 09:53:09",
          "23.10.2025 09:53:28",
          "23.10.2025 09:53:44",
          "23.10.2025 09:54:01"
        ],
        "course_deg_clockwise_from_north": [
          "136",
          "133",
          "131",
          "129",
          "127",
          "107",
          "99",
          "95",
          "96",
          "97",
          "100",
          "100",
          "98",
          "97",
          "97",
          "125",
          "139",
          "152",
          "150",
          "150",
          "151",
          "151",
          "151",
          "151",
          "151",
          "151",
          "151",
          "151",
          "151",
          "151",
          "151",
          "151",
          "151",
          "151",
          "151",
          "151",
          "151",
          "154",
          "159",
          "161",
          "161",
          "161",
          "161",
          "161",
          "161",
          "161",
          "161",
          "161",
          "161",
          "161",
          "161",
          "161",
          "161",
          "161",
          "161",
          "161",
          "155",
          "150",
          "146",
          "144",
          "144",
          "145",
          "145",
          "145",
          "145",
          "145",
          "145",
          "146",
          "146",
          "146",
          "146",
          "146",
          "146",
          "146",
          "146",
          "146",
          "146",
          "146",
          "146",
          "146",
          "146",
          "147",
          "146",
          "146",
          "146",
          "146",
          "146",
          "146",
          "147",
          "147",
          "147",
          "146",
          "147",
          "146",
          "147",
          "147",
          "147",
          "147",
          "147",
          "147",
          "147",
          "147",
          "147",
          "147",
          "147",
          "147",
          "147",
          "147",
          "147",
          "147",
          "147",
          "147",
          "147",
          "147",
          "147",
          "147",
          "147",
          "148",
          "145",
          "144",
          "145",
          "145",
          "144",
          "145",
          "145",
          "145",
          "145",
          "145",
          "145",
          "145",
          "145",
          "145",
          "145",
          "145",
          "145",
          "145",
          "145",
          "145",
          "146",
          "145",
          "145",
          "145",
          "145",
          "145",
          "146",
          "145",
          "146",
          "146",
          "146",
          "146",
          "146",
          "146",
          "146",
          "146",
          "146",
          "146",
          "147",
          "146",
          "146",
          "145",
          "146",
          "146",
          "146",
          "146",
          "146",
          "146",
          "146",
          "146",
          "147",
          "146",
          "148",
          "148",
          "146",
          "137",
          "135",
          "129",
          "120",
          "117",
          "116",
          "116",
          "117",
          "117",
          "117",
          "117",
          "117",
          "117",
          "117",
          "117",
          "117",
          "128",
          "152",
          "159",
          "160",
          "152",
          "123",
          "96",
          "82",
          "72",
          "76",
          "120",
          "165",
          "193",
          "208",
          "222",
          "229",
          "232",
          "233",
          "232",
          "231",
          "235",
          "251",
          "261",
          "258",
          "250",
          "249",
          "249",
          "250",
          "249",
          "249",
          "250",
          "249",
          "249",
          "250",
          "250",
          "249"
        ],
        "speed_kts": [
          "134",
          "151",
          "178",
          "194",
          "204",
          "220",
          "234",
          "238",
          "265",
          "309",
          "323",
          "326",
          "336",
          "360",
          "361",
          "329",
          "321",
          "328",
          "332",
          "335",
          "340",
          "347",
          "351",
          "375",
          "390",
          "388",
          "385",
          "381",
          "385",
          "389",
          "400",
          "416",
          "433",
          "432",
          "419",
          "428",
          "440",
          "459",
          "458",
          "453",
          "452",
          "449",
          "446",
          "441",
          "437",
          "434",
          "434",
          "437",
          "442",
          "446",
          "450",
          "452",
          "453",
          "453",
          "451",
          "450",
          "457",
          "463",
          "471",
          "475",
          "477",
          "474",
          "471",
          "470",
          "471",
          "470",
          "469",
          "469",
          "468",
          "469",
          "469",
          "470",
          "469",
          "470",
          "472",
          "475",
          "477",
          "477",
          "476",
          "475",
          "476",
          "473",
          "471",
          "469",
          "470",
          "474",
          "478",
          "480",
          "481",
          "483",
          "487",
          "489",
          "490",
          "486",
          "484",
          "482",
          "480",
          "481",
          "483",
          "486",
          "490",
          "492",
          "492",
          "493",
          "492",
          "492",
          "492",
          "493",
          "492",
          "492",
          "492",
          "494",
          "496",
          "497",
          "499",
          "499",
          "501",
          "502",
          "503",
          "504",
          "503",
          "503",
          "505",
          "502",
          "498",
          "495",
          "493",
          "492",
          "490",
          "489",
          "489",
          "495",
          "503",
          "510",
          "516",
          "523",
          "526",
          "528",
          "526",
          "526",
          "524",
          "524",
          "524",
          "524",
          "525",
          "521",
          "516",
          "513",
          "513",
          "513",
          "513",
          "510",
          "510",
          "510",
          "510",
          "510",
          "509",
          "510",
          "509",
          "510",
          "510",
          "510",
          "513",
          "517",
          "520",
          "523",
          "524",
          "526",
          "523",
          "518",
          "516",
          "524",
          "534",
          "552",
          "552",
          "544",
          "531",
          "521",
          "513",
          "518",
          "503",
          "499",
          "482",
          "470",
          "457",
          "446",
          "444",
          "443",
          "432",
          "423",
          "383",
          "339",
          "308",
          "297",
          "290",
          "281",
          "278",
          "269",
          "263",
          "253",
          "237",
          "224",
          "224",
          "220",
          "219",
          "217",
          "217",
          "217",
          "216",
          "216",
          "224",
          "220",
          "215",
          "201",
          "189",
          "184",
          "175",
          "164",
          "162",
          "155",
          "139",
          "130",
          "127",
          "126",
          "120"
        ],
        "speed_mph": [
          "154",
          "174",
          "205",
          "223",
          "235",
          "253",
          "269",
          "274",
          "305",
          "356",
          "372",
          "375",
          "387",
          "414",
          "415",
          "379",
          "369",
          "377",
          "382",
          "386",
          "391",
          "399",
          "404",
          "432",
          "449",
          "447",
          "443",
          "438",
          "443",
          "448",
          "460",
          "479",
          "498",
          "497",
          "482",
          "493",
          "506",
          "528",
          "527",
          "521",
          "520",
          "517",
          "513",
          "507",
          "503",
          "499",
          "499",
          "503",
          "509",
          "513",
          "518",
          "520",
          "521",
          "521",
          "519",
          "518",
          "526",
          "533",
          "542",
          "547",
          "549",
          "545",
          "542",
          "541",
          "542",
          "541",
          "540",
          "540",
          "539",
          "540",
          "540",
          "541",
          "540",
          "541",
          "543",
          "547",
          "549",
          "549",
          "548",
          "547",
          "548",
          "544",
          "542",
          "540",
          "541",
          "545",
          "550",
          "552",
          "554",
          "556",
          "560",
          "563",
          "564",
          "559",
          "557",
          "555",
          "552",
          "554",
          "556",
          "559",
          "564",
          "566",
          "566",
          "567",
          "566",
          "566",
          "566",
          "567",
          "566",
          "566",
          "566",
          "568",
          "571",
          "572",
          "574",
          "574",
          "577",
          "578",
          "579",
          "580",
          "579",
          "579",
          "581",
          "578",
          "573",
          "570",
          "567",
          "566",
          "564",
          "563",
          "563",
          "570",
          "579",
          "587",
          "594",
          "602",
          "605",
          "608",
          "605",
          "605",
          "603",
          "603",
          "603",
          "603",
          "604",
          "600",
          "594",
          "590",
          "590",
          "590",
          "590",
          "587",
          "587",
          "587",
          "587",
          "587",
          "586",
          "587",
          "586",
          "587",
          "587",
          "587",
          "590",
          "595",
          "598",
          "602",
          "603",
          "605",
          "602",
          "596",
          "594",
          "603",
          "615",
          "635",
          "635",
          "626",
          "611",
          "600",
          "590",
          "596",
          "579",
          "574",
          "555",
          "541",
          "526",
          "513",
          "511",
          "510",
          "497",
          "487",
          "441",
          "390",
          "354",
          "342",
          "334",
          "323",
          "320",
          "310",
          "303",
          "291",
          "273",
          "258",
          "258",
          "253",
          "252",
          "250",
          "250",
          "250",
          "249",
          "249",
          "258",
          "253",
          "247",
          "231",
          "217",
          "212",
          "201",
          "189",
          "186",
          "178",
          "160",
          "150",
          "146",
          "145",
          "138"
        ],
        "altitude_ft": [
          "2100",
          "2800",
          "3325",
          "3950",
          "4700",
          "5750",
          "6700",
          "8525",
          "9800",
          "11100",
          "12250",
          "14150",
          "16100",
          "17375",
          "18850",
          "19975",
          "21025",
          "23725",
          "25750",
          "26450",
          "27200",
          "27800",
          "29025",
          "29525",
          "30025",
          "31175",
          "32300",
          "33475",
          "34075",
          "34625",
          "34975",
          "35000",
          "35000",
          "35350",
          "36325",
          "36775",
          "37000",
          "37000",
          "37000",
          "37000",
          "37000",
          "37000",
          "37000",
          "37000",
          "37000",
          "37000",
          "37500",
          "37975",
          "38375",
          "38675",
          "39075",
          "39350",
          "39750",
          "40050",
          "40450",
          "40875",
          "40975",
          "41000",
          "41000",
          "41000",
          "41000",
          "41000",
          "41000",
          "41000",
          "41000",
          "41000",
          "41000",
          "41000",
          "41000",
          "41000",
          "41000",
          "41000",
          "41000",
          "41000",
          "41000",
          "41000",
          "41000",
          "41000",
          "41000",
          "41000",
          "41000",
          "41000",
          "41000",
          "41000",
          "41000",
          "41000",
          "41000",
          "41000",
          "41000",
          "41000",
          "41000",
          "41000",
          "41000",
          "41000",
          "41000",
          "41000",
          "41000",
          "41000",
          "41000",
          "41000",
          "41000",
          "41000",
          "41000",
          "41000",
          "41000",
          "41000",
          "41000",
          "41000",
          "41000",
          "41000",
          "41000",
          "41000",
          "41000",
          "41000",
          "41000",
          "41000",
          "41000",
          "41000",
          "41000",
          "41000",
          "41000",
          "40975",
          "41000",
          "41000",
          "41000",
          "41000",
          "41000",
          "41000",
          "41000",
          "41000",
          "41000",
          "41000",
          "41000",
          "41000",
          "41000",
          "41000",
          "41000",
          "41000",
          "41000",
          "41000",
          "41000",
          "41000",
          "41000",
          "40900",
          "40350",
          "39875",
          "39400",
          "39025",
          "39000",
          "39000",
          "39000",
          "39000",
          "39000",
          "39000",
          "39000",
          "39000",
          "39000",
          "39000",
          "39000",
          "39000",
          "39000",
          "39000",
          "39000",
          "39000",
          "39000",
          "39000",
          "39000",
          "39000",
          "39000",
          "38975",
          "37950",
          "36850",
          "35650",
          "33900",
          "32075",
          "31075",
          "30100",
          "29175",
          "28000",
          "26975",
          "25975",
          "24850",
          "23750",
          "22825",
          "22025",
          "21050",
          "20075",
          "18975",
          "17825",
          "17125",
          "16050",
          "14350",
          "12875",
          "12050",
          "11300",
          "10450",
          "9725",
          "8425",
          "7450",
          "6500",
          "5575",
          "4875",
          "4350",
          "4125",
          "4100",
          "4100",
          "4100",
          "4100",
          "4100",
          "4100",
          "3825",
          "3325",
          "2750",
          "2525",
          "2200",
          "2150",
          "1900",
          "1675",
          "1425",
          "1175",
          "975",
          "825",
          "575",
          "425",
          "225"
        ],
        "vertical_rate_fpm": [
          "",
          "2297",
          "2156",
          "2578",
          "3375",
          "3429",
          "3469",
          "3382",
          "2759",
          "2774",
          "3453",
          "3850",
          "3225",
          "3113",
          "3628",
          "3346",
          "2961",
          "2953",
          "2973",
          "2486",
          "2189",
          "2281",
          "1725",
          "1034",
          "1707",
          "2314",
          "2339",
          "2088",
          "1683",
          "1080",
          "417",
          "28",
          "259",
          "1046",
          "1555",
          "675",
          "190",
          "",
          "",
          "",
          "",
          "",
          "",
          "",
          "",
          "500",
          "975",
          "875",
          "824",
          "824",
          "794",
          "794",
          "778",
          "778",
          "825",
          "685",
          "234",
          "39",
          "",
          "",
          "",
          "",
          "",
          "",
          "",
          "",
          "",
          "",
          "",
          "",
          "",
          "",
          "",
          "",
          "",
          "",
          "",
          "",
          "",
          "",
          "",
          "",
          "",
          "",
          "",
          "",
          "",
          "",
          "",
          "",
          "",
          "",
          "",
          "",
          "",
          "",
          "",
          "",
          "",
          "",
          "",
          "",
          "",
          "",
          "",
          "",
          "",
          "",
          "",
          "",
          "",
          "",
          "",
          "",
          "",
          "",
          "",
          "",
          "",
          "",
          "-22",
          "",
          "25",
          "",
          "",
          "",
          "",
          "",
          "",
          "",
          "",
          "",
          "",
          "",
          "",
          "",
          "",
          "",
          "",
          "",
          "",
          "",
          "-100",
          "-650",
          "-1025",
          "-950",
          "-850",
          "-400",
          "-25",
          "",
          "",
          "",
          "",
          "",
          "",
          "",
          "",
          "",
          "",
          "",
          "",
          "",
          "",
          "",
          "",
          "",
          "",
          "",
          "-25",
          "-1050",
          "-2125",
          "-2300",
          "-2565",
          "-2750",
          "-2734",
          "-2576",
          "-2151",
          "-2100",
          "-2200",
          "-2025",
          "-2056",
          "-2054",
          "-1929",
          "-1725",
          "-1775",
          "-1950",
          "-2075",
          "-2250",
          "-2362",
          "-2219",
          "-2485",
          "-2886",
          "-2936",
          "-2864",
          "-2909",
          "-2625",
          "-2480",
          "-2730",
          "-2888",
          "-2961",
          "-2566",
          "-2042",
          "-1216",
          "-366",
          "-42",
          "",
          "",
          "",
          "",
          "-458",
          "-1192",
          "-1265",
          "-980",
          "-660",
          "-375",
          "-391",
          "-864",
          "-770",
          "-833",
          "-844",
          "-656",
          "-686",
          "-686",
          "-636",
          "-706"
        ],
        "reporting_facility": [
          "FlightAware ADS-B(EDKB)",
          "FlightAware ADS-B(EDKF)",
          "FlightAware ADS-B(CGN / EDDK)",
          "FlightAware ADS-B(CGN / EDDK)",
          "FlightAware ADS-B(CGN / EDDK)",
          "FlightAware ADS-B(EDKZ)",
          "FlightAware ADS-B(CGN / EDDK)",
          "FlightAware ADS-B(EDRA)",
          "FlightAware ADS-B(DUS / EDDL)",
          "FlightAware ADS-B(EDKI)",
          "FlightAware ADS-B(EDRK)",
          "FlightAware ADS-B(EDKN)",
          "FlightAware ADS-B(EDFG)",
          "FlightAware ADS-B(SCN / EDDR)",
          "FlightAware ADS-B(CGN / EDDK)",
          "FlightAware ADS-B(EDRY)",
          "FlightAware ADS-B(DUS / EDDL)",
          "FlightAware ADS-B(DUS / EDDL)",
          "FlightAware ADS-B(EDKB)",
          "FlightAware ADS-B(HAJ / EDDV)",
          "FlightAware ADS-B(EDKL)",
          "FlightAware ADS-B(LUX / ELLX)",
          "FlightAware ADS-B(DTM / EDLW)",
          "FlightAware ADS-B(EDGQ)",
          "FlightAware ADS-B(ENS / EHTW)",
          "FlightAware ADS-B(EDGM)",
          "FlightAware ADS-B(EDLZ)",
          "FlightAware ADS-B(ETHN)",
          "FlightAware ADS-B(FRA / EDDF)",
          "FlightAware ADS-B(FRA / EDDF)",
          "FlightAware ADS-B(FRA / EDDF)",
          "FlightAware ADS-B(GUT / ETUO)",
          "FlightAware ADS-B(EDVA)",
          "FlightAware ADS-B(FMO / EDDG)",
          "FlightAware ADS-B(LUX / ELLX)",
          "FlightAware ADS-B(FRA / EDDF)",
          "FlightAware ADS-B(LKLN)",
          "FlightAware ADS-B(FRA / EDDF)",
          "FlightAware ADS-B(FRA / EDDF)",
          "FlightAware ADS-B(EDTH)",
          "FlightAware ADS-B(ETED)",
          "FlightAware ADS-B(STR / EDDS)",
          "FlightAware ADS-B(EDFK)",
          "FlightAware ADS-B(ESS / EDLE)",
          "FlightAware ADS-B(EAP / LFSB)",
          "FlightAware ADS-B(EDFW)",
          "FlightAware ADS-B(ELNT)",
          "FlightAware ADS-B(LFQU)",
          "FlightAware ADS-B(EDFZ)",
          "FlightAware ADS-B(EDSV)",
          "FlightAware ADS-B(FRA / EDDF)",
          "FlightAware ADS-B(BER / EDDB)",
          "FlightAware ADS-B(EDSH)",
          "FlightAware ADS-B(LSXS)",
          "FlightAware ADS-B(EDRI)",
          "FlightAware ADS-B(SGE / EDGS)",
          "FlightAware ADS-B(NUE / EDDN)",
          "FlightAware ADS-B(SCN / EDDR)",
          "FlightAware ADS-B(ETHA)",
          "FlightAware ADS-B(NUE / EDDN)",
          "FlightAware ADS-B(STR / EDDS)",
          "FlightAware ADS-B(AGB / EDMA)",
          "FlightAware ADS-B(LSXB)",
          "FlightAware ADS-B(EDQA)",
          "FlightAware ADS-B(EDQA)",
          "FlightAware ADS-B(ZRH / LSZH)",
          "FlightAware ADS-B(ZRH / LSZH)",
          "FlightAware ADS-B(ZES / EDSE)",
          "FlightAware ADS-B(LSPA)",
          "FlightAware ADS-B(MUC / EDDM)",
          "FlightAware ADS-B(STR / EDDS)",
          "FlightAware ADS-B(EDNW)",
          "FlightAware ADS-B(STR / EDDS)",
          "FlightAware ADS-B(VIP / LSMP)",
          "FlightAware ADS-B(MUC / EDDM)",
          "FlightAware ADS-B(EDNO)",
          "FlightAware ADS-B(ETSE)",
          "FlightAware ADS-B(EDMJ)",
          "FlightAware ADS-B(STR / EDDS)",
          "FlightAware ADS-B(EDML)",
          "FlightAware ADS-B(EDMJ)",
          "FlightAware ADS-B(MUC / EDDM)",
          "FlightAware ADS-B(FDH / EDNY)",
          "FlightAware ADS-B(LOWZ)",
          "FlightAware ADS-B(EDMJ)",
          "FlightAware ADS-B(VCE / LIPZ)",
          "FlightAware ADS-B(EDMJ)",
          "FlightAware ADS-B(EDMJ)",
          "FlightAware ADS-B(EDMJ)",
          "FlightAware ADS-B(AOI / LIPY)",
          "FlightAware ADS-B(FMM / EDJA)",
          "FlightAware ADS-B(SMV / LSZS)",
          "FlightAware ADS-B(LOJZ)",
          "FlightAware ADS-B(ETSE)",
          "FlightAware ADS-B(EDME)",
          "FlightAware ADS-B(ETSA)",
          "FlightAware ADS-B(LIMA)",
          "FlightAware ADS-B(EAP / LFSB)",
          "FlightAware ADS-B(ETHA)",
          "FlightAware ADS-B(LIDT)",
          "FlightAware ADS-B(BZO / LIPB)",
          "FlightAware ADS-B(BZO / LIPB)",
          "FlightAware ADS-B(LIDD)",
          "FlightAware ADS-B(AVB / LIPA)",
          "FlightAware ADS-B(EDTD)",
          "FlightAware ADS-B(LIDT)",
          "FlightAware ADS-B(LIDT)",
          "FlightAware ADS-B(LIN / LIML)",
          "FlightAware ADS-B(AGB / EDMA)",
          "FlightAware ADS-B(TRS / LIPQ)",
          "FlightAware ADS-B(PMF / LIMP)",
          "FlightAware ADS-B(BLX / LIDB)",
          "FlightAware ADS-B(LIPG)",
          "FlightAware ADS-B(LIPG)",
          "FlightAware ADS-B(LIVV)",
          "FlightAware ADS-B(LIPU)",
          "FlightAware ADS-B(LIPU)",
          "FlightAware ADS-B(UDN / LIPD)",
          "FlightAware ADS-B(LIPF)",
          "FlightAware ADS-B(LIPU)",
          "FlightAware ADS-B(PMF / LIMP)",
          "FlightAware ADS-B(PSR / LIBP)",
          "FlightAware ADS-B(TSF / LIPH)",
          "FlightAware ADS-B(AOI / LIPY)",
          "FlightAware ADS-B(TSF / LIPH)",
          "FlightAware ADS-B(VCE / LIPZ)",
          "FlightAware ADS-B(VCE / LIPZ)",
          "FlightAware ADS-B(FLR / LIRQ)",
          "FlightAware ADS-B(RMI / LIPR)",
          "FlightAware ADS-B(LIDF)",
          "FlightAware ADS-B(BLQ / LIPE)",
          "FlightAware ADS-B(LIDT)",
          "FlightAware ADS-B(LIPU)",
          "FlightAware ADS-B(PSR / LIBP)",
          "FlightAware ADS-B(PSR / LIBP)",
          "FlightAware ADS-B(VCE / LIPZ)",
          "FlightAware ADS-B(PMF / LIMP)",
          "FlightAware ADS-B(PUY / LDPL)",
          "FlightAware ADS-B(PSR / LIBP)",
          "FlightAware ADS-B(BLQ / LIPE)",
          "FlightAware ADS-B(LIKO)",
          "FlightAware ADS-B(LIPC)",
          "FlightAware ADS-B(LIQB)",
          "FlightAware ADS-B(PMF / LIMP)",
          "FlightAware ADS-B(LIDG)",
          "FlightAware ADS-B(PSR / LIBP)",
          "FlightAware ADS-B(LIDF)",
          "FlightAware ADS-B(LIQQ)",
          "FlightAware ADS-B(VCE / LIPZ)",
          "FlightAware ADS-B(CIA / LIRA)",
          "FlightAware ADS-B(PEG / LIRZ)",
          "FlightAware ADS-B(PSR / LIBP)",
          "FlightAware ADS-B(PSR / LIBP)",
          "FlightAware ADS-B(SPU / LDSP)",
          "FlightAware ADS-B(LISB)",
          "FlightAware ADS-B(BRI / LIBD)",
          "FlightAware ADS-B(PSR / LIBP)",
          "FlightAware ADS-B(AVB / LIPA)",
          "FlightAware ADS-B(AVB / LIPA)",
          "FlightAware ADS-B(AVB / LIPA)",
          "FlightAware ADS-B(NAP / LIRN)",
          "FlightAware ADS-B(PSR / LIBP)",
          "FlightAware ADS-B(ZAD / LDZD)",
          "FlightAware ADS-B(PSR / LIBP)",
          "FlightAware ADS-B(BDS / LIBR)",
          "FlightAware ADS-B(DBV / LDDU)",
          "FlightAware ADS-B(PSR / LIBP)",
          "FlightAware ADS-B(FCO / LIRF)",
          "FlightAware ADS-B(BDS / LIBR)",
          "FlightAware ADS-B(CFU / LGKR)",
          "FlightAware ADS-B(CFU / LGKR)",
          "FlightAware ADS-B(CFU / LGKR)",
          "FlightAware ADS-B(LIBX)",
          "FlightAware ADS-B(CFU / LGKR)",
          "FlightAware ADS-B(LCC / LIBN)",
          "FlightAware ADS-B(LCC / LIBN)",
          "FlightAware ADS-B(ZAD / LDZD)",
          "FlightAware ADS-B(NAP / LIRN)",
          "FlightAware ADS-B(QSR / LIRI)",
          "FlightAware ADS-B(QSR / LIRI)",
          "FlightAware ADS-B(TQR / LINI)",
          "FlightAware ADS-B(ZAD / LDZD)",
          "FlightAware ADS-B(SPU / LDSP)",
          "FlightAware ADS-B(NAP / LIRN)",
          "FlightAware ADS-B(BRI / LIBD)",
          "FlightAware ADS-B(BRI / LIBD)",
          "FlightAware ADS-B(BRI / LIBD)",
          "FlightAware ADS-B(FOG / LIBF)",
          "FlightAware ADS-B(BDS / LIBR)",
          "FlightAware ADS-B(LINA)",
          "FlightAware ADS-B(CFU / LGKR)",
          "FlightAware ADS-B(LCC / LIBN)",
          "FlightAware ADS-B(LINB)",
          "FlightAware ADS-B(BDS / LIBR)",
          "FlightAware ADS-B(PSR / LIBP)",
          "FlightAware ADS-B(LCC / LIBN)",
          "FlightAware ADS-B(FOG / LIBF)",
          "FlightAware ADS-B(LIBX)",
          "FlightAware ADS-B(LCC / LIBN)",
          "FlightAware ADS-B(BRI / LIBD)",
          "FlightAware ADS-B(LIBX)",
          "FlightAware ADS-B(BDS / LIBR)",
          "FlightAware ADS-B(FOG / LIBF)",
          "FlightAware ADS-B(LINB)",
          "FlightAware ADS-B(BDS / LIBR)",
          "FlightAware ADS-B(LCC / LIBN)",
          "FlightAware ADS-B(BRI / LIBD)",
          "FlightAware ADS-B(LCC / LIBN)",
          "FlightAware ADS-B(FOG / LIBF)",
          "FlightAware ADS-B(LCC / LIBN)",
          "FlightAware ADS-B(BRI / LIBD)",
          "FlightAware ADS-B(BRI / LIBD)",
          "FlightAware ADS-B(LIBX)",
          "FlightAware ADS-B(LIBX)",
          "FlightAware ADS-B(BRI / LIBD)",
          "FlightAware ADS-B(BRI / LIBD)",
          "FlightAware ADS-B(BRI / LIBD)",
          "FlightAware ADS-B(BRI / LIBD)",
          "Surface and Near-Surface",
          "FlightAware ADS-B(BRI / LIBD)",
          "FlightAware ADS-B(BRI / LIBD)",
          "FlightAware ADS-B(BRI / LIBD)",
          "FlightAware ADS-B(BRI / LIBD)",
          "FlightAware ADS-B(BRI / LIBD)",
          "FlightAware ADS-B(BRI / LIBD)"
        ]
      }
    }
  ]
}