{
  "type": "FeatureCollection",
  "features": [
    {
      "type": "Feature",
      "geometry": {
        "type": "LineString",
        "coordinates": [
          [
            6.7542,
            51.2808
          ],
          [
            6.7392,
            51.2739
          ],
          [
            6.7239,
            51.2679
          ],
          [
            6.7046,
            51.271
          ],
          [
            6.694,
            51.2799
          ],
          [
            6.6866,
            51.2943
          ],
          [
            6.6859,
            51.31
          ],
          [
            6.6938,
            51.3254
          ],
          [
            6.7085,
            51.3413
          ],
          [
            6.7277,
            51.3565
          ],
          [
            6.7905,
            51.3984
          ],
          [
            6.8479,
            51.4383
          ],
          [
            6.8893,
            51.4671
          ],
          [
            6.9218,
            51.4896
          ],
          [
            6.9923,
            51.5384
          ],
          [
            7.0559,
            51.5826
          ],
          [
            7.1245,
            51.6299
          ],
          [
            7.1938,
            51.6776
          ],
          [
            7.2894,
            51.7433
          ],
          [
            7.3629,
            51.7937
          ],
          [
            7.4403,
            51.8463
          ],
          [
            7.5164,
            51.898
          ],
          [
            7.5937,
            51.9505
          ],
          [
            7.6709,
            52.0025
          ],
          [
            7.7489,
            52.0551
          ],
          [
            7.8243,
            52.1056
          ],
          [
            7.884,
            52.1454
          ],
          [
            7.9612,
            52.197
          ],
          [
            8.0381,
            52.2482
          ],
          [
            8.1151,
            52.299
          ],
          [
            8.1914,
            52.3495
          ],
          [
            8.2727,
            52.4029
          ],
          [
            8.3503,
            52.4539
          ],
          [
            8.3995,
            52.486
          ],
          [
            8.4772,
            52.5366
          ],
          [
            8.557,
            52.5887
          ],
          [
            8.6356,
            52.6397
          ],
          [
            8.694,
            52.6771
          ],
          [
            8.7524,
            52.7147
          ],
          [
            8.8284,
            52.7639
          ],
          [
            8.9054,
            52.813
          ],
          [
            8.9814,
            52.8615
          ],
          [
            9.0592,
            52.9112
          ],
          [
            9.1354,
            52.9592
          ],
          [
            9.2117,
            53.0076
          ],
          [
            9.2859,
            53.0543
          ],
          [
            9.3617,
            53.102
          ],
          [
            9.4121,
            53.1335
          ],
          [
            9.463,
            53.1654
          ],
          [
            9.5422,
            53.2148
          ],
          [
            9.6165,
            53.2608
          ],
          [
            9.6965,
            53.3104
          ],
          [
            9.7735,
            53.3578
          ],
          [
            9.8529,
            53.4067
          ],
          [
            9.9338,
            53.4564
          ],
          [
            10.0087,
            53.5021
          ],
          [
            10.091,
            53.5523
          ],
          [
            10.1671,
            53.5984
          ],
          [
            10.2447,
            53.6453
          ],
          [
            10.3234,
            53.6929
          ],
          [
            10.4046,
            53.7416
          ],
          [
            10.4828,
            53.7885
          ],
          [
            10.5636,
            53.8368
          ],
          [
            10.6464,
            53.8859
          ],
          [
            10.7256,
            53.9329
          ],
          [
            10.8045,
            53.9795
          ],
          [
            10.862,
            54.0134
          ],
          [
            10.9392,
            54.0588
          ],
          [
            11.0189,
            54.1055
          ],
          [
            11.1007,
            54.1531
          ],
          [
            11.1811,
            54.1998
          ],
          [
            11.2613,
            54.2464
          ],
          [
            11.3376,
            54.29
          ],
          [
            11.3981,
            54.3167
          ],
          [
            11.4731,
            54.3378
          ],
          [
            11.5593,
            54.3501
          ],
          [
            11.673,
            54.3501
          ],
          [
            11.8022,
            54.3432
          ],
          [
            11.8701,
            54.341
          ],
          [
            11.9892,
            54.3395
          ],
          [
            12.1049,
            54.3377
          ],
          [
            12.2221,
            54.3352
          ],
          [
            12.3872,
            54.3323
          ],
          [
            12.531,
            54.3294
          ],
          [
            12.6516,
            54.3271
          ],
          [
            12.7442,
            54.3256
          ],
          [
            12.8087,
            54.3259
          ],
          [
            12.929,
            54.328
          ],
          [
            13.0471,
            54.3287
          ],
          [
            13.1691,
            54.3293
          ],
          [
            13.2889,
            54.3302
          ],
          [
            13.4095,
            54.3307
          ],
          [
            13.5229,
            54.3312
          ],
          [
            13.6458,
            54.3315
          ],
          [
            13.7597,
            54.3317
          ],
          [
            13.8789,
            54.332
          ],
          [
            13.9999,
            54.3319
          ],
          [
            14.1104,
            54.3317
          ],
          [
            14.2262,
            54.3316
          ],
          [
            14.3443,
            54.3313
          ],
          [
            14.4616,
            54.3307
          ],
          [
            14.5829,
            54.3302
          ],
          [
            14.7002,
            54.3295
          ],
          [
            14.8067,
            54.3287
          ],
          [
            14.9762,
            54.3275
          ],
          [
            15.0945,
            54.3264
          ],
          [
            15.211,
            54.3252
          ],
          [
            15.3259,
            54.3238
          ],
          [
            15.4413,
            54.3226
          ],
          [
            15.5544,
            54.3211
          ],
          [
            15.6724,
            54.3194
          ],
          [
            15.7871,
            54.3178
          ],
          [
            15.9035,
            54.3159
          ],
          [
            16.0295,
            54.3137
          ],
          [
            16.1589,
            54.3116
          ],
          [
            16.2789,
            54.3081
          ],
          [
            16.4053,
            54.304
          ],
          [
            16.5318,
            54.3002
          ],
          [
            16.6588,
            54.2961
          ],
          [
            16.788,
            54.2917
          ],
          [
            16.9219,
            54.2872
          ],
          [
            17.0367,
            54.2831
          ],
          [
            17.1487,
            54.279
          ],
          [
            17.2674,
            54.2746
          ],
          [
            17.3771,
            54.2703
          ],
          [
            17.4818,
            54.2662
          ],
          [
            17.5872,
            54.262
          ],
          [
            17.6901,
            54.2578
          ],
          [
            17.7974,
            54.2532
          ],
          [
            17.8875,
            54.2494
          ],
          [
            17.9666,
            54.246
          ],
          [
            18.0524,
            54.2422
          ],
          [
            18.1239,
            54.239
          ],
          [
            18.2012,
            54.2354
          ],
          [
            18.2727,
            54.2321
          ],
          [
            18.3433,
            54.2288
          ],
          [
            18.4125,
            54.2255
          ],
          [
            18.4842,
            54.2221
          ],
          [
            18.5508,
            54.219
          ],
          [
            18.6171,
            54.2157
          ],
          [
            18.6801,
            54.2125
          ],
          [
            18.7425,
            54.2095
          ],
          [
            18.7764,
            54.2146
          ],
          [
            18.8008,
            54.2287
          ],
          [
            18.8217,
            54.251
          ],
          [
            18.8272,
            54.2654
          ],
          [
            18.8191,
            54.2797
          ],
          [
            18.7976,
            54.2925
          ],
          [
            18.7777,
            54.3009
          ],
          [
            18.7577,
            54.307
          ],
          [
            18.7229,
            54.3149
          ],
          [
            18.6803,
            54.3249
          ],
          [
            18.6482,
            54.3327
          ],
          [
            18.6113,
            54.3418
          ],
          [
            18.5939,
            54.346
          ],
          [
            18.5804,
            54.3494
          ],
          [
            18.575,
            54.3508
          ],
          [
            18.5583,
            54.3548
          ],
          [
            18.5431,
            54.3586
          ],
          [
            18.5254,
            54.3629
          ],
          [
            18.5118,
            54.3662
          ],
          [
            18.4973,
            54.3699
          ],
          [
            18.4808,
            54.374
          ]
        ]
      },
      "properties": {
        "time_europe_berlin": [
          "08.12.2025 08:19:40",
          "08.12.2025 08:19:56",
          "08.12.2025 08:20:12",
          "08.12.2025 08:20:28",
          "08.12.2025 08:20:44",
          "08.12.2025 08:21:01",
          "08.12.2025 08:21:19",
          "08.12.2025 08:21:35",
          "08.12.2025 08:21:52",
          "08.12.2025 08:22:08",
          "08.12.2025 08:22:55",
          "08.12.2025 08:23:32",
          "08.12.2025 08:23:56",
          "08.12.2025 08:24:14",
          "08.12.2025 08:24:50",
          "08.12.2025 08:25:20",
          "08.12.2025 08:25:50",
          "08.12.2025 08:26:20",
          "08.12.2025 08:26:59",
          "08.12.2025 08:27:29",
          "08.12.2025 08:27:59",
          "08.12.2025 08:28:29",
          "08.12.2025 08:28:59",
          "08.12.2025 08:29:29",
          "08.12.2025 08:29:59",
          "08.12.2025 08:30:29",
          "08.12.2025 08:30:53",
          "08.12.2025 08:31:23",
          "08.12.2025 08:31:53",
          "08.12.2025 08:32:23",
          "08.12.2025 08:32:53",
          "08.12.2025 08:33:23",
          "08.12.2025 08:33:53",
          "08.12.2025 08:34:11",
          "08.12.2025 08:34:41",
          "08.12.2025 08:35:11",
          "08.12.2025 08:35:41",
          "08.12.2025 08:36:02",
          "08.12.2025 08:36:24",
          "08.12.2025 08:36:54",
          "08.12.2025 08:37:24",
          "08.12.2025 08:37:54",
          "08.12.2025 08:38:24",
          "08.12.2025 08:38:54",
          "08.12.2025 08:39:24",
          "08.12.2025 08:39:54",
          "08.12.2025 08:40:24",
          "08.12.2025 08:40:44",
          "08.12.2025 08:41:04",
          "08.12.2025 08:41:34",
          "08.12.2025 08:42:04",
          "08.12.2025 08:42:34",
          "08.12.2025 08:43:04",
          "08.12.2025 08:43:34",
          "08.12.2025 08:44:04",
          "08.12.2025 08:44:34",
          "08.12.2025 08:45:04",
          "08.12.2025 08:45:34",
          "08.12.2025 08:46:04",
          "08.12.2025 08:46:34",
          "08.12.2025 08:47:05",
          "08.12.2025 08:47:35",
          "08.12.2025 08:48:06",
          "08.12.2025 08:48:37",
          "08.12.2025 08:49:07",
          "08.12.2025 08:49:37",
          "08.12.2025 08:49:59",
          "08.12.2025 08:50:29",
          "08.12.2025 08:50:59",
          "08.12.2025 08:51:29",
          "08.12.2025 08:51:59",
          "08.12.2025 08:52:29",
          "08.12.2025 08:52:57",
          "08.12.2025 08:53:16",
          "08.12.2025 08:53:38",
          "08.12.2025 08:54:01",
          "08.12.2025 08:54:31",
          "08.12.2025 08:55:04",
          "08.12.2025 08:55:23",
          "08.12.2025 08:55:53",
          "08.12.2025 08:56:23",
          "08.12.2025 08:56:53",
          "08.12.2025 08:57:36",
          "08.12.2025 08:58:13",
          "08.12.2025 08:58:43",
          "08.12.2025 08:59:07",
          "08.12.2025 08:59:23",
          "08.12.2025 08:59:54",
          "08.12.2025 09:00:24",
          "08.12.2025 09:00:55",
          "08.12.2025 09:01:25",
          "08.12.2025 09:01:55",
          "08.12.2025 09:02:25",
          "08.12.2025 09:02:55",
          "08.12.2025 09:03:25",
          "08.12.2025 09:03:55",
          "08.12.2025 09:04:25",
          "08.12.2025 09:04:55",
          "08.12.2025 09:05:25",
          "08.12.2025 09:05:55",
          "08.12.2025 09:06:25",
          "08.12.2025 09:06:55",
          "08.12.2025 09:07:25",
          "08.12.2025 09:07:54",
          "08.12.2025 09:08:38",
          "08.12.2025 09:09:08",
          "08.12.2025 09:09:38",
          "08.12.2025 09:10:08",
          "08.12.2025 09:10:38",
          "08.12.2025 09:11:08",
          "08.12.2025 09:11:38",
          "08.12.2025 09:12:08",
          "08.12.2025 09:12:38",
          "08.12.2025 09:13:08",
          "08.12.2025 09:13:39",
          "08.12.2025 09:14:09",
          "08.12.2025 09:14:39",
          "08.12.2025 09:15:09",
          "08.12.2025 09:15:39",
          "08.12.2025 09:16:09",
          "08.12.2025 09:16:40",
          "08.12.2025 09:17:10",
          "08.12.2025 09:17:40",
          "08.12.2025 09:18:10",
          "08.12.2025 09:18:40",
          "08.12.2025 09:19:10",
          "08.12.2025 09:19:40",
          "08.12.2025 09:20:10",
          "08.12.2025 09:20:44",
          "08.12.2025 09:21:14",
          "08.12.2025 09:21:44",
          "08.12.2025 09:22:15",
          "08.12.2025 09:22:45",
          "08.12.2025 09:23:15",
          "08.12.2025 09:23:45",
          "08.12.2025 09:24:15",
          "08.12.2025 09:24:45",
          "08.12.2025 09:25:15",
          "08.12.2025 09:25:45",
          "08.12.2025 09:26:15",
          "08.12.2025 09:26:45",
          "08.12.2025 09:27:15",
          "08.12.2025 09:27:32",
          "08.12.2025 09:27:49",
          "08.12.2025 09:28:10",
          "08.12.2025 09:28:26",
          "08.12.2025 09:28:42",
          "08.12.2025 09:29:00",
          "08.12.2025 09:29:16",
          "08.12.2025 09:29:32",
          "08.12.2025 09:29:56",
          "08.12.2025 09:30:26",
          "08.12.2025 09:30:48",
          "08.12.2025 09:31:18",
          "08.12.2025 09:31:34",
          "08.12.2025 09:31:45",
          "08.12.2025 09:31:50",
          "08.12.2025 09:32:06",
          "08.12.2025 09:32:22",
          "08.12.2025 09:32:38",
          "08.12.2025 09:32:54",
          "08.12.2025 09:33:10",
          "08.12.2025 09:33:27"
        ],
        "course_deg_clockwise_from_north": [
          233,
          233,
          251,
          308,
          334,
          349,
          9,
          23,
          35,
          41,
          43,
          42,
          42,
          42,
          42,
          42,
          42,
          42,
          42,
          42,
          42,
          42,
          42,
          43,
          42,
          43,
          43,
          43,
          43,
          43,
          43,
          43,
          43,
          43,
          43,
          43,
          43,
          44,
          43,
          43,
          44,
          43,
          44,
          44,
          44,
          44,
          44,
          44,
          44,
          44,
          44,
          44,
          44,
          44,
          44,
          44,
          44,
          45,
          45,
          44,
          45,
          45,
          45,
          45,
          45,
          45,
          45,
          45,
          45,
          45,
          45,
          45,
          47,
          57,
          70,
          83,
          95,
          94,
          92,
          91,
          92,
          92,
          92,
          92,
          92,
          90,
          89,
          89,
          90,
          89,
          89,
          90,
          90,
          90,
          90,
          90,
          90,
          90,
          90,
          91,
          91,
          91,
          91,
          91,
          91,
          91,
          91,
          91,
          91,
          91,
          91,
          92,
          92,
          92,
          92,
          93,
          93,
          93,
          93,
          93,
          93,
          93,
          94,
          94,
          94,
          94,
          94,
          94,
          94,
          94,
          94,
          94,
          95,
          95,
          95,
          95,
          95,
          95,
          95,
          95,
          95,
          91,
          59,
          36,
          23,
          1,
          327,
          307,
          304,
          293,
          292,
          292,
          293,
          292,
          293,
          294,
          293,
          293,
          293,
          293,
          293,
          294,
          293
        ],
        "speed_kts": [
          154,
          159,
          154,
          165,
          174,
          190,
          212,
          224,
          241,
          250,
          296,
          332,
          357,
          377,
          418,
          444,
          462,
          477,
          492,
          501,
          506,
          510,
          515,
          510,
          505,
          500,
          495,
          493,
          498,
          505,
          511,
          515,
          517,
          518,
          519,
          517,
          513,
          504,
          497,
          492,
          486,
          483,
          480,
          480,
          480,
          480,
          480,
          479,
          478,
          481,
          484,
          487,
          489,
          489,
          486,
          484,
          484,
          482,
          480,
          477,
          476,
          476,
          476,
          476,
          476,
          477,
          477,
          477,
          478,
          479,
          482,
          482,
          484,
          488,
          490,
          489,
          486,
          488,
          489,
          491,
          491,
          493,
          494,
          496,
          497,
          498,
          498,
          499,
          499,
          499,
          499,
          500,
          499,
          498,
          497,
          496,
          494,
          493,
          492,
          492,
          492,
          492,
          492,
          493,
          493,
          494,
          491,
          486,
          486,
          483,
          483,
          500,
          516,
          518,
          515,
          523,
          533,
          541,
          542,
          537,
          519,
          502,
          487,
          473,
          459,
          447,
          434,
          410,
          389,
          365,
          345,
          326,
          319,
          313,
          304,
          296,
          299,
          300,
          285,
          266,
          268,
          260,
          263,
          258,
          240,
          219,
          196,
          195,
          197,
          196,
          197,
          196,
          184,
          161,
          158,
          151,
          148,
          143,
          136,
          129,
          127,
          127,
          117
        ],
        "speed_mph": [
          177.0,
          183.0,
          177.0,
          190.0,
          200.0,
          219.0,
          244.0,
          258.0,
          277.0,
          288.0,
          341.0,
          382.0,
          411.0,
          434.0,
          481.0,
          511.0,
          532.0,
          549.0,
          566.0,
          577.0,
          582.0,
          587.0,
          593.0,
          587.0,
          581.0,
          575.0,
          570.0,
          567.0,
          573.0,
          581.0,
          588.0,
          593.0,
          595.0,
          596.0,
          597.0,
          595.0,
          590.0,
          580.0,
          572.0,
          566.0,
          559.0,
          556.0,
          552.0,
          552.0,
          552.0,
          552.0,
          552.0,
          551.0,
          550.0,
          554.0,
          557.0,
          560.0,
          563.0,
          563.0,
          559.0,
          557.0,
          557.0,
          555.0,
          552.0,
          549.0,
          548.0,
          548.0,
          548.0,
          548.0,
          548.0,
          549.0,
          549.0,
          549.0,
          550.0,
          551.0,
          555.0,
          555.0,
          557.0,
          562.0,
          564.0,
          563.0,
          559.0,
          562.0,
          563.0,
          565.0,
          565.0,
          567.0,
          568.0,
          571.0,
          572.0,
          573.0,
          573.0,
          574.0,
          574.0,
          574.0,
          574.0,
          575.0,
          574.0,
          573.0,
          572.0,
          571.0,
          568.0,
          567.0,
          566.0,
          566.0,
          566.0,
          566.0,
          566.0,
          567.0,
          567.0,
          568.0,
          565.0,
          559.0,
          559.0,
          556.0,
          556.0,
          575.0,
          594.0,
          596.0,
          593.0,
          602.0,
          613.0,
          623.0,
          624.0,
          618.0,
          597.0,
          578.0,
          560.0,
          544.0,
          528.0,
          514.0,
          499.0,
          472.0,
          448.0,
          420.0,
          397.0,
          375.0,
          367.0,
          360.0,
          350.0,
          341.0,
          344.0,
          345.0,
          328.0,
          306.0,
          308.0,
          299.0,
          303.0,
          297.0,
          276.0,
          252.0,
          226.0,
          224.0,
          227.0,
          226.0,
          227.0,
          226.0,
          212.0,
          185.0,
          182.0,
          174.0,
          170.0,
          165.0,
          157.0,
          148.0,
          146.0,
          146.0,
          135.0
        ],
        "altitude_ft": [
          875,
          1825,
          3000,
          4225,
          5300,
          6250,
          7200,
          8200,
          9200,
          10150,
          13150,
          15325,
          16675,
          17425,
          19000,
          20225,
          21450,
          22700,
          24275,
          25375,
          26475,
          27550,
          28475,
          29725,
          30975,
          32175,
          33125,
          34200,
          34925,
          35500,
          36000,
          36500,
          37000,
          37275,
          37750,
          38250,
          38725,
          39325,
          39925,
          40550,
          41175,
          41725,
          42150,
          42500,
          42825,
          43150,
          43500,
          43700,
          43925,
          44125,
          44275,
          44425,
          44550,
          44725,
          44950,
          45000,
          45000,
          45000,
          45000,
          45000,
          45000,
          45000,
          45000,
          45000,
          45000,
          45000,
          45000,
          45000,
          45000,
          45000,
          45000,
          45000,
          45000,
          45000,
          45000,
          45000,
          45000,
          45000,
          45000,
          45000,
          45000,
          45000,
          45000,
          45000,
          45000,
          45000,
          45000,
          45000,
          45000,
          45000,
          45000,
          45000,
          45000,
          45000,
          45000,
          45000,
          45000,
          45000,
          45000,
          45000,
          45000,
          45000,
          45000,
          45000,
          44850,
          44550,
          43775,
          42700,
          41475,
          40225,
          38900,
          37675,
          36375,
          35050,
          33650,
          32350,
          31075,
          29800,
          28500,
          27150,
          25750,
          24450,
          23200,
          21900,
          20575,
          19300,
          17975,
          16625,
          15125,
          14200,
          13475,
          12625,
          11925,
          11125,
          10350,
          9600,
          8850,
          7850,
          6825,
          5725,
          4825,
          4150,
          3800,
          3400,
          3100,
          3075,
          3075,
          3100,
          3075,
          3075,
          3075,
          3050,
          2650,
          2175,
          1950,
          1775,
          1700,
          1500,
          1300,
          1075,
          900,
          725,
          575
        ],
        "vertical_rate_fpm": [
          0.0,
          3984.0,
          4500.0,
          4313.0,
          3682.0,
          3257.0,
          3441.0,
          3636.0,
          3545.0,
          3762.0,
          3696.0,
          3467.0,
          3000.0,
          2583.0,
          2545.0,
          2450.0,
          2475.0,
          2457.0,
          2326.0,
          2200.0,
          2175.0,
          2000.0,
          2175.0,
          2500.0,
          2450.0,
          2389.0,
          2250.0,
          1800.0,
          1300.0,
          1075.0,
          1000.0,
          1000.0,
          969.0,
          938.0,
          975.0,
          975.0,
          1265.0,
          1674.0,
          1413.0,
          1250.0,
          1175.0,
          975.0,
          775.0,
          675.0,
          650.0,
          675.0,
          660.0,
          638.0,
          510.0,
          350.0,
          300.0,
          275.0,
          300.0,
          400.0,
          275.0,
          50.0,
          0.0,
          0.0,
          0.0,
          0.0,
          0.0,
          0.0,
          0.0,
          0.0,
          0.0,
          0.0,
          0.0,
          0.0,
          0.0,
          0.0,
          0.0,
          0.0,
          0.0,
          0.0,
          0.0,
          0.0,
          0.0,
          0.0,
          0.0,
          0.0,
          0.0,
          0.0,
          0.0,
          0.0,
          0.0,
          0.0,
          0.0,
          0.0,
          0.0,
          0.0,
          0.0,
          0.0,
          0.0,
          0.0,
          0.0,
          0.0,
          0.0,
          0.0,
          0.0,
          0.0,
          0.0,
          0.0,
          0.0,
          -123.0,
          -365.0,
          -1075.0,
          -1850.0,
          -2300.0,
          -2475.0,
          -2575.0,
          -2550.0,
          -2525.0,
          -2625.0,
          -2680.0,
          -2656.0,
          -2575.0,
          -2550.0,
          -2575.0,
          -2650.0,
          -2705.0,
          -2656.0,
          -2550.0,
          -2550.0,
          -2625.0,
          -2600.0,
          -2600.0,
          -2675.0,
          -2672.0,
          -2273.0,
          -1650.0,
          -1549.0,
          -1525.0,
          -1500.0,
          -1575.0,
          -1525.0,
          -1500.0,
          -1750.0,
          -2025.0,
          -2125.0,
          -2000.0,
          -1575.0,
          -1309.0,
          -1324.0,
          -1105.0,
          -527.0,
          -47.0,
          44.0,
          0.0,
          -47.0,
          0.0,
          -28.0,
          -490.0,
          -1010.0,
          -913.0,
          -889.0,
          -938.0,
          -786.0,
          -750.0,
          -797.0,
          -750.0,
          -656.0,
          -591.0,
          -529.0
        ]
      }
    }
  ]
}