{
  "type": "FeatureCollection",
  "features": [
    {
      "type": "Feature",
      "geometry": {
        "type": "LineString",
        "coordinates": [
          [
            -2.7303,
            51.3823
          ],
          [
            -2.7458,
            51.3816
          ],
          [
            -2.7626,
            51.3811
          ],
          [
            -2.779,
            51.3807
          ],
          [
            -2.7991,
            51.3803
          ],
          [
            -2.8177,
            51.3798
          ],
          [
            -2.8513,
            51.3789
          ],
          [
            -2.8725,
            51.3795
          ],
          [
            -2.8909,
            51.3926
          ],
          [
            -2.8891,
            51.4099
          ],
          [
            -2.8698,
            51.4247
          ],
          [
            -2.8361,
            51.4344
          ],
          [
            -2.8009,
            51.439
          ],
          [
            -2.7515,
            51.4411
          ],
          [
            -2.7154,
            51.441
          ],
          [
            -2.6669,
            51.4404
          ],
          [
            -2.5907,
            51.4406
          ],
          [
            -2.5021,
            51.4414
          ],
          [
            -2.4271,
            51.4415
          ],
          [
            -2.3666,
            51.4407
          ],
          [
            -2.3151,
            51.4386
          ],
          [
            -2.2594,
            51.4354
          ],
          [
            -2.126,
            51.4286
          ],
          [
            -2.0252,
            51.4236
          ],
          [
            -1.9197,
            51.4182
          ],
          [
            -1.8214,
            51.4128
          ],
          [
            -1.7127,
            51.4067
          ],
          [
            -1.6317,
            51.4027
          ],
          [
            -1.5769,
            51.4003
          ],
          [
            -1.4638,
            51.3941
          ],
          [
            -1.3567,
            51.3881
          ],
          [
            -1.2491,
            51.3822
          ],
          [
            -1.1383,
            51.3759
          ],
          [
            -1.0294,
            51.3693
          ],
          [
            -0.9176,
            51.3628
          ],
          [
            -0.8061,
            51.3567
          ],
          [
            -0.6902,
            51.3485
          ],
          [
            -0.584,
            51.3423
          ],
          [
            -0.4729,
            51.3358
          ],
          [
            -0.3718,
            51.3286
          ],
          [
            -0.2599,
            51.3221
          ],
          [
            -0.1968,
            51.3179
          ],
          [
            -0.0874,
            51.3102
          ],
          [
            0.0188,
            51.3031
          ],
          [
            0.1355,
            51.2954
          ],
          [
            0.2507,
            51.2872
          ],
          [
            0.3633,
            51.2794
          ],
          [
            0.4748,
            51.2714
          ],
          [
            0.6364,
            51.2597
          ],
          [
            0.7429,
            51.2523
          ],
          [
            0.8499,
            51.244
          ],
          [
            0.9573,
            51.236
          ],
          [
            1.0715,
            51.2271
          ],
          [
            1.1304,
            51.2228
          ],
          [
            1.245,
            51.2137
          ],
          [
            1.3548,
            51.2049
          ],
          [
            1.4572,
            51.1969
          ],
          [
            1.6182,
            51.1811
          ],
          [
            1.7038,
            51.1726
          ],
          [
            1.8111,
            51.1618
          ],
          [
            1.9171,
            51.1516
          ],
          [
            2.0256,
            51.1408
          ],
          [
            2.1575,
            51.1266
          ],
          [
            2.2178,
            51.1205
          ],
          [
            2.3248,
            51.1094
          ],
          [
            2.4461,
            51.0972
          ],
          [
            2.5541,
            51.0855
          ],
          [
            2.6258,
            51.0781
          ],
          [
            2.7047,
            51.0692
          ],
          [
            2.8102,
            51.058
          ],
          [
            2.9155,
            51.0467
          ],
          [
            3.0181,
            51.0351
          ],
          [
            3.0878,
            51.0273
          ],
          [
            3.1899,
            51.0165
          ],
          [
            3.2725,
            51.0066
          ],
          [
            3.3793,
            50.9947
          ],
          [
            3.4805,
            50.9835
          ],
          [
            3.5803,
            50.9714
          ],
          [
            3.6761,
            50.9609
          ],
          [
            3.7596,
            50.9506
          ],
          [
            3.9015,
            50.9341
          ],
          [
            3.9759,
            50.9253
          ],
          [
            4.0422,
            50.9179
          ],
          [
            4.202,
            50.8986
          ],
          [
            4.2794,
            50.8887
          ],
          [
            4.381,
            50.8762
          ],
          [
            4.4804,
            50.864
          ],
          [
            4.5834,
            50.8516
          ],
          [
            4.6828,
            50.8391
          ],
          [
            4.7589,
            50.8296
          ],
          [
            4.843,
            50.818
          ],
          [
            4.9631,
            50.8031
          ],
          [
            5.04,
            50.7929
          ],
          [
            5.1079,
            50.7851
          ],
          [
            5.1909,
            50.7736
          ],
          [
            5.2881,
            50.7613
          ],
          [
            5.3826,
            50.7484
          ],
          [
            5.5607,
            50.7252
          ],
          [
            5.6259,
            50.7167
          ],
          [
            5.7179,
            50.7038
          ],
          [
            5.8097,
            50.6914
          ],
          [
            5.8879,
            50.6811
          ],
          [
            5.9555,
            50.6713
          ],
          [
            6.0526,
            50.6583
          ],
          [
            6.1047,
            50.6526
          ],
          [
            6.184,
            50.6671
          ],
          [
            6.2739,
            50.6975
          ],
          [
            6.3254,
            50.7149
          ],
          [
            6.4437,
            50.7549
          ],
          [
            6.519,
            50.7799
          ],
          [
            6.6359,
            50.819
          ],
          [
            6.7098,
            50.8442
          ],
          [
            6.7519,
            50.8586
          ],
          [
            6.7896,
            50.8716
          ],
          [
            6.8243,
            50.8838
          ],
          [
            6.8578,
            50.8955
          ],
          [
            6.9177,
            50.9166
          ],
          [
            6.9814,
            50.9373
          ],
          [
            7.0393,
            50.9543
          ],
          [
            7.0969,
            50.971
          ],
          [
            7.13,
            50.9797
          ],
          [
            7.1761,
            50.988
          ],
          [
            7.2356,
            50.9975
          ],
          [
            7.2986,
            51.0068
          ],
          [
            7.3362,
            51.0093
          ],
          [
            7.366,
            51.0018
          ],
          [
            7.3892,
            50.9914
          ],
          [
            7.4043,
            50.9761
          ],
          [
            7.4007,
            50.9607
          ],
          [
            7.3939,
            50.9488
          ],
          [
            7.3795,
            50.9394
          ],
          [
            7.3544,
            50.9307
          ],
          [
            7.322,
            50.9203
          ],
          [
            7.2967,
            50.9126
          ],
          [
            7.2681,
            50.9038
          ],
          [
            7.2456,
            50.897
          ],
          [
            7.2331,
            50.8933
          ],
          [
            7.2199,
            50.8893
          ],
          [
            7.2077,
            50.8855
          ],
          [
            7.1963,
            50.8821
          ],
          [
            7.1852,
            50.8788
          ],
          [
            7.1719,
            50.8747
          ],
          [
            7.1605,
            50.8712
          ]
        ]
      },
      "properties": {
        "time_europe_berlin": [
          "02.11.2025 12:34:16",
          "02.11.2025 12:34:31",
          "02.11.2025 12:34:47",
          "02.11.2025 12:35:03",
          "02.11.2025 12:35:19",
          "02.11.2025 12:35:35",
          "02.11.2025 12:36:02",
          "02.11.2025 12:36:18",
          "02.11.2025 12:36:38",
          "02.11.2025 12:36:54",
          "02.11.2025 12:37:11",
          "02.11.2025 12:37:28",
          "02.11.2025 12:37:44",
          "02.11.2025 12:38:04",
          "02.11.2025 12:38:21",
          "02.11.2025 12:38:38",
          "02.11.2025 12:39:07",
          "02.11.2025 12:39:37",
          "02.11.2025 12:40:03",
          "02.11.2025 12:40:22",
          "02.11.2025 12:40:39",
          "02.11.2025 12:40:57",
          "02.11.2025 12:41:38",
          "02.11.2025 12:42:08",
          "02.11.2025 12:42:38",
          "02.11.2025 12:43:07",
          "02.11.2025 12:43:37",
          "02.11.2025 12:44:00",
          "02.11.2025 12:44:16",
          "02.11.2025 12:44:46",
          "02.11.2025 12:45:16",
          "02.11.2025 12:45:46",
          "02.11.2025 12:46:16",
          "02.11.2025 12:46:46",
          "02.11.2025 12:47:16",
          "02.11.2025 12:47:46",
          "02.11.2025 12:48:16",
          "02.11.2025 12:48:46",
          "02.11.2025 12:49:16",
          "02.11.2025 12:49:44",
          "02.11.2025 12:50:14",
          "02.11.2025 12:50:30",
          "02.11.2025 12:51:00",
          "02.11.2025 12:51:30",
          "02.11.2025 12:52:01",
          "02.11.2025 12:52:32",
          "02.11.2025 12:53:02",
          "02.11.2025 12:53:32",
          "02.11.2025 12:54:16",
          "02.11.2025 12:54:46",
          "02.11.2025 12:55:16",
          "02.11.2025 12:55:46",
          "02.11.2025 12:56:15",
          "02.11.2025 12:56:33",
          "02.11.2025 12:57:04",
          "02.11.2025 12:57:34",
          "02.11.2025 12:58:04",
          "02.11.2025 12:58:49",
          "02.11.2025 12:59:13",
          "02.11.2025 12:59:43",
          "02.11.2025 13:00:13",
          "02.11.2025 13:00:43",
          "02.11.2025 13:01:21",
          "02.11.2025 13:01:38",
          "02.11.2025 13:02:08",
          "02.11.2025 13:02:42",
          "02.11.2025 13:03:12",
          "02.11.2025 13:03:32",
          "02.11.2025 13:03:55",
          "02.11.2025 13:04:25",
          "02.11.2025 13:04:55",
          "02.11.2025 13:05:24",
          "02.11.2025 13:05:43",
          "02.11.2025 13:06:13",
          "02.11.2025 13:06:36",
          "02.11.2025 13:07:06",
          "02.11.2025 13:07:36",
          "02.11.2025 13:08:04",
          "02.11.2025 13:08:31",
          "02.11.2025 13:08:54",
          "02.11.2025 13:09:35",
          "02.11.2025 13:09:56",
          "02.11.2025 13:10:15",
          "02.11.2025 13:11:01",
          "02.11.2025 13:11:23",
          "02.11.2025 13:11:53",
          "02.11.2025 13:12:23",
          "02.11.2025 13:12:53",
          "02.11.2025 13:13:23",
          "02.11.2025 13:13:46",
          "02.11.2025 13:14:12",
          "02.11.2025 13:14:47",
          "02.11.2025 13:15:12",
          "02.11.2025 13:15:32",
          "02.11.2025 13:15:56",
          "02.11.2025 13:16:26",
          "02.11.2025 13:16:56",
          "02.11.2025 13:17:50",
          "02.11.2025 13:18:10",
          "02.11.2025 13:18:40",
          "02.11.2025 13:19:10",
          "02.11.2025 13:19:35",
          "02.11.2025 13:19:59",
          "02.11.2025 13:20:29",
          "02.11.2025 13:20:47",
          "02.11.2025 13:21:13",
          "02.11.2025 13:21:45",
          "02.11.2025 13:22:03",
          "02.11.2025 13:22:46",
          "02.11.2025 13:23:12",
          "02.11.2025 13:23:56",
          "02.11.2025 13:24:26",
          "02.11.2025 13:24:44",
          "02.11.2025 13:25:01",
          "02.11.2025 13:25:17",
          "02.11.2025 13:25:33",
          "02.11.2025 13:26:03",
          "02.11.2025 13:26:37",
          "02.11.2025 13:27:07",
          "02.11.2025 13:27:37",
          "02.11.2025 13:27:55",
          "02.11.2025 13:28:17",
          "02.11.2025 13:28:47",
          "02.11.2025 13:29:17",
          "02.11.2025 13:29:36",
          "02.11.2025 13:29:53",
          "02.11.2025 13:30:09",
          "02.11.2025 13:30:26",
          "02.11.2025 13:30:44",
          "02.11.2025 13:31:00",
          "02.11.2025 13:31:18",
          "02.11.2025 13:31:41",
          "02.11.2025 13:32:11",
          "02.11.2025 13:32:35",
          "02.11.2025 13:33:05",
          "02.11.2025 13:33:29",
          "02.11.2025 13:33:45",
          "02.11.2025 13:34:01",
          "02.11.2025 13:34:17",
          "02.11.2025 13:34:33",
          "02.11.2025 13:34:49",
          "02.11.2025 13:35:05",
          "02.11.2025 13:35:21"
        ],
        "course_deg_clockwise_from_north": [
          "266",
          "267",
          "268",
          "268",
          "268",
          "268",
          "267",
          "287",
          "344",
          "22",
          "56",
          "73",
          "83",
          "88",
          "92",
          "91",
          "89",
          "90",
          "90",
          "93",
          "94",
          "96",
          "95",
          "95",
          "94",
          "95",
          "95",
          "94",
          "95",
          "94",
          "96",
          "94",
          "95",
          "95",
          "95",
          "96",
          "95",
          "95",
          "96",
          "95",
          "96",
          "97",
          "96",
          "96",
          "97",
          "97",
          "96",
          "96",
          "96",
          "98",
          "97",
          "97",
          "97",
          "97",
          "97",
          "97",
          "98",
          "98",
          "100",
          "98",
          "100",
          "99",
          "99",
          "99",
          "100",
          "100",
          "99",
          "100",
          "99",
          "101",
          "99",
          "101",
          "99",
          "101",
          "100",
          "101",
          "100",
          "100",
          "101",
          "100",
          "101",
          "100",
          "101",
          "101",
          "101",
          "102",
          "101",
          "101",
          "101",
          "102",
          "101",
          "102",
          "101",
          "101",
          "102",
          "102",
          "101",
          "101",
          "103",
          "102",
          "101",
          "103",
          "102",
          "103",
          "91",
          "63",
          "61",
          "62",
          "62",
          "63",
          "61",
          "61",
          "62",
          "61",
          "61",
          "61",
          "61",
          "64",
          "65",
          "66",
          "72",
          "75",
          "77",
          "77",
          "100",
          "117",
          "134",
          "168",
          "198",
          "203",
          "238",
          "242",
          "244",
          "246",
          "244",
          "245",
          "245",
          "244",
          "244",
          "245",
          "245",
          "243",
          "244"
        ],
        "speed_kts": [
          "138",
          "140",
          "143",
          "151",
          "160",
          "164",
          "175",
          "182",
          "216",
          "250",
          "273",
          "294",
          "312",
          "329",
          "345",
          "357",
          "376",
          "399",
          "410",
          "418",
          "424",
          "431",
          "448",
          "467",
          "472",
          "478",
          "479",
          "481",
          "484",
          "483",
          "495",
          "498",
          "513",
          "511",
          "507",
          "503",
          "498",
          "503",
          "507",
          "505",
          "502",
          "503",
          "502",
          "502",
          "508",
          "508",
          "506",
          "503",
          "499",
          "497",
          "497",
          "496",
          "495",
          "495",
          "494",
          "494",
          "494",
          "491",
          "490",
          "490",
          "489",
          "490",
          "490",
          "490",
          "489",
          "491",
          "491",
          "490",
          "490",
          "490",
          "489",
          "487",
          "488",
          "487",
          "487",
          "488",
          "489",
          "489",
          "489",
          "489",
          "489",
          "489",
          "488",
          "477",
          "475",
          "477",
          "476",
          "471",
          "466",
          "461",
          "461",
          "459",
          "460",
          "462",
          "465",
          "465",
          "463",
          "450",
          "443",
          "435",
          "426",
          "429",
          "430",
          "429",
          "433",
          "440",
          "440",
          "437",
          "430",
          "428",
          "399",
          "375",
          "359",
          "343",
          "328",
          "318",
          "300",
          "288",
          "290",
          "290",
          "288",
          "287",
          "283",
          "279",
          "272",
          "253",
          "233",
          "208",
          "188",
          "171",
          "158",
          "170",
          "166",
          "153",
          "139",
          "136",
          "124",
          "118",
          "111",
          "113",
          "113",
          "112",
          "110"
        ],
        "speed_mph": [
          "159",
          "161",
          "165",
          "174",
          "184",
          "189",
          "201",
          "209",
          "249",
          "288",
          "314",
          "338",
          "359",
          "379",
          "397",
          "411",
          "433",
          "459",
          "472",
          "481",
          "488",
          "496",
          "516",
          "537",
          "543",
          "550",
          "551",
          "554",
          "557",
          "556",
          "570",
          "573",
          "590",
          "588",
          "583",
          "579",
          "573",
          "579",
          "583",
          "581",
          "578",
          "579",
          "578",
          "578",
          "585",
          "585",
          "582",
          "579",
          "574",
          "572",
          "572",
          "571",
          "570",
          "570",
          "568",
          "568",
          "568",
          "565",
          "564",
          "564",
          "563",
          "564",
          "564",
          "564",
          "563",
          "565",
          "565",
          "564",
          "564",
          "564",
          "563",
          "560",
          "562",
          "560",
          "560",
          "562",
          "563",
          "563",
          "563",
          "563",
          "563",
          "563",
          "562",
          "549",
          "547",
          "549",
          "548",
          "542",
          "536",
          "531",
          "531",
          "528",
          "529",
          "532",
          "535",
          "535",
          "533",
          "518",
          "510",
          "501",
          "490",
          "494",
          "495",
          "494",
          "498",
          "506",
          "506",
          "503",
          "495",
          "493",
          "459",
          "432",
          "413",
          "395",
          "377",
          "366",
          "345",
          "331",
          "334",
          "334",
          "331",
          "330",
          "326",
          "321",
          "313",
          "291",
          "268",
          "239",
          "216",
          "197",
          "182",
          "196",
          "191",
          "176",
          "160",
          "157",
          "143",
          "136",
          "128",
          "130",
          "130",
          "129",
          "127"
        ],
        "altitude_ft": [
          "1300",
          "2275",
          "3275",
          "4025",
          "4950",
          "5900",
          "7425",
          "8500",
          "9625",
          "10325",
          "11000",
          "11625",
          "12200",
          "12875",
          "13425",
          "13975",
          "14950",
          "16275",
          "17525",
          "18475",
          "19325",
          "20250",
          "22050",
          "22975",
          "24175",
          "25350",
          "26625",
          "27475",
          "28125",
          "29250",
          "30000",
          "30725",
          "31000",
          "31450",
          "31950",
          "32475",
          "32925",
          "33000",
          "33000",
          "33000",
          "33000",
          "33000",
          "33000",
          "33000",
          "33000",
          "33000",
          "33000",
          "33000",
          "33000",
          "33000",
          "33000",
          "33000",
          "33000",
          "33000",
          "33000",
          "33000",
          "33000",
          "33000",
          "33000",
          "33000",
          "33000",
          "33000",
          "33000",
          "33000",
          "33000",
          "33000",
          "33000",
          "33025",
          "33025",
          "33000",
          "33000",
          "33025",
          "33025",
          "33025",
          "33025",
          "33025",
          "33000",
          "33025",
          "33000",
          "33000",
          "33025",
          "33000",
          "33025",
          "32900",
          "32300",
          "31325",
          "30375",
          "29450",
          "28600",
          "27950",
          "27225",
          "26200",
          "25550",
          "24950",
          "24100",
          "23125",
          "22225",
          "20425",
          "19875",
          "19125",
          "18475",
          "18075",
          "18000",
          "17825",
          "17525",
          "16925",
          "16125",
          "15650",
          "14525",
          "13775",
          "12625",
          "11825",
          "11350",
          "10900",
          "10425",
          "10050",
          "9300",
          "8450",
          "7725",
          "6950",
          "6500",
          "6000",
          "5225",
          "4450",
          "3975",
          "3725",
          "3525",
          "3400",
          "3300",
          "3225",
          "3200",
          "3100",
          "2675",
          "2350",
          "1950",
          "1650",
          "1475",
          "1275",
          "1100",
          "975",
          "825",
          "650",
          "475"
        ],
        "vertical_rate_fpm": [
          "",
          "3823",
          "3281",
          "3141",
          "3516",
          "3453",
          "3628",
          "3667",
          "3042",
          "2500",
          "2294",
          "2182",
          "2083",
          "1986",
          "1941",
          "1989",
          "2339",
          "2759",
          "2933",
          "3000",
          "3043",
          "2771",
          "2303",
          "2125",
          "2415",
          "2492",
          "2406",
          "2308",
          "2315",
          "1875",
          "1475",
          "1000",
          "725",
          "950",
          "1025",
          "975",
          "525",
          "75",
          "",
          "",
          "",
          "",
          "",
          "",
          "",
          "",
          "",
          "",
          "",
          "",
          "",
          "",
          "",
          "",
          "",
          "",
          "",
          "",
          "",
          "",
          "",
          "",
          "",
          "",
          "",
          "",
          "30",
          "35",
          "-28",
          "-25",
          "25",
          "31",
          "",
          "",
          "",
          "-25",
          "",
          "",
          "-30",
          "23",
          "",
          "",
          "-92",
          "-640",
          "-1817",
          "-1925",
          "-1875",
          "-1775",
          "-1698",
          "-1684",
          "-1721",
          "-1675",
          "-1667",
          "-1977",
          "-2028",
          "-1875",
          "-1929",
          "-1905",
          "-1560",
          "-1400",
          "-1145",
          "-582",
          "-278",
          "-594",
          "-1227",
          "-1448",
          "-1530",
          "-1574",
          "-1630",
          "-1629",
          "-1581",
          "-1594",
          "-1586",
          "-1682",
          "-1594",
          "-1467",
          "-1500",
          "-1477",
          "-1500",
          "-1531",
          "-1425",
          "-1471",
          "-1550",
          "-1531",
          "-1208",
          "-818",
          "-591",
          "-386",
          "-309",
          "-176",
          "-183",
          "-594",
          "-833",
          "-806",
          "-778",
          "-713",
          "-703",
          "-703",
          "-563",
          "-516",
          "-609",
          "-656",
          "-656"
        ],
        "reporting_facility": [
          "Surface and Near-Surface",
          "FlightAware ADS-B(BRS / EGGD)",
          "FlightAware ADS-B(SWS / EGFH)",
          "FlightAware ADS-B(BRS / EGGD)",
          "FlightAware ADS-B(FFD / EGVA)",
          "FlightAware ADS-B(EGBS)",
          "FlightAware ADS-B(EGFC)",
          "FlightAware ADS-B(GLO / EGBJ)",
          "FlightAware ADS-B(FZO / EGTG)",
          "FlightAware ADS-B(BRS / EGGD)",
          "FlightAware ADS-B(GLO / EGBJ)",
          "FlightAware ADS-B(GLO / EGBJ)",
          "FlightAware ADS-B(GLO / EGBJ)",
          "FlightAware ADS-B(EGFC)",
          "FlightAware ADS-B(EGTP)",
          "FlightAware ADS-B(GLO / EGBJ)",
          "FlightAware ADS-B(EGHG)",
          "FlightAware ADS-B(MAN / EGCC)",
          "FlightAware ADS-B(BRS / EGGD)",
          "FlightAware ADS-B(EGUO)",
          "FlightAware ADS-B(SOU / EGHI)",
          "FlightAware ADS-B(BOH / EGHH)",
          "FlightAware ADS-B(EGTC)",
          "FlightAware ADS-B(EXT / EGTE)",
          "FlightAware ADS-B(BRS / EGGD)",
          "FlightAware ADS-B(LHR / EGLL)",
          "FlightAware ADS-B(MAN / EGCC)",
          "FlightAware ADS-B(EGBC)",
          "FlightAware ADS-B(SOU / EGHI)",
          "FlightAware ADS-B(EXT / EGTE)",
          "FlightAware ADS-B(BBS / EGLK)",
          "FlightAware ADS-B(BHX / EGBB)",
          "FlightAware ADS-B(NHT / EGWU)",
          "FlightAware ADS-B(EMA / EGNX)",
          "FlightAware ADS-B(HUY / EGNJ)",
          "FlightAware ADS-B(CBG / EGSC)",
          "FlightAware ADS-B(RCS / EGTO)",
          "FlightAware ADS-B(LTN / EGGW)",
          "FlightAware ADS-B(EXT / EGTE)",
          "FlightAware ADS-B(EGFC)",
          "FlightAware ADS-B(EGBW)",
          "FlightAware ADS-B(EGUH)",
          "FlightAware ADS-B(LCY / EGLC)",
          "FlightAware ADS-B(MAN / EGCC)",
          "FlightAware ADS-B(EXT / EGTE)",
          "FlightAware ADS-B(BEX / EGUB)",
          "FlightAware ADS-B(BQH / EGKB)",
          "FlightAware ADS-B(NWI / EGSH)",
          "FlightAware ADS-B(EGSR)",
          "FlightAware ADS-B(LFPY)",
          "FlightAware ADS-B(EGUW)",
          "FlightAware ADS-B(LHR / EGLL)",
          "FlightAware ADS-B(EBSJ)",
          "FlightAware ADS-B(FZO / EGTG)",
          "FlightAware ADS-B(EGKL)",
          "FlightAware ADS-B(UTC / EHSB)",
          "FlightAware ADS-B(EMA / EGNX)",
          "FlightAware ADS-B(EGHB)",
          "FlightAware ADS-B(NWI / EGSH)",
          "FlightAware ADS-B(LCY / EGLC)",
          "FlightAware ADS-B(NRN / EDLV)",
          "FlightAware ADS-B(TNF / LFPN)",
          "FlightAware ADS-B(EGTR)",
          "FlightAware ADS-B(NWI / EGSH)",
          "FlightAware ADS-B(EGKH)",
          "FlightAware ADS-B(EBSW)",
          "FlightAware ADS-B(AMS / EHAM)",
          "FlightAware ADS-B(STN / EGSS)",
          "FlightAware ADS-B(UDE / EHVK)",
          "FlightAware ADS-B(EGSQ)",
          "FlightAware ADS-B(RTM / EHRD)",
          "FlightAware ADS-B(LCY / EGLC)",
          "FlightAware ADS-B(UDE / EHVK)",
          "FlightAware ADS-B(OST / EBOS)",
          "FlightAware ADS-B(EGSW)",
          "FlightAware ADS-B(LEY / EHLE)",
          "FlightAware ADS-B(AMS / EHAM)",
          "FlightAware ADS-B(EGML)",
          "FlightAware ADS-B(EHBD)",
          "FlightAware ADS-B(LFQD)",
          "FlightAware ADS-B(EHDR)",
          "FlightAware ADS-B(EGLW)",
          "FlightAware ADS-B(RCS / EGTO)",
          "FlightAware ADS-B(EDRA)",
          "FlightAware ADS-B(ANR / EBAW)",
          "FlightAware ADS-B(WOE / EHWO)",
          "FlightAware ADS-B(RTM / EHRD)",
          "FlightAware ADS-B(EBTN)",
          "FlightAware ADS-B(BRU / EBBR)",
          "FlightAware ADS-B(ANR / EBAW)",
          "FlightAware ADS-B(AMS / EHAM)",
          "FlightAware ADS-B(EBBY)",
          "FlightAware ADS-B(GLZ / EHGR)",
          "FlightAware ADS-B(RTM / EHRD)",
          "FlightAware ADS-B(AMS / EHAM)",
          "FlightAware ADS-B(LYX / EGMD)",
          "FlightAware ADS-B(EDLZ)",
          "FlightAware ADS-B(CGN / EDDK)",
          "FlightAware ADS-B(EBGB)",
          "FlightAware ADS-B(AMS / EHAM)",
          "FlightAware ADS-B(EIN / EHEH)",
          "FlightAware ADS-B(EHSE)",
          "FlightAware ADS-B(EHTE)",
          "FlightAware ADS-B(AAH / EDKA)",
          "FlightAware ADS-B(CGN / EDDK)",
          "FlightAware ADS-B(LUX / ELLX)",
          "FlightAware ADS-B(MST / EHBK)",
          "FlightAware ADS-B(LEY / EHLE)",
          "FlightAware ADS-B(EHDP)",
          "FlightAware ADS-B(MGL / EDLN)",
          "FlightAware ADS-B(CGN / EDDK)",
          "FlightAware ADS-B(LGG / EBLG)",
          "FlightAware ADS-B(EDKV)",
          "FlightAware ADS-B(EDKV)",
          "FlightAware ADS-B(EBDT)",
          "FlightAware ADS-B(FMO / EDDG)",
          "FlightAware ADS-B(EDLS)",
          "FlightAware ADS-B(MST / EHBK)",
          "FlightAware ADS-B(EDKN)",
          "FlightAware ADS-B(CGN / EDDK)",
          "FlightAware ADS-B(AAH / EDKA)",
          "FlightAware ADS-B(CGN / EDDK)",
          "FlightAware ADS-B(CGN / EDDK)",
          "FlightAware ADS-B(DUS / EDDL)",
          "FlightAware ADS-B(EDKB)",
          "FlightAware ADS-B(CGN / EDDK)",
          "FlightAware ADS-B(CGN / EDDK)",
          "FlightAware ADS-B(EDKZ)",
          "FlightAware ADS-B(CGN / EDDK)",
          "FlightAware ADS-B(CGN / EDDK)",
          "FlightAware ADS-B(CGN / EDDK)",
          "FlightAware ADS-B(EDKB)",
          "FlightAware ADS-B(CGN / EDDK)",
          "FlightAware ADS-B(DUS / EDDL)",
          "FlightAware ADS-B(CGN / EDDK)",
          "Surface and Near-Surface",
          "FlightAware ADS-B(CGN / EDDK)",
          "FlightAware ADS-B(EDKL)",
          "FlightAware ADS-B(CGN / EDDK)",
          "FlightAware ADS-B(CGN / EDDK)",
          "FlightAware ADS-B(CGN / EDDK)",
          "FlightAware ADS-B(ETNN)",
          "FlightAware ADS-B(CGN / EDDK)"
        ]
      }
    }
  ]
}