{
  "type": "FeatureCollection",
  "features": [
    {
      "type": "Feature",
      "geometry": {
        "type": "LineString",
        "coordinates": [
          [
            78.4468,
            17.2284
          ],
          [
            78.4606,
            17.228
          ],
          [
            78.4735,
            17.228
          ],
          [
            78.4866,
            17.2208
          ],
          [
            78.496,
            17.2098
          ],
          [
            78.5082,
            17.1883
          ],
          [
            78.5262,
            17.1532
          ],
          [
            78.5368,
            17.1339
          ],
          [
            78.5491,
            17.1127
          ],
          [
            78.5721,
            17.0721
          ],
          [
            78.5848,
            17.0492
          ],
          [
            78.6057,
            17.0236
          ],
          [
            78.6549,
            16.998
          ],
          [
            78.7063,
            16.9796
          ],
          [
            78.7588,
            16.9605
          ],
          [
            78.8122,
            16.9407
          ],
          [
            78.8529,
            16.9274
          ],
          [
            78.9163,
            16.915
          ],
          [
            78.9797,
            16.9041
          ],
          [
            79.0451,
            16.8913
          ],
          [
            79.1088,
            16.8789
          ],
          [
            79.1685,
            16.8675
          ],
          [
            79.2319,
            16.8551
          ],
          [
            79.2957,
            16.8428
          ],
          [
            79.3607,
            16.8302
          ],
          [
            79.4242,
            16.8176
          ],
          [
            79.4898,
            16.8049
          ],
          [
            79.5539,
            16.7926
          ],
          [
            79.6221,
            16.7791
          ],
          [
            79.6907,
            16.7657
          ],
          [
            79.7585,
            16.7522
          ],
          [
            79.8285,
            16.7384
          ],
          [
            79.9001,
            16.7245
          ],
          [
            79.9696,
            16.7108
          ],
          [
            80.0448,
            16.6957
          ],
          [
            80.1039,
            16.6809
          ],
          [
            80.1689,
            16.6529
          ],
          [
            80.2314,
            16.6217
          ],
          [
            80.3045,
            16.5851
          ],
          [
            80.3661,
            16.5552
          ],
          [
            80.4284,
            16.5248
          ],
          [
            80.4859,
            16.4967
          ],
          [
            80.5532,
            16.4639
          ],
          [
            80.6172,
            16.4329
          ],
          [
            80.6764,
            16.4035
          ],
          [
            80.7345,
            16.3751
          ],
          [
            80.7929,
            16.3471
          ],
          [
            80.8573,
            16.3153
          ],
          [
            80.9167,
            16.2862
          ],
          [
            80.9722,
            16.2591
          ],
          [
            81.0297,
            16.2309
          ],
          [
            81.0867,
            16.2029
          ],
          [
            81.1422,
            16.1756
          ],
          [
            81.2027,
            16.1458
          ],
          [
            81.2788,
            16.1087
          ],
          [
            81.3378,
            16.0794
          ],
          [
            81.3951,
            16.0511
          ],
          [
            81.4536,
            16.0223
          ],
          [
            81.5113,
            15.9938
          ],
          [
            81.5687,
            15.9654
          ],
          [
            81.6234,
            15.9384
          ],
          [
            81.6843,
            15.9083
          ],
          [
            81.7429,
            15.8791
          ],
          [
            81.8034,
            15.8492
          ],
          [
            81.8603,
            15.821
          ],
          [
            81.9262,
            15.7882
          ],
          [
            81.9835,
            15.7598
          ],
          [
            82.0397,
            15.7317
          ],
          [
            82.0944,
            15.7046
          ],
          [
            82.1486,
            15.6775
          ],
          [
            82.2026,
            15.6506
          ],
          [
            82.2564,
            15.6238
          ],
          [
            82.308,
            15.598
          ],
          [
            82.3598,
            15.5721
          ],
          [
            82.4218,
            15.5411
          ],
          [
            82.5014,
            15.5012
          ],
          [
            82.5638,
            15.4701
          ],
          [
            82.6176,
            15.443
          ],
          [
            82.6707,
            15.4162
          ],
          [
            82.7233,
            15.3898
          ],
          [
            82.7758,
            15.3637
          ],
          [
            82.8304,
            15.3359
          ],
          [
            82.8835,
            15.3093
          ],
          [
            82.9372,
            15.2824
          ],
          [
            82.9909,
            15.2551
          ],
          [
            83.0442,
            15.2283
          ],
          [
            83.099,
            15.2007
          ],
          [
            83.1535,
            15.173
          ],
          [
            83.207,
            15.1459
          ],
          [
            83.2604,
            15.119
          ],
          [
            83.3695,
            15.0638
          ],
          [
            83.4236,
            15.0364
          ],
          [
            83.4769,
            15.0092
          ],
          [
            83.5326,
            14.981
          ],
          [
            83.5865,
            14.9535
          ],
          [
            83.6417,
            14.9256
          ],
          [
            83.696,
            14.8979
          ],
          [
            83.7504,
            14.8702
          ],
          [
            83.8367,
            14.8262
          ],
          [
            83.8959,
            14.796
          ],
          [
            83.9503,
            14.7683
          ],
          [
            84.0179,
            14.7336
          ],
          [
            84.1029,
            14.6903
          ],
          [
            84.1641,
            14.6588
          ],
          [
            84.227,
            14.6266
          ],
          [
            84.2818,
            14.5985
          ],
          [
            84.3561,
            14.5604
          ],
          [
            84.4639,
            14.5049
          ],
          [
            84.5389,
            14.4663
          ],
          [
            84.6049,
            14.4325
          ],
          [
            84.6826,
            14.3922
          ],
          [
            84.7473,
            14.3591
          ],
          [
            84.8053,
            14.329
          ],
          [
            84.8579,
            14.3013
          ],
          [
            84.916,
            14.268
          ],
          [
            84.9847,
            14.2296
          ],
          [
            85.0552,
            14.1902
          ],
          [
            85.10638120805369,
            14.161347651006713
          ],
          [
            85.15756241610738,
            14.132495302013425
          ],
          [
            85.20874362416107,
            14.103642953020135
          ],
          [
            85.25992483221476,
            14.074790604026846
          ],
          [
            85.3094,
            14.0469
          ],
          [
            85.3671,
            14.0143
          ],
          [
            85.4669,
            13.9579
          ],
          [
            85.5163309381622,
            13.928600443074552
          ],
          [
            85.5657618763244,
            13.899300886149105
          ],
          [
            85.6151928144866,
            13.870001329223657
          ],
          [
            85.66462375264881,
            13.840701772298209
          ],
          [
            85.71405469081101,
            13.81140221537276
          ],
          [
            85.76348562897321,
            13.782102658447313
          ],
          [
            85.81291656713542,
            13.752803101521865
          ],
          [
            85.86234750529762,
            13.723503544596417
          ],
          [
            85.91177844345982,
            13.694203987670969
          ],
          [
            85.96120938162204,
            13.664904430745521
          ],
          [
            86.01064031978424,
            13.635604873820073
          ],
          [
            86.06007125794645,
            13.606305316894625
          ],
          [
            86.10950219610865,
            13.577005759969177
          ],
          [
            86.15893313427085,
            13.54770620304373
          ],
          [
            86.20836407243306,
            13.518406646118281
          ],
          [
            86.25779501059526,
            13.489107089192833
          ],
          [
            86.30722594875746,
            13.459807532267385
          ],
          [
            86.35665688691967,
            13.43050797534194
          ],
          [
            86.40608782508187,
            13.401208418416491
          ],
          [
            86.45551876324407,
            13.371908861491043
          ],
          [
            86.50494970140628,
            13.342609304565595
          ],
          [
            86.55438063956848,
            13.313309747640147
          ],
          [
            86.60381157773068,
            13.2840101907147
          ],
          [
            86.65324251589288,
            13.254710633789252
          ],
          [
            86.70267345405509,
            13.225411076863804
          ],
          [
            86.75210439221729,
            13.196111519938356
          ],
          [
            86.8015353303795,
            13.166811963012908
          ],
          [
            86.8509662685417,
            13.13751240608746
          ],
          [
            86.9003972067039,
            13.108212849162012
          ],
          [
            86.94982814486612,
            13.078913292236564
          ],
          [
            86.99925908302832,
            13.049613735311116
          ],
          [
            87.04869002119052,
            13.020314178385668
          ],
          [
            87.09812095935273,
            12.99101462146022
          ],
          [
            87.14755189751493,
            12.961715064534772
          ],
          [
            87.19698283567713,
            12.932415507609324
          ],
          [
            87.24641377383934,
            12.903115950683876
          ],
          [
            87.29584471200154,
            12.873816393758428
          ],
          [
            87.34527565016374,
            12.84451683683298
          ],
          [
            87.39470658832595,
            12.815217279907532
          ],
          [
            87.44413752648815,
            12.785917722982084
          ],
          [
            87.49356846465035,
            12.756618166056636
          ],
          [
            87.54299940281255,
            12.727318609131189
          ],
          [
            87.59243034097476,
            12.69801905220574
          ],
          [
            87.64186127913696,
            12.668719495280293
          ],
          [
            87.69129221729916,
            12.639419938354845
          ],
          [
            87.74072315546137,
            12.610120381429397
          ],
          [
            87.79015409362357,
            12.580820824503949
          ],
          [
            87.83958503178577,
            12.5515212675785
          ],
          [
            87.88901596994798,
            12.522221710653053
          ],
          [
            87.9384469081102,
            12.492922153727605
          ],
          [
            87.9878778462724,
            12.463622596802157
          ],
          [
            88.0373087844346,
            12.434323039876709
          ],
          [
            88.0867397225968,
            12.405023482951261
          ],
          [
            88.136170660759,
            12.375723926025815
          ],
          [
            88.18560159892121,
            12.346424369100367
          ],
          [
            88.23503253708341,
            12.317124812174917
          ],
          [
            88.28446347524562,
            12.28782525524947
          ],
          [
            88.33389441340782,
            12.258525698324023
          ],
          [
            88.38332535157002,
            12.229226141398575
          ],
          [
            88.43275628973223,
            12.199926584473127
          ],
          [
            88.48218722789443,
            12.17062702754768
          ],
          [
            88.53161816605663,
            12.141327470622231
          ],
          [
            88.58104910421883,
            12.112027913696783
          ],
          [
            88.63048004238104,
            12.082728356771335
          ],
          [
            88.67991098054324,
            12.053428799845888
          ],
          [
            88.72934191870544,
            12.02412924292044
          ],
          [
            88.77877285686765,
            11.994829685994992
          ],
          [
            88.82820379502985,
            11.965530129069544
          ],
          [
            88.87763473319205,
            11.936230572144096
          ],
          [
            88.92706567135427,
            11.906931015218648
          ],
          [
            88.97649660951647,
            11.8776314582932
          ],
          [
            89.02592754767868,
            11.848331901367752
          ],
          [
            89.07535848584088,
            11.819032344442304
          ],
          [
            89.12478942400308,
            11.789732787516856
          ],
          [
            89.17422036216529,
            11.760433230591408
          ],
          [
            89.22365130032749,
            11.73113367366596
          ],
          [
            89.27308223848969,
            11.701834116740512
          ],
          [
            89.3225131766519,
            11.672534559815064
          ],
          [
            89.3719441148141,
            11.643235002889616
          ],
          [
            89.4213750529763,
            11.613935445964168
          ],
          [
            89.4708059911385,
            11.58463588903872
          ],
          [
            89.52023692930071,
            11.555336332113272
          ],
          [
            89.56966786746291,
            11.526036775187825
          ],
          [
            89.61909880562511,
            11.496737218262378
          ],
          [
            89.66852974378732,
            11.46743766133693
          ],
          [
            89.71796068194952,
            11.438138104411482
          ],
          [
            89.76739162011172,
            11.408838547486035
          ],
          [
            89.81682255827393,
            11.379538990560587
          ],
          [
            89.86625349643614,
            11.350239433635137
          ],
          [
            89.91568443459835,
            11.32093987670969
          ],
          [
            89.96511537276055,
            11.291640319784243
          ],
          [
            90.01454631092275,
            11.262340762858795
          ],
          [
            90.06397724908496,
            11.233041205933347
          ],
          [
            90.11340818724716,
            11.203741649007899
          ],
          [
            90.16283912540936,
            11.174442092082451
          ],
          [
            90.21227006357157,
            11.145142535157003
          ],
          [
            90.26170100173377,
            11.115842978231555
          ],
          [
            90.31113193989597,
            11.086543421306107
          ],
          [
            90.36056287805818,
            11.05724386438066
          ],
          [
            90.40999381622038,
            11.027944307455211
          ],
          [
            90.45942475438258,
            10.998644750529763
          ],
          [
            90.50885569254478,
            10.969345193604315
          ],
          [
            90.55828663070699,
            10.940045636678867
          ],
          [
            90.60771756886919,
            10.91074607975342
          ],
          [
            90.6571485070314,
            10.881446522827972
          ],
          [
            90.7065794451936,
            10.852146965902524
          ],
          [
            90.7560103833558,
            10.822847408977076
          ],
          [
            90.805441321518,
            10.793547852051628
          ],
          [
            90.8548722596802,
            10.76424829512618
          ],
          [
            90.90430319784242,
            10.734948738200732
          ],
          [
            90.95373413600463,
            10.705649181275284
          ],
          [
            91.00316507416683,
            10.676349624349836
          ],
          [
            91.05259601232903,
            10.647050067424388
          ],
          [
            91.10202695049124,
            10.61775051049894
          ],
          [
            91.15145788865344,
            10.588450953573492
          ],
          [
            91.20088882681564,
            10.559151396648044
          ],
          [
            91.25031976497785,
            10.529851839722596
          ],
          [
            91.29975070314005,
            10.500552282797148
          ],
          [
            91.34918164130225,
            10.4712527258717
          ],
          [
            91.39861257946446,
            10.441953168946252
          ],
          [
            91.44804351762666,
            10.412653612020804
          ],
          [
            91.49747445578886,
            10.383354055095356
          ],
          [
            91.54690539395106,
            10.354054498169909
          ],
          [
            91.59633633211327,
            10.32475494124446
          ],
          [
            91.64576727027547,
            10.295455384319013
          ],
          [
            91.69519820843767,
            10.266155827393565
          ],
          [
            91.74462914659988,
            10.236856270468119
          ],
          [
            91.7940600847621,
            10.207556713542669
          ],
          [
            91.8434910229243,
            10.178257156617223
          ],
          [
            91.8929219610865,
            10.148957599691775
          ],
          [
            91.9423528992487,
            10.119658042766327
          ],
          [
            91.9917838374109,
            10.090358485840879
          ],
          [
            92.04121477557311,
            10.061058928915429
          ],
          [
            92.09064571373531,
            10.031759371989983
          ],
          [
            92.14007665189752,
            10.002459815064535
          ],
          [
            92.18950759005972,
            9.973160258139087
          ],
          [
            92.23893852822192,
            9.943860701213639
          ],
          [
            92.28836946638413,
            9.914561144288191
          ],
          [
            92.33780040454633,
            9.885261587362743
          ],
          [
            92.38723134270853,
            9.855962030437295
          ],
          [
            92.43666228087073,
            9.826662473511847
          ],
          [
            92.48609321903294,
            9.7973629165864
          ],
          [
            92.53552415719514,
            9.768063359660951
          ],
          [
            92.58495509535734,
            9.738763802735503
          ],
          [
            92.63438603351955,
            9.709464245810056
          ],
          [
            92.68381697168175,
            9.680164688884608
          ],
          [
            92.73324790984395,
            9.65086513195916
          ],
          [
            92.78267884800616,
            9.621565575033712
          ],
          [
            92.83210978616836,
            9.592266018108266
          ],
          [
            92.88154072433058,
            9.562966461182816
          ],
          [
            92.93097166249278,
            9.53366690425737
          ],
          [
            92.98040260065498,
            9.50436734733192
          ],
          [
            93.02983353881719,
            9.475067790406474
          ],
          [
            93.07926447697939,
            9.445768233481026
          ],
          [
            93.12869541514159,
            9.416468676555576
          ],
          [
            93.1781263533038,
            9.38716911963013
          ],
          [
            93.227557291466,
            9.357869562704682
          ],
          [
            93.2769882296282,
            9.328570005779234
          ],
          [
            93.3264191677904,
            9.299270448853786
          ],
          [
            93.37585010595261,
            9.269970891928338
          ],
          [
            93.42528104411481,
            9.24067133500289
          ],
          [
            93.47471198227701,
            9.211371778077442
          ],
          [
            93.52414292043922,
            9.182072221151994
          ],
          [
            93.57357385860142,
            9.152772664226546
          ],
          [
            93.62300479676362,
            9.123473107301098
          ],
          [
            93.67243573492583,
            9.09417355037565
          ],
          [
            93.72186667308803,
            9.064873993450203
          ],
          [
            93.77129761125025,
            9.035574436524755
          ],
          [
            93.82072854941245,
            9.006274879599307
          ],
          [
            93.87015948757465,
            8.976975322673859
          ],
          [
            93.91959042573686,
            8.94767576574841
          ],
          [
            93.96902136389906,
            8.918376208822963
          ],
          [
            94.01845230206126,
            8.889076651897515
          ],
          [
            94.0201,
            8.8881
          ],
          [
            94.0809,
            8.8518
          ],
          [
            94.173,
            8.7974
          ],
          [
            94.2375,
            8.7589
          ],
          [
            94.3304,
            8.7041
          ],
          [
            94.3827,
            8.6731
          ],
          [
            94.4314,
            8.6441
          ],
          [
            94.4795,
            8.6156
          ],
          [
            94.5753,
            8.5586
          ],
          [
            94.6233,
            8.5299
          ],
          [
            94.7388,
            8.4612
          ],
          [
            94.7877,
            8.4321
          ],
          [
            94.8353,
            8.4039
          ],
          [
            94.9322,
            8.3461
          ],
          [
            95.0156,
            8.2965
          ],
          [
            95.0811,
            8.2666
          ],
          [
            95.1522,
            8.2567
          ],
          [
            95.2647,
            8.2474
          ],
          [
            95.3212,
            8.2418
          ],
          [
            95.434,
            8.2314
          ],
          [
            95.4988,
            8.2251
          ],
          [
            95.5572,
            8.2198
          ],
          [
            95.6123,
            8.2144
          ],
          [
            95.6691,
            8.2089
          ],
          [
            95.7252,
            8.2036
          ],
          [
            95.7821,
            8.1982
          ],
          [
            95.8375,
            8.1929
          ],
          [
            95.8929,
            8.1875
          ],
          [
            95.9518,
            8.1819
          ],
          [
            96.0077,
            8.1766
          ],
          [
            96.064,
            8.1711
          ],
          [
            96.1238,
            8.1653
          ],
          [
            96.1804,
            8.1597
          ],
          [
            96.2385,
            8.1541
          ],
          [
            96.2968,
            8.1487
          ],
          [
            96.3545,
            8.1429
          ],
          [
            96.4325,
            8.1352
          ],
          [
            96.5103,
            8.1277
          ],
          [
            96.5702,
            8.1217
          ],
          [
            96.6292,
            8.1162
          ],
          [
            96.6903,
            8.1101
          ],
          [
            96.7515,
            8.1041
          ],
          [
            96.8121,
            8.0979
          ],
          [
            96.8739,
            8.0921
          ],
          [
            96.9354,
            8.0859
          ],
          [
            96.9969,
            8.0798
          ],
          [
            97.0589,
            8.0738
          ],
          [
            97.1355,
            8.0662
          ],
          [
            97.198,
            8.0601
          ],
          [
            97.2586,
            8.0595
          ],
          [
            97.3158,
            8.0627
          ],
          [
            97.3716,
            8.0659
          ],
          [
            97.4251,
            8.0682
          ],
          [
            97.4789,
            8.0698
          ],
          [
            97.5321,
            8.0723
          ],
          [
            97.5987,
            8.0751
          ],
          [
            97.6501,
            8.0766
          ],
          [
            97.7019,
            8.0785
          ],
          [
            97.752,
            8.0804
          ],
          [
            97.8062,
            8.0823
          ],
          [
            97.8543,
            8.084
          ],
          [
            97.8865,
            8.0856
          ],
          [
            97.9163,
            8.0864
          ],
          [
            97.9582,
            8.0881
          ],
          [
            97.9966,
            8.0894
          ],
          [
            98.0324,
            8.0906
          ],
          [
            98.0664,
            8.0918
          ],
          [
            98.1043,
            8.0934
          ],
          [
            98.1319,
            8.096
          ],
          [
            98.1581,
            8.0984
          ],
          [
            98.1851,
            8.1009
          ],
          [
            98.2102,
            8.1031
          ],
          [
            98.2224,
            8.1042
          ],
          [
            98.2451,
            8.1065
          ],
          [
            98.2555,
            8.1073
          ],
          [
            98.2679,
            8.1088
          ],
          [
            98.278,
            8.1096
          ],
          [
            98.2886,
            8.1105
          ],
          [
            98.2989,
            8.1115
          ],
          [
            98.3081,
            8.1124
          ]
        ]
      },
      "properties": {
        "time_europe_berlin": [
          "24.11.2025 10:10:10",
          "24.11.2025 10:10:27",
          "24.11.2025 10:10:43",
          "24.11.2025 10:11:01",
          "24.11.2025 10:11:18",
          "24.11.2025 10:11:40",
          "24.11.2025 10:12:12",
          "24.11.2025 10:12:28",
          "24.11.2025 10:12:44",
          "24.11.2025 10:13:14",
          "24.11.2025 10:13:30",
          "24.11.2025 10:13:49",
          "24.11.2025 10:14:20",
          "24.11.2025 10:14:51",
          "24.11.2025 10:15:21",
          "24.11.2025 10:15:51",
          "24.11.2025 10:16:12",
          "24.11.2025 10:16:46",
          "24.11.2025 10:17:16",
          "24.11.2025 10:17:49",
          "24.11.2025 10:18:20",
          "24.11.2025 10:18:50",
          "24.11.2025 10:19:20",
          "24.11.2025 10:19:50",
          "24.11.2025 10:20:20",
          "24.11.2025 10:20:50",
          "24.11.2025 10:21:21",
          "24.11.2025 10:21:51",
          "24.11.2025 10:22:21",
          "24.11.2025 10:22:51",
          "24.11.2025 10:23:21",
          "24.11.2025 10:23:51",
          "24.11.2025 10:24:21",
          "24.11.2025 10:24:51",
          "24.11.2025 10:25:22",
          "24.11.2025 10:25:48",
          "24.11.2025 10:26:18",
          "24.11.2025 10:26:48",
          "24.11.2025 10:27:23",
          "24.11.2025 10:27:53",
          "24.11.2025 10:28:23",
          "24.11.2025 10:28:53",
          "24.11.2025 10:29:25",
          "24.11.2025 10:29:58",
          "24.11.2025 10:30:28",
          "24.11.2025 10:30:58",
          "24.11.2025 10:31:28",
          "24.11.2025 10:32:01",
          "24.11.2025 10:32:31",
          "24.11.2025 10:33:01",
          "24.11.2025 10:33:31",
          "24.11.2025 10:34:02",
          "24.11.2025 10:34:32",
          "24.11.2025 10:35:03",
          "24.11.2025 10:35:42",
          "24.11.2025 10:36:12",
          "24.11.2025 10:36:42",
          "24.11.2025 10:37:12",
          "24.11.2025 10:37:42",
          "24.11.2025 10:38:12",
          "24.11.2025 10:38:42",
          "24.11.2025 10:39:14",
          "24.11.2025 10:39:44",
          "24.11.2025 10:40:15",
          "24.11.2025 10:40:45",
          "24.11.2025 10:41:20",
          "24.11.2025 10:41:51",
          "24.11.2025 10:42:21",
          "24.11.2025 10:42:51",
          "24.11.2025 10:43:21",
          "24.11.2025 10:43:51",
          "24.11.2025 10:44:21",
          "24.11.2025 10:44:51",
          "24.11.2025 10:45:22",
          "24.11.2025 10:45:58",
          "24.11.2025 10:46:43",
          "24.11.2025 10:47:19",
          "24.11.2025 10:47:49",
          "24.11.2025 10:48:19",
          "24.11.2025 10:48:49",
          "24.11.2025 10:49:19",
          "24.11.2025 10:49:49",
          "24.11.2025 10:50:19",
          "24.11.2025 10:50:49",
          "24.11.2025 10:51:19",
          "24.11.2025 10:51:49",
          "24.11.2025 10:52:20",
          "24.11.2025 10:52:51",
          "24.11.2025 10:53:21",
          "24.11.2025 10:53:51",
          "24.11.2025 10:54:50",
          "24.11.2025 10:55:20",
          "24.11.2025 10:55:50",
          "24.11.2025 10:56:20",
          "24.11.2025 10:56:50",
          "24.11.2025 10:57:21",
          "24.11.2025 10:57:51",
          "24.11.2025 10:58:21",
          "24.11.2025 10:59:09",
          "24.11.2025 10:59:42",
          "24.11.2025 11:00:12",
          "24.11.2025 11:00:51",
          "24.11.2025 11:01:37",
          "24.11.2025 11:02:12",
          "24.11.2025 11:02:47",
          "24.11.2025 11:03:18",
          "24.11.2025 11:03:59",
          "24.11.2025 11:05:00",
          "24.11.2025 11:05:41",
          "24.11.2025 11:06:19",
          "24.11.2025 11:07:02",
          "24.11.2025 11:07:39",
          "24.11.2025 11:08:12",
          "24.11.2025 11:08:42",
          "24.11.2025 11:09:16",
          "24.11.2025 11:09:56",
          "24.11.2025 11:10:37",
          "24.11.2025 11:11:07",
          "24.11.2025 11:11:37",
          "24.11.2025 11:12:07",
          "24.11.2025 11:12:37",
          "24.11.2025 11:13:06",
          "24.11.2025 11:13:41",
          "24.11.2025 11:14:39",
          "24.11.2025 11:15:09",
          "24.11.2025 11:15:39",
          "24.11.2025 11:16:09",
          "24.11.2025 11:16:39",
          "24.11.2025 11:17:09",
          "24.11.2025 11:17:39",
          "24.11.2025 11:18:09",
          "24.11.2025 11:18:39",
          "24.11.2025 11:19:09",
          "24.11.2025 11:19:39",
          "24.11.2025 11:20:09",
          "24.11.2025 11:20:39",
          "24.11.2025 11:21:09",
          "24.11.2025 11:21:39",
          "24.11.2025 11:22:09",
          "24.11.2025 11:22:39",
          "24.11.2025 11:23:09",
          "24.11.2025 11:23:39",
          "24.11.2025 11:24:09",
          "24.11.2025 11:24:39",
          "24.11.2025 11:25:09",
          "24.11.2025 11:25:39",
          "24.11.2025 11:26:09",
          "24.11.2025 11:26:39",
          "24.11.2025 11:27:09",
          "24.11.2025 11:27:39",
          "24.11.2025 11:28:09",
          "24.11.2025 11:28:39",
          "24.11.2025 11:29:09",
          "24.11.2025 11:29:39",
          "24.11.2025 11:30:09",
          "24.11.2025 11:30:39",
          "24.11.2025 11:31:09",
          "24.11.2025 11:31:39",
          "24.11.2025 11:32:09",
          "24.11.2025 11:32:39",
          "24.11.2025 11:33:09",
          "24.11.2025 11:33:39",
          "24.11.2025 11:34:09",
          "24.11.2025 11:34:39",
          "24.11.2025 11:35:09",
          "24.11.2025 11:35:39",
          "24.11.2025 11:36:09",
          "24.11.2025 11:36:39",
          "24.11.2025 11:37:09",
          "24.11.2025 11:37:39",
          "24.11.2025 11:38:09",
          "24.11.2025 11:38:39",
          "24.11.2025 11:39:09",
          "24.11.2025 11:39:39",
          "24.11.2025 11:40:09",
          "24.11.2025 11:40:39",
          "24.11.2025 11:41:09",
          "24.11.2025 11:41:39",
          "24.11.2025 11:42:09",
          "24.11.2025 11:42:39",
          "24.11.2025 11:43:09",
          "24.11.2025 11:43:39",
          "24.11.2025 11:44:09",
          "24.11.2025 11:44:39",
          "24.11.2025 11:45:09",
          "24.11.2025 11:45:39",
          "24.11.2025 11:46:09",
          "24.11.2025 11:46:39",
          "24.11.2025 11:47:09",
          "24.11.2025 11:47:39",
          "24.11.2025 11:48:09",
          "24.11.2025 11:48:39",
          "24.11.2025 11:49:09",
          "24.11.2025 11:49:39",
          "24.11.2025 11:50:09",
          "24.11.2025 11:50:39",
          "24.11.2025 11:51:09",
          "24.11.2025 11:51:39",
          "24.11.2025 11:52:09",
          "24.11.2025 11:52:39",
          "24.11.2025 11:53:09",
          "24.11.2025 11:53:39",
          "24.11.2025 11:54:09",
          "24.11.2025 11:54:39",
          "24.11.2025 11:55:09",
          "24.11.2025 11:55:39",
          "24.11.2025 11:56:09",
          "24.11.2025 11:56:39",
          "24.11.2025 11:57:09",
          "24.11.2025 11:57:39",
          "24.11.2025 11:58:09",
          "24.11.2025 11:58:39",
          "24.11.2025 11:59:09",
          "24.11.2025 11:59:39",
          "24.11.2025 12:00:09",
          "24.11.2025 12:00:39",
          "24.11.2025 12:01:09",
          "24.11.2025 12:01:39",
          "24.11.2025 12:02:09",
          "24.11.2025 12:02:39",
          "24.11.2025 12:03:09",
          "24.11.2025 12:03:39",
          "24.11.2025 12:04:09",
          "24.11.2025 12:04:39",
          "24.11.2025 12:05:09",
          "24.11.2025 12:05:39",
          "24.11.2025 12:06:09",
          "24.11.2025 12:06:39",
          "24.11.2025 12:07:09",
          "24.11.2025 12:07:39",
          "24.11.2025 12:08:09",
          "24.11.2025 12:08:39",
          "24.11.2025 12:09:09",
          "24.11.2025 12:09:39",
          "24.11.2025 12:10:09",
          "24.11.2025 12:10:39",
          "24.11.2025 12:11:09",
          "24.11.2025 12:11:39",
          "24.11.2025 12:12:09",
          "24.11.2025 12:12:39",
          "24.11.2025 12:13:09",
          "24.11.2025 12:13:39",
          "24.11.2025 12:14:09",
          "24.11.2025 12:14:39",
          "24.11.2025 12:15:09",
          "24.11.2025 12:15:39",
          "24.11.2025 12:16:09",
          "24.11.2025 12:16:39",
          "24.11.2025 12:17:09",
          "24.11.2025 12:17:39",
          "24.11.2025 12:18:09",
          "24.11.2025 12:18:39",
          "24.11.2025 12:19:09",
          "24.11.2025 12:19:39",
          "24.11.2025 12:20:09",
          "24.11.2025 12:20:39",
          "24.11.2025 12:21:09",
          "24.11.2025 12:21:39",
          "24.11.2025 12:22:09",
          "24.11.2025 12:22:39",
          "24.11.2025 12:23:09",
          "24.11.2025 12:23:39",
          "24.11.2025 12:24:09",
          "24.11.2025 12:24:39",
          "24.11.2025 12:25:09",
          "24.11.2025 12:25:39",
          "24.11.2025 12:26:09",
          "24.11.2025 12:26:39",
          "24.11.2025 12:27:09",
          "24.11.2025 12:27:39",
          "24.11.2025 12:28:09",
          "24.11.2025 12:28:39",
          "24.11.2025 12:29:09",
          "24.11.2025 12:29:39",
          "24.11.2025 12:30:09",
          "24.11.2025 12:30:39",
          "24.11.2025 12:31:09",
          "24.11.2025 12:31:39",
          "24.11.2025 12:32:09",
          "24.11.2025 12:32:39",
          "24.11.2025 12:33:09",
          "24.11.2025 12:33:39",
          "24.11.2025 12:34:09",
          "24.11.2025 12:34:39",
          "24.11.2025 12:35:09",
          "24.11.2025 12:35:39",
          "24.11.2025 12:36:09",
          "24.11.2025 12:36:39",
          "24.11.2025 12:37:09",
          "24.11.2025 12:37:39",
          "24.11.2025 12:38:09",
          "24.11.2025 12:38:39",
          "24.11.2025 12:39:09",
          "24.11.2025 12:39:39",
          "24.11.2025 12:40:09",
          "24.11.2025 12:40:39",
          "24.11.2025 12:41:09",
          "24.11.2025 12:41:10",
          "24.11.2025 12:41:48",
          "24.11.2025 12:42:45",
          "24.11.2025 12:43:25",
          "24.11.2025 12:44:23",
          "24.11.2025 12:44:55",
          "24.11.2025 12:45:25",
          "24.11.2025 12:45:55",
          "24.11.2025 12:46:56",
          "24.11.2025 12:47:26",
          "24.11.2025 12:48:38",
          "24.11.2025 12:49:08",
          "24.11.2025 12:49:38",
          "24.11.2025 12:50:38",
          "24.11.2025 12:51:30",
          "24.11.2025 12:52:09",
          "24.11.2025 12:52:48",
          "24.11.2025 12:53:48",
          "24.11.2025 12:54:18",
          "24.11.2025 12:55:18",
          "24.11.2025 12:55:53",
          "24.11.2025 12:56:23",
          "24.11.2025 12:56:53",
          "24.11.2025 12:57:23",
          "24.11.2025 12:57:54",
          "24.11.2025 12:58:24",
          "24.11.2025 12:58:54",
          "24.11.2025 12:59:24",
          "24.11.2025 12:59:54",
          "24.11.2025 13:00:24",
          "24.11.2025 13:00:54",
          "24.11.2025 13:01:26",
          "24.11.2025 13:01:56",
          "24.11.2025 13:02:26",
          "24.11.2025 13:02:57",
          "24.11.2025 13:03:27",
          "24.11.2025 13:04:07",
          "24.11.2025 13:04:47",
          "24.11.2025 13:05:17",
          "24.11.2025 13:05:47",
          "24.11.2025 13:06:17",
          "24.11.2025 13:06:47",
          "24.11.2025 13:07:17",
          "24.11.2025 13:07:47",
          "24.11.2025 13:08:17",
          "24.11.2025 13:08:47",
          "24.11.2025 13:09:17",
          "24.11.2025 13:09:54",
          "24.11.2025 13:10:24",
          "24.11.2025 13:10:54",
          "24.11.2025 13:11:24",
          "24.11.2025 13:11:54",
          "24.11.2025 13:12:24",
          "24.11.2025 13:12:54",
          "24.11.2025 13:13:24",
          "24.11.2025 13:14:01",
          "24.11.2025 13:14:31",
          "24.11.2025 13:15:01",
          "24.11.2025 13:15:31",
          "24.11.2025 13:16:05",
          "24.11.2025 13:16:35",
          "24.11.2025 13:16:55",
          "24.11.2025 13:17:15",
          "24.11.2025 13:17:45",
          "24.11.2025 13:18:15",
          "24.11.2025 13:18:45",
          "24.11.2025 13:19:15",
          "24.11.2025 13:19:51",
          "24.11.2025 13:20:21",
          "24.11.2025 13:20:51",
          "24.11.2025 13:21:21",
          "24.11.2025 13:21:52",
          "24.11.2025 13:22:10",
          "24.11.2025 13:22:39",
          "24.11.2025 13:22:55",
          "24.11.2025 13:23:15",
          "24.11.2025 13:23:31",
          "24.11.2025 13:23:48",
          "24.11.2025 13:24:05",
          "24.11.2025 13:24:21"
        ],
        "course_deg_clockwise_from_north": [
          93,
          89,
          99,
          131,
          147,
          153,
          153,
          151,
          151,
          152,
          152,
          129,
          113,
          110,
          111,
          111,
          105,
          99,
          101,
          103,
          100,
          102,
          101,
          101,
          101,
          102,
          101,
          102,
          102,
          101,
          103,
          101,
          102,
          102,
          102,
          111,
          116,
          118,
          117,
          117,
          117,
          117,
          117,
          117,
          117,
          117,
          117,
          117,
          117,
          117,
          117,
          117,
          117,
          117,
          117,
          117,
          117,
          117,
          117,
          117,
          117,
          117,
          117,
          117,
          117,
          117,
          117,
          117,
          117,
          117,
          117,
          117,
          117,
          117,
          117,
          117,
          117,
          117,
          118,
          117,
          117,
          118,
          118,
          117,
          117,
          117,
          117,
          117,
          117,
          117,
          118,
          118,
          118,
          118,
          117,
          118,
          118,
          118,
          118,
          118,
          118,
          118,
          118,
          118,
          118,
          118,
          118,
          118,
          118,
          118,
          118,
          118,
          118,
          120,
          120,
          119,
          120,
          120,
          120,
          120,
          120,
          120,
          120,
          120,
          120,
          120,
          120,
          120,
          120,
          120,
          120,
          120,
          120,
          120,
          120,
          120,
          120,
          120,
          120,
          120,
          120,
          120,
          120,
          120,
          120,
          120,
          120,
          120,
          120,
          120,
          120,
          120,
          120,
          120,
          120,
          120,
          120,
          120,
          120,
          120,
          120,
          120,
          120,
          120,
          120,
          120,
          120,
          120,
          120,
          120,
          120,
          120,
          120,
          120,
          120,
          120,
          120,
          120,
          120,
          120,
          120,
          120,
          120,
          120,
          120,
          120,
          120,
          120,
          120,
          120,
          120,
          120,
          120,
          120,
          120,
          120,
          120,
          120,
          120,
          120,
          120,
          120,
          120,
          120,
          120,
          120,
          120,
          120,
          120,
          120,
          121,
          121,
          121,
          121,
          121,
          121,
          121,
          121,
          121,
          121,
          121,
          121,
          121,
          121,
          121,
          121,
          121,
          121,
          121,
          121,
          121,
          121,
          121,
          121,
          121,
          121,
          121,
          121,
          121,
          121,
          121,
          121,
          121,
          121,
          121,
          121,
          121,
          121,
          121,
          121,
          121,
          121,
          121,
          121,
          121,
          121,
          121,
          121,
          121,
          121,
          121,
          121,
          121,
          121,
          121,
          121,
          121,
          121,
          121,
          121,
          121,
          121,
          121,
          121,
          121,
          121,
          121,
          121,
          121,
          121,
          121,
          121,
          121,
          121,
          121,
          121,
          121,
          121,
          121,
          121,
          121,
          121,
          121,
          121,
          121,
          121,
          121,
          121,
          121,
          122,
          121,
          121,
          121,
          122,
          120,
          121,
          121,
          121,
          121,
          121,
          121,
          121,
          103,
          95,
          95,
          95,
          96,
          95,
          96,
          96,
          96,
          95,
          96,
          96,
          96,
          96,
          95,
          95,
          95,
          96,
          95,
          96,
          96,
          96,
          95,
          96,
          95,
          95,
          96,
          95,
          96,
          95,
          96,
          96,
          96,
          95,
          88,
          86,
          87,
          88,
          89,
          86,
          89,
          88,
          88,
          89,
          88,
          87,
          88,
          88,
          88,
          88,
          88,
          88,
          87,
          85,
          85,
          85,
          86,
          84,
          86,
          86,
          83,
          87,
          84,
          85,
          85
        ],
        "speed_kts": [
          158,
          165,
          165,
          179,
          206,
          239,
          287,
          306,
          322,
          345,
          359,
          366,
          377,
          381,
          390,
          401,
          409,
          418,
          425,
          432,
          436,
          440,
          443,
          445,
          447,
          450,
          457,
          467,
          477,
          486,
          492,
          497,
          500,
          501,
          501,
          497,
          490,
          485,
          482,
          479,
          475,
          470,
          464,
          460,
          457,
          454,
          450,
          448,
          445,
          442,
          441,
          441,
          443,
          451,
          455,
          454,
          451,
          450,
          448,
          448,
          448,
          452,
          453,
          450,
          444,
          437,
          433,
          430,
          426,
          422,
          418,
          412,
          408,
          406,
          408,
          410,
          412,
          413,
          414,
          416,
          418,
          420,
          420,
          420,
          422,
          422,
          423,
          424,
          424,
          425,
          425,
          425,
          426,
          428,
          429,
          429,
          429,
          429,
          426,
          425,
          422,
          423,
          423,
          423,
          425,
          425,
          425,
          426,
          425,
          421,
          420,
          419,
          419,
          418,
          416,
          416,
          414,
          414,
          414,
          414,
          414,
          414,
          412,
          411,
          411,
          411,
          411,
          411,
          411,
          411,
          411,
          411,
          411,
          410,
          410,
          410,
          410,
          410,
          410,
          410,
          410,
          410,
          410,
          410,
          410,
          410,
          410,
          410,
          410,
          410,
          410,
          410,
          409,
          409,
          409,
          409,
          409,
          409,
          409,
          409,
          409,
          409,
          409,
          409,
          409,
          409,
          409,
          409,
          409,
          409,
          409,
          409,
          408,
          408,
          408,
          408,
          408,
          408,
          408,
          408,
          408,
          408,
          408,
          408,
          408,
          408,
          408,
          408,
          408,
          408,
          408,
          407,
          407,
          407,
          407,
          407,
          407,
          407,
          407,
          407,
          407,
          407,
          407,
          407,
          407,
          407,
          407,
          407,
          407,
          407,
          406,
          406,
          406,
          406,
          406,
          406,
          406,
          406,
          406,
          406,
          406,
          406,
          406,
          406,
          406,
          406,
          406,
          406,
          406,
          405,
          405,
          405,
          405,
          405,
          405,
          405,
          405,
          405,
          405,
          405,
          405,
          405,
          405,
          405,
          405,
          405,
          405,
          405,
          404,
          404,
          404,
          404,
          404,
          404,
          404,
          404,
          404,
          404,
          404,
          404,
          404,
          404,
          404,
          404,
          404,
          404,
          404,
          404,
          403,
          403,
          403,
          403,
          403,
          403,
          403,
          403,
          403,
          403,
          403,
          403,
          403,
          403,
          403,
          403,
          403,
          403,
          403,
          402,
          402,
          402,
          402,
          402,
          402,
          402,
          402,
          402,
          402,
          402,
          402,
          401,
          401,
          401,
          400,
          401,
          401,
          400,
          400,
          399,
          399,
          400,
          401,
          401,
          402,
          404,
          404,
          404,
          404,
          404,
          404,
          404,
          403,
          403,
          403,
          404,
          404,
          404,
          405,
          405,
          407,
          412,
          415,
          413,
          416,
          420,
          423,
          426,
          432,
          435,
          439,
          438,
          438,
          442,
          447,
          450,
          449,
          443,
          427,
          399,
          394,
          380,
          375,
          385,
          380,
          369,
          361,
          354,
          346,
          341,
          337,
          318,
          288,
          260,
          240,
          241,
          206,
          190,
          191,
          190,
          156,
          158,
          159,
          141,
          135,
          135,
          133,
          131,
          120
        ],
        "speed_mph": [
          182.0,
          190.0,
          190.0,
          206.0,
          237.0,
          275.0,
          330.0,
          352.0,
          371.0,
          397.0,
          413.0,
          421.0,
          434.0,
          438.0,
          449.0,
          461.0,
          471.0,
          481.0,
          489.0,
          497.0,
          502.0,
          506.0,
          510.0,
          512.0,
          514.0,
          518.0,
          526.0,
          537.0,
          549.0,
          559.0,
          566.0,
          572.0,
          575.0,
          577.0,
          577.0,
          572.0,
          564.0,
          558.0,
          555.0,
          551.0,
          547.0,
          541.0,
          534.0,
          529.0,
          526.0,
          522.0,
          518.0,
          516.0,
          512.0,
          509.0,
          507.0,
          507.0,
          510.0,
          519.0,
          524.0,
          522.0,
          519.0,
          518.0,
          516.0,
          516.0,
          516.0,
          520.0,
          521.0,
          518.0,
          511.0,
          503.0,
          498.0,
          495.0,
          490.0,
          486.0,
          481.0,
          474.0,
          470.0,
          467.0,
          470.0,
          472.0,
          474.0,
          475.0,
          476.0,
          479.0,
          481.0,
          483.0,
          483.0,
          483.0,
          486.0,
          486.0,
          487.0,
          488.0,
          488.0,
          489.0,
          489.0,
          489.0,
          490.0,
          493.0,
          494.0,
          494.0,
          494.0,
          494.0,
          490.0,
          489.0,
          486.0,
          487.0,
          487.0,
          487.0,
          489.0,
          489.0,
          489.0,
          490.0,
          489.0,
          484.0,
          483.0,
          482.0,
          482.0,
          481.0,
          479.0,
          479.0,
          476.0,
          476.0,
          476.0,
          476.0,
          476.0,
          476.0,
          474.0,
          473.0,
          473.0,
          473.0,
          473.0,
          473.0,
          473.0,
          473.0,
          473.0,
          473.0,
          472.0,
          472.0,
          472.0,
          472.0,
          472.0,
          472.0,
          472.0,
          472.0,
          472.0,
          472.0,
          472.0,
          472.0,
          472.0,
          472.0,
          472.0,
          472.0,
          472.0,
          471.0,
          471.0,
          471.0,
          471.0,
          471.0,
          471.0,
          471.0,
          471.0,
          471.0,
          471.0,
          471.0,
          471.0,
          471.0,
          471.0,
          471.0,
          471.0,
          471.0,
          471.0,
          470.0,
          470.0,
          470.0,
          470.0,
          470.0,
          470.0,
          470.0,
          470.0,
          470.0,
          470.0,
          470.0,
          470.0,
          470.0,
          470.0,
          470.0,
          470.0,
          470.0,
          469.0,
          469.0,
          469.0,
          469.0,
          469.0,
          469.0,
          469.0,
          469.0,
          469.0,
          469.0,
          469.0,
          469.0,
          469.0,
          469.0,
          469.0,
          469.0,
          469.0,
          468.0,
          468.0,
          468.0,
          468.0,
          468.0,
          468.0,
          468.0,
          468.0,
          468.0,
          468.0,
          468.0,
          468.0,
          468.0,
          468.0,
          468.0,
          468.0,
          468.0,
          468.0,
          467.0,
          467.0,
          467.0,
          467.0,
          467.0,
          467.0,
          467.0,
          467.0,
          467.0,
          467.0,
          467.0,
          467.0,
          467.0,
          467.0,
          467.0,
          467.0,
          467.0,
          466.0,
          466.0,
          466.0,
          466.0,
          466.0,
          466.0,
          466.0,
          466.0,
          466.0,
          466.0,
          466.0,
          466.0,
          466.0,
          466.0,
          466.0,
          466.0,
          466.0,
          465.0,
          465.0,
          465.0,
          465.0,
          465.0,
          465.0,
          465.0,
          465.0,
          465.0,
          465.0,
          465.0,
          465.0,
          465.0,
          465.0,
          465.0,
          465.0,
          465.0,
          465.0,
          464.0,
          464.0,
          464.0,
          464.0,
          464.0,
          464.0,
          464.0,
          464.0,
          464.0,
          464.0,
          464.0,
          464.0,
          464.0,
          464.0,
          464.0,
          464.0,
          464.0,
          463.0,
          463.0,
          463.0,
          463.0,
          463.0,
          463.0,
          463.0,
          463.0,
          463.0,
          463.0,
          463.0,
          461.0,
          461.0,
          461.0,
          460.0,
          461.0,
          461.0,
          460.0,
          460.0,
          459.0,
          459.0,
          460.0,
          461.0,
          461.0,
          463.0,
          465.0,
          465.0,
          465.0,
          465.0,
          465.0,
          465.0,
          465.0,
          464.0,
          464.0,
          464.0,
          465.0,
          465.0,
          465.0,
          466.0,
          466.0,
          468.0,
          474.0,
          478.0,
          475.0,
          479.0,
          483.0,
          487.0,
          490.0,
          497.0,
          501.0,
          505.0,
          504.0,
          504.0,
          509.0,
          514.0,
          518.0,
          517.0,
          510.0,
          491.0,
          459.0,
          453.0,
          437.0,
          432.0,
          443.0,
          437.0,
          425.0,
          415.0,
          407.0,
          398.0,
          392.0,
          388.0,
          366.0,
          331.0,
          299.0,
          276.0,
          277.0,
          237.0,
          219.0,
          220.0,
          219.0,
          180.0,
          182.0,
          183.0,
          162.0,
          155.0,
          155.0,
          153.0,
          151.0,
          138.0
        ],
        "altitude_ft": [
          2425,
          3200,
          4000,
          4675,
          5075,
          5650,
          6500,
          6925,
          7400,
          8275,
          8775,
          9425,
          10600,
          12075,
          13450,
          14700,
          15625,
          16975,
          18275,
          19550,
          20750,
          21850,
          22975,
          24050,
          25125,
          26050,
          26825,
          27425,
          27925,
          28425,
          28900,
          29400,
          29900,
          30400,
          30975,
          31425,
          32075,
          32725,
          33450,
          34050,
          34625,
          35250,
          35950,
          36575,
          37175,
          37750,
          38325,
          38900,
          39400,
          39875,
          40325,
          40700,
          40975,
          41000,
          41000,
          41000,
          41000,
          41000,
          41000,
          41000,
          41000,
          41050,
          41250,
          41525,
          41875,
          42400,
          42775,
          43125,
          43450,
          43775,
          44125,
          44450,
          44775,
          45000,
          45000,
          45000,
          45000,
          45000,
          45000,
          45000,
          45000,
          45000,
          45000,
          45000,
          45000,
          45000,
          45000,
          45000,
          45000,
          45000,
          45000,
          45000,
          45000,
          45000,
          45000,
          45000,
          45000,
          45000,
          45000,
          45000,
          45000,
          45000,
          45000,
          45000,
          45000,
          45000,
          45000,
          45000,
          45000,
          45000,
          45000,
          45000,
          45000,
          45000,
          45000,
          45000,
          45000,
          45000,
          45000,
          45000,
          45000,
          45000,
          45000,
          45000,
          45000,
          45000,
          45000,
          45000,
          45000,
          45000,
          45000,
          45000,
          45000,
          45000,
          45000,
          45000,
          45000,
          45000,
          45000,
          45000,
          45000,
          45000,
          45000,
          45000,
          45000,
          45000,
          45000,
          45000,
          45000,
          45000,
          45000,
          45000,
          45000,
          45000,
          45000,
          45000,
          45000,
          45000,
          45000,
          45000,
          45000,
          45000,
          45000,
          45000,
          45000,
          45000,
          45000,
          45000,
          45000,
          45000,
          45000,
          45000,
          45000,
          45000,
          45000,
          45000,
          45000,
          45000,
          45000,
          45000,
          45000,
          45000,
          45000,
          45000,
          45000,
          45000,
          45000,
          45000,
          45000,
          45000,
          45000,
          45000,
          45000,
          45000,
          45000,
          45000,
          45000,
          45000,
          45000,
          45000,
          45000,
          45000,
          45000,
          45000,
          45000,
          45000,
          45000,
          45000,
          45000,
          45000,
          45000,
          45000,
          45000,
          45000,
          45000,
          45000,
          45000,
          45000,
          45000,
          45000,
          45000,
          45000,
          45000,
          45000,
          45000,
          45000,
          45000,
          45000,
          45000,
          45000,
          45000,
          45000,
          45000,
          45000,
          45000,
          45000,
          45000,
          45000,
          45000,
          45000,
          45000,
          45000,
          45000,
          45000,
          45000,
          45000,
          45000,
          45000,
          45000,
          45000,
          45000,
          45000,
          45000,
          45000,
          45000,
          45000,
          45000,
          45000,
          45000,
          45000,
          45000,
          45000,
          45000,
          45000,
          45000,
          45000,
          45000,
          45000,
          45000,
          45000,
          45000,
          45000,
          45000,
          45000,
          45000,
          45000,
          45000,
          45000,
          45000,
          45000,
          45000,
          45000,
          45000,
          45000,
          45000,
          45000,
          45000,
          45000,
          45000,
          45000,
          45000,
          45000,
          45000,
          45000,
          45000,
          45000,
          45000,
          45000,
          45000,
          45000,
          45000,
          45000,
          45000,
          45000,
          45000,
          45000,
          45000,
          45000,
          45000,
          45000,
          45000,
          45000,
          45000,
          45000,
          45000,
          45000,
          45000,
          45000,
          45000,
          45000,
          45000,
          45000,
          45000,
          45000,
          45000,
          45000,
          45000,
          45000,
          44975,
          44475,
          43450,
          42175,
          40925,
          39225,
          37550,
          36250,
          35000,
          33725,
          32400,
          31100,
          29775,
          28425,
          27125,
          25825,
          24200,
          22875,
          21575,
          20275,
          19000,
          17750,
          16450,
          15275,
          13825,
          12675,
          11475,
          10300,
          9075,
          8025,
          7275,
          6575,
          5525,
          4700,
          4000,
          3400,
          3100,
          2625,
          2200,
          1825,
          1800,
          1725,
          1275,
          1075,
          850,
          700,
          450,
          275,
          125
        ],
        "vertical_rate_fpm": [
          0.0,
          2864.0,
          2603.0,
          1843.0,
          1500.0,
          1583.0,
          1594.0,
          1688.0,
          1761.0,
          1793.0,
          1971.0,
          2190.0,
          2565.0,
          2803.0,
          2625.0,
          2559.0,
          2482.0,
          2484.0,
          2452.0,
          2320.0,
          2262.0,
          2225.0,
          2200.0,
          2150.0,
          2000.0,
          1672.0,
          1352.0,
          1100.0,
          1000.0,
          975.0,
          975.0,
          1000.0,
          1000.0,
          1057.0,
          1079.0,
          1179.0,
          1300.0,
          1269.0,
          1223.0,
          1175.0,
          1200.0,
          1282.0,
          1223.0,
          1167.0,
          1175.0,
          1150.0,
          1095.0,
          1024.0,
          975.0,
          925.0,
          811.0,
          639.0,
          295.0,
          21.0,
          0.0,
          0.0,
          0.0,
          0.0,
          0.0,
          0.0,
          48.0,
          242.0,
          467.0,
          615.0,
          808.0,
          818.0,
          713.0,
          675.0,
          650.0,
          675.0,
          675.0,
          650.0,
          541.0,
          201.0,
          0.0,
          0.0,
          0.0,
          0.0,
          0.0,
          0.0,
          0.0,
          0.0,
          0.0,
          0.0,
          0.0,
          0.0,
          0.0,
          0.0,
          0.0,
          0.0,
          0.0,
          0.0,
          0.0,
          0.0,
          0.0,
          0.0,
          0.0,
          0.0,
          0.0,
          0.0,
          0.0,
          0.0,
          0.0,
          0.0,
          0.0,
          0.0,
          0.0,
          0.0,
          0.0,
          0.0,
          0.0,
          0.0,
          0.0,
          0.0,
          0.0,
          0.0,
          0.0,
          0.0,
          0.0,
          0.0,
          0.0,
          0.0,
          0.0,
          0.0,
          0.0,
          0.0,
          0.0,
          0.0,
          0.0,
          0.0,
          0.0,
          0.0,
          0.0,
          0.0,
          0.0,
          0.0,
          0.0,
          0.0,
          0.0,
          0.0,
          0.0,
          0.0,
          0.0,
          0.0,
          0.0,
          0.0,
          0.0,
          0.0,
          0.0,
          0.0,
          0.0,
          0.0,
          0.0,
          0.0,
          0.0,
          0.0,
          0.0,
          0.0,
          0.0,
          0.0,
          0.0,
          0.0,
          0.0,
          0.0,
          0.0,
          0.0,
          0.0,
          0.0,
          0.0,
          0.0,
          0.0,
          0.0,
          0.0,
          0.0,
          0.0,
          0.0,
          0.0,
          0.0,
          0.0,
          0.0,
          0.0,
          0.0,
          0.0,
          0.0,
          0.0,
          0.0,
          0.0,
          0.0,
          0.0,
          0.0,
          0.0,
          0.0,
          0.0,
          0.0,
          0.0,
          0.0,
          0.0,
          0.0,
          0.0,
          0.0,
          0.0,
          0.0,
          0.0,
          0.0,
          0.0,
          0.0,
          0.0,
          0.0,
          0.0,
          0.0,
          0.0,
          0.0,
          0.0,
          0.0,
          0.0,
          0.0,
          0.0,
          0.0,
          0.0,
          0.0,
          0.0,
          0.0,
          0.0,
          0.0,
          0.0,
          0.0,
          0.0,
          0.0,
          0.0,
          0.0,
          0.0,
          0.0,
          0.0,
          0.0,
          0.0,
          0.0,
          0.0,
          0.0,
          0.0,
          0.0,
          0.0,
          0.0,
          0.0,
          0.0,
          0.0,
          0.0,
          0.0,
          0.0,
          0.0,
          0.0,
          0.0,
          0.0,
          0.0,
          0.0,
          0.0,
          0.0,
          0.0,
          0.0,
          0.0,
          0.0,
          0.0,
          0.0,
          0.0,
          0.0,
          0.0,
          0.0,
          0.0,
          0.0,
          0.0,
          0.0,
          0.0,
          0.0,
          0.0,
          0.0,
          0.0,
          0.0,
          0.0,
          0.0,
          0.0,
          0.0,
          0.0,
          0.0,
          0.0,
          0.0,
          0.0,
          0.0,
          0.0,
          0.0,
          0.0,
          0.0,
          0.0,
          0.0,
          0.0,
          0.0,
          0.0,
          0.0,
          0.0,
          0.0,
          0.0,
          0.0,
          0.0,
          0.0,
          0.0,
          0.0,
          0.0,
          0.0,
          0.0,
          0.0,
          0.0,
          0.0,
          0.0,
          0.0,
          0.0,
          0.0,
          0.0,
          0.0,
          0.0,
          0.0,
          0.0,
          0.0,
          0.0,
          0.0,
          0.0,
          0.0,
          0.0,
          0.0,
          0.0,
          -24.0,
          -508.0,
          -1525.0,
          -2262.0,
          -2484.0,
          -2529.0,
          -2531.0,
          -2550.0,
          -2550.0,
          -2525.0,
          -2600.0,
          -2625.0,
          -2625.0,
          -2675.0,
          -2650.0,
          -2600.0,
          -2619.0,
          -2642.0,
          -2625.0,
          -2600.0,
          -2575.0,
          -2525.0,
          -2550.0,
          -2475.0,
          -2351.0,
          -2328.0,
          -2350.0,
          -2375.0,
          -2250.0,
          -2133.0,
          -2160.0,
          -2175.0,
          -2100.0,
          -1875.0,
          -1525.0,
          -1300.0,
          -818.0,
          -705.0,
          -900.0,
          -800.0,
          -393.0,
          -122.0,
          -670.0,
          -867.0,
          -708.0,
          -625.0,
          -727.0,
          -750.0,
          -591.0,
          -563.0
        ]
      }
    }
  ]
}