{
  "type": "FeatureCollection",
  "features": [
    {
      "type": "Feature",
      "geometry": {
        "type": "LineString",
        "coordinates": [
          [
            7.1461,
            50.8531
          ],
          [
            7.1581,
            50.8443
          ],
          [
            7.1694,
            50.836
          ],
          [
            7.1864,
            50.8273
          ],
          [
            7.2044,
            50.8194
          ],
          [
            7.2264,
            50.8135
          ],
          [
            7.2588,
            50.8103
          ],
          [
            7.2824,
            50.809
          ],
          [
            7.32,
            50.8078
          ],
          [
            7.3463,
            50.8126
          ],
          [
            7.3852,
            50.8284
          ],
          [
            7.4253,
            50.8461
          ],
          [
            7.4555,
            50.858
          ],
          [
            7.4855,
            50.8693
          ],
          [
            7.5268,
            50.8853
          ],
          [
            7.5767,
            50.9047
          ],
          [
            7.625,
            50.9229
          ],
          [
            7.6714,
            50.9406
          ],
          [
            7.7157,
            50.9577
          ],
          [
            7.7729,
            50.9793
          ],
          [
            7.8232,
            50.9983
          ],
          [
            7.8612,
            51.0127
          ],
          [
            7.8998,
            51.0273
          ],
          [
            7.9393,
            51.0423
          ],
          [
            7.9716,
            51.0545
          ],
          [
            8.0177,
            51.0717
          ],
          [
            8.0695,
            51.0912
          ],
          [
            8.1016,
            51.1031
          ],
          [
            8.1347,
            51.1156
          ],
          [
            8.2097,
            51.1435
          ],
          [
            8.2607,
            51.1625
          ],
          [
            8.3132,
            51.182
          ],
          [
            8.3626,
            51.2003
          ],
          [
            8.3927,
            51.2115
          ],
          [
            8.4252,
            51.2234
          ],
          [
            8.4733,
            51.2412
          ],
          [
            8.5117,
            51.2554
          ],
          [
            8.581,
            51.2809
          ],
          [
            8.6289,
            51.2985
          ],
          [
            8.6818,
            51.3178
          ],
          [
            8.7309,
            51.3358
          ],
          [
            8.7793,
            51.3537
          ],
          [
            8.8274,
            51.371
          ],
          [
            8.8518,
            51.38
          ],
          [
            8.8716,
            51.391
          ],
          [
            8.9008,
            51.4101
          ],
          [
            8.9391,
            51.4361
          ],
          [
            8.9771,
            51.4614
          ],
          [
            8.9996,
            51.4762
          ],
          [
            9.0239,
            51.4826
          ],
          [
            9.0456,
            51.4781
          ],
          [
            9.0679,
            51.4688
          ],
          [
            9.1002,
            51.4543
          ],
          [
            9.1297,
            51.4412
          ],
          [
            9.1481,
            51.4362
          ],
          [
            9.1736,
            51.4332
          ],
          [
            9.1929,
            51.4318
          ],
          [
            9.2296,
            51.4297
          ],
          [
            9.2636,
            51.4278
          ],
          [
            9.2981,
            51.4259
          ],
          [
            9.3313,
            51.4241
          ],
          [
            9.3489,
            51.4231
          ],
          [
            9.3729,
            51.4217
          ],
          [
            9.401,
            51.4199
          ],
          [
            9.4221,
            51.4189
          ],
          [
            9.4383,
            51.4263
          ],
          [
            9.4405,
            51.4381
          ],
          [
            9.4272,
            51.4485
          ],
          [
            9.3941,
            51.4509
          ],
          [
            9.3652,
            51.4544
          ],
          [
            9.3331,
            51.4586
          ],
          [
            9.3167,
            51.455
          ],
          [
            9.3116,
            51.4444
          ],
          [
            9.3155,
            51.4335
          ],
          [
            9.3288,
            51.4248
          ],
          [
            9.3493,
            51.4231
          ]
        ]
      },
      "properties": {
        "time_europe_berlin": [
          "01.10.2025 11:19:29",
          "01.10.2025 11:19:45",
          "01.10.2025 11:20:01",
          "01.10.2025 11:20:17",
          "01.10.2025 11:20:33",
          "01.10.2025 11:20:49",
          "01.10.2025 11:21:10",
          "01.10.2025 11:21:26",
          "01.10.2025 11:21:50",
          "01.10.2025 11:22:08",
          "01.10.2025 11:22:36",
          "01.10.2025 11:23:06",
          "01.10.2025 11:23:25",
          "01.10.2025 11:23:45",
          "01.10.2025 11:24:10",
          "01.10.2025 11:24:40",
          "01.10.2025 11:25:10",
          "01.10.2025 11:25:40",
          "01.10.2025 11:26:07",
          "01.10.2025 11:26:45",
          "01.10.2025 11:27:21",
          "01.10.2025 11:27:52",
          "01.10.2025 11:28:24",
          "01.10.2025 11:28:54",
          "01.10.2025 11:29:18",
          "01.10.2025 11:29:49",
          "01.10.2025 11:30:23",
          "01.10.2025 11:30:44",
          "01.10.2025 11:31:05",
          "01.10.2025 11:31:50",
          "01.10.2025 11:32:21",
          "01.10.2025 11:32:51",
          "01.10.2025 11:33:21",
          "01.10.2025 11:33:39",
          "01.10.2025 11:33:59",
          "01.10.2025 11:34:29",
          "01.10.2025 11:34:51",
          "01.10.2025 11:35:35",
          "01.10.2025 11:36:05",
          "01.10.2025 11:36:38",
          "01.10.2025 11:37:08",
          "01.10.2025 11:37:38",
          "01.10.2025 11:38:08",
          "01.10.2025 11:38:25",
          "01.10.2025 11:38:41",
          "01.10.2025 11:39:05",
          "01.10.2025 11:39:35",
          "01.10.2025 11:40:05",
          "01.10.2025 11:40:24",
          "01.10.2025 11:40:41",
          "01.10.2025 11:40:57",
          "01.10.2025 11:41:18",
          "01.10.2025 11:41:48",
          "01.10.2025 11:42:15",
          "01.10.2025 11:42:32",
          "01.10.2025 11:42:52",
          "01.10.2025 11:43:08",
          "01.10.2025 11:43:38",
          "01.10.2025 11:44:08",
          "01.10.2025 11:44:38",
          "01.10.2025 11:45:08",
          "01.10.2025 11:45:24",
          "01.10.2025 11:45:46",
          "01.10.2025 11:46:10",
          "01.10.2025 11:46:27",
          "01.10.2025 11:46:44",
          "01.10.2025 11:47:00",
          "01.10.2025 11:47:18",
          "01.10.2025 11:47:44",
          "01.10.2025 11:48:08",
          "01.10.2025 11:48:34",
          "01.10.2025 11:48:51",
          "01.10.2025 11:49:09",
          "01.10.2025 11:49:26",
          "01.10.2025 11:49:45",
          "01.10.2025 11:50:08"
        ],
        "course_deg_clockwise_from_north": [
          "138",
          "139",
          "137",
          "126",
          "125",
          "103",
          "97",
          "94",
          "89",
          "64",
          "56",
          "56",
          "59",
          "59",
          "58",
          "59",
          "59",
          "59",
          "59",
          "59",
          "59",
          "59",
          "59",
          "59",
          "59",
          "59",
          "59",
          "59",
          "59",
          "59",
          "59",
          "60",
          "59",
          "60",
          "60",
          "59",
          "60",
          "60",
          "60",
          "60",
          "60",
          "60",
          "60",
          "56",
          "45",
          "43",
          "43",
          "43",
          "46",
          "88",
          "121",
          "125",
          "126",
          "123",
          "105",
          "98",
          "96",
          "95",
          "95",
          "95",
          "95",
          "95",
          "97",
          "95",
          "90",
          "26",
          "353",
          "294",
          "273",
          "283",
          "278",
          "225",
          "172",
          "157",
          "120",
          "92"
        ],
        "speed_kts": [
          "151",
          "150",
          "164",
          "189",
          "203",
          "206",
          "207",
          "211",
          "214",
          "222",
          "228",
          "235",
          "241",
          "252",
          "261",
          "269",
          "258",
          "255",
          "251",
          "230",
          "210",
          "195",
          "192",
          "209",
          "224",
          "237",
          "248",
          "253",
          "257",
          "264",
          "266",
          "268",
          "263",
          "260",
          "257",
          "255",
          "254",
          "254",
          "252",
          "250",
          "255",
          "252",
          "237",
          "232",
          "231",
          "245",
          "256",
          "242",
          "226",
          "202",
          "187",
          "177",
          "175",
          "175",
          "173",
          "172",
          "171",
          "156",
          "153",
          "154",
          "155",
          "154",
          "146",
          "164",
          "166",
          "163",
          "170",
          "169",
          "179",
          "168",
          "158",
          "145",
          "133",
          "138",
          "132",
          "123"
        ],
        "speed_mph": [
          "174",
          "173",
          "189",
          "217",
          "234",
          "237",
          "238",
          "243",
          "246",
          "255",
          "262",
          "270",
          "277",
          "290",
          "300",
          "310",
          "297",
          "293",
          "289",
          "265",
          "242",
          "224",
          "221",
          "241",
          "258",
          "273",
          "285",
          "291",
          "296",
          "304",
          "306",
          "308",
          "303",
          "299",
          "296",
          "293",
          "292",
          "292",
          "290",
          "288",
          "293",
          "290",
          "273",
          "267",
          "266",
          "282",
          "295",
          "278",
          "260",
          "232",
          "215",
          "204",
          "201",
          "201",
          "199",
          "198",
          "197",
          "180",
          "176",
          "177",
          "178",
          "177",
          "168",
          "189",
          "191",
          "188",
          "196",
          "194",
          "206",
          "193",
          "182",
          "167",
          "153",
          "159",
          "152",
          "142"
        ],
        "altitude_ft": [
          "800",
          "1825",
          "2550",
          "3100",
          "3725",
          "4425",
          "5475",
          "6225",
          "7450",
          "8225",
          "8900",
          "9000",
          "9050",
          "9375",
          "9825",
          "10325",
          "10800",
          "11000",
          "11000",
          "11000",
          "11000",
          "11000",
          "11000",
          "11000",
          "11000",
          "11000",
          "11000",
          "11000",
          "11000",
          "11000",
          "11000",
          "11000",
          "11000",
          "11000",
          "11000",
          "11000",
          "11000",
          "11000",
          "11000",
          "11000",
          "10675",
          "9350",
          "8075",
          "7375",
          "6750",
          "5775",
          "4550",
          "3350",
          "3075",
          "3025",
          "3000",
          "3000",
          "3000",
          "3000",
          "3025",
          "2950",
          "2725",
          "2250",
          "1825",
          "1375",
          "975",
          "750",
          "725",
          "1125",
          "1175",
          "1175",
          "1000",
          "1175",
          "1325",
          "1500",
          "1175",
          "1125",
          "1000",
          "1075",
          "1050",
          "750"
        ],
        "vertical_rate_fpm": [
          "",
          "3281",
          "2391",
          "2203",
          "2484",
          "2838",
          "2919",
          "2963",
          "2857",
          "1891",
          "802",
          "184",
          "577",
          "1033",
          "1036",
          "975",
          "675",
          "211",
          "",
          "",
          "",
          "",
          "",
          "",
          "",
          "",
          "",
          "",
          "",
          "",
          "",
          "",
          "",
          "",
          "",
          "",
          "",
          "",
          "",
          "-310",
          "-1650",
          "-2600",
          "-2521",
          "-2409",
          "-2400",
          "-2444",
          "-2425",
          "-1806",
          "-542",
          "-136",
          "-41",
          "",
          "",
          "34",
          "-81",
          "-500",
          "-913",
          "-900",
          "-875",
          "-850",
          "-815",
          "-395",
          "489",
          "659",
          "88",
          "-318",
          "",
          "443",
          "390",
          "-180",
          "-523",
          "-300",
          "-86",
          "83",
          "-464",
          "-783"
        ],
        "reporting_facility": [
          "FlightAware ADS-B(CGN / EDDK)",
          "FlightAware ADS-B(EDKN)",
          "FlightAware ADS-B(EDKL)",
          "FlightAware ADS-B(EDKI)",
          "FlightAware ADS-B(CGN / EDDK)",
          "FlightAware ADS-B(AAH / EDKA)",
          "FlightAware ADS-B(EDGQ)",
          "FlightAware ADS-B(CGN / EDDK)",
          "FlightAware ADS-B(EDKB)",
          "FlightAware ADS-B(EDEP)",
          "FlightAware ADS-B(AAH / EDKA)",
          "FlightAware ADS-B(CGN / EDDK)",
          "FlightAware ADS-B(CGN / EDDK)",
          "FlightAware ADS-B(CGN / EDDK)",
          "FlightAware ADS-B(DUS / EDDL)",
          "FlightAware ADS-B(GKE / ETNG)",
          "FlightAware ADS-B(CGN / EDDK)",
          "FlightAware ADS-B(ESS / EDLE)",
          "FlightAware ADS-B(EDGQ)",
          "FlightAware ADS-B(FMO / EDDG)",
          "FlightAware ADS-B(AAH / EDKA)",
          "FlightAware ADS-B(EDVG)",
          "FlightAware ADS-B(DUS / EDDL)",
          "FlightAware ADS-B(FRZ / ETHF)",
          "FlightAware ADS-B(EHDL)",
          "FlightAware ADS-B(EHDL)",
          "FlightAware ADS-B(EDFV)",
          "FlightAware ADS-B(EDLT)",
          "FlightAware ADS-B(CGN / EDDK)",
          "FlightAware ADS-B(DTM / EDLW)",
          "FlightAware ADS-B(DTM / EDLW)",
          "FlightAware ADS-B(DTM / EDLW)",
          "FlightAware ADS-B(ESS / EDLE)",
          "FlightAware ADS-B(GKE / ETNG)",
          "FlightAware ADS-B(EDRF)",
          "FlightAware ADS-B(EDKB)",
          "FlightAware ADS-B(FMO / EDDG)",
          "FlightAware ADS-B(FMO / EDDG)",
          "FlightAware ADS-B(FMO / EDDG)",
          "FlightAware ADS-B(EDFN)",
          "FlightAware ADS-B(KSF / EDVK)",
          "FlightAware ADS-B(FMO / EDDG)",
          "FlightAware ADS-B(FMO / EDDG)",
          "FlightAware ADS-B(PAD / EDLP)",
          "FlightAware ADS-B(FRZ / ETHF)",
          "FlightAware ADS-B(FMO / EDDG)",
          "FlightAware ADS-B(EDCO)",
          "FlightAware ADS-B(EDVG)",
          "FlightAware ADS-B(KSF / EDVK)",
          "FlightAware ADS-B(KSF / EDVK)",
          "FlightAware ADS-B(KSF / EDVK)",
          "FlightAware ADS-B(PAD / EDLP)",
          "FlightAware ADS-B(EDGQ)",
          "FlightAware ADS-B(ERF / EDDE)",
          "FlightAware ADS-B(KSF / EDVK)",
          "FlightAware ADS-B(KSF / EDVK)",
          "FlightAware ADS-B(EDVL)",
          "FlightAware ADS-B(KSF / EDVK)",
          "FlightAware ADS-B(EDVL)",
          "FlightAware ADS-B(KSF / EDVK)",
          "FlightAware ADS-B(KSF / EDVK)",
          "FlightAware ADS-B(KSF / EDVK)",
          "FlightAware ADS-B(EDGQ)",
          "FlightAware ADS-B(EDVG)",
          "FlightAware ADS-B(KSF / EDVK)",
          "FlightAware ADS-B(KSF / EDVK)",
          "FlightAware ADS-B(KSF / EDVK)",
          "FlightAware ADS-B(EDVL)",
          "FlightAware ADS-B(KSF / EDVK)",
          "FlightAware ADS-B(EDVG)",
          "FlightAware ADS-B(EDVG)",
          "FlightAware ADS-B(KSF / EDVK)",
          "FlightAware ADS-B(EDVG)",
          "FlightAware ADS-B(EDVG)",
          "FlightAware ADS-B(EDVG)",
          "FlightAware ADS-B(KSF / EDVK)"
        ]
      }
    }
  ]
}