{
  "type": "FeatureCollection",
  "features": [
    {
      "type": "Feature",
      "geometry": {
        "type": "LineString",
        "coordinates": [
          [
            7.1358,
            50.8606
          ],
          [
            7.1485,
            50.8518
          ],
          [
            7.163,
            50.8424
          ],
          [
            7.1798,
            50.8324
          ],
          [
            7.1982,
            50.8219
          ],
          [
            7.219,
            50.8109
          ],
          [
            7.2398,
            50.8003
          ],
          [
            7.2598,
            50.785
          ],
          [
            7.2595,
            50.7697
          ],
          [
            7.2407,
            50.7577
          ],
          [
            7.2179,
            50.7513
          ],
          [
            7.1954,
            50.7471
          ],
          [
            7.1619,
            50.7475
          ],
          [
            7.1082,
            50.7375
          ],
          [
            7.0734,
            50.7291
          ],
          [
            7.0091,
            50.7137
          ],
          [
            6.9411,
            50.698
          ],
          [
            6.8849,
            50.685
          ],
          [
            6.8117,
            50.6672
          ],
          [
            6.7451,
            50.6506
          ],
          [
            6.6707,
            50.6308
          ],
          [
            6.596,
            50.61
          ],
          [
            6.5234,
            50.5892
          ],
          [
            6.4849,
            50.5781
          ],
          [
            6.4376,
            50.5623
          ],
          [
            6.394,
            50.543
          ],
          [
            6.3514,
            50.5229
          ],
          [
            6.2805,
            50.4894
          ],
          [
            6.24,
            50.4705
          ],
          [
            6.2005,
            50.4515
          ],
          [
            6.1687,
            50.4328
          ],
          [
            6.139,
            50.4102
          ],
          [
            6.107,
            50.3756
          ],
          [
            6.0653,
            50.3215
          ],
          [
            6.0271,
            50.2662
          ],
          [
            6.0149,
            50.2291
          ],
          [
            6.0235,
            50.1867
          ],
          [
            6.0382,
            50.1474
          ],
          [
            6.0688,
            50.0829
          ],
          [
            6.1077,
            50.0143
          ],
          [
            6.1476,
            49.9498
          ],
          [
            6.1875,
            49.8845
          ],
          [
            6.227,
            49.8183
          ],
          [
            6.263,
            49.7585
          ],
          [
            6.3023,
            49.6925
          ],
          [
            6.3312,
            49.6436
          ],
          [
            6.3459,
            49.6045
          ],
          [
            6.3508,
            49.5686
          ],
          [
            6.3486,
            49.4802
          ],
          [
            6.3465,
            49.4416
          ],
          [
            6.3442,
            49.3763
          ],
          [
            6.3421,
            49.3237
          ],
          [
            6.3391,
            49.2616
          ],
          [
            6.3354,
            49.1843
          ],
          [
            6.3323,
            49.1151
          ],
          [
            6.3294,
            49.0519
          ],
          [
            6.3265,
            48.9894
          ],
          [
            6.3226,
            48.9066
          ],
          [
            6.3195,
            48.8416
          ],
          [
            6.3165,
            48.7742
          ],
          [
            6.3132,
            48.7107
          ],
          [
            6.3092,
            48.6167
          ],
          [
            6.3041,
            48.5095
          ],
          [
            6.3009,
            48.4442
          ],
          [
            6.2955,
            48.3236
          ],
          [
            6.2925,
            48.2587
          ],
          [
            6.2903,
            48.2058
          ],
          [
            6.2872,
            48.1399
          ],
          [
            6.284,
            48.0732
          ],
          [
            6.2811,
            48.0093
          ],
          [
            6.2782,
            47.9447
          ],
          [
            6.2763,
            47.9014
          ],
          [
            6.2733,
            47.8348
          ],
          [
            6.2705,
            47.7703
          ],
          [
            6.2683,
            47.7197
          ],
          [
            6.2652,
            47.6552
          ],
          [
            6.2622,
            47.5876
          ],
          [
            6.2599,
            47.5465
          ],
          [
            6.2452,
            47.4547
          ],
          [
            6.2354,
            47.3898
          ],
          [
            6.2266,
            47.327
          ],
          [
            6.2167,
            47.2598
          ],
          [
            6.2073,
            47.1959
          ],
          [
            6.2006,
            47.1508
          ],
          [
            6.1874,
            47.0606
          ],
          [
            6.1776,
            46.9941
          ],
          [
            6.1683,
            46.9295
          ],
          [
            6.1602,
            46.8754
          ],
          [
            6.1507,
            46.8107
          ],
          [
            6.1414,
            46.7466
          ],
          [
            6.1365,
            46.7122
          ],
          [
            6.1267,
            46.6466
          ],
          [
            6.1174,
            46.5809
          ],
          [
            6.1041,
            46.4898
          ],
          [
            6.095,
            46.4257
          ],
          [
            6.0861,
            46.3649
          ],
          [
            6.0726,
            46.2708
          ],
          [
            6.0636,
            46.2072
          ],
          [
            6.0543,
            46.1426
          ],
          [
            6.0448,
            46.0758
          ],
          [
            6.0392,
            46.0418
          ],
          [
            6.0193,
            45.9926
          ],
          [
            5.9709,
            45.9048
          ],
          [
            5.9386,
            45.8433
          ],
          [
            5.9077,
            45.7846
          ],
          [
            5.8776,
            45.7275
          ],
          [
            5.8451,
            45.6657
          ],
          [
            5.8145,
            45.6079
          ],
          [
            5.7841,
            45.5499
          ],
          [
            5.7529,
            45.4905
          ],
          [
            5.7226,
            45.4322
          ],
          [
            5.692,
            45.3738
          ],
          [
            5.6614,
            45.3151
          ],
          [
            5.6313,
            45.2573
          ],
          [
            5.6013,
            45.199
          ],
          [
            5.5716,
            45.1418
          ],
          [
            5.5407,
            45.0824
          ],
          [
            5.5115,
            45.0251
          ],
          [
            5.4814,
            44.9667
          ],
          [
            5.4524,
            44.9103
          ],
          [
            5.4239,
            44.8548
          ],
          [
            5.3955,
            44.7989
          ],
          [
            5.3664,
            44.742
          ],
          [
            5.3382,
            44.6864
          ],
          [
            5.3093,
            44.6301
          ],
          [
            5.2803,
            44.5725
          ],
          [
            5.253,
            44.5185
          ],
          [
            5.2243,
            44.4616
          ],
          [
            5.1949,
            44.4034
          ],
          [
            5.1672,
            44.348
          ],
          [
            5.138,
            44.29
          ],
          [
            5.109,
            44.2317
          ],
          [
            5.08,
            44.1742
          ],
          [
            5.0517,
            44.1172
          ],
          [
            5.0225,
            44.0578
          ],
          [
            4.9934,
            43.9999
          ],
          [
            4.9649,
            43.9421
          ],
          [
            4.9366,
            43.885
          ],
          [
            4.9079,
            43.8267
          ],
          [
            4.8797,
            43.7696
          ],
          [
            4.8512,
            43.7112
          ],
          [
            4.8233,
            43.6547
          ],
          [
            4.7957,
            43.5983
          ],
          [
            4.7668,
            43.5391
          ],
          [
            4.7385,
            43.4808
          ],
          [
            4.7105,
            43.4232
          ],
          [
            4.6819,
            43.3643
          ],
          [
            4.6537,
            43.3065
          ],
          [
            4.6258,
            43.2484
          ],
          [
            4.5963,
            43.1874
          ],
          [
            4.5672,
            43.1264
          ],
          [
            4.54,
            43.0704
          ],
          [
            4.5117,
            43.0112
          ],
          [
            4.4835,
            42.9521
          ],
          [
            4.4546,
            42.8918
          ],
          [
            4.4266,
            42.8329
          ],
          [
            4.3986,
            42.7738
          ],
          [
            4.3716,
            42.717
          ],
          [
            4.3428,
            42.6565
          ],
          [
            4.3117,
            42.59
          ],
          [
            4.2846,
            42.5331
          ],
          [
            4.2537,
            42.4671
          ],
          [
            4.2252,
            42.407
          ],
          [
            4.1978,
            42.3493
          ],
          [
            4.1701,
            42.2898
          ],
          [
            4.1433,
            42.2312
          ],
          [
            4.1224,
            42.1868
          ],
          [
            4.1015,
            42.1534
          ],
          [
            4.0773,
            42.1116
          ],
          [
            4.0379,
            42.0186
          ],
          [
            4.0151,
            41.9606
          ],
          [
            3.9888,
            41.8968
          ],
          [
            3.9643,
            41.8383
          ],
          [
            3.9405,
            41.7805
          ],
          [
            3.9153,
            41.7196
          ],
          [
            3.8894,
            41.6572
          ],
          [
            3.8645,
            41.5975
          ],
          [
            3.8392,
            41.5365
          ],
          [
            3.8144,
            41.4764
          ],
          [
            3.7893,
            41.416
          ],
          [
            3.7628,
            41.3519
          ],
          [
            3.7378,
            41.2907
          ],
          [
            3.7128,
            41.2291
          ],
          [
            3.6879,
            41.1694
          ],
          [
            3.6651,
            41.1135
          ],
          [
            3.6406,
            41.0532
          ],
          [
            3.616,
            40.9933
          ],
          [
            3.5922,
            40.9345
          ],
          [
            3.5683,
            40.8757
          ],
          [
            3.5448,
            40.8182
          ],
          [
            3.5209,
            40.7584
          ],
          [
            3.496,
            40.6974
          ],
          [
            3.4714,
            40.636
          ],
          [
            3.4487,
            40.5796
          ],
          [
            3.4248,
            40.5203
          ],
          [
            3.4042,
            40.4685
          ],
          [
            3.3952,
            40.4256
          ],
          [
            3.3938,
            40.3597
          ],
          [
            3.3978,
            40.2948
          ],
          [
            3.4037,
            40.2309
          ],
          [
            3.4084,
            40.1705
          ],
          [
            3.4119,
            40.1065
          ],
          [
            3.4151,
            40.0479
          ],
          [
            3.4181,
            39.9984
          ],
          [
            3.421,
            39.9513
          ],
          [
            3.4224,
            39.9037
          ],
          [
            3.4253,
            39.856
          ],
          [
            3.428,
            39.8113
          ],
          [
            3.4244,
            39.7834
          ],
          [
            3.4026,
            39.7618
          ],
          [
            3.3773,
            39.7505
          ],
          [
            3.322,
            39.7383
          ],
          [
            3.2727,
            39.7324
          ],
          [
            3.228,
            39.7266
          ],
          [
            3.1855,
            39.7206
          ],
          [
            3.1414,
            39.7154
          ],
          [
            3.1188,
            39.7126
          ],
          [
            3.0915,
            39.7088
          ],
          [
            3.0658,
            39.6986
          ],
          [
            3.0336,
            39.683
          ],
          [
            3.001,
            39.6679
          ],
          [
            2.9692,
            39.6531
          ],
          [
            2.9385,
            39.6386
          ],
          [
            2.9096,
            39.6251
          ],
          [
            2.8809,
            39.6116
          ],
          [
            2.8551,
            39.5994
          ],
          [
            2.8323,
            39.5887
          ],
          [
            2.8214,
            39.5835
          ],
          [
            2.8114,
            39.5789
          ],
          [
            2.8014,
            39.5742
          ],
          [
            2.791,
            39.5693
          ],
          [
            2.7806,
            39.5644
          ],
          [
            2.7707,
            39.5596
          ],
          [
            2.7606,
            39.5549
          ]
        ]
      },
      "properties": {
        "time_europe_berlin": [
          "28.10.2025 09:07:40",
          "28.10.2025 09:07:56",
          "28.10.2025 09:08:12",
          "28.10.2025 09:08:28",
          "28.10.2025 09:08:44",
          "28.10.2025 09:09:00",
          "28.10.2025 09:09:16",
          "28.10.2025 09:09:33",
          "28.10.2025 09:09:49",
          "28.10.2025 09:10:08",
          "28.10.2025 09:10:26",
          "28.10.2025 09:10:43",
          "28.10.2025 09:11:03",
          "28.10.2025 09:11:34",
          "28.10.2025 09:11:52",
          "28.10.2025 09:12:22",
          "28.10.2025 09:12:52",
          "28.10.2025 09:13:15",
          "28.10.2025 09:13:45",
          "28.10.2025 09:14:12",
          "28.10.2025 09:14:42",
          "28.10.2025 09:15:12",
          "28.10.2025 09:15:42",
          "28.10.2025 09:15:58",
          "28.10.2025 09:16:19",
          "28.10.2025 09:16:42",
          "28.10.2025 09:16:58",
          "28.10.2025 09:17:31",
          "28.10.2025 09:17:49",
          "28.10.2025 09:18:05",
          "28.10.2025 09:18:21",
          "28.10.2025 09:18:37",
          "28.10.2025 09:18:56",
          "28.10.2025 09:19:26",
          "28.10.2025 09:19:56",
          "28.10.2025 09:20:13",
          "28.10.2025 09:20:33",
          "28.10.2025 09:20:50",
          "28.10.2025 09:21:20",
          "28.10.2025 09:21:50",
          "28.10.2025 09:22:20",
          "28.10.2025 09:22:50",
          "28.10.2025 09:23:20",
          "28.10.2025 09:23:50",
          "28.10.2025 09:24:20",
          "28.10.2025 09:24:42",
          "28.10.2025 09:25:00",
          "28.10.2025 09:25:18",
          "28.10.2025 09:25:58",
          "28.10.2025 09:26:16",
          "28.10.2025 09:26:46",
          "28.10.2025 09:27:09",
          "28.10.2025 09:27:39",
          "28.10.2025 09:28:16",
          "28.10.2025 09:28:46",
          "28.10.2025 09:29:16",
          "28.10.2025 09:29:45",
          "28.10.2025 09:30:23",
          "28.10.2025 09:30:53",
          "28.10.2025 09:31:23",
          "28.10.2025 09:31:53",
          "28.10.2025 09:32:37",
          "28.10.2025 09:33:27",
          "28.10.2025 09:33:57",
          "28.10.2025 09:34:53",
          "28.10.2025 09:35:23",
          "28.10.2025 09:35:48",
          "28.10.2025 09:36:18",
          "28.10.2025 09:36:48",
          "28.10.2025 09:37:18",
          "28.10.2025 09:37:48",
          "28.10.2025 09:38:08",
          "28.10.2025 09:38:38",
          "28.10.2025 09:39:08",
          "28.10.2025 09:39:32",
          "28.10.2025 09:40:02",
          "28.10.2025 09:40:32",
          "28.10.2025 09:40:51",
          "28.10.2025 09:41:35",
          "28.10.2025 09:42:05",
          "28.10.2025 09:42:35",
          "28.10.2025 09:43:05",
          "28.10.2025 09:43:35",
          "28.10.2025 09:43:56",
          "28.10.2025 09:44:37",
          "28.10.2025 09:45:08",
          "28.10.2025 09:45:38",
          "28.10.2025 09:46:03",
          "28.10.2025 09:46:33",
          "28.10.2025 09:47:03",
          "28.10.2025 09:47:20",
          "28.10.2025 09:47:50",
          "28.10.2025 09:48:20",
          "28.10.2025 09:49:04",
          "28.10.2025 09:49:34",
          "28.10.2025 09:50:04",
          "28.10.2025 09:50:47",
          "28.10.2025 09:51:17",
          "28.10.2025 09:51:47",
          "28.10.2025 09:52:17",
          "28.10.2025 09:52:34",
          "28.10.2025 09:52:59",
          "28.10.2025 09:53:45",
          "28.10.2025 09:54:17",
          "28.10.2025 09:54:47",
          "28.10.2025 09:55:17",
          "28.10.2025 09:55:48",
          "28.10.2025 09:56:18",
          "28.10.2025 09:56:48",
          "28.10.2025 09:57:18",
          "28.10.2025 09:57:48",
          "28.10.2025 09:58:18",
          "28.10.2025 09:58:48",
          "28.10.2025 09:59:18",
          "28.10.2025 09:59:48",
          "28.10.2025 10:00:18",
          "28.10.2025 10:00:49",
          "28.10.2025 10:01:19",
          "28.10.2025 10:01:50",
          "28.10.2025 10:02:20",
          "28.10.2025 10:02:50",
          "28.10.2025 10:03:20",
          "28.10.2025 10:03:50",
          "28.10.2025 10:04:20",
          "28.10.2025 10:04:50",
          "28.10.2025 10:05:20",
          "28.10.2025 10:05:50",
          "28.10.2025 10:06:20",
          "28.10.2025 10:06:50",
          "28.10.2025 10:07:20",
          "28.10.2025 10:07:50",
          "28.10.2025 10:08:20",
          "28.10.2025 10:08:51",
          "28.10.2025 10:09:21",
          "28.10.2025 10:09:52",
          "28.10.2025 10:10:22",
          "28.10.2025 10:10:52",
          "28.10.2025 10:11:22",
          "28.10.2025 10:11:52",
          "28.10.2025 10:12:22",
          "28.10.2025 10:12:52",
          "28.10.2025 10:13:22",
          "28.10.2025 10:13:52",
          "28.10.2025 10:14:22",
          "28.10.2025 10:14:52",
          "28.10.2025 10:15:22",
          "28.10.2025 10:15:52",
          "28.10.2025 10:16:22",
          "28.10.2025 10:16:52",
          "28.10.2025 10:17:23",
          "28.10.2025 10:17:53",
          "28.10.2025 10:18:23",
          "28.10.2025 10:18:53",
          "28.10.2025 10:19:23",
          "28.10.2025 10:19:54",
          "28.10.2025 10:20:24",
          "28.10.2025 10:20:54",
          "28.10.2025 10:21:24",
          "28.10.2025 10:21:54",
          "28.10.2025 10:22:27",
          "28.10.2025 10:22:57",
          "28.10.2025 10:23:31",
          "28.10.2025 10:24:02",
          "28.10.2025 10:24:32",
          "28.10.2025 10:25:02",
          "28.10.2025 10:25:32",
          "28.10.2025 10:25:55",
          "28.10.2025 10:26:13",
          "28.10.2025 10:26:34",
          "28.10.2025 10:27:20",
          "28.10.2025 10:27:50",
          "28.10.2025 10:28:21",
          "28.10.2025 10:28:51",
          "28.10.2025 10:29:21",
          "28.10.2025 10:29:52",
          "28.10.2025 10:30:22",
          "28.10.2025 10:30:53",
          "28.10.2025 10:31:23",
          "28.10.2025 10:31:53",
          "28.10.2025 10:32:24",
          "28.10.2025 10:32:56",
          "28.10.2025 10:33:27",
          "28.10.2025 10:33:57",
          "28.10.2025 10:34:27",
          "28.10.2025 10:34:57",
          "28.10.2025 10:35:28",
          "28.10.2025 10:35:58",
          "28.10.2025 10:36:28",
          "28.10.2025 10:36:58",
          "28.10.2025 10:37:28",
          "28.10.2025 10:37:58",
          "28.10.2025 10:38:28",
          "28.10.2025 10:38:58",
          "28.10.2025 10:39:28",
          "28.10.2025 10:39:58",
          "28.10.2025 10:40:24",
          "28.10.2025 10:40:43",
          "28.10.2025 10:41:14",
          "28.10.2025 10:41:44",
          "28.10.2025 10:42:14",
          "28.10.2025 10:42:44",
          "28.10.2025 10:43:14",
          "28.10.2025 10:43:44",
          "28.10.2025 10:44:14",
          "28.10.2025 10:44:44",
          "28.10.2025 10:45:14",
          "28.10.2025 10:45:44",
          "28.10.2025 10:46:14",
          "28.10.2025 10:46:32",
          "28.10.2025 10:46:50",
          "28.10.2025 10:47:08",
          "28.10.2025 10:47:39",
          "28.10.2025 10:48:09",
          "28.10.2025 10:48:40",
          "28.10.2025 10:49:10",
          "28.10.2025 10:49:41",
          "28.10.2025 10:49:57",
          "28.10.2025 10:50:17",
          "28.10.2025 10:50:37",
          "28.10.2025 10:51:08",
          "28.10.2025 10:51:38",
          "28.10.2025 10:52:08",
          "28.10.2025 10:52:38",
          "28.10.2025 10:53:08",
          "28.10.2025 10:53:38",
          "28.10.2025 10:54:08",
          "28.10.2025 10:54:39",
          "28.10.2025 10:54:55",
          "28.10.2025 10:55:11",
          "28.10.2025 10:55:28",
          "28.10.2025 10:55:44",
          "28.10.2025 10:56:00",
          "28.10.2025 10:56:16",
          "28.10.2025 10:56:32"
        ],
        "course_deg_clockwise_from_north": [
          "138",
          "137",
          "135",
          "133",
          "131",
          "129",
          "128",
          "160",
          "205",
          "239",
          "251",
          "260",
          "271",
          "250",
          "249",
          "250",
          "250",
          "250",
          "249",
          "248",
          "247",
          "246",
          "246",
          "245",
          "238",
          "235",
          "233",
          "234",
          "234",
          "231",
          "225",
          "215",
          "207",
          "205",
          "202",
          "182",
          "167",
          "165",
          "161",
          "159",
          "158",
          "159",
          "159",
          "159",
          "159",
          "160",
          "171",
          "178",
          "182",
          "182",
          "181",
          "182",
          "182",
          "183",
          "182",
          "182",
          "182",
          "182",
          "182",
          "182",
          "182",
          "182",
          "182",
          "182",
          "182",
          "182",
          "183",
          "182",
          "182",
          "182",
          "182",
          "182",
          "182",
          "182",
          "182",
          "182",
          "182",
          "184",
          "187",
          "186",
          "186",
          "186",
          "186",
          "186",
          "186",
          "186",
          "186",
          "186",
          "186",
          "186",
          "186",
          "186",
          "186",
          "186",
          "186",
          "186",
          "186",
          "186",
          "186",
          "186",
          "189",
          "199",
          "201",
          "200",
          "200",
          "200",
          "200",
          "201",
          "200",
          "201",
          "200",
          "200",
          "200",
          "200",
          "200",
          "200",
          "200",
          "200",
          "200",
          "200",
          "200",
          "200",
          "200",
          "200",
          "200",
          "200",
          "200",
          "200",
          "200",
          "200",
          "200",
          "199",
          "200",
          "200",
          "200",
          "200",
          "200",
          "199",
          "200",
          "199",
          "200",
          "200",
          "199",
          "200",
          "199",
          "200",
          "199",
          "200",
          "199",
          "200",
          "199",
          "199",
          "199",
          "200",
          "200",
          "199",
          "199",
          "199",
          "199",
          "199",
          "199",
          "199",
          "199",
          "199",
          "199",
          "199",
          "201",
          "207",
          "200",
          "196",
          "196",
          "197",
          "198",
          "197",
          "198",
          "197",
          "197",
          "198",
          "197",
          "197",
          "197",
          "197",
          "197",
          "197",
          "197",
          "197",
          "197",
          "197",
          "197",
          "197",
          "197",
          "197",
          "197",
          "197",
          "197",
          "195",
          "185",
          "178",
          "176",
          "176",
          "177",
          "178",
          "178",
          "177",
          "179",
          "178",
          "177",
          "178",
          "201",
          "232",
          "245",
          "259",
          "262",
          "259",
          "261",
          "261",
          "261",
          "255",
          "238",
          "239",
          "239",
          "238",
          "239",
          "238",
          "239",
          "238",
          "238",
          "239",
          "239",
          "239",
          "237",
          "239",
          "240",
          "238"
        ],
        "speed_kts": [
          "148",
          "167",
          "180",
          "206",
          "230",
          "239",
          "247",
          "233",
          "197",
          "184",
          "198",
          "207",
          "229",
          "272",
          "295",
          "325",
          "346",
          "356",
          "366",
          "369",
          "371",
          "368",
          "362",
          "359",
          "364",
          "368",
          "372",
          "385",
          "391",
          "398",
          "408",
          "423",
          "436",
          "440",
          "446",
          "479",
          "502",
          "505",
          "507",
          "506",
          "503",
          "500",
          "498",
          "496",
          "493",
          "492",
          "479",
          "474",
          "470",
          "469",
          "468",
          "467",
          "467",
          "469",
          "468",
          "469",
          "471",
          "472",
          "473",
          "469",
          "468",
          "466",
          "466",
          "465",
          "468",
          "469",
          "470",
          "469",
          "468",
          "468",
          "469",
          "469",
          "469",
          "469",
          "468",
          "468",
          "469",
          "467",
          "466",
          "468",
          "469",
          "470",
          "471",
          "471",
          "473",
          "472",
          "472",
          "470",
          "467",
          "463",
          "461",
          "460",
          "461",
          "461",
          "462",
          "463",
          "463",
          "464",
          "465",
          "465",
          "460",
          "446",
          "442",
          "444",
          "447",
          "449",
          "452",
          "451",
          "451",
          "451",
          "450",
          "449",
          "448",
          "446",
          "444",
          "441",
          "437",
          "437",
          "434",
          "433",
          "432",
          "431",
          "430",
          "430",
          "429",
          "431",
          "432",
          "434",
          "435",
          "437",
          "440",
          "442",
          "439",
          "439",
          "439",
          "439",
          "440",
          "440",
          "440",
          "441",
          "441",
          "443",
          "442",
          "443",
          "443",
          "444",
          "446",
          "447",
          "448",
          "448",
          "449",
          "449",
          "449",
          "448",
          "449",
          "449",
          "449",
          "449",
          "448",
          "448",
          "447",
          "447",
          "447",
          "448",
          "449",
          "450",
          "449",
          "446",
          "449",
          "451",
          "451",
          "451",
          "452",
          "450",
          "450",
          "451",
          "451",
          "451",
          "451",
          "449",
          "447",
          "447",
          "445",
          "446",
          "445",
          "447",
          "444",
          "444",
          "443",
          "451",
          "449",
          "448",
          "449",
          "450",
          "450",
          "451",
          "461",
          "470",
          "471",
          "459",
          "449",
          "442",
          "392",
          "342",
          "339",
          "338",
          "337",
          "332",
          "318",
          "305",
          "300",
          "288",
          "264",
          "244",
          "239",
          "240",
          "239",
          "233",
          "226",
          "207",
          "208",
          "202",
          "195",
          "186",
          "181",
          "153",
          "132",
          "123",
          "122",
          "122",
          "123",
          "124",
          "124",
          "124"
        ],
        "speed_mph": [
          "170",
          "192",
          "207",
          "237",
          "265",
          "275",
          "284",
          "268",
          "227",
          "212",
          "228",
          "238",
          "264",
          "313",
          "339",
          "374",
          "398",
          "410",
          "421",
          "425",
          "427",
          "423",
          "417",
          "413",
          "419",
          "423",
          "428",
          "443",
          "450",
          "458",
          "470",
          "487",
          "502",
          "506",
          "513",
          "551",
          "578",
          "581",
          "583",
          "582",
          "579",
          "575",
          "573",
          "571",
          "567",
          "566",
          "551",
          "545",
          "541",
          "540",
          "539",
          "537",
          "537",
          "540",
          "539",
          "540",
          "542",
          "543",
          "544",
          "540",
          "539",
          "536",
          "536",
          "535",
          "539",
          "540",
          "541",
          "540",
          "539",
          "539",
          "540",
          "540",
          "540",
          "540",
          "539",
          "539",
          "540",
          "537",
          "536",
          "539",
          "540",
          "541",
          "542",
          "542",
          "544",
          "543",
          "543",
          "541",
          "537",
          "533",
          "531",
          "529",
          "531",
          "531",
          "532",
          "533",
          "533",
          "534",
          "535",
          "535",
          "529",
          "513",
          "509",
          "511",
          "514",
          "517",
          "520",
          "519",
          "519",
          "519",
          "518",
          "517",
          "516",
          "513",
          "511",
          "507",
          "503",
          "503",
          "499",
          "498",
          "497",
          "496",
          "495",
          "495",
          "494",
          "496",
          "497",
          "499",
          "501",
          "503",
          "506",
          "509",
          "505",
          "505",
          "505",
          "505",
          "506",
          "506",
          "506",
          "507",
          "507",
          "510",
          "509",
          "510",
          "510",
          "511",
          "513",
          "514",
          "516",
          "516",
          "517",
          "517",
          "517",
          "516",
          "517",
          "517",
          "517",
          "517",
          "516",
          "516",
          "514",
          "514",
          "514",
          "516",
          "517",
          "518",
          "517",
          "513",
          "517",
          "519",
          "519",
          "519",
          "520",
          "518",
          "518",
          "519",
          "519",
          "519",
          "519",
          "517",
          "514",
          "514",
          "512",
          "513",
          "512",
          "514",
          "511",
          "511",
          "510",
          "519",
          "517",
          "516",
          "517",
          "518",
          "518",
          "519",
          "531",
          "541",
          "542",
          "528",
          "517",
          "509",
          "451",
          "394",
          "390",
          "389",
          "388",
          "382",
          "366",
          "351",
          "345",
          "331",
          "304",
          "281",
          "275",
          "276",
          "275",
          "268",
          "260",
          "238",
          "239",
          "232",
          "224",
          "214",
          "208",
          "176",
          "152",
          "142",
          "140",
          "140",
          "142",
          "143",
          "143",
          "143"
        ],
        "altitude_ft": [
          "625",
          "1325",
          "2075",
          "2725",
          "3250",
          "4050",
          "4925",
          "5825",
          "6800",
          "8075",
          "8875",
          "9850",
          "10900",
          "12450",
          "13375",
          "14925",
          "16700",
          "18050",
          "19875",
          "21350",
          "23100",
          "24850",
          "26600",
          "27500",
          "28525",
          "29525",
          "30225",
          "30925",
          "31250",
          "31650",
          "32075",
          "32450",
          "32975",
          "33725",
          "34475",
          "34925",
          "35425",
          "35850",
          "36650",
          "37425",
          "38175",
          "38800",
          "39350",
          "39850",
          "40375",
          "40675",
          "40925",
          "41000",
          "41000",
          "41000",
          "41000",
          "41000",
          "41000",
          "41000",
          "41000",
          "41000",
          "41000",
          "41000",
          "41000",
          "41000",
          "41000",
          "41000",
          "41000",
          "41000",
          "41000",
          "41000",
          "41000",
          "41000",
          "41000",
          "41000",
          "41000",
          "41000",
          "41000",
          "41000",
          "41000",
          "41000",
          "41000",
          "41000",
          "41000",
          "41000",
          "41000",
          "41000",
          "41000",
          "41000",
          "41000",
          "41000",
          "41000",
          "41000",
          "41000",
          "41000",
          "41000",
          "41000",
          "41000",
          "41000",
          "41000",
          "41000",
          "41000",
          "41000",
          "41000",
          "41000",
          "41000",
          "41000",
          "41000",
          "41000",
          "41000",
          "41000",
          "41000",
          "41000",
          "41000",
          "41000",
          "41000",
          "41000",
          "41000",
          "41000",
          "41000",
          "41000",
          "41000",
          "41000",
          "41000",
          "41000",
          "41000",
          "41000",
          "41000",
          "41000",
          "41000",
          "41000",
          "41000",
          "41000",
          "41000",
          "41000",
          "41000",
          "41000",
          "41000",
          "41000",
          "41000",
          "41000",
          "41000",
          "41000",
          "41000",
          "41000",
          "41000",
          "41000",
          "41000",
          "41000",
          "41000",
          "41000",
          "41000",
          "41000",
          "41000",
          "41000",
          "41000",
          "41000",
          "41000",
          "41000",
          "41000",
          "41000",
          "41000",
          "41000",
          "41000",
          "41000",
          "41000",
          "41000",
          "41000",
          "41000",
          "41000",
          "41000",
          "41000",
          "41000",
          "41000",
          "41000",
          "41000",
          "41000",
          "41000",
          "41000",
          "41000",
          "41000",
          "41000",
          "41000",
          "41000",
          "41000",
          "41000",
          "41000",
          "41000",
          "41000",
          "41000",
          "41000",
          "40950",
          "40300",
          "39150",
          "37900",
          "36650",
          "35200",
          "33675",
          "32200",
          "30625",
          "29325",
          "28350",
          "26725",
          "25275",
          "23725",
          "22300",
          "20750",
          "19525",
          "18775",
          "17750",
          "16450",
          "14900",
          "13475",
          "12700",
          "11900",
          "11225",
          "9975",
          "9000",
          "8175",
          "7375",
          "6525",
          "6075",
          "5650",
          "5275",
          "4675",
          "4075",
          "3500",
          "2950",
          "2450",
          "1925",
          "1500",
          "1100",
          "900",
          "725",
          "550",
          "375",
          "200",
          "25",
          ""
        ],
        "vertical_rate_fpm": [
          "",
          "2719",
          "2625",
          "2203",
          "2484",
          "3141",
          "3227",
          "3409",
          "3857",
          "3365",
          "3043",
          "3284",
          "3059",
          "3031",
          "3094",
          "3325",
          "3538",
          "3594",
          "3474",
          "3395",
          "3500",
          "3500",
          "3457",
          "3122",
          "2761",
          "2615",
          "1714",
          "1206",
          "1279",
          "1547",
          "1500",
          "1543",
          "1561",
          "1500",
          "1532",
          "1541",
          "1500",
          "1564",
          "1575",
          "1525",
          "1375",
          "1175",
          "1050",
          "1025",
          "952",
          "825",
          "542",
          "78",
          "",
          "",
          "",
          "",
          "",
          "",
          "",
          "",
          "",
          "",
          "",
          "",
          "",
          "",
          "",
          "",
          "",
          "",
          "",
          "",
          "",
          "",
          "",
          "",
          "",
          "",
          "",
          "",
          "",
          "",
          "",
          "",
          "",
          "",
          "",
          "",
          "",
          "",
          "",
          "",
          "",
          "",
          "",
          "",
          "",
          "",
          "",
          "",
          "",
          "",
          "",
          "",
          "",
          "",
          "",
          "",
          "",
          "",
          "",
          "",
          "",
          "",
          "",
          "",
          "",
          "",
          "",
          "",
          "",
          "",
          "",
          "",
          "",
          "",
          "",
          "",
          "",
          "",
          "",
          "",
          "",
          "",
          "",
          "",
          "",
          "",
          "",
          "",
          "",
          "",
          "",
          "",
          "",
          "",
          "",
          "",
          "",
          "",
          "",
          "",
          "",
          "",
          "",
          "",
          "",
          "",
          "",
          "",
          "",
          "",
          "",
          "",
          "",
          "",
          "",
          "",
          "",
          "",
          "",
          "",
          "",
          "",
          "",
          "",
          "",
          "",
          "",
          "",
          "",
          "",
          "",
          "",
          "",
          "",
          "",
          "",
          "",
          "-49",
          "-700",
          "-1800",
          "-2400",
          "-2500",
          "-2700",
          "-2975",
          "-3000",
          "-3050",
          "-3080",
          "-3033",
          "-3120",
          "-3025",
          "-3000",
          "-2975",
          "-2975",
          "-2775",
          "-1975",
          "-1775",
          "-2325",
          "-2850",
          "-2975",
          "-2750",
          "-2625",
          "-2458",
          "-2357",
          "-2189",
          "-1770",
          "-1598",
          "-1623",
          "-1660",
          "-1458",
          "-1200",
          "-1147",
          "-1180",
          "-1175",
          "-1125",
          "-1050",
          "-1025",
          "-950",
          "-811",
          "-766",
          "-703",
          "-636",
          "-636",
          "-656",
          "-656",
          "-609",
          "-563"
        ],
        "reporting_facility": [
          "FlightAware ADS-B(CGN / EDDK)",
          "FlightAware ADS-B(CGN / EDDK)",
          "FlightAware ADS-B(EDKB)",
          "FlightAware ADS-B(CGN / EDDK)",
          "FlightAware ADS-B(CGN / EDDK)",
          "FlightAware ADS-B(EDKL)",
          "FlightAware ADS-B(EDKB)",
          "FlightAware ADS-B(EDRK)",
          "FlightAware ADS-B(EDKB)",
          "FlightAware ADS-B(EDRK)",
          "FlightAware ADS-B(EHDL)",
          "FlightAware ADS-B(GKE / ETNG)",
          "FlightAware ADS-B(EDRE)",
          "FlightAware ADS-B(CGN / EDDK)",
          "FlightAware ADS-B(CGN / EDDK)",
          "FlightAware ADS-B(CGN / EDDK)",
          "FlightAware ADS-B(ENS / EHTW)",
          "FlightAware ADS-B(EDKN)",
          "FlightAware ADS-B(GKE / ETNG)",
          "FlightAware ADS-B(AAH / EDKA)",
          "FlightAware ADS-B(DUS / EDDL)",
          "FlightAware ADS-B(CGN / EDDK)",
          "FlightAware ADS-B(MHG / EDFM)",
          "FlightAware ADS-B(EDLS)",
          "FlightAware ADS-B(EHDL)",
          "FlightAware ADS-B(DUS / EDDL)",
          "FlightAware ADS-B(CGN / EDDK)",
          "FlightAware ADS-B(EBHL)",
          "FlightAware ADS-B(DUS / EDDL)",
          "FlightAware ADS-B(DHR / EHKD)",
          "FlightAware ADS-B(DUS / EDDL)",
          "FlightAware ADS-B(EDFZ)",
          "FlightAware ADS-B(AAH / EDKA)",
          "FlightAware ADS-B(EAP / LFSB)",
          "FlightAware ADS-B(MST / EHBK)",
          "FlightAware ADS-B(ANR / EBAW)",
          "FlightAware ADS-B(EDFB)",
          "FlightAware ADS-B(LGG / EBLG)",
          "FlightAware ADS-B(EDMG)",
          "FlightAware ADS-B(EDLD)",
          "FlightAware ADS-B(ESS / EDLE)",
          "FlightAware ADS-B(EHDP)",
          "FlightAware ADS-B(RMS / ETAR)",
          "FlightAware ADS-B(ELUS)",
          "FlightAware ADS-B(LFPZ)",
          "FlightAware ADS-B(LUX / ELLX)",
          "FlightAware ADS-B(ETOU)",
          "FlightAware ADS-B(EDFZ)",
          "FlightAware ADS-B(SPM / ETAD)",
          "FlightAware ADS-B(LUX / ELLX)",
          "FlightAware ADS-B(FKB / EDSB)",
          "FlightAware ADS-B(SCN / EDDR)",
          "FlightAware ADS-B(GLZ / EHGR)",
          "FlightAware ADS-B(EDMG)",
          "FlightAware ADS-B(RNE / LFLO)",
          "FlightAware ADS-B(SCN / EDDR)",
          "FlightAware ADS-B(LUX / ELLX)",
          "FlightAware ADS-B(EDKV)",
          "FlightAware ADS-B(EDKV)",
          "FlightAware ADS-B(EDKV)",
          "FlightAware ADS-B(LSPA)",
          "FlightAware ADS-B(DIJ / LFSD)",
          "FlightAware ADS-B(EDTF)",
          "FlightAware ADS-B(EDTW)",
          "FlightAware ADS-B(EDTY)",
          "FlightAware ADS-B(EDTY)",
          "FlightAware ADS-B(LSTB)",
          "FlightAware ADS-B(FDH / EDNY)",
          "FlightAware ADS-B(LFGC)",
          "FlightAware ADS-B(LSGL)",
          "FlightAware ADS-B(ZQW / EDRZ)",
          "FlightAware ADS-B(LFQU)",
          "FlightAware ADS-B(LFQU)",
          "FlightAware ADS-B(LSZF)",
          "FlightAware ADS-B(LSPD)",
          "FlightAware ADS-B(LSPD)",
          "FlightAware ADS-B(EDNX)",
          "FlightAware ADS-B(ZRH / LSZH)",
          "FlightAware ADS-B(BRN / LSZB)",
          "FlightAware ADS-B(LFQB)",
          "FlightAware ADS-B(BRN / LSZB)",
          "FlightAware ADS-B(ZRH / LSZH)",
          "FlightAware ADS-B(BRN / LSZB)",
          "FlightAware ADS-B(LSPN)",
          "FlightAware ADS-B(ZRH / LSZH)",
          "FlightAware ADS-B(QEF / EDFE)",
          "FlightAware ADS-B(VAF / LFLU)",
          "FlightAware ADS-B(LSGN)",
          "FlightAware ADS-B(LSXS)",
          "FlightAware ADS-B(DIJ / LFSD)",
          "FlightAware ADS-B(LFLM)",
          "FlightAware ADS-B(RMS / ETAR)",
          "FlightAware ADS-B(LSGL)",
          "FlightAware ADS-B(EDTG)",
          "FlightAware ADS-B(EDTG)",
          "FlightAware ADS-B(LSGN)",
          "FlightAware ADS-B(LFGB)",
          "FlightAware ADS-B(LSGY)",
          "FlightAware ADS-B(LSGY)",
          "FlightAware ADS-B(LFNT)",
          "FlightAware ADS-B(SYT / LFLN)",
          "FlightAware ADS-B(GVA / LSGG)",
          "FlightAware ADS-B(TRN / LIMF)",
          "FlightAware ADS-B(LYS / LFLL)",
          "FlightAware ADS-B(LIMA)",
          "FlightAware ADS-B(LSGL)",
          "FlightAware ADS-B(EDNX)",
          "FlightAware ADS-B(LYS / LFLL)",
          "FlightAware ADS-B(LYS / LFLL)",
          "FlightAware ADS-B(LYS / LFLL)",
          "FlightAware ADS-B(LYS / LFLL)",
          "FlightAware ADS-B(LYS / LFLL)",
          "FlightAware ADS-B(TRN / LIMF)",
          "FlightAware ADS-B(LFMI)",
          "FlightAware ADS-B(LYS / LFLL)",
          "FlightAware ADS-B(LFMI)",
          "FlightAware ADS-B(LYS / LFLL)",
          "FlightAware ADS-B(TRN / LIMF)",
          "FlightAware ADS-B(LFTN)",
          "FlightAware ADS-B(MRS / LFML)",
          "FlightAware ADS-B(LFTN)",
          "FlightAware ADS-B(LFTN)",
          "FlightAware ADS-B(LFTN)",
          "FlightAware ADS-B(TRN / LIMF)",
          "FlightAware ADS-B(LFTN)",
          "FlightAware ADS-B(LFTN)",
          "FlightAware ADS-B(EBU / LFMH)",
          "FlightAware ADS-B(EBU / LFMH)",
          "FlightAware ADS-B(TRN / LIMF)",
          "FlightAware ADS-B(EBU / LFMH)",
          "FlightAware ADS-B(EBU / LFMH)",
          "FlightAware ADS-B(EBU / LFMH)",
          "FlightAware ADS-B(EBU / LFMH)",
          "FlightAware ADS-B(EBU / LFMH)",
          "FlightAware ADS-B(LFTN)",
          "FlightAware ADS-B(LFTN)",
          "FlightAware ADS-B(LFTN)",
          "FlightAware ADS-B(LFTN)",
          "FlightAware ADS-B(LFME)",
          "FlightAware ADS-B(LFTN)",
          "FlightAware ADS-B(LFTN)",
          "FlightAware ADS-B(LFTN)",
          "FlightAware ADS-B(LFTR)",
          "FlightAware ADS-B(LFTR)",
          "FlightAware ADS-B(CEQ / LFMD)",
          "FlightAware ADS-B(CEQ / LFMD)",
          "FlightAware ADS-B(CEQ / LFMD)",
          "FlightAware ADS-B(VAF / LFLU)",
          "FlightAware ADS-B(FNU / LIER)",
          "FlightAware ADS-B(LFTN)",
          "FlightAware ADS-B(TLS / LFBO)",
          "FlightAware ADS-B(LFLT)",
          "FlightAware ADS-B(FNU / LIER)",
          "FlightAware ADS-B(AHO / LIEA)",
          "FlightAware ADS-B(LFTN)",
          "FlightAware ADS-B(LFTN)",
          "FlightAware ADS-B(LFTN)",
          "FlightAware ADS-B(FNU / LIER)",
          "FlightAware ADS-B(LFTN)",
          "FlightAware ADS-B(TLS / LFBO)",
          "FlightAware ADS-B(TLS / LFBO)",
          "FlightAware ADS-B(CTT / LFMQ)",
          "FlightAware ADS-B(BCN / LEBL)",
          "FlightAware ADS-B(MRS / LFML)",
          "FlightAware ADS-B(MRS / LFML)",
          "FlightAware ADS-B(CTT / LFMQ)",
          "FlightAware ADS-B(TLS / LFBO)",
          "FlightAware ADS-B(LFHU)",
          "FlightAware ADS-B(LFCQ)",
          "FlightAware ADS-B(PMI / LEPA)",
          "FlightAware ADS-B(PMI / LEPA)",
          "FlightAware ADS-B(PMI / LEPA)",
          "FlightAware ADS-B(OBS / LFHO)",
          "FlightAware ADS-B(OBS / LFHO)",
          "FlightAware ADS-B(OBS / LFHO)",
          "FlightAware ADS-B(OBS / LFHO)",
          "FlightAware ADS-B(OBS / LFHO)",
          "FlightAware ADS-B(OBS / LFHO)",
          "FlightAware ADS-B(OBS / LFHO)",
          "FlightAware ADS-B(OBS / LFHO)",
          "FlightAware ADS-B(BCN / LEBL)",
          "FlightAware ADS-B(MAH / LEMH)",
          "FlightAware ADS-B(LEBC)",
          "FlightAware ADS-B(LEBC)",
          "FlightAware ADS-B(BCN / LEBL)",
          "FlightAware ADS-B(CTT / LFMQ)",
          "FlightAware ADS-B(GRO / LEGE)",
          "FlightAware ADS-B(GRO / LEGE)",
          "FlightAware ADS-B(GRO / LEGE)",
          "FlightAware ADS-B(GRO / LEGE)",
          "FlightAware ADS-B(GRO / LEGE)",
          "FlightAware ADS-B(PMI / LEPA)",
          "FlightAware ADS-B(CTT / LFMQ)",
          "FlightAware ADS-B(PMI / LEPA)",
          "FlightAware ADS-B(LELL)",
          "FlightAware ADS-B(LELL)",
          "FlightAware ADS-B(PMI / LEPA)",
          "FlightAware ADS-B(PMI / LEPA)",
          "FlightAware ADS-B(BCN / LEBL)",
          "FlightAware ADS-B(LEBC)",
          "FlightAware ADS-B(PMI / LEPA)",
          "FlightAware ADS-B(PMI / LEPA)",
          "FlightAware ADS-B(MAH / LEMH)",
          "FlightAware ADS-B(REU / LERS)",
          "FlightAware ADS-B(REU / LERS)",
          "FlightAware ADS-B(MAH / LEMH)",
          "FlightAware ADS-B(MAH / LEMH)",
          "FlightAware ADS-B(PMI / LEPA)",
          "FlightAware ADS-B(MAH / LEMH)",
          "FlightAware ADS-B(PMI / LEPA)",
          "FlightAware ADS-B(LEPB)",
          "FlightAware ADS-B(LESB)",
          "FlightAware ADS-B(PMI / LEPA)",
          "FlightAware ADS-B(LELL)",
          "FlightAware ADS-B(BCN / LEBL)",
          "FlightAware ADS-B(REU / LERS)",
          "FlightAware ADS-B(LELL)",
          "FlightAware ADS-B(PMI / LEPA)",
          "FlightAware ADS-B(PMI / LEPA)",
          "FlightAware ADS-B(PMI / LEPA)",
          "FlightAware ADS-B(PMI / LEPA)",
          "FlightAware ADS-B(PMI / LEPA)",
          "FlightAware ADS-B(PMI / LEPA)",
          "FlightAware ADS-B(PMI / LEPA)",
          "FlightAware ADS-B(PMI / LEPA)",
          "FlightAware ADS-B(PMI / LEPA)",
          "FlightAware ADS-B(PMI / LEPA)",
          "Surface and Near-Surface",
          "FlightAware ADS-B(PMI / LEPA)",
          "FlightAware ADS-B(PMI / LEPA)",
          "FlightAware ADS-B(PMI / LEPA)",
          "FlightAware ADS-B(LESB)",
          "FlightAware ADS-B(PMI / LEPA)",
          "FlightAware ADS-B(LESB)"
        ]
      }
    }
  ]
}