{
  "type": "FeatureCollection",
  "features": [
    {
      "type": "Feature",
      "geometry": {
        "type": "LineString",
        "coordinates": [
          [
            5.3693,
            51.4457
          ],
          [
            5.3583,
            51.4366
          ],
          [
            5.347,
            51.4275
          ],
          [
            5.3354,
            51.4182
          ],
          [
            5.3237,
            51.4079
          ],
          [
            5.3159,
            51.3952
          ],
          [
            5.3238,
            51.3808
          ],
          [
            5.3483,
            51.3681
          ],
          [
            5.384,
            51.358
          ],
          [
            5.4358,
            51.347
          ],
          [
            5.4958,
            51.335
          ],
          [
            5.558,
            51.3226
          ],
          [
            5.6174,
            51.3101
          ],
          [
            5.6758,
            51.2974
          ],
          [
            5.7187,
            51.2883
          ],
          [
            5.7611,
            51.2795
          ],
          [
            5.8554,
            51.2597
          ],
          [
            5.9127,
            51.2477
          ],
          [
            5.9676,
            51.2361
          ],
          [
            6.0243,
            51.2239
          ],
          [
            6.0801,
            51.2111
          ],
          [
            6.1121,
            51.2039
          ],
          [
            6.1677,
            51.1914
          ],
          [
            6.2278,
            51.1778
          ],
          [
            6.2855,
            51.1647
          ],
          [
            6.3432,
            51.1515
          ],
          [
            6.448,
            51.1277
          ],
          [
            6.5016,
            51.1157
          ],
          [
            6.5503,
            51.1046
          ],
          [
            6.6055,
            51.0919
          ],
          [
            6.6556,
            51.0802
          ],
          [
            6.7088,
            51.0676
          ],
          [
            6.7625,
            51.0547
          ],
          [
            6.8147,
            51.0426
          ],
          [
            6.8636,
            51.0316
          ],
          [
            6.8933,
            51.0243
          ],
          [
            6.9122,
            51.015
          ],
          [
            6.9272,
            51.005
          ],
          [
            6.9415,
            50.9942
          ],
          [
            6.9561,
            50.9837
          ],
          [
            6.971,
            50.9735
          ],
          [
            6.9862,
            50.9632
          ],
          [
            7.0002,
            50.9537
          ],
          [
            7.0258,
            50.936
          ],
          [
            7.0501,
            50.9195
          ],
          [
            7.058,
            50.9142
          ],
          [
            7.0622,
            50.9114
          ],
          [
            7.0726,
            50.9044
          ],
          [
            7.0826,
            50.8975
          ],
          [
            7.0926,
            50.8902
          ],
          [
            7.1021,
            50.8837
          ],
          [
            7.1119,
            50.877
          ],
          [
            7.1216,
            50.8703
          ]
        ]
      },
      "properties": {
        "time_europe_berlin": [
          "30.10.2025 17:28:56",
          "30.10.2025 17:29:12",
          "30.10.2025 17:29:28",
          "30.10.2025 17:29:44",
          "30.10.2025 17:30:00",
          "30.10.2025 17:30:17",
          "30.10.2025 17:30:35",
          "30.10.2025 17:30:55",
          "30.10.2025 17:31:19",
          "30.10.2025 17:31:47",
          "30.10.2025 17:32:17",
          "30.10.2025 17:32:47",
          "30.10.2025 17:33:17",
          "30.10.2025 17:33:47",
          "30.10.2025 17:34:09",
          "30.10.2025 17:34:30",
          "30.10.2025 17:35:19",
          "30.10.2025 17:35:49",
          "30.10.2025 17:36:19",
          "30.10.2025 17:36:49",
          "30.10.2025 17:37:19",
          "30.10.2025 17:37:36",
          "30.10.2025 17:38:06",
          "30.10.2025 17:38:36",
          "30.10.2025 17:39:06",
          "30.10.2025 17:39:36",
          "30.10.2025 17:40:31",
          "30.10.2025 17:41:01",
          "30.10.2025 17:41:31",
          "30.10.2025 17:42:01",
          "30.10.2025 17:42:30",
          "30.10.2025 17:43:00",
          "30.10.2025 17:43:30",
          "30.10.2025 17:44:00",
          "30.10.2025 17:44:30",
          "30.10.2025 17:44:48",
          "30.10.2025 17:45:04",
          "30.10.2025 17:45:20",
          "30.10.2025 17:45:36",
          "30.10.2025 17:45:52",
          "30.10.2025 17:46:08",
          "30.10.2025 17:46:24",
          "30.10.2025 17:46:40",
          "30.10.2025 17:47:10",
          "30.10.2025 17:47:40",
          "30.10.2025 17:47:49",
          "30.10.2025 17:47:56",
          "30.10.2025 17:48:12",
          "30.10.2025 17:48:28",
          "30.10.2025 17:48:44",
          "30.10.2025 17:49:00",
          "30.10.2025 17:49:16",
          "30.10.2025 17:49:32"
        ],
        "course_deg_clockwise_from_north": [
          217,
          218,
          218,
          217,
          215,
          184,
          143,
          121,
          111,
          108,
          107,
          108,
          109,
          109,
          109,
          108,
          109,
          109,
          109,
          110,
          110,
          110,
          110,
          110,
          110,
          110,
          110,
          110,
          110,
          110,
          110,
          111,
          110,
          110,
          109,
          117,
          133,
          139,
          140,
          138,
          137,
          137,
          137,
          137,
          137,
          137,
          137,
          137,
          139,
          138,
          136,
          137,
          138
        ],
        "speed_kts": [
          154,
          154,
          157,
          161,
          176,
          189,
          201,
          213,
          246,
          275,
          287,
          288,
          283,
          279,
          278,
          277,
          274,
          273,
          273,
          272,
          271,
          271,
          271,
          278,
          279,
          278,
          270,
          251,
          253,
          258,
          257,
          257,
          258,
          258,
          225,
          213,
          202,
          196,
          190,
          183,
          183,
          190,
          180,
          170,
          154,
          145,
          136,
          131,
          127,
          122,
          122,
          122,
          119
        ],
        "speed_mph": [
          177.0,
          177.0,
          181.0,
          185.0,
          203.0,
          217.0,
          231.0,
          245.0,
          283.0,
          316.0,
          330.0,
          331.0,
          326.0,
          321.0,
          320.0,
          319.0,
          315.0,
          314.0,
          314.0,
          313.0,
          312.0,
          312.0,
          312.0,
          320.0,
          321.0,
          320.0,
          311.0,
          289.0,
          291.0,
          297.0,
          296.0,
          296.0,
          297.0,
          297.0,
          259.0,
          245.0,
          232.0,
          226.0,
          219.0,
          211.0,
          211.0,
          219.0,
          207.0,
          196.0,
          177.0,
          167.0,
          157.0,
          151.0,
          146.0,
          140.0,
          140.0,
          140.0,
          137.0
        ],
        "altitude_ft": [
          475,
          1600,
          2700,
          3775,
          4625,
          5550,
          6750,
          8050,
          8925,
          9000,
          9000,
          9000,
          9000,
          9000,
          9000,
          9000,
          9000,
          9000,
          9000,
          9000,
          9000,
          9000,
          9000,
          8775,
          8300,
          7800,
          7025,
          7000,
          6800,
          6025,
          5325,
          4575,
          3800,
          3100,
          2975,
          2975,
          3000,
          2975,
          2975,
          2975,
          2900,
          2650,
          2450,
          1925,
          1475,
          1350,
          1275,
          1100,
          900,
          725,
          575,
          400,
          225
        ],
        "vertical_rate_fpm": [
          0.0,
          4172.0,
          4078.0,
          3609.0,
          3227.0,
          3643.0,
          3947.0,
          2966.0,
          1096.0,
          78.0,
          0.0,
          0.0,
          0.0,
          0.0,
          0.0,
          0.0,
          0.0,
          0.0,
          0.0,
          0.0,
          0.0,
          0.0,
          -225.0,
          -700.0,
          -975.0,
          -900.0,
          -565.0,
          -225.0,
          -975.0,
          -1500.0,
          -1475.0,
          -1525.0,
          -1475.0,
          -825.0,
          -156.0,
          44.0,
          0.0,
          -47.0,
          0.0,
          -141.0,
          -609.0,
          -844.0,
          -946.0,
          -975.0,
          -885.0,
          -750.0,
          -652.0,
          -703.0,
          -703.0,
          -609.0,
          -609.0,
          -656.0,
          -656.0
        ]
      }
    }
  ]
}