{
  "type": "FeatureCollection",
  "features": [
    {
      "type": "Feature",
      "geometry": {
        "type": "LineString",
        "coordinates": [
          [
            14.1923,
            42.4406
          ],
          [
            14.2032,
            42.4511
          ],
          [
            14.2145,
            42.4613
          ],
          [
            14.2192,
            42.4775
          ],
          [
            14.2119,
            42.492
          ],
          [
            14.1908,
            42.5155
          ],
          [
            14.1619,
            42.5475
          ],
          [
            14.1334,
            42.5791
          ],
          [
            14.084,
            42.6323
          ],
          [
            14.0486,
            42.6714
          ],
          [
            14.0254,
            42.6973
          ],
          [
            14.0046,
            42.7278
          ],
          [
            13.9775,
            42.7748
          ],
          [
            13.9481,
            42.824
          ],
          [
            13.9162,
            42.8742
          ],
          [
            13.8845,
            42.9257
          ],
          [
            13.8524,
            42.9777
          ],
          [
            13.8209,
            43.0284
          ],
          [
            13.7876,
            43.0816
          ],
          [
            13.7565,
            43.132
          ],
          [
            13.7239,
            43.1838
          ],
          [
            13.6805,
            43.246
          ],
          [
            13.6424,
            43.2998
          ],
          [
            13.6057,
            43.3527
          ],
          [
            13.5659,
            43.409
          ],
          [
            13.5279,
            43.4625
          ],
          [
            13.489,
            43.5174
          ],
          [
            13.4505,
            43.5723
          ],
          [
            13.4098,
            43.629
          ],
          [
            13.3729,
            43.6809
          ],
          [
            13.3339,
            43.7355
          ],
          [
            13.2963,
            43.7882
          ],
          [
            13.2582,
            43.8413
          ],
          [
            13.2198,
            43.8948
          ],
          [
            13.1826,
            43.9464
          ],
          [
            13.1445,
            43.9992
          ],
          [
            13.1082,
            44.0495
          ],
          [
            13.0699,
            44.1022
          ],
          [
            13.0329,
            44.1535
          ],
          [
            12.996,
            44.204
          ],
          [
            12.958,
            44.2566
          ],
          [
            12.9155,
            44.3146
          ],
          [
            12.8749,
            44.3702
          ],
          [
            12.8373,
            44.4217
          ],
          [
            12.7995,
            44.4728
          ],
          [
            12.7594,
            44.5274
          ],
          [
            12.7208,
            44.5801
          ],
          [
            12.6828,
            44.6312
          ],
          [
            12.6442,
            44.6833
          ],
          [
            12.607,
            44.7365
          ],
          [
            12.5615,
            44.8014
          ],
          [
            12.525,
            44.8525
          ],
          [
            12.4866,
            44.9066
          ],
          [
            12.4489,
            44.9598
          ],
          [
            12.4089,
            45.0159
          ],
          [
            12.373,
            45.0662
          ],
          [
            12.3326,
            45.1225
          ],
          [
            12.2927,
            45.1785
          ],
          [
            12.2551,
            45.2307
          ],
          [
            12.2173,
            45.2832
          ],
          [
            12.1787,
            45.3369
          ],
          [
            12.1402,
            45.3901
          ],
          [
            12.1006,
            45.4446
          ],
          [
            12.0628,
            45.4968
          ],
          [
            12.0351,
            45.5347
          ],
          [
            11.9963,
            45.5885
          ],
          [
            11.9585,
            45.64
          ],
          [
            11.9169,
            45.6965
          ],
          [
            11.8768,
            45.7515
          ],
          [
            11.8382,
            45.8038
          ],
          [
            11.7979,
            45.8583
          ],
          [
            11.7566,
            45.9143
          ],
          [
            11.7174,
            45.9676
          ],
          [
            11.6785,
            46.0201
          ],
          [
            11.638,
            46.0744
          ],
          [
            11.5759,
            46.1488
          ],
          [
            11.5297,
            46.1992
          ],
          [
            11.4859,
            46.248
          ],
          [
            11.4392,
            46.3005
          ],
          [
            11.3916,
            46.3535
          ],
          [
            11.3455,
            46.4048
          ],
          [
            11.2986,
            46.4572
          ],
          [
            11.2504,
            46.5107
          ],
          [
            11.205,
            46.5612
          ],
          [
            11.1611,
            46.6097
          ],
          [
            11.1141,
            46.6615
          ],
          [
            11.065,
            46.7157
          ],
          [
            11.0196,
            46.7655
          ],
          [
            10.9715,
            46.8184
          ],
          [
            10.936,
            46.8572
          ],
          [
            10.8885,
            46.9093
          ],
          [
            10.8425,
            46.9592
          ],
          [
            10.7941,
            47.0121
          ],
          [
            10.747,
            47.0631
          ],
          [
            10.696,
            47.1183
          ],
          [
            10.6499,
            47.1681
          ],
          [
            10.6004,
            47.2215
          ],
          [
            10.5517,
            47.2739
          ],
          [
            10.5026,
            47.3265
          ],
          [
            10.4775,
            47.3534
          ],
          [
            10.4295,
            47.4045
          ],
          [
            10.3806,
            47.4569
          ],
          [
            10.3314,
            47.5088
          ],
          [
            10.2807,
            47.5629
          ],
          [
            10.2327,
            47.6136
          ],
          [
            10.1822,
            47.667
          ],
          [
            10.1328,
            47.719
          ],
          [
            10.0818,
            47.7725
          ],
          [
            10.0328,
            47.8239
          ],
          [
            9.9824,
            47.8768
          ],
          [
            9.9561,
            47.9085
          ],
          [
            9.9014,
            47.987
          ],
          [
            9.8798,
            48.0175
          ],
          [
            9.8556,
            48.0504
          ],
          [
            9.8141,
            48.1081
          ],
          [
            9.7753,
            48.1621
          ],
          [
            9.7317,
            48.2222
          ],
          [
            9.6987,
            48.2677
          ],
          [
            9.6573,
            48.3244
          ],
          [
            9.6169,
            48.3798
          ],
          [
            9.5752,
            48.4368
          ],
          [
            9.5434,
            48.4803
          ],
          [
            9.502,
            48.5367
          ],
          [
            9.4592,
            48.5947
          ],
          [
            9.403,
            48.6709
          ],
          [
            9.3631,
            48.7246
          ],
          [
            9.3208,
            48.7816
          ],
          [
            9.2772,
            48.8402
          ],
          [
            9.2352,
            48.8963
          ],
          [
            9.1922,
            48.9538
          ],
          [
            9.1486,
            49.0121
          ],
          [
            9.1071,
            49.0673
          ],
          [
            9.0625,
            49.1263
          ],
          [
            9.0185,
            49.1845
          ],
          [
            8.9861,
            49.2273
          ],
          [
            8.9435,
            49.2832
          ],
          [
            8.8829,
            49.3627
          ],
          [
            8.852,
            49.4031
          ],
          [
            8.804,
            49.466
          ],
          [
            8.7579,
            49.5259
          ],
          [
            8.7099,
            49.5881
          ],
          [
            8.6638,
            49.648
          ],
          [
            8.6088,
            49.6991
          ],
          [
            8.5732,
            49.7218
          ],
          [
            8.5219,
            49.7458
          ],
          [
            8.4765,
            49.7609
          ],
          [
            8.4047,
            49.7801
          ],
          [
            8.3192,
            49.8016
          ],
          [
            8.2314,
            49.8244
          ],
          [
            8.159,
            49.8439
          ],
          [
            8.0924,
            49.8619
          ],
          [
            7.9995,
            49.8869
          ],
          [
            7.9164,
            49.9095
          ],
          [
            7.8237,
            49.9353
          ],
          [
            7.734,
            49.9616
          ],
          [
            7.5996,
            49.9998
          ],
          [
            7.4815,
            50.0336
          ],
          [
            7.4011,
            50.0563
          ],
          [
            7.3104,
            50.0819
          ],
          [
            7.2219,
            50.107
          ],
          [
            7.1099,
            50.1382
          ],
          [
            7.0171,
            50.1642
          ],
          [
            6.9309,
            50.1882
          ],
          [
            6.848,
            50.2112
          ],
          [
            6.764,
            50.2341
          ],
          [
            6.6823,
            50.2569
          ],
          [
            6.6003,
            50.2792
          ],
          [
            6.5171,
            50.302
          ],
          [
            6.4657,
            50.3161
          ],
          [
            6.3829,
            50.3383
          ],
          [
            6.3016,
            50.3605
          ],
          [
            6.2516,
            50.3767
          ],
          [
            6.1902,
            50.3991
          ],
          [
            6.1294,
            50.4213
          ],
          [
            6.051,
            50.4496
          ],
          [
            5.9787,
            50.4759
          ],
          [
            5.8783,
            50.513
          ],
          [
            5.8083,
            50.54
          ],
          [
            5.7696,
            50.5543
          ],
          [
            5.5632,
            50.5919
          ],
          [
            5.4947,
            50.6035
          ],
          [
            5.4525,
            50.611
          ],
          [
            5.3216,
            50.6336
          ],
          [
            5.2556,
            50.6453
          ],
          [
            5.1975,
            50.6553
          ],
          [
            5.168,
            50.6594
          ],
          [
            5.133,
            50.6567
          ],
          [
            5.0896,
            50.6474
          ],
          [
            5.0625,
            50.6415
          ],
          [
            5.036,
            50.6336
          ],
          [
            4.9976,
            50.6236
          ],
          [
            4.9692,
            50.6154
          ],
          [
            4.9443,
            50.6052
          ],
          [
            4.9184,
            50.5945
          ],
          [
            4.8929,
            50.5892
          ],
          [
            4.8617,
            50.5808
          ],
          [
            4.8241,
            50.5683
          ],
          [
            4.7981,
            50.5596
          ],
          [
            4.7615,
            50.5487
          ],
          [
            4.7201,
            50.5369
          ],
          [
            4.6853,
            50.5267
          ],
          [
            4.6552,
            50.5182
          ],
          [
            4.6254,
            50.5097
          ],
          [
            4.5961,
            50.5013
          ],
          [
            4.5714,
            50.4941
          ],
          [
            4.5564,
            50.4899
          ],
          [
            4.5426,
            50.4859
          ],
          [
            4.5296,
            50.4821
          ],
          [
            4.5153,
            50.4779
          ],
          [
            4.503,
            50.4744
          ],
          [
            4.4881,
            50.4701
          ],
          [
            4.475,
            50.4663
          ]
        ]
      },
      "properties": {
        "time_europe_berlin": [
          "20.10.2025 14:20:16",
          "20.10.2025 14:20:32",
          "20.10.2025 14:20:48",
          "20.10.2025 14:21:07",
          "20.10.2025 14:21:25",
          "20.10.2025 14:21:51",
          "20.10.2025 14:22:21",
          "20.10.2025 14:22:51",
          "20.10.2025 14:23:36",
          "20.10.2025 14:24:07",
          "20.10.2025 14:24:28",
          "20.10.2025 14:24:48",
          "20.10.2025 14:25:18",
          "20.10.2025 14:25:48",
          "20.10.2025 14:26:18",
          "20.10.2025 14:26:48",
          "20.10.2025 14:27:18",
          "20.10.2025 14:27:48",
          "20.10.2025 14:28:18",
          "20.10.2025 14:28:48",
          "20.10.2025 14:29:18",
          "20.10.2025 14:29:55",
          "20.10.2025 14:30:25",
          "20.10.2025 14:30:55",
          "20.10.2025 14:31:25",
          "20.10.2025 14:31:55",
          "20.10.2025 14:32:25",
          "20.10.2025 14:32:55",
          "20.10.2025 14:33:25",
          "20.10.2025 14:33:55",
          "20.10.2025 14:34:25",
          "20.10.2025 14:34:55",
          "20.10.2025 14:35:25",
          "20.10.2025 14:35:55",
          "20.10.2025 14:36:25",
          "20.10.2025 14:36:55",
          "20.10.2025 14:37:25",
          "20.10.2025 14:37:55",
          "20.10.2025 14:38:25",
          "20.10.2025 14:38:55",
          "20.10.2025 14:39:25",
          "20.10.2025 14:39:58",
          "20.10.2025 14:40:29",
          "20.10.2025 14:40:59",
          "20.10.2025 14:41:29",
          "20.10.2025 14:42:00",
          "20.10.2025 14:42:30",
          "20.10.2025 14:43:00",
          "20.10.2025 14:43:30",
          "20.10.2025 14:44:01",
          "20.10.2025 14:44:37",
          "20.10.2025 14:45:07",
          "20.10.2025 14:45:38",
          "20.10.2025 14:46:08",
          "20.10.2025 14:46:39",
          "20.10.2025 14:47:09",
          "20.10.2025 14:47:40",
          "20.10.2025 14:48:11",
          "20.10.2025 14:48:41",
          "20.10.2025 14:49:11",
          "20.10.2025 14:49:41",
          "20.10.2025 14:50:11",
          "20.10.2025 14:50:41",
          "20.10.2025 14:51:11",
          "20.10.2025 14:51:32",
          "20.10.2025 14:52:02",
          "20.10.2025 14:52:32",
          "20.10.2025 14:53:03",
          "20.10.2025 14:53:34",
          "20.10.2025 14:54:04",
          "20.10.2025 14:54:34",
          "20.10.2025 14:55:05",
          "20.10.2025 14:55:35",
          "20.10.2025 14:56:05",
          "20.10.2025 14:56:35",
          "20.10.2025 14:57:17",
          "20.10.2025 14:57:47",
          "20.10.2025 14:58:17",
          "20.10.2025 14:58:47",
          "20.10.2025 14:59:17",
          "20.10.2025 14:59:47",
          "20.10.2025 15:00:18",
          "20.10.2025 15:00:48",
          "20.10.2025 15:01:18",
          "20.10.2025 15:01:48",
          "20.10.2025 15:02:18",
          "20.10.2025 15:02:48",
          "20.10.2025 15:03:18",
          "20.10.2025 15:03:48",
          "20.10.2025 15:04:10",
          "20.10.2025 15:04:40",
          "20.10.2025 15:05:09",
          "20.10.2025 15:05:39",
          "20.10.2025 15:06:10",
          "20.10.2025 15:06:40",
          "20.10.2025 15:07:10",
          "20.10.2025 15:07:40",
          "20.10.2025 15:08:10",
          "20.10.2025 15:08:40",
          "20.10.2025 15:08:58",
          "20.10.2025 15:09:26",
          "20.10.2025 15:09:56",
          "20.10.2025 15:10:26",
          "20.10.2025 15:10:57",
          "20.10.2025 15:11:27",
          "20.10.2025 15:11:57",
          "20.10.2025 15:12:27",
          "20.10.2025 15:12:57",
          "20.10.2025 15:13:27",
          "20.10.2025 15:13:57",
          "20.10.2025 15:14:13",
          "20.10.2025 15:14:55",
          "20.10.2025 15:15:11",
          "20.10.2025 15:15:30",
          "20.10.2025 15:16:00",
          "20.10.2025 15:16:30",
          "20.10.2025 15:17:00",
          "20.10.2025 15:17:25",
          "20.10.2025 15:17:55",
          "20.10.2025 15:18:25",
          "20.10.2025 15:18:55",
          "20.10.2025 15:19:18",
          "20.10.2025 15:19:48",
          "20.10.2025 15:20:18",
          "20.10.2025 15:20:58",
          "20.10.2025 15:21:28",
          "20.10.2025 15:21:58",
          "20.10.2025 15:22:28",
          "20.10.2025 15:22:58",
          "20.10.2025 15:23:28",
          "20.10.2025 15:23:58",
          "20.10.2025 15:24:28",
          "20.10.2025 15:24:58",
          "20.10.2025 15:25:28",
          "20.10.2025 15:25:50",
          "20.10.2025 15:26:20",
          "20.10.2025 15:27:00",
          "20.10.2025 15:27:21",
          "20.10.2025 15:27:51",
          "20.10.2025 15:28:21",
          "20.10.2025 15:28:51",
          "20.10.2025 15:29:21",
          "20.10.2025 15:29:48",
          "20.10.2025 15:30:04",
          "20.10.2025 15:30:21",
          "20.10.2025 15:30:38",
          "20.10.2025 15:31:01",
          "20.10.2025 15:31:31",
          "20.10.2025 15:32:01",
          "20.10.2025 15:32:25",
          "20.10.2025 15:32:47",
          "20.10.2025 15:33:17",
          "20.10.2025 15:33:44",
          "20.10.2025 15:34:14",
          "20.10.2025 15:34:44",
          "20.10.2025 15:35:29",
          "20.10.2025 15:36:07",
          "20.10.2025 15:36:35",
          "20.10.2025 15:37:05",
          "20.10.2025 15:37:35",
          "20.10.2025 15:38:14",
          "20.10.2025 15:38:45",
          "20.10.2025 15:39:15",
          "20.10.2025 15:39:45",
          "20.10.2025 15:40:15",
          "20.10.2025 15:40:46",
          "20.10.2025 15:41:17",
          "20.10.2025 15:41:48",
          "20.10.2025 15:42:05",
          "20.10.2025 15:42:35",
          "20.10.2025 15:43:05",
          "20.10.2025 15:43:23",
          "20.10.2025 15:43:46",
          "20.10.2025 15:44:09",
          "20.10.2025 15:44:39",
          "20.10.2025 15:45:08",
          "20.10.2025 15:45:50",
          "20.10.2025 15:46:20",
          "20.10.2025 15:46:36",
          "20.10.2025 15:48:03",
          "20.10.2025 15:48:33",
          "20.10.2025 15:48:51",
          "20.10.2025 15:49:47",
          "20.10.2025 15:50:16",
          "20.10.2025 15:50:43",
          "20.10.2025 15:50:59",
          "20.10.2025 15:51:18",
          "20.10.2025 15:51:41",
          "20.10.2025 15:51:57",
          "20.10.2025 15:52:15",
          "20.10.2025 15:52:39",
          "20.10.2025 15:52:56",
          "20.10.2025 15:53:13",
          "20.10.2025 15:53:32",
          "20.10.2025 15:53:48",
          "20.10.2025 15:54:06",
          "20.10.2025 15:54:32",
          "20.10.2025 15:54:52",
          "20.10.2025 15:55:17",
          "20.10.2025 15:55:47",
          "20.10.2025 15:56:18",
          "20.10.2025 15:56:48",
          "20.10.2025 15:57:18",
          "20.10.2025 15:57:48",
          "20.10.2025 15:58:17",
          "20.10.2025 15:58:35",
          "20.10.2025 15:58:51",
          "20.10.2025 15:59:07",
          "20.10.2025 15:59:24",
          "20.10.2025 15:59:40",
          "20.10.2025 15:59:58",
          "20.10.2025 16:00:14"
        ],
        "course_deg_clockwise_from_north": [
          "37",
          "38",
          "38",
          "351",
          "332",
          "324",
          "327",
          "326",
          "326",
          "326",
          "330",
          "335",
          "337",
          "335",
          "335",
          "336",
          "336",
          "336",
          "336",
          "336",
          "334",
          "332",
          "333",
          "333",
          "333",
          "333",
          "333",
          "333",
          "333",
          "333",
          "332",
          "333",
          "333",
          "332",
          "332",
          "332",
          "332",
          "332",
          "333",
          "332",
          "333",
          "332",
          "332",
          "332",
          "332",
          "332",
          "332",
          "332",
          "332",
          "334",
          "333",
          "333",
          "333",
          "333",
          "333",
          "333",
          "333",
          "333",
          "333",
          "333",
          "333",
          "333",
          "333",
          "333",
          "334",
          "334",
          "333",
          "333",
          "333",
          "333",
          "333",
          "333",
          "333",
          "333",
          "333",
          "328",
          "327",
          "328",
          "328",
          "328",
          "328",
          "328",
          "328",
          "328",
          "328",
          "328",
          "328",
          "328",
          "328",
          "328",
          "328",
          "328",
          "328",
          "328",
          "328",
          "328",
          "328",
          "328",
          "328",
          "328",
          "327",
          "328",
          "327",
          "328",
          "327",
          "327",
          "327",
          "327",
          "327",
          "328",
          "333",
          "335",
          "334",
          "335",
          "335",
          "334",
          "335",
          "334",
          "334",
          "334",
          "334",
          "334",
          "334",
          "334",
          "334",
          "334",
          "334",
          "334",
          "334",
          "334",
          "334",
          "334",
          "334",
          "334",
          "334",
          "333",
          "333",
          "335",
          "333",
          "333",
          "334",
          "332",
          "318",
          "311",
          "301",
          "294",
          "292",
          "291",
          "293",
          "293",
          "292",
          "293",
          "293",
          "294",
          "294",
          "294",
          "294",
          "294",
          "294",
          "294",
          "293",
          "294",
          "293",
          "293",
          "293",
          "293",
          "293",
          "293",
          "293",
          "292",
          "294",
          "299",
          "300",
          "300",
          "299",
          "300",
          "301",
          "301",
          "297",
          "285",
          "285",
          "286",
          "285",
          "286",
          "285",
          "278",
          "255",
          "251",
          "250",
          "242",
          "247",
          "246",
          "230",
          "250",
          "251",
          "245",
          "242",
          "243",
          "246",
          "245",
          "245",
          "246",
          "246",
          "245",
          "247",
          "246",
          "246",
          "247",
          "245",
          "245",
          "246",
          "245"
        ],
        "speed_kts": [
          "164",
          "172",
          "177",
          "197",
          "216",
          "247",
          "277",
          "291",
          "320",
          "335",
          "352",
          "363",
          "374",
          "390",
          "403",
          "410",
          "412",
          "412",
          "410",
          "405",
          "412",
          "424",
          "432",
          "439",
          "444",
          "448",
          "449",
          "444",
          "437",
          "433",
          "433",
          "434",
          "433",
          "430",
          "427",
          "421",
          "415",
          "417",
          "421",
          "425",
          "426",
          "429",
          "430",
          "428",
          "426",
          "425",
          "424",
          "423",
          "422",
          "424",
          "424",
          "425",
          "426",
          "428",
          "428",
          "429",
          "431",
          "431",
          "432",
          "431",
          "431",
          "431",
          "431",
          "432",
          "431",
          "431",
          "433",
          "433",
          "433",
          "433",
          "434",
          "435",
          "435",
          "435",
          "436",
          "435",
          "434",
          "436",
          "436",
          "436",
          "437",
          "437",
          "437",
          "438",
          "439",
          "439",
          "441",
          "442",
          "443",
          "443",
          "444",
          "444",
          "444",
          "444",
          "444",
          "443",
          "445",
          "445",
          "446",
          "445",
          "445",
          "447",
          "447",
          "448",
          "448",
          "449",
          "449",
          "450",
          "450",
          "451",
          "453",
          "453",
          "452",
          "451",
          "452",
          "451",
          "452",
          "453",
          "453",
          "454",
          "455",
          "455",
          "457",
          "457",
          "457",
          "457",
          "450",
          "456",
          "460",
          "464",
          "467",
          "464",
          "458",
          "468",
          "466",
          "473",
          "482",
          "487",
          "494",
          "491",
          "488",
          "491",
          "482",
          "477",
          "469",
          "462",
          "443",
          "431",
          "447",
          "460",
          "467",
          "468",
          "465",
          "465",
          "463",
          "460",
          "459",
          "455",
          "451",
          "446",
          "449",
          "438",
          "425",
          "418",
          "411",
          "397",
          "411",
          "415",
          "417",
          "418",
          "420",
          "424",
          "426",
          "420",
          "405",
          "394",
          "376",
          "366",
          "359",
          "331",
          "338",
          "339",
          "326",
          "308",
          "291",
          "280",
          "260",
          "251",
          "247",
          "242",
          "239",
          "232",
          "230",
          "243",
          "243",
          "238",
          "224",
          "210",
          "214",
          "189",
          "161",
          "151",
          "152",
          "134",
          "127",
          "127",
          "132",
          "125",
          "120",
          "124",
          "125",
          "131"
        ],
        "speed_mph": [
          "189",
          "198",
          "204",
          "227",
          "249",
          "284",
          "319",
          "335",
          "368",
          "386",
          "405",
          "418",
          "430",
          "449",
          "464",
          "472",
          "474",
          "474",
          "472",
          "466",
          "474",
          "488",
          "497",
          "505",
          "511",
          "516",
          "517",
          "511",
          "503",
          "498",
          "498",
          "499",
          "498",
          "495",
          "491",
          "484",
          "478",
          "480",
          "484",
          "489",
          "490",
          "494",
          "495",
          "493",
          "490",
          "489",
          "488",
          "487",
          "486",
          "488",
          "488",
          "489",
          "490",
          "493",
          "493",
          "494",
          "496",
          "496",
          "497",
          "496",
          "496",
          "496",
          "496",
          "497",
          "496",
          "496",
          "498",
          "498",
          "498",
          "498",
          "499",
          "501",
          "501",
          "501",
          "502",
          "501",
          "499",
          "502",
          "502",
          "502",
          "503",
          "503",
          "503",
          "504",
          "505",
          "505",
          "507",
          "509",
          "510",
          "510",
          "511",
          "511",
          "511",
          "511",
          "511",
          "510",
          "512",
          "512",
          "513",
          "512",
          "512",
          "514",
          "514",
          "516",
          "516",
          "517",
          "517",
          "518",
          "518",
          "519",
          "521",
          "521",
          "520",
          "519",
          "520",
          "519",
          "520",
          "521",
          "521",
          "522",
          "524",
          "524",
          "526",
          "526",
          "526",
          "526",
          "518",
          "525",
          "529",
          "534",
          "537",
          "534",
          "527",
          "539",
          "536",
          "544",
          "555",
          "560",
          "568",
          "565",
          "562",
          "565",
          "555",
          "549",
          "540",
          "532",
          "510",
          "496",
          "514",
          "529",
          "537",
          "539",
          "535",
          "535",
          "533",
          "529",
          "528",
          "524",
          "519",
          "513",
          "517",
          "504",
          "489",
          "481",
          "473",
          "457",
          "473",
          "478",
          "480",
          "481",
          "483",
          "488",
          "490",
          "483",
          "466",
          "453",
          "433",
          "421",
          "413",
          "381",
          "389",
          "390",
          "375",
          "354",
          "335",
          "322",
          "299",
          "289",
          "284",
          "278",
          "275",
          "267",
          "265",
          "280",
          "280",
          "274",
          "258",
          "242",
          "246",
          "217",
          "185",
          "174",
          "175",
          "154",
          "146",
          "146",
          "152",
          "144",
          "138",
          "143",
          "144",
          "151"
        ],
        "altitude_ft": [
          "675",
          "1625",
          "2675",
          "3625",
          "4350",
          "5425",
          "6825",
          "8500",
          "11175",
          "13300",
          "14650",
          "16050",
          "18075",
          "19750",
          "21275",
          "22825",
          "24325",
          "25800",
          "27375",
          "28925",
          "29925",
          "30850",
          "31600",
          "32325",
          "33075",
          "33800",
          "34525",
          "35475",
          "36400",
          "37325",
          "38025",
          "38650",
          "39275",
          "39925",
          "40550",
          "41200",
          "41825",
          "42150",
          "42400",
          "42650",
          "42875",
          "43000",
          "43000",
          "43000",
          "43000",
          "43000",
          "43000",
          "43000",
          "43000",
          "43000",
          "43000",
          "43000",
          "43000",
          "43000",
          "43000",
          "43000",
          "43000",
          "43000",
          "43000",
          "43000",
          "43000",
          "43000",
          "43000",
          "43000",
          "43000",
          "43000",
          "43000",
          "43000",
          "43000",
          "43000",
          "43000",
          "43000",
          "43000",
          "43000",
          "43000",
          "43000",
          "43000",
          "43000",
          "43000",
          "43000",
          "43000",
          "43000",
          "43000",
          "43000",
          "43000",
          "43000",
          "43000",
          "43000",
          "43000",
          "43000",
          "43000",
          "43000",
          "43000",
          "43000",
          "43000",
          "43000",
          "43000",
          "43000",
          "43000",
          "43000",
          "43000",
          "43000",
          "43000",
          "43000",
          "43000",
          "43000",
          "43000",
          "43000",
          "43000",
          "43000",
          "43000",
          "43000",
          "43000",
          "43000",
          "43000",
          "43000",
          "43000",
          "43000",
          "43000",
          "43000",
          "43000",
          "43000",
          "43000",
          "43000",
          "43000",
          "42550",
          "41750",
          "40925",
          "40100",
          "39275",
          "38450",
          "37675",
          "36825",
          "36100",
          "36000",
          "35600",
          "34950",
          "34625",
          "34075",
          "34000",
          "34000",
          "34000",
          "34000",
          "34000",
          "34000",
          "34000",
          "33425",
          "32675",
          "31975",
          "31325",
          "30750",
          "29950",
          "29250",
          "28450",
          "27675",
          "26500",
          "25475",
          "24750",
          "24075",
          "24000",
          "24000",
          "23600",
          "23075",
          "22550",
          "22050",
          "22000",
          "22000",
          "22000",
          "22000",
          "22000",
          "22000",
          "22000",
          "21950",
          "21275",
          "20100",
          "18975",
          "17300",
          "16200",
          "15625",
          "12775",
          "12000",
          "11525",
          "10025",
          "9300",
          "8675",
          "8375",
          "7975",
          "7475",
          "7100",
          "6750",
          "6200",
          "6000",
          "6025",
          "5725",
          "5375",
          "4900",
          "4500",
          "4375",
          "3700",
          "3450",
          "3475",
          "3475",
          "3250",
          "2825",
          "2500",
          "2300",
          "2100",
          "1925",
          "1725",
          "1575",
          "1375",
          "1200"
        ],
        "vertical_rate_fpm": [
          "",
          "3750",
          "3429",
          "2716",
          "2455",
          "2652",
          "3075",
          "3480",
          "3789",
          "4010",
          "4024",
          "4110",
          "3700",
          "3200",
          "3075",
          "3050",
          "2975",
          "3050",
          "3125",
          "2550",
          "1724",
          "1500",
          "1475",
          "1475",
          "1475",
          "1450",
          "1675",
          "1875",
          "1850",
          "1625",
          "1325",
          "1250",
          "1275",
          "1275",
          "1275",
          "1275",
          "950",
          "575",
          "500",
          "475",
          "333",
          "117",
          "",
          "",
          "",
          "",
          "",
          "",
          "",
          "",
          "",
          "",
          "",
          "",
          "",
          "",
          "",
          "",
          "",
          "",
          "",
          "",
          "",
          "",
          "",
          "",
          "",
          "",
          "",
          "",
          "",
          "",
          "",
          "",
          "",
          "",
          "",
          "",
          "",
          "",
          "",
          "",
          "",
          "",
          "",
          "",
          "",
          "",
          "",
          "",
          "",
          "",
          "",
          "",
          "",
          "",
          "",
          "",
          "",
          "",
          "",
          "",
          "",
          "",
          "",
          "",
          "",
          "",
          "",
          "",
          "",
          "",
          "",
          "",
          "",
          "",
          "",
          "",
          "",
          "",
          "",
          "",
          "",
          "",
          "-386",
          "-1250",
          "-1625",
          "-1650",
          "-1650",
          "-1650",
          "-1600",
          "-1625",
          "-1575",
          "-952",
          "-577",
          "-900",
          "-959",
          "-1029",
          "-625",
          "-75",
          "",
          "",
          "",
          "",
          "",
          "-863",
          "-1500",
          "-1450",
          "-1500",
          "-1598",
          "-1587",
          "-1579",
          "-1579",
          "-1575",
          "-1560",
          "-1590",
          "-1591",
          "-1448",
          "-750",
          "-65",
          "-343",
          "-910",
          "-1050",
          "-1025",
          "-541",
          "-48",
          "",
          "",
          "",
          "",
          "",
          "-73",
          "-946",
          "-2094",
          "-2339",
          "-2366",
          "-2313",
          "-2185",
          "-1995",
          "-1859",
          "-1563",
          "-1601",
          "-1571",
          "-1446",
          "-1291",
          "-1200",
          "-1286",
          "-1346",
          "-1279",
          "-1286",
          "-1098",
          "-309",
          "-458",
          "-1114",
          "-1456",
          "-1193",
          "-685",
          "-1067",
          "-1009",
          "-221",
          "25",
          "-225",
          "-650",
          "-763",
          "-670",
          "-706",
          "-703",
          "-682",
          "-636",
          "-618",
          "-662",
          "-656"
        ],
        "reporting_facility": [
          "FlightAware ADS-B(PSR / LIBP)",
          "FlightAware ADS-B(PSR / LIBP)",
          "FlightAware ADS-B(PSR / LIBP)",
          "FlightAware ADS-B(PSR / LIBP)",
          "FlightAware ADS-B(PSR / LIBP)",
          "FlightAware ADS-B(PSR / LIBP)",
          "FlightAware ADS-B(PSR / LIBP)",
          "FlightAware ADS-B(PSR / LIBP)",
          "FlightAware ADS-B(AOI / LIPY)",
          "FlightAware ADS-B(FOG / LIBF)",
          "FlightAware ADS-B(FCO / LIRF)",
          "FlightAware ADS-B(SPU / LDSP)",
          "FlightAware ADS-B(FCO / LIRF)",
          "FlightAware ADS-B(AOI / LIPY)",
          "FlightAware ADS-B(FCO / LIRF)",
          "FlightAware ADS-B(FCO / LIRF)",
          "FlightAware ADS-B(FCO / LIRF)",
          "FlightAware ADS-B(ZAD / LDZD)",
          "FlightAware ADS-B(CIA / LIRA)",
          "FlightAware ADS-B(PSR / LIBP)",
          "FlightAware ADS-B(PSR / LIBP)",
          "FlightAware ADS-B(LIQQ)",
          "FlightAware ADS-B(PSR / LIBP)",
          "FlightAware ADS-B(LIPC)",
          "FlightAware ADS-B(AOI / LIPY)",
          "FlightAware ADS-B(AOI / LIPY)",
          "FlightAware ADS-B(PMF / LIMP)",
          "FlightAware ADS-B(PUY / LDPL)",
          "FlightAware ADS-B(PSR / LIBP)",
          "FlightAware ADS-B(PUY / LDPL)",
          "FlightAware ADS-B(PSR / LIBP)",
          "FlightAware ADS-B(LINA)",
          "FlightAware ADS-B(LIQQ)",
          "FlightAware ADS-B(AOI / LIPY)",
          "FlightAware ADS-B(AOI / LIPY)",
          "FlightAware ADS-B(LIDG)",
          "FlightAware ADS-B(LIDF)",
          "FlightAware ADS-B(VIC / LIPT)",
          "FlightAware ADS-B(RAN / LIDR)",
          "FlightAware ADS-B(LIDF)",
          "FlightAware ADS-B(LIDF)",
          "FlightAware ADS-B(BLQ / LIPE)",
          "FlightAware ADS-B(LIPF)",
          "FlightAware ADS-B(NCE / LFMN)",
          "FlightAware ADS-B(LIQF)",
          "FlightAware ADS-B(NCE / LFMN)",
          "FlightAware ADS-B(NCE / LFMN)",
          "FlightAware ADS-B(LIQQ)",
          "FlightAware ADS-B(LIQQ)",
          "FlightAware ADS-B(FLR / LIRQ)",
          "FlightAware ADS-B(LJAJ)",
          "FlightAware ADS-B(LJAJ)",
          "FlightAware ADS-B(LJAJ)",
          "FlightAware ADS-B(LJAJ)",
          "FlightAware ADS-B(LJAJ)",
          "FlightAware ADS-B(TSF / LIPH)",
          "FlightAware ADS-B(LJAJ)",
          "FlightAware ADS-B(LIDT)",
          "FlightAware ADS-B(LIPU)",
          "FlightAware ADS-B(LIPU)",
          "FlightAware ADS-B(LIPU)",
          "FlightAware ADS-B(LIPU)",
          "FlightAware ADS-B(LIPU)",
          "FlightAware ADS-B(LIDU)",
          "FlightAware ADS-B(GRZ / LOWG)",
          "FlightAware ADS-B(GRZ / LOWG)",
          "FlightAware ADS-B(VRN / LIPX)",
          "FlightAware ADS-B(LIMA)",
          "FlightAware ADS-B(LIMA)",
          "FlightAware ADS-B(MUC / EDDM)",
          "FlightAware ADS-B(MUC / EDDM)",
          "FlightAware ADS-B(MUC / EDDM)",
          "FlightAware ADS-B(LIPS)",
          "FlightAware ADS-B(LIDD)",
          "FlightAware ADS-B(LIDD)",
          "FlightAware ADS-B(TSF / LIPH)",
          "FlightAware ADS-B(TSF / LIPH)",
          "FlightAware ADS-B(MUC / EDDM)",
          "FlightAware ADS-B(VRN / LIPX)",
          "FlightAware ADS-B(EDTD)",
          "FlightAware ADS-B(TSF / LIPH)",
          "FlightAware ADS-B(LOIK)",
          "FlightAware ADS-B(EDPG)",
          "FlightAware ADS-B(LOIK)",
          "FlightAware ADS-B(EBA / LIRJ)",
          "FlightAware ADS-B(SZG / LOWS)",
          "FlightAware ADS-B(LIMB)",
          "FlightAware ADS-B(VRN / LIPX)",
          "FlightAware ADS-B(VRN / LIPX)",
          "FlightAware ADS-B(LIDT)",
          "FlightAware ADS-B(EDMK)",
          "FlightAware ADS-B(MUC / EDDM)",
          "FlightAware ADS-B(STR / EDDS)",
          "FlightAware ADS-B(ZRH / LSZH)",
          "FlightAware ADS-B(EDCS)",
          "FlightAware ADS-B(LSMD)",
          "FlightAware ADS-B(ZRH / LSZH)",
          "FlightAware ADS-B(MUC / EDDM)",
          "FlightAware ADS-B(MUC / EDDM)",
          "FlightAware ADS-B(EDMG)",
          "FlightAware ADS-B(LSMF)",
          "FlightAware ADS-B(LSMF)",
          "FlightAware ADS-B(ETHA)",
          "FlightAware ADS-B(HOH / LOIH)",
          "FlightAware ADS-B(EDNH)",
          "FlightAware ADS-B(HOQ / EDQM)",
          "FlightAware ADS-B(EDNH)",
          "FlightAware ADS-B(ETHA)",
          "FlightAware ADS-B(EDPO)",
          "FlightAware ADS-B(STR / EDDS)",
          "FlightAware ADS-B(NUE / EDDN)",
          "FlightAware ADS-B(MUC / EDDM)",
          "FlightAware ADS-B(STR / EDDS)",
          "FlightAware ADS-B(MUC / EDDM)",
          "FlightAware ADS-B(STR / EDDS)",
          "FlightAware ADS-B(EDND)",
          "FlightAware ADS-B(LSPA)",
          "FlightAware ADS-B(EDNA)",
          "FlightAware ADS-B(EDPD)",
          "FlightAware ADS-B(EDMG)",
          "FlightAware ADS-B(EDMG)",
          "FlightAware ADS-B(FDH / EDNY)",
          "FlightAware ADS-B(EDTY)",
          "FlightAware ADS-B(EAP / LFSB)",
          "FlightAware ADS-B(ETHL)",
          "FlightAware ADS-B(EDTC)",
          "FlightAware ADS-B(EDAQ)",
          "FlightAware ADS-B(EDNX)",
          "FlightAware ADS-B(STR / EDDS)",
          "FlightAware ADS-B(EDGX)",
          "FlightAware ADS-B(FRA / EDDF)",
          "FlightAware ADS-B(EDTY)",
          "FlightAware ADS-B(STR / EDDS)",
          "FlightAware ADS-B(EDTY)",
          "FlightAware ADS-B(EDFB)",
          "FlightAware ADS-B(EDSH)",
          "FlightAware ADS-B(EDFC)",
          "FlightAware ADS-B(EDMG)",
          "FlightAware ADS-B(FRA / EDDF)",
          "FlightAware ADS-B(STR / EDDS)",
          "FlightAware ADS-B(STR / EDDS)",
          "FlightAware ADS-B(RMS / ETAR)",
          "FlightAware ADS-B(STR / EDDS)",
          "FlightAware ADS-B(AAH / EDKA)",
          "FlightAware ADS-B(LFSH)",
          "FlightAware ADS-B(EDFY)",
          "FlightAware ADS-B(EDFC)",
          "FlightAware ADS-B(QEF / EDFE)",
          "FlightAware ADS-B(EDMQ)",
          "FlightAware ADS-B(SCN / EDDR)",
          "FlightAware ADS-B(EDLI)",
          "FlightAware ADS-B(SCN / EDDR)",
          "FlightAware ADS-B(STR / EDDS)",
          "FlightAware ADS-B(EDRK)",
          "FlightAware ADS-B(FRA / EDDF)",
          "FlightAware ADS-B(EBHM)",
          "FlightAware ADS-B(DUS / EDDL)",
          "FlightAware ADS-B(DTM / EDLW)",
          "FlightAware ADS-B(ETOU)",
          "FlightAware ADS-B(LUX / ELLX)",
          "FlightAware ADS-B(EHBD)",
          "FlightAware ADS-B(RMS / ETAR)",
          "FlightAware ADS-B(STR / EDDS)",
          "FlightAware ADS-B(FRA / EDDF)",
          "FlightAware ADS-B(EIN / EHEH)",
          "FlightAware ADS-B(EDKL)",
          "FlightAware ADS-B(EHTE)",
          "FlightAware ADS-B(ETNN)",
          "FlightAware ADS-B(GRQ / EHGG)",
          "FlightAware ADS-B(DUS / EDDL)",
          "FlightAware ADS-B(ETNN)",
          "FlightAware ADS-B(AAH / EDKA)",
          "FlightAware ADS-B(LUX / ELLX)",
          "FlightAware ADS-B(GKE / ETNG)",
          "FlightAware ADS-B(AAH / EDKA)",
          "FlightAware ADS-B(EHHV)",
          "FlightAware ADS-B(EDLC)",
          "FlightAware ADS-B(ETSB)",
          "FlightAware ADS-B(DUS / EDDL)",
          "FlightAware ADS-B(EBGB)",
          "FlightAware ADS-B(NRN / EDLV)",
          "FlightAware ADS-B(DUS / EDDL)",
          "FlightAware ADS-B(EIN / EHEH)",
          "FlightAware ADS-B(EIN / EHEH)",
          "FlightAware ADS-B(MST / EHBK)",
          "FlightAware ADS-B(GKE / ETNG)",
          "FlightAware ADS-B(BRU / EBBR)",
          "FlightAware ADS-B(GKE / ETNG)",
          "FlightAware ADS-B(EHBD)",
          "FlightAware ADS-B(BRU / EBBR)",
          "FlightAware ADS-B(BRU / EBBR)",
          "FlightAware ADS-B(BRU / EBBR)",
          "FlightAware ADS-B(MST / EHBK)",
          "FlightAware ADS-B(MGL / EDLN)",
          "FlightAware ADS-B(EBME)",
          "FlightAware ADS-B(EBCF)",
          "FlightAware ADS-B(EBGB)",
          "FlightAware ADS-B(BRU / EBBR)",
          "FlightAware ADS-B(CRL / EBCI)",
          "FlightAware ADS-B(EBCF)",
          "FlightAware ADS-B(CRL / EBCI)",
          "FlightAware ADS-B(CRL / EBCI)",
          "FlightAware ADS-B(EBBZ)",
          "FlightAware ADS-B(EBCF)",
          "FlightAware ADS-B(CRL / EBCI)",
          "Surface and Near-Surface",
          "FlightAware ADS-B(EBNM)",
          "FlightAware ADS-B(CRL / EBCI)",
          "FlightAware ADS-B(EBGB)",
          "FlightAware ADS-B(EBNM)",
          "FlightAware ADS-B(CRL / EBCI)",
          "FlightAware ADS-B(CRL / EBCI)"
        ]
      }
    }
  ]
}