{
  "type": "FeatureCollection",
  "features": [
    {
      "type": "Feature",
      "geometry": {
        "type": "LineString",
        "coordinates": [
          [
            0.0284,
            51.3249
          ],
          [
            0.0284,
            51.3249
          ],
          [
            0.0191,
            51.3138
          ],
          [
            0.0006,
            51.3046
          ],
          [
            -0.0216,
            51.3026
          ],
          [
            -0.0281,
            51.3292
          ],
          [
            0.0121,
            51.3457
          ],
          [
            0.1393,
            51.3344
          ],
          [
            0.1746,
            51.331
          ],
          [
            0.2181,
            51.3288
          ],
          [
            0.2586,
            51.3283
          ],
          [
            0.289,
            51.3271
          ],
          [
            0.3484,
            51.3233
          ],
          [
            0.404,
            51.3229
          ],
          [
            0.4463,
            51.3212
          ],
          [
            0.4854,
            51.3196
          ],
          [
            0.5232,
            51.3188
          ],
          [
            0.5897,
            51.3155
          ],
          [
            0.6716,
            51.311
          ],
          [
            0.7511,
            51.3065
          ],
          [
            0.8563,
            51.3032
          ],
          [
            0.9566,
            51.2966
          ],
          [
            1.0567,
            51.2896
          ],
          [
            1.1582,
            51.2829
          ],
          [
            1.2538,
            51.2778
          ],
          [
            1.3506,
            51.2725
          ],
          [
            1.4522,
            51.2657
          ],
          [
            1.5627,
            51.2596
          ],
          [
            1.67,
            51.2529
          ],
          [
            1.7784,
            51.2458
          ],
          [
            1.8945,
            51.2324
          ],
          [
            2.0101,
            51.2188
          ],
          [
            2.1303,
            51.2049
          ],
          [
            2.2389,
            51.1929
          ],
          [
            2.3527,
            51.1799
          ],
          [
            2.4791,
            51.1653
          ],
          [
            2.5903,
            51.1534
          ],
          [
            2.7053,
            51.1397
          ],
          [
            2.8212,
            51.1254
          ],
          [
            2.9388,
            51.1104
          ],
          [
            3.0544,
            51.0945
          ],
          [
            3.1705,
            51.0796
          ],
          [
            3.2867,
            51.0645
          ],
          [
            3.4012,
            51.0489
          ],
          [
            3.5151,
            51.0343
          ],
          [
            3.6437,
            51.0164
          ],
          [
            3.7591,
            51.0007
          ],
          [
            3.8896,
            50.9821
          ],
          [
            4.0091,
            50.9661
          ],
          [
            4.1347,
            50.9492
          ],
          [
            4.254,
            50.9317
          ],
          [
            4.3783,
            50.9144
          ],
          [
            4.4853,
            50.8984
          ],
          [
            4.5972,
            50.8824
          ],
          [
            4.7183,
            50.8647
          ],
          [
            4.8432,
            50.847
          ],
          [
            4.9625,
            50.8283
          ],
          [
            5.0762,
            50.8113
          ],
          [
            5.1881,
            50.7953
          ],
          [
            5.3116,
            50.7762
          ],
          [
            5.4271,
            50.7595
          ],
          [
            5.5271,
            50.7442
          ],
          [
            5.6402,
            50.7254
          ],
          [
            5.751,
            50.7081
          ],
          [
            5.8578,
            50.6922
          ],
          [
            5.9568,
            50.6768
          ],
          [
            6.0568,
            50.6607
          ],
          [
            6.1571,
            50.6467
          ],
          [
            6.213,
            50.6481
          ],
          [
            6.2715,
            50.6564
          ],
          [
            6.3551,
            50.7101
          ],
          [
            6.4359,
            50.7383
          ],
          [
            6.5111,
            50.7637
          ],
          [
            6.567,
            50.783
          ],
          [
            6.6072,
            50.7972
          ],
          [
            6.6466,
            50.8156
          ],
          [
            6.6827,
            50.842
          ],
          [
            6.7056,
            50.8661
          ],
          [
            6.7295,
            50.887
          ],
          [
            6.7548,
            50.9084
          ],
          [
            6.7993,
            50.949
          ],
          [
            6.8378,
            50.9779
          ],
          [
            6.8548,
            50.9925
          ],
          [
            6.8717,
            51.0053
          ],
          [
            6.8938,
            51.0134
          ],
          [
            6.9154,
            51.0186
          ],
          [
            6.9376,
            51.0136
          ],
          [
            6.9568,
            51.0115
          ],
          [
            6.966,
            50.9988
          ],
          [
            7.014,
            50.9453
          ],
          [
            7.0277,
            50.9338
          ],
          [
            7.04,
            50.9252
          ],
          [
            7.0512,
            50.9163
          ],
          [
            7.0611,
            50.9121
          ],
          [
            7.0724,
            50.9036
          ],
          [
            7.0856,
            50.8941
          ],
          [
            7.0964,
            50.8882
          ],
          [
            7.1055,
            50.881
          ],
          [
            7.1137,
            50.8752
          ]
        ]
      },
      "properties": {
        "time_europe_berlin": [
          "22.10.2025 18:28:35",
          "22.10.2025 18:28:35",
          "22.10.2025 18:28:54",
          "22.10.2025 18:29:10",
          "22.10.2025 18:29:29",
          "22.10.2025 18:29:48",
          "22.10.2025 18:30:20",
          "22.10.2025 18:31:30",
          "22.10.2025 18:31:50",
          "22.10.2025 18:32:15",
          "22.10.2025 18:32:36",
          "22.10.2025 18:32:52",
          "22.10.2025 18:33:23",
          "22.10.2025 18:33:48",
          "22.10.2025 18:34:08",
          "22.10.2025 18:34:27",
          "22.10.2025 18:34:45",
          "22.10.2025 18:35:14",
          "22.10.2025 18:35:47",
          "22.10.2025 18:36:17",
          "22.10.2025 18:36:50",
          "22.10.2025 18:37:20",
          "22.10.2025 18:37:51",
          "22.10.2025 18:38:23",
          "22.10.2025 18:38:53",
          "22.10.2025 18:39:23",
          "22.10.2025 18:39:54",
          "22.10.2025 18:40:26",
          "22.10.2025 18:40:57",
          "22.10.2025 18:41:28",
          "22.10.2025 18:42:01",
          "22.10.2025 18:42:34",
          "22.10.2025 18:43:06",
          "22.10.2025 18:43:36",
          "22.10.2025 18:44:07",
          "22.10.2025 18:44:41",
          "22.10.2025 18:45:11",
          "22.10.2025 18:45:41",
          "22.10.2025 18:46:11",
          "22.10.2025 18:46:43",
          "22.10.2025 18:47:13",
          "22.10.2025 18:47:43",
          "22.10.2025 18:48:13",
          "22.10.2025 18:48:43",
          "22.10.2025 18:49:13",
          "22.10.2025 18:49:47",
          "22.10.2025 18:50:17",
          "22.10.2025 18:50:51",
          "22.10.2025 18:51:22",
          "22.10.2025 18:51:55",
          "22.10.2025 18:52:26",
          "22.10.2025 18:53:00",
          "22.10.2025 18:53:30",
          "22.10.2025 18:54:00",
          "22.10.2025 18:54:32",
          "22.10.2025 18:55:05",
          "22.10.2025 18:55:37",
          "22.10.2025 18:56:08",
          "22.10.2025 18:56:38",
          "22.10.2025 18:57:12",
          "22.10.2025 18:57:44",
          "22.10.2025 18:58:14",
          "22.10.2025 18:58:47",
          "22.10.2025 18:59:20",
          "22.10.2025 18:59:52",
          "22.10.2025 19:00:22",
          "22.10.2025 19:00:53",
          "22.10.2025 19:01:25",
          "22.10.2025 19:01:42",
          "22.10.2025 19:01:58",
          "22.10.2025 19:02:34",
          "22.10.2025 19:03:05",
          "22.10.2025 19:03:36",
          "22.10.2025 19:03:59",
          "22.10.2025 19:04:16",
          "22.10.2025 19:04:35",
          "22.10.2025 19:04:56",
          "22.10.2025 19:05:13",
          "22.10.2025 19:05:29",
          "22.10.2025 19:05:46",
          "22.10.2025 19:06:20",
          "22.10.2025 19:06:50",
          "22.10.2025 19:07:07",
          "22.10.2025 19:07:23",
          "22.10.2025 19:07:40",
          "22.10.2025 19:07:56",
          "22.10.2025 19:08:12",
          "22.10.2025 19:08:28",
          "22.10.2025 19:08:44",
          "22.10.2025 19:09:36",
          "22.10.2025 19:09:55",
          "22.10.2025 19:10:11",
          "22.10.2025 19:10:27",
          "22.10.2025 19:10:43",
          "22.10.2025 19:11:00",
          "22.10.2025 19:11:18",
          "22.10.2025 19:11:36",
          "22.10.2025 19:11:53",
          "22.10.2025 19:12:09"
        ],
        "course_deg_clockwise_from_north": [
          "206",
          "206",
          "214",
          "214",
          "315",
          "360",
          "106",
          "93",
          "93",
          "93",
          "93",
          "93",
          "94",
          "93",
          "94",
          "93",
          "94",
          "95",
          "95",
          "95",
          "95",
          "95",
          "95",
          "95",
          "95",
          "95",
          "95",
          "95",
          "95",
          "99",
          "101",
          "100",
          "100",
          "100",
          "101",
          "100",
          "100",
          "100",
          "101",
          "102",
          "101",
          "102",
          "102",
          "102",
          "102",
          "102",
          "103",
          "102",
          "103",
          "102",
          "103",
          "103",
          "103",
          "103",
          "103",
          "103",
          "103",
          "103",
          "103",
          "103",
          "104",
          "104",
          "103",
          "104",
          "104",
          "104",
          "104",
          "83",
          "64",
          "62",
          "63",
          "62",
          "62",
          "62",
          "56",
          "42",
          "38",
          "37",
          "37",
          "37",
          "39",
          "38",
          "38",
          "41",
          "72",
          "72",
          "128",
          "128",
          "128",
          "137",
          "137",
          "137",
          "137",
          "137",
          "137",
          "139",
          "136",
          "138",
          "139"
        ],
        "speed_kts": [
          "152",
          "152",
          "164",
          "164",
          "206",
          "218",
          "236",
          "236",
          "236",
          "250",
          "260",
          "266",
          "288",
          "280",
          "282",
          "290",
          "298",
          "324",
          "380",
          "412",
          "422",
          "424",
          "436",
          "434",
          "436",
          "446",
          "458",
          "468",
          "476",
          "482",
          "490",
          "498",
          "504",
          "508",
          "512",
          "518",
          "524",
          "526",
          "528",
          "530",
          "536",
          "532",
          "530",
          "532",
          "534",
          "536",
          "536",
          "538",
          "538",
          "540",
          "518",
          "504",
          "516",
          "532",
          "532",
          "526",
          "522",
          "524",
          "516",
          "506",
          "494",
          "486",
          "478",
          "472",
          "466",
          "460",
          "452",
          "446",
          "440",
          "434",
          "416",
          "392",
          "376",
          "374",
          "372",
          "364",
          "352",
          "344",
          "330",
          "322",
          "304",
          "252",
          "250",
          "218",
          "210",
          "210",
          "192",
          "192",
          "192",
          "158",
          "152",
          "152",
          "148",
          "148",
          "148",
          "149",
          "131",
          "126",
          "117"
        ],
        "speed_mph": [
          "175",
          "175",
          "189",
          "189",
          "237",
          "251",
          "272",
          "272",
          "272",
          "288",
          "299",
          "306",
          "331",
          "322",
          "325",
          "334",
          "343",
          "373",
          "437",
          "474",
          "486",
          "488",
          "502",
          "499",
          "502",
          "513",
          "527",
          "539",
          "548",
          "555",
          "564",
          "573",
          "580",
          "585",
          "589",
          "596",
          "603",
          "605",
          "608",
          "610",
          "617",
          "612",
          "610",
          "612",
          "615",
          "617",
          "617",
          "619",
          "619",
          "621",
          "596",
          "580",
          "594",
          "612",
          "612",
          "605",
          "601",
          "603",
          "594",
          "582",
          "568",
          "559",
          "550",
          "543",
          "536",
          "529",
          "520",
          "513",
          "506",
          "499",
          "479",
          "451",
          "433",
          "430",
          "428",
          "419",
          "405",
          "396",
          "380",
          "371",
          "350",
          "290",
          "288",
          "251",
          "242",
          "242",
          "221",
          "221",
          "221",
          "182",
          "175",
          "175",
          "170",
          "170",
          "170",
          "171",
          "151",
          "145",
          "135"
        ],
        "altitude_ft": [
          "1450",
          "1450",
          "2400",
          "2875",
          "3200",
          "3650",
          "3500",
          "3525",
          "3550",
          "3950",
          "4300",
          "4550",
          "5350",
          "6300",
          "7350",
          "8225",
          "9275",
          "11025",
          "12550",
          "13800",
          "15975",
          "16975",
          "17000",
          "17000",
          "17425",
          "18125",
          "18650",
          "19650",
          "20700",
          "21725",
          "22800",
          "23875",
          "24975",
          "26125",
          "27250",
          "28450",
          "29475",
          "30475",
          "31450",
          "32425",
          "32950",
          "33000",
          "33000",
          "33000",
          "33000",
          "33000",
          "33000",
          "33000",
          "33000",
          "33000",
          "32650",
          "31600",
          "30575",
          "29550",
          "28475",
          "27400",
          "26300",
          "25250",
          "24250",
          "23150",
          "22875",
          "21925",
          "20900",
          "19950",
          "18975",
          "18075",
          "17125",
          "16175",
          "15575",
          "15000",
          "13625",
          "12225",
          "10925",
          "9900",
          "9175",
          "8575",
          "7900",
          "7400",
          "6850",
          "6375",
          "5375",
          "4500",
          "4150",
          "3950",
          "3650",
          "3425",
          "3375",
          "3400",
          "3375",
          "2625",
          "2425",
          "2175",
          "1975",
          "1800",
          "1550",
          "1325",
          "1175",
          "950",
          "825"
        ],
        "vertical_rate_fpm": [
          "",
          "3000",
          "2443",
          "1371",
          "1224",
          "353",
          "-74",
          "33",
          "567",
          "978",
          "973",
          "1340",
          "1875",
          "2667",
          "2962",
          "3122",
          "3574",
          "3169",
          "2643",
          "3262",
          "3024",
          "1008",
          "24",
          "411",
          "1125",
          "1205",
          "1452",
          "1952",
          "2008",
          "1969",
          "1955",
          "2008",
          "2177",
          "2238",
          "2146",
          "2086",
          "2025",
          "1975",
          "1887",
          "1452",
          "575",
          "50",
          "",
          "",
          "",
          "",
          "",
          "",
          "",
          "-328",
          "-1292",
          "-1945",
          "-2050",
          "-2032",
          "-1985",
          "-2008",
          "-2048",
          "-2016",
          "-1969",
          "-1250",
          "-1185",
          "-1881",
          "-1795",
          "-1777",
          "-1815",
          "-1820",
          "-1810",
          "-1898",
          "-2136",
          "-2250",
          "-2485",
          "-2613",
          "-2583",
          "-2625",
          "-2208",
          "-1913",
          "-1855",
          "-1909",
          "-1864",
          "-1735",
          "-1758",
          "-1564",
          "-1000",
          "-909",
          "-955",
          "-516",
          "-47",
          "",
          "-684",
          "-803",
          "-771",
          "-844",
          "-703",
          "-773",
          "-814",
          "-625",
          "-643",
          "-636",
          "-469"
        ],
        "reporting_facility": [
          "FlightAware MLAT(5 sites)",
          "FlightAware MLAT(5 sites)",
          "FlightAware MLAT(5 sites)",
          "FlightAware MLAT(24 sites)",
          "FlightAware MLAT(11 sites)",
          "Surface and Near-Surface",
          "FlightAware ADS-B(EGLW)",
          "FlightAware MLAT(5 sites)",
          "FlightAware MLAT(5 sites)",
          "FlightAware MLAT(8 sites)",
          "FlightAware MLAT(11 sites)",
          "FlightAware MLAT(9 sites)",
          "FlightAware MLAT(10 sites)",
          "FlightAware MLAT(6 sites)",
          "FlightAware MLAT(11 sites)",
          "FlightAware MLAT(8 sites)",
          "FlightAware MLAT(4 sites)",
          "FlightAware MLAT(12 sites)",
          "FlightAware MLAT(9 sites)",
          "FlightAware MLAT(4 sites)",
          "FlightAware MLAT(5 sites)",
          "FlightAware MLAT(5 sites)",
          "FlightAware MLAT(14 sites)",
          "FlightAware MLAT(11 sites)",
          "FlightAware MLAT(11 sites)",
          "FlightAware MLAT(11 sites)",
          "FlightAware MLAT(9 sites)",
          "FlightAware MLAT(5 sites)",
          "FlightAware MLAT(7 sites)",
          "FlightAware MLAT(10 sites)",
          "FlightAware MLAT(6 sites)",
          "FlightAware MLAT(4 sites)",
          "FlightAware MLAT(10 sites)",
          "FlightAware MLAT(8 sites)",
          "FlightAware MLAT(14 sites)",
          "FlightAware MLAT(4 sites)",
          "FlightAware MLAT(9 sites)",
          "FlightAware MLAT(5 sites)",
          "FlightAware MLAT(14 sites)",
          "FlightAware MLAT(7 sites)",
          "FlightAware MLAT(10 sites)",
          "FlightAware MLAT(10 sites)",
          "FlightAware MLAT(12 sites)",
          "FlightAware MLAT(13 sites)",
          "FlightAware MLAT(11 sites)",
          "FlightAware MLAT(9 sites)",
          "FlightAware MLAT(13 sites)",
          "FlightAware MLAT(5 sites)",
          "FlightAware MLAT(8 sites)",
          "FlightAware MLAT(4 sites)",
          "FlightAware MLAT(16 sites)",
          "FlightAware MLAT(11 sites)",
          "FlightAware MLAT(12 sites)",
          "FlightAware MLAT(12 sites)",
          "FlightAware MLAT(5 sites)",
          "FlightAware MLAT(5 sites)",
          "FlightAware MLAT(4 sites)",
          "FlightAware MLAT(11 sites)",
          "FlightAware MLAT(9 sites)",
          "FlightAware MLAT(5 sites)",
          "FlightAware MLAT(5 sites)",
          "FlightAware MLAT(9 sites)",
          "FlightAware MLAT(7 sites)",
          "FlightAware MLAT(4 sites)",
          "FlightAware MLAT(5 sites)",
          "FlightAware MLAT(4 sites)",
          "FlightAware MLAT(5 sites)",
          "FlightAware MLAT(6 sites)",
          "FlightAware MLAT(7 sites)",
          "FlightAware MLAT(10 sites)",
          "FlightAware MLAT(9 sites)",
          "FlightAware MLAT(8 sites)",
          "FlightAware MLAT(7 sites)",
          "FlightAware MLAT(8 sites)",
          "FlightAware MLAT(9 sites)",
          "FlightAware MLAT(9 sites)",
          "FlightAware MLAT(5 sites)",
          "FlightAware MLAT(6 sites)",
          "FlightAware MLAT(8 sites)",
          "FlightAware MLAT(9 sites)",
          "FlightAware MLAT(4 sites)",
          "FlightAware MLAT(9 sites)",
          "FlightAware MLAT(6 sites)",
          "FlightAware MLAT(6 sites)",
          "FlightAware MLAT(7 sites)",
          "FlightAware MLAT(6 sites)",
          "FlightAware MLAT(5 sites)",
          "FlightAware MLAT(7 sites)",
          "FlightAware MLAT(5 sites)",
          "FlightAware MLAT(8 sites)",
          "FlightAware MLAT(7 sites)",
          "FlightAware MLAT(6 sites)",
          "FlightAware MLAT(7 sites)",
          "FlightAware MLAT(10 sites)",
          "FlightAware MLAT(8 sites)",
          "FlightAware MLAT(6 sites)",
          "FlightAware MLAT(5 sites)",
          "FlightAware MLAT(5 sites)",
          "FlightAware MLAT(4 sites)"
        ]
      }
    }
  ]
}