{
  "type": "FeatureCollection",
  "features": [
    {
      "type": "Feature",
      "geometry": {
        "type": "LineString",
        "coordinates": [
          [
            7.1263,
            50.8671
          ],
          [
            7.1156,
            50.8744
          ],
          [
            7.1032,
            50.8845
          ],
          [
            7.0916,
            50.8961
          ],
          [
            7.0808,
            50.9071
          ],
          [
            7.0647,
            50.9121
          ],
          [
            7.0417,
            50.9115
          ],
          [
            7.0151,
            50.9067
          ],
          [
            6.9854,
            50.8994
          ],
          [
            6.9561,
            50.8921
          ],
          [
            6.9204,
            50.8839
          ],
          [
            6.8858,
            50.8779
          ],
          [
            6.8418,
            50.8744
          ],
          [
            6.7945,
            50.8725
          ],
          [
            6.7213,
            50.8698
          ],
          [
            6.6306,
            50.8653
          ],
          [
            6.5839,
            50.8631
          ],
          [
            6.5075,
            50.8593
          ],
          [
            6.3966,
            50.8537
          ],
          [
            6.2988,
            50.8482
          ],
          [
            6.2363,
            50.8451
          ],
          [
            6.1556,
            50.8408
          ],
          [
            6.0442,
            50.8347
          ],
          [
            5.9876,
            50.8317
          ],
          [
            5.9451,
            50.8233
          ],
          [
            5.9034,
            50.8005
          ],
          [
            5.8798,
            50.7709
          ],
          [
            5.8715,
            50.74
          ],
          [
            5.8707,
            50.7052
          ],
          [
            5.8772,
            50.6588
          ],
          [
            5.8904,
            50.5989
          ],
          [
            5.9032,
            50.5393
          ],
          [
            5.9109,
            50.5013
          ],
          [
            5.9131,
            50.4665
          ],
          [
            5.91,
            50.4034
          ],
          [
            5.9064,
            50.3395
          ],
          [
            5.9042,
            50.3021
          ],
          [
            5.9001,
            50.2379
          ],
          [
            5.8971,
            50.185
          ],
          [
            5.9122,
            50.1292
          ],
          [
            5.9363,
            50.0767
          ],
          [
            5.9702,
            50.0101
          ],
          [
            6.0017,
            49.9451
          ],
          [
            6.0267,
            49.8899
          ],
          [
            6.0529,
            49.8276
          ],
          [
            6.0708,
            49.7751
          ],
          [
            6.0884,
            49.7124
          ],
          [
            6.1061,
            49.6499
          ],
          [
            6.1243,
            49.5858
          ],
          [
            6.1422,
            49.5205
          ],
          [
            6.1666,
            49.4547
          ],
          [
            6.1931,
            49.3931
          ],
          [
            6.2175,
            49.3354
          ],
          [
            6.2426,
            49.2732
          ],
          [
            6.2649,
            49.2178
          ],
          [
            6.279,
            49.1666
          ],
          [
            6.2889,
            49.1171
          ],
          [
            6.2984,
            49.0717
          ],
          [
            6.3044,
            49.0251
          ],
          [
            6.3016,
            48.9362
          ],
          [
            6.298,
            48.8713
          ],
          [
            6.2969,
            48.8163
          ],
          [
            6.2942,
            48.7492
          ],
          [
            6.2919,
            48.6847
          ],
          [
            6.2897,
            48.6167
          ],
          [
            6.2876,
            48.5525
          ],
          [
            6.2854,
            48.4885
          ],
          [
            6.2833,
            48.4239
          ],
          [
            6.2812,
            48.3579
          ],
          [
            6.279,
            48.2915
          ],
          [
            6.2768,
            48.2398
          ],
          [
            6.2747,
            48.169
          ],
          [
            6.2727,
            48.1079
          ],
          [
            6.2706,
            48.0409
          ],
          [
            6.2687,
            47.979
          ],
          [
            6.2665,
            47.9158
          ],
          [
            6.2648,
            47.8507
          ],
          [
            6.2621,
            47.7878
          ],
          [
            6.2606,
            47.7258
          ],
          [
            6.258,
            47.6621
          ],
          [
            6.2528,
            47.5958
          ],
          [
            6.2464,
            47.5549
          ],
          [
            6.2368,
            47.4914
          ],
          [
            6.2276,
            47.4295
          ],
          [
            6.2185,
            47.3643
          ],
          [
            6.2095,
            47.303
          ],
          [
            6.2012,
            47.2422
          ],
          [
            6.1921,
            47.1775
          ],
          [
            6.1833,
            47.1172
          ],
          [
            6.1749,
            47.0542
          ],
          [
            6.1657,
            46.9914
          ],
          [
            6.1573,
            46.9276
          ],
          [
            6.1487,
            46.8656
          ],
          [
            6.1394,
            46.8006
          ],
          [
            6.131,
            46.7382
          ],
          [
            6.122,
            46.6758
          ],
          [
            6.1172,
            46.6387
          ],
          [
            6.1077,
            46.5709
          ],
          [
            6.0998,
            46.5099
          ],
          [
            6.0908,
            46.4475
          ],
          [
            6.0826,
            46.3862
          ],
          [
            6.074,
            46.3222
          ],
          [
            6.0654,
            46.2612
          ],
          [
            6.0574,
            46.2004
          ],
          [
            6.0491,
            46.1388
          ],
          [
            6.0442,
            46.108
          ],
          [
            6.0281,
            46.043
          ],
          [
            6.0119,
            45.9809
          ],
          [
            5.9916,
            45.8989
          ],
          [
            5.9766,
            45.8384
          ],
          [
            5.9622,
            45.7826
          ],
          [
            5.9468,
            45.719
          ],
          [
            5.9323,
            45.6603
          ],
          [
            5.9207,
            45.614
          ],
          [
            5.9051,
            45.5733
          ],
          [
            5.891,
            45.5429
          ],
          [
            5.8611,
            45.4819
          ],
          [
            5.8362,
            45.4287
          ],
          [
            5.8093,
            45.3695
          ],
          [
            5.7825,
            45.3134
          ],
          [
            5.7567,
            45.2569
          ],
          [
            5.7298,
            45.1986
          ],
          [
            5.703,
            45.1414
          ],
          [
            5.6771,
            45.0841
          ],
          [
            5.649,
            45.0243
          ],
          [
            5.6242,
            44.9693
          ],
          [
            5.5975,
            44.9112
          ],
          [
            5.5707,
            44.853
          ],
          [
            5.5447,
            44.7947
          ],
          [
            5.518,
            44.7373
          ],
          [
            5.493,
            44.6811
          ],
          [
            5.4657,
            44.6221
          ],
          [
            5.4401,
            44.5643
          ],
          [
            5.4127,
            44.5042
          ],
          [
            5.3874,
            44.4472
          ],
          [
            5.3606,
            44.3884
          ],
          [
            5.3345,
            44.3295
          ],
          [
            5.308,
            44.2727
          ],
          [
            5.2764,
            44.2179
          ],
          [
            5.2417,
            44.1606
          ],
          [
            5.2089,
            44.104
          ],
          [
            5.1749,
            44.0467
          ],
          [
            5.1436,
            43.9925
          ],
          [
            5.1101,
            43.9352
          ],
          [
            5.0778,
            43.8803
          ],
          [
            5.0463,
            43.8248
          ],
          [
            5.0105,
            43.7642
          ],
          [
            4.978,
            43.7075
          ],
          [
            4.9465,
            43.6523
          ],
          [
            4.9136,
            43.5958
          ],
          [
            4.8834,
            43.5421
          ],
          [
            4.8496,
            43.4848
          ],
          [
            4.8192,
            43.4302
          ],
          [
            4.7864,
            43.374
          ],
          [
            4.7553,
            43.3181
          ],
          [
            4.7229,
            43.2628
          ],
          [
            4.6913,
            43.2055
          ],
          [
            4.6586,
            43.1478
          ],
          [
            4.6281,
            43.0951
          ],
          [
            4.5842,
            43.0166
          ],
          [
            4.5518,
            42.9588
          ],
          [
            4.5128,
            42.8897
          ],
          [
            4.4829,
            42.835
          ],
          [
            4.4492,
            42.7769
          ],
          [
            4.409,
            42.7029
          ],
          [
            4.3784,
            42.649
          ],
          [
            4.3472,
            42.5925
          ],
          [
            4.316,
            42.5359
          ],
          [
            4.2843,
            42.4789
          ],
          [
            4.2533,
            42.4227
          ],
          [
            4.2214,
            42.3651
          ],
          [
            4.1884,
            42.2975
          ],
          [
            4.1617,
            42.2345
          ],
          [
            4.1344,
            42.1721
          ],
          [
            4.1098,
            42.1165
          ],
          [
            4.0828,
            42.0559
          ],
          [
            4.0587,
            41.9997
          ],
          [
            4.0378,
            41.9528
          ],
          [
            4.0124,
            41.8944
          ],
          [
            3.9857,
            41.8325
          ],
          [
            3.9618,
            41.7778
          ],
          [
            3.9353,
            41.7175
          ],
          [
            3.9113,
            41.6613
          ],
          [
            3.8862,
            41.6035
          ],
          [
            3.8618,
            41.5473
          ],
          [
            3.8363,
            41.4876
          ],
          [
            3.8117,
            41.4312
          ],
          [
            3.7876,
            41.3745
          ],
          [
            3.7626,
            41.3156
          ],
          [
            3.738,
            41.259
          ],
          [
            3.7136,
            41.2013
          ],
          [
            3.6883,
            41.142
          ],
          [
            3.6636,
            41.0838
          ],
          [
            3.6366,
            41.021
          ],
          [
            3.6108,
            40.9592
          ],
          [
            3.5872,
            40.9036
          ],
          [
            3.5632,
            40.8463
          ],
          [
            3.5404,
            40.7927
          ],
          [
            3.5159,
            40.7346
          ],
          [
            3.4911,
            40.6755
          ],
          [
            3.4665,
            40.6172
          ],
          [
            3.4421,
            40.5585
          ],
          [
            3.4186,
            40.5018
          ],
          [
            3.4032,
            40.4639
          ],
          [
            3.3962,
            40.4278
          ],
          [
            3.3853,
            40.3926
          ],
          [
            3.3408,
            40.3084
          ],
          [
            3.3101,
            40.253
          ],
          [
            3.2787,
            40.1948
          ],
          [
            3.2605,
            40.1583
          ],
          [
            3.2405,
            40.1055
          ],
          [
            3.2242,
            40.0459
          ],
          [
            3.2085,
            39.9887
          ],
          [
            3.1932,
            39.932
          ],
          [
            3.178,
            39.8779
          ],
          [
            3.1677,
            39.8439
          ],
          [
            3.1431,
            39.7946
          ],
          [
            3.1175,
            39.7464
          ],
          [
            3.0932,
            39.6998
          ],
          [
            3.084,
            39.6645
          ],
          [
            3.082,
            39.6225
          ],
          [
            3.0642,
            39.5809
          ],
          [
            3.0446,
            39.5577
          ],
          [
            3.0235,
            39.5367
          ],
          [
            2.9741,
            39.5095
          ],
          [
            2.9329,
            39.4889
          ],
          [
            2.8894,
            39.4669
          ],
          [
            2.8467,
            39.4449
          ],
          [
            2.8177,
            39.4305
          ],
          [
            2.7766,
            39.4188
          ],
          [
            2.7291,
            39.4076
          ],
          [
            2.681,
            39.3962
          ],
          [
            2.6522,
            39.389
          ],
          [
            2.6294,
            39.383
          ],
          [
            2.6046,
            39.3765
          ],
          [
            2.5705,
            39.3678
          ],
          [
            2.5479,
            39.3689
          ],
          [
            2.5308,
            39.3825
          ],
          [
            2.528,
            39.4037
          ],
          [
            2.5285,
            39.4178
          ],
          [
            2.5424,
            39.441
          ],
          [
            2.5592,
            39.4635
          ],
          [
            2.5687,
            39.4762
          ],
          [
            2.58,
            39.4851
          ],
          [
            2.596,
            39.493
          ],
          [
            2.6202,
            39.5042
          ],
          [
            2.6429,
            39.515
          ],
          [
            2.6547,
            39.5206
          ],
          [
            2.6667,
            39.5262
          ],
          [
            2.6773,
            39.5313
          ],
          [
            2.6869,
            39.5358
          ],
          [
            2.6965,
            39.5404
          ],
          [
            2.707,
            39.5454
          ],
          [
            2.717,
            39.5501
          ]
        ]
      },
      "properties": {
        "time_europe_berlin": [
          "09.10.2025 09:54:31",
          "09.10.2025 09:54:47",
          "09.10.2025 09:55:03",
          "09.10.2025 09:55:19",
          "09.10.2025 09:55:35",
          "09.10.2025 09:55:51",
          "09.10.2025 09:56:09",
          "09.10.2025 09:56:28",
          "09.10.2025 09:56:49",
          "09.10.2025 09:57:07",
          "09.10.2025 09:57:26",
          "09.10.2025 09:57:43",
          "09.10.2025 09:58:02",
          "09.10.2025 09:58:24",
          "09.10.2025 09:58:53",
          "09.10.2025 09:59:28",
          "09.10.2025 09:59:45",
          "09.10.2025 10:00:14",
          "09.10.2025 10:00:54",
          "09.10.2025 10:01:28",
          "09.10.2025 10:01:49",
          "09.10.2025 10:02:19",
          "09.10.2025 10:02:58",
          "09.10.2025 10:03:17",
          "09.10.2025 10:03:34",
          "09.10.2025 10:03:52",
          "09.10.2025 10:04:10",
          "09.10.2025 10:04:26",
          "09.10.2025 10:04:42",
          "09.10.2025 10:05:06",
          "09.10.2025 10:05:36",
          "09.10.2025 10:06:05",
          "09.10.2025 10:06:24",
          "09.10.2025 10:06:42",
          "09.10.2025 10:07:12",
          "09.10.2025 10:07:42",
          "09.10.2025 10:07:59",
          "09.10.2025 10:08:29",
          "09.10.2025 10:08:54",
          "09.10.2025 10:09:19",
          "09.10.2025 10:09:47",
          "09.10.2025 10:10:17",
          "09.10.2025 10:10:47",
          "09.10.2025 10:11:15",
          "09.10.2025 10:11:45",
          "09.10.2025 10:12:08",
          "09.10.2025 10:12:38",
          "09.10.2025 10:13:08",
          "09.10.2025 10:13:38",
          "09.10.2025 10:14:08",
          "09.10.2025 10:14:38",
          "09.10.2025 10:15:08",
          "09.10.2025 10:15:38",
          "09.10.2025 10:16:08",
          "09.10.2025 10:16:34",
          "09.10.2025 10:17:00",
          "09.10.2025 10:17:23",
          "09.10.2025 10:17:44",
          "09.10.2025 10:18:06",
          "09.10.2025 10:18:46",
          "09.10.2025 10:19:16",
          "09.10.2025 10:19:41",
          "09.10.2025 10:20:11",
          "09.10.2025 10:20:42",
          "09.10.2025 10:21:13",
          "09.10.2025 10:21:43",
          "09.10.2025 10:22:13",
          "09.10.2025 10:22:43",
          "09.10.2025 10:23:13",
          "09.10.2025 10:23:44",
          "09.10.2025 10:24:09",
          "09.10.2025 10:24:40",
          "09.10.2025 10:25:10",
          "09.10.2025 10:25:41",
          "09.10.2025 10:26:11",
          "09.10.2025 10:26:41",
          "09.10.2025 10:27:11",
          "09.10.2025 10:27:42",
          "09.10.2025 10:28:12",
          "09.10.2025 10:28:42",
          "09.10.2025 10:29:13",
          "09.10.2025 10:29:34",
          "09.10.2025 10:30:04",
          "09.10.2025 10:30:34",
          "09.10.2025 10:31:05",
          "09.10.2025 10:31:35",
          "09.10.2025 10:32:05",
          "09.10.2025 10:32:35",
          "09.10.2025 10:33:05",
          "09.10.2025 10:33:35",
          "09.10.2025 10:34:05",
          "09.10.2025 10:34:36",
          "09.10.2025 10:35:06",
          "09.10.2025 10:35:36",
          "09.10.2025 10:36:06",
          "09.10.2025 10:36:37",
          "09.10.2025 10:36:57",
          "09.10.2025 10:37:27",
          "09.10.2025 10:37:57",
          "09.10.2025 10:38:27",
          "09.10.2025 10:38:57",
          "09.10.2025 10:39:27",
          "09.10.2025 10:39:57",
          "09.10.2025 10:40:27",
          "09.10.2025 10:40:57",
          "09.10.2025 10:41:15",
          "09.10.2025 10:41:45",
          "09.10.2025 10:42:16",
          "09.10.2025 10:42:57",
          "09.10.2025 10:43:27",
          "09.10.2025 10:43:57",
          "09.10.2025 10:44:27",
          "09.10.2025 10:44:57",
          "09.10.2025 10:45:20",
          "09.10.2025 10:45:41",
          "09.10.2025 10:45:57",
          "09.10.2025 10:46:28",
          "09.10.2025 10:46:58",
          "09.10.2025 10:47:28",
          "09.10.2025 10:47:58",
          "09.10.2025 10:48:28",
          "09.10.2025 10:48:58",
          "09.10.2025 10:49:28",
          "09.10.2025 10:49:58",
          "09.10.2025 10:50:28",
          "09.10.2025 10:50:58",
          "09.10.2025 10:51:28",
          "09.10.2025 10:51:58",
          "09.10.2025 10:52:28",
          "09.10.2025 10:52:58",
          "09.10.2025 10:53:28",
          "09.10.2025 10:53:58",
          "09.10.2025 10:54:28",
          "09.10.2025 10:54:59",
          "09.10.2025 10:55:29",
          "09.10.2025 10:55:59",
          "09.10.2025 10:56:29",
          "09.10.2025 10:56:58",
          "09.10.2025 10:57:28",
          "09.10.2025 10:57:59",
          "09.10.2025 10:58:29",
          "09.10.2025 10:58:59",
          "09.10.2025 10:59:29",
          "09.10.2025 10:59:59",
          "09.10.2025 11:00:29",
          "09.10.2025 11:00:59",
          "09.10.2025 11:01:31",
          "09.10.2025 11:02:02",
          "09.10.2025 11:02:32",
          "09.10.2025 11:03:02",
          "09.10.2025 11:03:32",
          "09.10.2025 11:04:02",
          "09.10.2025 11:04:32",
          "09.10.2025 11:05:02",
          "09.10.2025 11:05:33",
          "09.10.2025 11:06:03",
          "09.10.2025 11:06:33",
          "09.10.2025 11:07:04",
          "09.10.2025 11:07:34",
          "09.10.2025 11:08:16",
          "09.10.2025 11:08:47",
          "09.10.2025 11:09:23",
          "09.10.2025 11:09:53",
          "09.10.2025 11:10:24",
          "09.10.2025 11:11:02",
          "09.10.2025 11:11:32",
          "09.10.2025 11:12:02",
          "09.10.2025 11:12:32",
          "09.10.2025 11:13:02",
          "09.10.2025 11:13:32",
          "09.10.2025 11:14:03",
          "09.10.2025 11:14:40",
          "09.10.2025 11:15:12",
          "09.10.2025 11:15:45",
          "09.10.2025 11:16:15",
          "09.10.2025 11:16:46",
          "09.10.2025 11:17:16",
          "09.10.2025 11:17:42",
          "09.10.2025 11:18:12",
          "09.10.2025 11:18:44",
          "09.10.2025 11:19:14",
          "09.10.2025 11:19:45",
          "09.10.2025 11:20:15",
          "09.10.2025 11:20:45",
          "09.10.2025 11:21:15",
          "09.10.2025 11:21:46",
          "09.10.2025 11:22:16",
          "09.10.2025 11:22:46",
          "09.10.2025 11:23:16",
          "09.10.2025 11:23:46",
          "09.10.2025 11:24:17",
          "09.10.2025 11:24:48",
          "09.10.2025 11:25:18",
          "09.10.2025 11:25:52",
          "09.10.2025 11:26:23",
          "09.10.2025 11:26:53",
          "09.10.2025 11:27:23",
          "09.10.2025 11:27:53",
          "09.10.2025 11:28:23",
          "09.10.2025 11:28:54",
          "09.10.2025 11:29:25",
          "09.10.2025 11:29:56",
          "09.10.2025 11:30:26",
          "09.10.2025 11:30:45",
          "09.10.2025 11:31:03",
          "09.10.2025 11:31:20",
          "09.10.2025 11:32:04",
          "09.10.2025 11:32:34",
          "09.10.2025 11:33:04",
          "09.10.2025 11:33:25",
          "09.10.2025 11:33:52",
          "09.10.2025 11:34:23",
          "09.10.2025 11:34:53",
          "09.10.2025 11:35:24",
          "09.10.2025 11:35:54",
          "09.10.2025 11:36:13",
          "09.10.2025 11:36:43",
          "09.10.2025 11:37:13",
          "09.10.2025 11:37:45",
          "09.10.2025 11:38:08",
          "09.10.2025 11:38:39",
          "09.10.2025 11:39:11",
          "09.10.2025 11:39:32",
          "09.10.2025 11:39:51",
          "09.10.2025 11:40:25",
          "09.10.2025 11:40:55",
          "09.10.2025 11:41:25",
          "09.10.2025 11:41:55",
          "09.10.2025 11:42:14",
          "09.10.2025 11:42:40",
          "09.10.2025 11:43:10",
          "09.10.2025 11:43:45",
          "09.10.2025 11:44:05",
          "09.10.2025 11:44:22",
          "09.10.2025 11:44:39",
          "09.10.2025 11:45:04",
          "09.10.2025 11:45:22",
          "09.10.2025 11:45:40",
          "09.10.2025 11:46:04",
          "09.10.2025 11:46:20",
          "09.10.2025 11:46:50",
          "09.10.2025 11:47:21",
          "09.10.2025 11:47:39",
          "09.10.2025 11:47:55",
          "09.10.2025 11:48:16",
          "09.10.2025 11:48:46",
          "09.10.2025 11:49:16",
          "09.10.2025 11:49:33",
          "09.10.2025 11:49:51",
          "09.10.2025 11:50:07",
          "09.10.2025 11:50:23",
          "09.10.2025 11:50:39",
          "09.10.2025 11:50:55",
          "09.10.2025 11:51:11"
        ],
        "course_deg_clockwise_from_north": [
          317,
          318,
          325,
          330,
          318,
          280,
          260,
          250,
          248,
          249,
          251,
          260,
          265,
          267,
          266,
          266,
          266,
          266,
          265,
          266,
          265,
          265,
          266,
          263,
          239,
          218,
          197,
          185,
          178,
          174,
          172,
          173,
          174,
          181,
          182,
          182,
          182,
          182,
          179,
          165,
          162,
          163,
          163,
          163,
          166,
          169,
          170,
          170,
          170,
          170,
          165,
          164,
          165,
          166,
          166,
          172,
          173,
          172,
          179,
          182,
          182,
          181,
          181,
          181,
          182,
          181,
          182,
          181,
          181,
          182,
          181,
          181,
          182,
          181,
          182,
          182,
          181,
          182,
          182,
          181,
          185,
          187,
          185,
          186,
          185,
          185,
          186,
          185,
          186,
          185,
          185,
          186,
          185,
          186,
          185,
          186,
          185,
          186,
          186,
          185,
          186,
          185,
          185,
          186,
          185,
          189,
          191,
          190,
          190,
          190,
          190,
          189,
          190,
          191,
          197,
          200,
          199,
          198,
          198,
          198,
          198,
          198,
          198,
          198,
          198,
          199,
          198,
          197,
          198,
          198,
          198,
          198,
          198,
          198,
          197,
          198,
          197,
          200,
          204,
          204,
          203,
          202,
          203,
          203,
          203,
          202,
          203,
          202,
          203,
          202,
          203,
          203,
          203,
          203,
          202,
          203,
          202,
          203,
          202,
          202,
          203,
          202,
          203,
          203,
          202,
          202,
          203,
          202,
          202,
          202,
          202,
          197,
          198,
          199,
          198,
          198,
          199,
          198,
          199,
          198,
          198,
          198,
          198,
          198,
          199,
          197,
          198,
          198,
          198,
          197,
          198,
          198,
          197,
          198,
          198,
          197,
          198,
          198,
          198,
          198,
          198,
          197,
          198,
          193,
          187,
          199,
          203,
          203,
          202,
          199,
          193,
          191,
          192,
          192,
          192,
          198,
          202,
          202,
          202,
          184,
          182,
          207,
          216,
          224,
          238,
          238,
          236,
          236,
          241,
          253,
          253,
          253,
          252,
          251,
          251,
          255,
          289,
          339,
          359,
          9,
          30,
          30,
          33,
          53,
          60,
          59,
          59,
          58,
          59,
          58,
          59,
          58,
          59,
          59
        ],
        "speed_kts": [
          141,
          159,
          171,
          176,
          174,
          171,
          181,
          202,
          230,
          254,
          276,
          294,
          313,
          328,
          349,
          365,
          371,
          379,
          388,
          390,
          389,
          387,
          387,
          393,
          405,
          417,
          426,
          431,
          433,
          435,
          438,
          441,
          443,
          443,
          451,
          458,
          462,
          467,
          471,
          473,
          473,
          474,
          474,
          474,
          474,
          473,
          472,
          471,
          471,
          469,
          464,
          459,
          455,
          457,
          455,
          462,
          470,
          474,
          473,
          472,
          472,
          472,
          472,
          472,
          471,
          469,
          467,
          465,
          464,
          463,
          462,
          461,
          459,
          458,
          456,
          456,
          455,
          454,
          453,
          454,
          452,
          452,
          453,
          453,
          453,
          452,
          452,
          453,
          452,
          453,
          453,
          452,
          453,
          453,
          454,
          452,
          453,
          451,
          450,
          449,
          447,
          446,
          444,
          443,
          444,
          441,
          440,
          440,
          439,
          438,
          437,
          436,
          436,
          435,
          434,
          433,
          433,
          433,
          433,
          434,
          433,
          434,
          435,
          437,
          438,
          439,
          438,
          439,
          439,
          440,
          439,
          441,
          441,
          440,
          440,
          441,
          440,
          441,
          440,
          439,
          439,
          438,
          438,
          437,
          436,
          435,
          435,
          433,
          434,
          435,
          434,
          434,
          434,
          434,
          434,
          432,
          433,
          433,
          434,
          436,
          437,
          438,
          439,
          439,
          439,
          438,
          438,
          437,
          437,
          437,
          436,
          434,
          434,
          432,
          431,
          431,
          432,
          431,
          432,
          432,
          431,
          432,
          432,
          432,
          432,
          432,
          432,
          432,
          432,
          432,
          432,
          432,
          433,
          433,
          434,
          430,
          427,
          424,
          424,
          430,
          436,
          438,
          438,
          439,
          441,
          443,
          443,
          441,
          435,
          430,
          427,
          423,
          416,
          408,
          394,
          384,
          374,
          374,
          319,
          313,
          303,
          293,
          292,
          292,
          289,
          288,
          288,
          288,
          289,
          289,
          254,
          247,
          252,
          248,
          242,
          236,
          234,
          214,
          182,
          189,
          175,
          182,
          173,
          162,
          161,
          143,
          146,
          131,
          123,
          126,
          125,
          124,
          120,
          106
        ],
        "speed_mph": [
          162.0,
          183.0,
          197.0,
          203.0,
          200.0,
          197.0,
          208.0,
          232.0,
          265.0,
          292.0,
          318.0,
          338.0,
          360.0,
          377.0,
          402.0,
          420.0,
          427.0,
          436.0,
          447.0,
          449.0,
          448.0,
          445.0,
          445.0,
          452.0,
          466.0,
          480.0,
          490.0,
          496.0,
          498.0,
          501.0,
          504.0,
          507.0,
          510.0,
          510.0,
          519.0,
          527.0,
          532.0,
          537.0,
          542.0,
          544.0,
          544.0,
          545.0,
          545.0,
          545.0,
          545.0,
          544.0,
          543.0,
          542.0,
          542.0,
          540.0,
          534.0,
          528.0,
          524.0,
          526.0,
          524.0,
          532.0,
          541.0,
          545.0,
          544.0,
          543.0,
          543.0,
          543.0,
          543.0,
          543.0,
          542.0,
          540.0,
          537.0,
          535.0,
          534.0,
          533.0,
          532.0,
          531.0,
          528.0,
          527.0,
          525.0,
          525.0,
          524.0,
          522.0,
          521.0,
          522.0,
          520.0,
          520.0,
          521.0,
          521.0,
          521.0,
          520.0,
          520.0,
          521.0,
          520.0,
          521.0,
          521.0,
          520.0,
          521.0,
          521.0,
          522.0,
          520.0,
          521.0,
          519.0,
          518.0,
          517.0,
          514.0,
          513.0,
          511.0,
          510.0,
          511.0,
          507.0,
          506.0,
          506.0,
          505.0,
          504.0,
          503.0,
          502.0,
          502.0,
          501.0,
          499.0,
          498.0,
          498.0,
          498.0,
          498.0,
          499.0,
          498.0,
          499.0,
          501.0,
          503.0,
          504.0,
          505.0,
          504.0,
          505.0,
          505.0,
          506.0,
          505.0,
          507.0,
          507.0,
          506.0,
          506.0,
          507.0,
          506.0,
          507.0,
          506.0,
          505.0,
          505.0,
          504.0,
          504.0,
          503.0,
          502.0,
          501.0,
          501.0,
          498.0,
          499.0,
          501.0,
          499.0,
          499.0,
          499.0,
          499.0,
          499.0,
          497.0,
          498.0,
          498.0,
          499.0,
          502.0,
          503.0,
          504.0,
          505.0,
          505.0,
          505.0,
          504.0,
          504.0,
          503.0,
          503.0,
          503.0,
          502.0,
          499.0,
          499.0,
          497.0,
          496.0,
          496.0,
          497.0,
          496.0,
          497.0,
          497.0,
          496.0,
          497.0,
          497.0,
          497.0,
          497.0,
          497.0,
          497.0,
          497.0,
          497.0,
          497.0,
          497.0,
          497.0,
          498.0,
          498.0,
          499.0,
          495.0,
          491.0,
          488.0,
          488.0,
          495.0,
          502.0,
          504.0,
          504.0,
          505.0,
          507.0,
          510.0,
          510.0,
          507.0,
          501.0,
          495.0,
          491.0,
          487.0,
          479.0,
          470.0,
          453.0,
          442.0,
          430.0,
          430.0,
          367.0,
          360.0,
          349.0,
          337.0,
          336.0,
          336.0,
          333.0,
          331.0,
          331.0,
          331.0,
          333.0,
          333.0,
          292.0,
          284.0,
          290.0,
          285.0,
          278.0,
          272.0,
          269.0,
          246.0,
          209.0,
          217.0,
          201.0,
          209.0,
          199.0,
          186.0,
          185.0,
          165.0,
          168.0,
          151.0,
          142.0,
          145.0,
          144.0,
          143.0,
          138.0,
          122.0
        ],
        "altitude_ft": [
          0,
          450,
          1250,
          2100,
          3025,
          3800,
          4625,
          5400,
          6125,
          6750,
          7425,
          8000,
          8675,
          9350,
          10325,
          11500,
          12075,
          13000,
          14325,
          15450,
          16275,
          17375,
          18875,
          19450,
          19950,
          20425,
          20900,
          21375,
          21800,
          22475,
          23325,
          24150,
          24700,
          25125,
          25800,
          26450,
          26800,
          27450,
          27950,
          28625,
          29275,
          30025,
          30800,
          31450,
          32150,
          32775,
          33500,
          34225,
          34950,
          35675,
          36475,
          37225,
          37950,
          38450,
          38900,
          39000,
          39000,
          39000,
          39000,
          39000,
          39000,
          39000,
          39000,
          39000,
          39000,
          39000,
          39000,
          39000,
          39000,
          39000,
          39000,
          39000,
          39000,
          39000,
          39000,
          39000,
          39000,
          39000,
          39000,
          39000,
          39000,
          39000,
          39000,
          39000,
          39000,
          39000,
          39000,
          39000,
          39000,
          39000,
          39000,
          39000,
          39000,
          39000,
          39000,
          39000,
          39000,
          39000,
          39000,
          39000,
          39000,
          39000,
          39000,
          39000,
          39000,
          39000,
          39000,
          39000,
          39000,
          39000,
          39000,
          39000,
          39000,
          39000,
          39000,
          39000,
          39000,
          39000,
          39000,
          39000,
          39000,
          39000,
          39000,
          39000,
          39000,
          39000,
          39000,
          39000,
          39000,
          39000,
          39000,
          39000,
          39000,
          39000,
          39000,
          39000,
          39000,
          39000,
          39000,
          39000,
          39000,
          39000,
          39000,
          39000,
          39000,
          39000,
          39000,
          39000,
          39000,
          39000,
          39000,
          39000,
          39000,
          39000,
          39000,
          39000,
          39000,
          39000,
          39000,
          39000,
          39000,
          39000,
          39000,
          39000,
          39000,
          39000,
          39000,
          39000,
          39000,
          39000,
          39000,
          39000,
          39000,
          39000,
          39000,
          39000,
          39000,
          39000,
          39000,
          39000,
          39000,
          39000,
          39000,
          39000,
          39000,
          39000,
          39000,
          39000,
          39000,
          39000,
          39000,
          39000,
          39000,
          39000,
          39000,
          38875,
          37825,
          36675,
          35350,
          34050,
          32775,
          31525,
          30300,
          29500,
          28750,
          28000,
          26225,
          24950,
          23775,
          23100,
          22000,
          20725,
          19475,
          18225,
          17250,
          16425,
          15425,
          15025,
          15000,
          15000,
          14525,
          13450,
          12600,
          11775,
          10300,
          9100,
          7825,
          6525,
          5675,
          4625,
          3925,
          3825,
          3825,
          3625,
          3200,
          2575,
          2225,
          1975,
          1925,
          1925,
          1925,
          1925,
          1925,
          1925,
          1875,
          1450,
          1075,
          850,
          675,
          500,
          325,
          150,
          0,
          0
        ],
        "vertical_rate_fpm": [
          0.0,
          2391.0,
          3094.0,
          3328.0,
          3188.0,
          2824.0,
          2595.0,
          2250.0,
          2077.0,
          2108.0,
          2083.0,
          2083.0,
          1976.0,
          1941.0,
          2016.0,
          2019.0,
          1957.0,
          1957.0,
          1986.0,
          2127.0,
          2265.0,
          2261.0,
          2147.0,
          1792.0,
          1671.0,
          1583.0,
          1676.0,
          1688.0,
          1650.0,
          1694.0,
          1703.0,
          1719.0,
          1581.0,
          1375.0,
          1325.0,
          1277.0,
          1277.0,
          1255.0,
          1410.0,
          1500.0,
          1448.0,
          1525.0,
          1474.0,
          1397.0,
          1500.0,
          1528.0,
          1450.0,
          1450.0,
          1450.0,
          1525.0,
          1550.0,
          1475.0,
          1225.0,
          1018.0,
          635.0,
          122.0,
          0.0,
          0.0,
          0.0,
          0.0,
          0.0,
          0.0,
          0.0,
          0.0,
          0.0,
          0.0,
          0.0,
          0.0,
          0.0,
          0.0,
          0.0,
          0.0,
          0.0,
          0.0,
          0.0,
          0.0,
          0.0,
          0.0,
          0.0,
          0.0,
          0.0,
          0.0,
          0.0,
          0.0,
          0.0,
          0.0,
          0.0,
          0.0,
          0.0,
          0.0,
          0.0,
          0.0,
          0.0,
          0.0,
          0.0,
          0.0,
          0.0,
          0.0,
          0.0,
          0.0,
          0.0,
          0.0,
          0.0,
          0.0,
          0.0,
          0.0,
          0.0,
          0.0,
          0.0,
          0.0,
          0.0,
          0.0,
          0.0,
          0.0,
          0.0,
          0.0,
          0.0,
          0.0,
          0.0,
          0.0,
          0.0,
          0.0,
          0.0,
          0.0,
          0.0,
          0.0,
          0.0,
          0.0,
          0.0,
          0.0,
          0.0,
          0.0,
          0.0,
          0.0,
          0.0,
          0.0,
          0.0,
          0.0,
          0.0,
          0.0,
          0.0,
          0.0,
          0.0,
          0.0,
          0.0,
          0.0,
          0.0,
          0.0,
          0.0,
          0.0,
          0.0,
          0.0,
          0.0,
          0.0,
          0.0,
          0.0,
          0.0,
          0.0,
          0.0,
          0.0,
          0.0,
          0.0,
          0.0,
          0.0,
          0.0,
          0.0,
          0.0,
          0.0,
          0.0,
          0.0,
          0.0,
          0.0,
          0.0,
          0.0,
          0.0,
          0.0,
          0.0,
          0.0,
          0.0,
          0.0,
          0.0,
          0.0,
          0.0,
          0.0,
          0.0,
          0.0,
          0.0,
          0.0,
          0.0,
          0.0,
          0.0,
          0.0,
          0.0,
          0.0,
          -123.0,
          -1175.0,
          -2200.0,
          -2475.0,
          -2582.0,
          -2492.0,
          -2444.0,
          -2434.0,
          -2480.0,
          -2514.0,
          -2571.0,
          -2484.0,
          -2473.0,
          -2450.0,
          -2176.0,
          -2219.0,
          -2457.0,
          -2484.0,
          -2459.0,
          -2189.0,
          -2204.0,
          -2235.0,
          -1400.0,
          -411.0,
          -27.0,
          -528.0,
          -1476.0,
          -2179.0,
          -2513.0,
          -2604.0,
          -2508.0,
          -2475.0,
          -2575.0,
          -2633.0,
          -2533.0,
          -1875.0,
          -738.0,
          -109.0,
          -324.0,
          -1103.0,
          -1500.0,
          -1360.0,
          -1000.0,
          -429.0,
          -75.0,
          0.0,
          0.0,
          0.0,
          0.0,
          -81.0,
          -559.0,
          -800.0,
          -766.0,
          -686.0,
          -618.0,
          -656.0,
          -656.0,
          -594.0,
          -563.0,
          -563.0
        ]
      }
    }
  ]
}