{
  "type": "FeatureCollection",
  "features": [
    {
      "type": "Feature",
      "geometry": {
        "type": "LineString",
        "coordinates": [
          [
            7.1988,
            43.6444
          ],
          [
            7.1866,
            43.6362
          ],
          [
            7.1736,
            43.628
          ],
          [
            7.1593,
            43.6184
          ],
          [
            7.1495,
            43.6043
          ],
          [
            7.1547,
            43.5874
          ],
          [
            7.166,
            43.5722
          ],
          [
            7.1778,
            43.5575
          ],
          [
            7.1801,
            43.5388
          ],
          [
            7.1713,
            43.5203
          ],
          [
            7.1512,
            43.5115
          ],
          [
            7.1258,
            43.5135
          ],
          [
            7.1059,
            43.5248
          ],
          [
            7.0741,
            43.5578
          ],
          [
            7.0416,
            43.5982
          ],
          [
            7.0061,
            43.6394
          ],
          [
            6.9699,
            43.6828
          ],
          [
            6.9345,
            43.7319
          ],
          [
            6.898,
            43.7812
          ],
          [
            6.86,
            43.8313
          ],
          [
            6.8251,
            43.878
          ],
          [
            6.7848,
            43.9317
          ],
          [
            6.7464,
            43.9829
          ],
          [
            6.7057,
            44.0368
          ],
          [
            6.6638,
            44.0924
          ],
          [
            6.6218,
            44.148
          ],
          [
            6.58,
            44.2031
          ],
          [
            6.5373,
            44.2593
          ],
          [
            6.4966,
            44.3126
          ],
          [
            6.4538,
            44.3689
          ],
          [
            6.4109,
            44.425
          ],
          [
            6.3687,
            44.48
          ],
          [
            6.3266,
            44.5349
          ],
          [
            6.2837,
            44.5908
          ],
          [
            6.243,
            44.6435
          ],
          [
            6.2017,
            44.6969
          ],
          [
            6.1622,
            44.7478
          ],
          [
            6.1203,
            44.802
          ],
          [
            6.0815,
            44.8518
          ],
          [
            6.0408,
            44.904
          ],
          [
            6.0009,
            44.9551
          ],
          [
            5.9592,
            45.0086
          ],
          [
            5.9202,
            45.0583
          ],
          [
            5.8798,
            45.1095
          ],
          [
            5.8389,
            45.1616
          ],
          [
            5.798,
            45.2133
          ],
          [
            5.7572,
            45.2651
          ],
          [
            5.7175,
            45.3153
          ],
          [
            5.6771,
            45.366
          ],
          [
            5.6356,
            45.4183
          ],
          [
            5.5961,
            45.4677
          ],
          [
            5.5552,
            45.5191
          ],
          [
            5.5145,
            45.5697
          ],
          [
            5.4741,
            45.6203
          ],
          [
            5.4374,
            45.6713
          ],
          [
            5.3997,
            45.7251
          ],
          [
            5.3618,
            45.7775
          ],
          [
            5.3253,
            45.8282
          ],
          [
            5.2845,
            45.8853
          ],
          [
            5.2454,
            45.9391
          ],
          [
            5.2078,
            45.9913
          ],
          [
            5.17,
            46.0438
          ],
          [
            5.1305,
            46.0978
          ],
          [
            5.0929,
            46.1499
          ],
          [
            5.0555,
            46.2009
          ],
          [
            5.0172,
            46.2536
          ],
          [
            4.9787,
            46.3061
          ],
          [
            4.9415,
            46.3569
          ],
          [
            4.901,
            46.4115
          ],
          [
            4.8641,
            46.4621
          ],
          [
            4.8238,
            46.5165
          ],
          [
            4.7868,
            46.5667
          ],
          [
            4.7495,
            46.6168
          ],
          [
            4.713,
            46.6661
          ],
          [
            4.6756,
            46.7163
          ],
          [
            4.6334,
            46.7728
          ],
          [
            4.5977,
            46.8205
          ],
          [
            4.5588,
            46.8725
          ],
          [
            4.5223,
            46.9208
          ],
          [
            4.4826,
            46.9736
          ],
          [
            4.4452,
            47.0235
          ],
          [
            4.4064,
            47.0755
          ],
          [
            4.372,
            47.1278
          ],
          [
            4.3362,
            47.1811
          ],
          [
            4.3005,
            47.2338
          ],
          [
            4.2656,
            47.2854
          ],
          [
            4.23,
            47.3377
          ],
          [
            4.1931,
            47.3921
          ],
          [
            4.1553,
            47.4476
          ],
          [
            4.1193,
            47.5002
          ],
          [
            4.0836,
            47.5522
          ],
          [
            4.047,
            47.6058
          ],
          [
            4.0124,
            47.6558
          ],
          [
            3.9744,
            47.711
          ],
          [
            3.9397,
            47.7616
          ],
          [
            3.9035,
            47.8139
          ],
          [
            3.8664,
            47.8669
          ],
          [
            3.8324,
            47.9162
          ],
          [
            3.8053,
            47.9516
          ],
          [
            3.7552,
            48.0008
          ],
          [
            3.7248,
            48.0285
          ],
          [
            3.6766,
            48.0727
          ],
          [
            3.6269,
            48.1187
          ],
          [
            3.5768,
            48.1657
          ],
          [
            3.5248,
            48.2143
          ],
          [
            3.4742,
            48.2613
          ],
          [
            3.4258,
            48.3073
          ],
          [
            3.377,
            48.3538
          ],
          [
            3.327,
            48.4014
          ],
          [
            3.277,
            48.4494
          ],
          [
            3.2298,
            48.4951
          ],
          [
            3.1836,
            48.5397
          ],
          [
            3.1307,
            48.5898
          ],
          [
            3.0981,
            48.6207
          ],
          [
            3.0694,
            48.6564
          ],
          [
            3.0348,
            48.708
          ],
          [
            2.9959,
            48.7609
          ],
          [
            2.9581,
            48.8122
          ],
          [
            2.9207,
            48.8638
          ],
          [
            2.8827,
            48.9158
          ],
          [
            2.8448,
            48.9675
          ],
          [
            2.8074,
            49.0193
          ],
          [
            2.7676,
            49.0729
          ],
          [
            2.7313,
            49.1227
          ],
          [
            2.6932,
            49.175
          ],
          [
            2.6544,
            49.2275
          ],
          [
            2.6132,
            49.2826
          ],
          [
            2.573,
            49.3372
          ],
          [
            2.5326,
            49.3921
          ],
          [
            2.4939,
            49.4435
          ],
          [
            2.4558,
            49.4948
          ],
          [
            2.4181,
            49.5449
          ],
          [
            2.3807,
            49.5953
          ],
          [
            2.3411,
            49.6473
          ],
          [
            2.3049,
            49.6958
          ],
          [
            2.2661,
            49.7476
          ],
          [
            2.2279,
            49.7977
          ],
          [
            2.1898,
            49.8478
          ],
          [
            2.1509,
            49.8993
          ],
          [
            2.1141,
            49.9475
          ],
          [
            2.0743,
            49.9995
          ],
          [
            2.0338,
            50.0523
          ],
          [
            1.9938,
            50.1045
          ],
          [
            1.9548,
            50.1553
          ],
          [
            1.9144,
            50.2078
          ],
          [
            1.873,
            50.2611
          ],
          [
            1.8346,
            50.3108
          ],
          [
            1.7928,
            50.3646
          ],
          [
            1.7531,
            50.4157
          ],
          [
            1.7131,
            50.4669
          ],
          [
            1.6747,
            50.5159
          ],
          [
            1.6374,
            50.5633
          ],
          [
            1.5989,
            50.6125
          ],
          [
            1.5614,
            50.6602
          ],
          [
            1.5235,
            50.708
          ],
          [
            1.4872,
            50.7536
          ],
          [
            1.4642,
            50.7808
          ],
          [
            1.4425,
            50.7995
          ],
          [
            1.386,
            50.8401
          ],
          [
            1.3481,
            50.8664
          ],
          [
            1.3319,
            50.8962
          ],
          [
            1.3286,
            50.9248
          ],
          [
            1.3295,
            50.9509
          ],
          [
            1.3273,
            50.9904
          ],
          [
            1.32,
            51.0288
          ],
          [
            1.3097,
            51.0799
          ],
          [
            1.3,
            51.1301
          ],
          [
            1.2904,
            51.1765
          ],
          [
            1.2798,
            51.2268
          ],
          [
            1.2631,
            51.2512
          ],
          [
            1.2094,
            51.2965
          ],
          [
            1.1807,
            51.3193
          ],
          [
            1.1503,
            51.3333
          ],
          [
            1.0995,
            51.345
          ],
          [
            1.0489,
            51.3554
          ],
          [
            1.0148,
            51.3624
          ],
          [
            0.9646,
            51.3728
          ],
          [
            0.9188,
            51.3822
          ],
          [
            0.8691,
            51.392
          ],
          [
            0.837,
            51.3973
          ],
          [
            0.8103,
            51.401
          ],
          [
            0.7583,
            51.408
          ],
          [
            0.7033,
            51.4147
          ],
          [
            0.6568,
            51.4207
          ],
          [
            0.6239,
            51.4251
          ],
          [
            0.5729,
            51.4321
          ],
          [
            0.5228,
            51.4393
          ],
          [
            0.4765,
            51.4461
          ],
          [
            0.4337,
            51.4524
          ],
          [
            0.3839,
            51.4596
          ],
          [
            0.3574,
            51.4635
          ],
          [
            0.3567,
            51.4635
          ],
          [
            0.3273,
            51.4679
          ],
          [
            0.3089,
            51.4707
          ],
          [
            0.2805,
            51.475
          ],
          [
            0.2611,
            51.478
          ],
          [
            0.2398,
            51.4814
          ],
          [
            0.2197,
            51.4838
          ],
          [
            0.1983,
            51.4817
          ],
          [
            0.1764,
            51.4786
          ],
          [
            0.1574,
            51.4755
          ],
          [
            0.1414,
            51.4676
          ],
          [
            0.1307,
            51.4561
          ],
          [
            0.1133,
            51.4352
          ],
          [
            0.0978,
            51.4156
          ],
          [
            0.0854,
            51.3997
          ],
          [
            0.0825,
            51.3959
          ],
          [
            0.0782,
            51.3905
          ],
          [
            0.0726,
            51.3832
          ],
          [
            0.0655,
            51.3741
          ],
          [
            0.0594,
            51.3661
          ],
          [
            0.0529,
            51.3576
          ],
          [
            0.0468,
            51.3499
          ],
          [
            0.041,
            51.3419
          ]
        ]
      },
      "properties": {
        "time_europe_berlin": [
          "28.10.2025 14:03:21",
          "28.10.2025 14:03:37",
          "28.10.2025 14:03:53",
          "28.10.2025 14:04:09",
          "28.10.2025 14:04:27",
          "28.10.2025 14:04:45",
          "28.10.2025 14:05:03",
          "28.10.2025 14:05:21",
          "28.10.2025 14:05:38",
          "28.10.2025 14:05:54",
          "28.10.2025 14:06:12",
          "28.10.2025 14:06:29",
          "28.10.2025 14:06:45",
          "28.10.2025 14:07:17",
          "28.10.2025 14:07:49",
          "28.10.2025 14:08:20",
          "28.10.2025 14:08:50",
          "28.10.2025 14:09:20",
          "28.10.2025 14:09:50",
          "28.10.2025 14:10:20",
          "28.10.2025 14:10:50",
          "28.10.2025 14:11:20",
          "28.10.2025 14:11:50",
          "28.10.2025 14:12:20",
          "28.10.2025 14:12:50",
          "28.10.2025 14:13:20",
          "28.10.2025 14:13:50",
          "28.10.2025 14:14:20",
          "28.10.2025 14:14:50",
          "28.10.2025 14:15:20",
          "28.10.2025 14:15:50",
          "28.10.2025 14:16:20",
          "28.10.2025 14:16:50",
          "28.10.2025 14:17:20",
          "28.10.2025 14:17:50",
          "28.10.2025 14:18:20",
          "28.10.2025 14:18:50",
          "28.10.2025 14:19:20",
          "28.10.2025 14:19:50",
          "28.10.2025 14:20:20",
          "28.10.2025 14:20:50",
          "28.10.2025 14:21:20",
          "28.10.2025 14:21:50",
          "28.10.2025 14:22:20",
          "28.10.2025 14:22:50",
          "28.10.2025 14:23:20",
          "28.10.2025 14:23:50",
          "28.10.2025 14:24:20",
          "28.10.2025 14:24:50",
          "28.10.2025 14:25:20",
          "28.10.2025 14:25:50",
          "28.10.2025 14:26:20",
          "28.10.2025 14:26:50",
          "28.10.2025 14:27:20",
          "28.10.2025 14:27:50",
          "28.10.2025 14:28:20",
          "28.10.2025 14:28:50",
          "28.10.2025 14:29:20",
          "28.10.2025 14:29:53",
          "28.10.2025 14:30:23",
          "28.10.2025 14:30:53",
          "28.10.2025 14:31:24",
          "28.10.2025 14:31:54",
          "28.10.2025 14:32:24",
          "28.10.2025 14:32:55",
          "28.10.2025 14:33:25",
          "28.10.2025 14:33:55",
          "28.10.2025 14:34:26",
          "28.10.2025 14:34:57",
          "28.10.2025 14:35:28",
          "28.10.2025 14:35:59",
          "28.10.2025 14:36:29",
          "28.10.2025 14:36:59",
          "28.10.2025 14:37:29",
          "28.10.2025 14:37:59",
          "28.10.2025 14:38:31",
          "28.10.2025 14:39:01",
          "28.10.2025 14:39:31",
          "28.10.2025 14:40:01",
          "28.10.2025 14:40:31",
          "28.10.2025 14:41:01",
          "28.10.2025 14:41:31",
          "28.10.2025 14:42:01",
          "28.10.2025 14:42:31",
          "28.10.2025 14:43:01",
          "28.10.2025 14:43:31",
          "28.10.2025 14:44:01",
          "28.10.2025 14:44:31",
          "28.10.2025 14:45:04",
          "28.10.2025 14:45:34",
          "28.10.2025 14:46:04",
          "28.10.2025 14:46:34",
          "28.10.2025 14:47:04",
          "28.10.2025 14:47:35",
          "28.10.2025 14:48:05",
          "28.10.2025 14:48:35",
          "28.10.2025 14:49:06",
          "28.10.2025 14:49:36",
          "28.10.2025 14:49:56",
          "28.10.2025 14:50:29",
          "28.10.2025 14:50:47",
          "28.10.2025 14:51:17",
          "28.10.2025 14:51:47",
          "28.10.2025 14:52:17",
          "28.10.2025 14:52:48",
          "28.10.2025 14:53:18",
          "28.10.2025 14:53:48",
          "28.10.2025 14:54:18",
          "28.10.2025 14:54:48",
          "28.10.2025 14:55:18",
          "28.10.2025 14:55:48",
          "28.10.2025 14:56:18",
          "28.10.2025 14:56:50",
          "28.10.2025 14:57:10",
          "28.10.2025 14:57:31",
          "28.10.2025 14:58:01",
          "28.10.2025 14:58:31",
          "28.10.2025 14:59:01",
          "28.10.2025 14:59:32",
          "28.10.2025 15:00:02",
          "28.10.2025 15:00:32",
          "28.10.2025 15:01:02",
          "28.10.2025 15:01:32",
          "28.10.2025 15:02:02",
          "28.10.2025 15:02:32",
          "28.10.2025 15:03:02",
          "28.10.2025 15:03:35",
          "28.10.2025 15:04:07",
          "28.10.2025 15:04:38",
          "28.10.2025 15:05:08",
          "28.10.2025 15:05:38",
          "28.10.2025 15:06:08",
          "28.10.2025 15:06:38",
          "28.10.2025 15:07:08",
          "28.10.2025 15:07:38",
          "28.10.2025 15:08:08",
          "28.10.2025 15:08:38",
          "28.10.2025 15:09:08",
          "28.10.2025 15:09:38",
          "28.10.2025 15:10:08",
          "28.10.2025 15:10:38",
          "28.10.2025 15:11:08",
          "28.10.2025 15:11:38",
          "28.10.2025 15:12:08",
          "28.10.2025 15:12:38",
          "28.10.2025 15:13:08",
          "28.10.2025 15:13:38",
          "28.10.2025 15:14:09",
          "28.10.2025 15:14:39",
          "28.10.2025 15:15:09",
          "28.10.2025 15:15:39",
          "28.10.2025 15:16:09",
          "28.10.2025 15:16:39",
          "28.10.2025 15:17:09",
          "28.10.2025 15:17:39",
          "28.10.2025 15:18:09",
          "28.10.2025 15:18:26",
          "28.10.2025 15:18:42",
          "28.10.2025 15:19:15",
          "28.10.2025 15:19:36",
          "28.10.2025 15:19:55",
          "28.10.2025 15:20:11",
          "28.10.2025 15:20:27",
          "28.10.2025 15:20:49",
          "28.10.2025 15:21:14",
          "28.10.2025 15:21:44",
          "28.10.2025 15:22:14",
          "28.10.2025 15:22:44",
          "28.10.2025 15:23:14",
          "28.10.2025 15:23:32",
          "28.10.2025 15:24:11",
          "28.10.2025 15:24:31",
          "28.10.2025 15:24:48",
          "28.10.2025 15:25:16",
          "28.10.2025 15:25:46",
          "28.10.2025 15:26:06",
          "28.10.2025 15:26:36",
          "28.10.2025 15:27:02",
          "28.10.2025 15:27:32",
          "28.10.2025 15:27:50",
          "28.10.2025 15:28:06",
          "28.10.2025 15:28:36",
          "28.10.2025 15:29:06",
          "28.10.2025 15:29:32",
          "28.10.2025 15:29:51",
          "28.10.2025 15:30:21",
          "28.10.2025 15:30:51",
          "28.10.2025 15:31:19",
          "28.10.2025 15:31:42",
          "28.10.2025 15:32:12",
          "28.10.2025 15:32:27",
          "28.10.2025 15:32:28",
          "28.10.2025 15:32:44",
          "28.10.2025 15:33:00",
          "28.10.2025 15:33:16",
          "28.10.2025 15:33:32",
          "28.10.2025 15:33:48",
          "28.10.2025 15:34:04",
          "28.10.2025 15:34:20",
          "28.10.2025 15:34:36",
          "28.10.2025 15:34:52",
          "28.10.2025 15:35:08",
          "28.10.2025 15:35:24",
          "28.10.2025 15:35:54",
          "28.10.2025 15:36:24",
          "28.10.2025 15:36:51",
          "28.10.2025 15:36:57",
          "28.10.2025 15:37:07",
          "28.10.2025 15:37:23",
          "28.10.2025 15:37:39",
          "28.10.2025 15:37:55",
          "28.10.2025 15:38:11",
          "28.10.2025 15:38:27",
          "28.10.2025 15:38:43"
        ],
        "course_deg_clockwise_from_north": [
          "227",
          "228",
          "230",
          "227",
          "186",
          "157",
          "148",
          "159",
          "186",
          "218",
          "256",
          "293",
          "317",
          "329",
          "329",
          "328",
          "331",
          "333",
          "331",
          "332",
          "332",
          "332",
          "331",
          "332",
          "332",
          "332",
          "331",
          "331",
          "331",
          "331",
          "331",
          "331",
          "331",
          "331",
          "331",
          "331",
          "331",
          "331",
          "331",
          "331",
          "331",
          "331",
          "331",
          "331",
          "331",
          "331",
          "331",
          "331",
          "331",
          "331",
          "331",
          "331",
          "331",
          "331",
          "334",
          "333",
          "333",
          "334",
          "333",
          "333",
          "333",
          "333",
          "333",
          "333",
          "333",
          "333",
          "333",
          "333",
          "333",
          "333",
          "333",
          "333",
          "333",
          "333",
          "333",
          "333",
          "332",
          "333",
          "333",
          "332",
          "333",
          "335",
          "336",
          "335",
          "335",
          "336",
          "335",
          "335",
          "335",
          "335",
          "335",
          "335",
          "335",
          "335",
          "335",
          "335",
          "335",
          "335",
          "329",
          "324",
          "324",
          "324",
          "324",
          "325",
          "324",
          "325",
          "325",
          "325",
          "326",
          "325",
          "326",
          "325",
          "325",
          "327",
          "336",
          "335",
          "333",
          "334",
          "334",
          "334",
          "334",
          "334",
          "334",
          "334",
          "335",
          "334",
          "334",
          "335",
          "334",
          "334",
          "334",
          "334",
          "334",
          "334",
          "334",
          "334",
          "334",
          "333",
          "334",
          "334",
          "334",
          "334",
          "334",
          "334",
          "333",
          "334",
          "334",
          "334",
          "333",
          "334",
          "333",
          "334",
          "334",
          "333",
          "333",
          "334",
          "327",
          "322",
          "317",
          "325",
          "351",
          "359",
          "2",
          "355",
          "352",
          "353",
          "353",
          "352",
          "350",
          "326",
          "322",
          "320",
          "294",
          "289",
          "288",
          "288",
          "289",
          "288",
          "287",
          "283",
          "282",
          "282",
          "281",
          "282",
          "282",
          "282",
          "283",
          "283",
          "284",
          "283",
          "283",
          "283",
          "283",
          "284",
          "284",
          "284",
          "284",
          "273",
          "258",
          "257",
          "255",
          "216",
          "207",
          "207",
          "206",
          "205",
          "205",
          "206",
          "207",
          "206",
          "206",
          "206",
          "206",
          "205"
        ],
        "speed_kts": [
          "157",
          "166",
          "171",
          "190",
          "207",
          "208",
          "216",
          "230",
          "237",
          "236",
          "227",
          "239",
          "257",
          "291",
          "330",
          "360",
          "380",
          "396",
          "403",
          "406",
          "414",
          "428",
          "439",
          "446",
          "452",
          "455",
          "456",
          "454",
          "452",
          "455",
          "455",
          "455",
          "454",
          "448",
          "439",
          "432",
          "431",
          "428",
          "428",
          "427",
          "424",
          "426",
          "424",
          "424",
          "425",
          "424",
          "425",
          "423",
          "422",
          "421",
          "420",
          "419",
          "419",
          "419",
          "421",
          "421",
          "421",
          "421",
          "421",
          "421",
          "422",
          "424",
          "423",
          "420",
          "417",
          "415",
          "414",
          "413",
          "412",
          "412",
          "410",
          "409",
          "408",
          "407",
          "407",
          "407",
          "410",
          "412",
          "412",
          "412",
          "412",
          "415",
          "417",
          "418",
          "418",
          "418",
          "418",
          "418",
          "417",
          "415",
          "413",
          "412",
          "412",
          "412",
          "411",
          "410",
          "409",
          "409",
          "403",
          "401",
          "403",
          "408",
          "412",
          "415",
          "415",
          "415",
          "417",
          "413",
          "411",
          "410",
          "408",
          "406",
          "403",
          "406",
          "413",
          "412",
          "411",
          "414",
          "416",
          "417",
          "417",
          "416",
          "412",
          "409",
          "412",
          "414",
          "416",
          "418",
          "416",
          "412",
          "409",
          "402",
          "402",
          "403",
          "405",
          "405",
          "400",
          "405",
          "410",
          "412",
          "415",
          "418",
          "422",
          "420",
          "418",
          "418",
          "416",
          "412",
          "410",
          "395",
          "394",
          "399",
          "394",
          "379",
          "376",
          "375",
          "366",
          "355",
          "349",
          "352",
          "370",
          "377",
          "377",
          "361",
          "361",
          "361",
          "358",
          "349",
          "341",
          "322",
          "319",
          "311",
          "273",
          "243",
          "247",
          "248",
          "245",
          "241",
          "238",
          "236",
          "239",
          "244",
          "247",
          "246",
          "239",
          "232",
          "232",
          "243",
          "243",
          "240",
          "236",
          "235",
          "225",
          "210",
          "188",
          "181",
          "182",
          "179",
          "183",
          "176",
          "170",
          "171",
          "174",
          "172",
          "152",
          "139",
          "132",
          "126",
          "122",
          "127",
          "123",
          "121",
          "123",
          "126"
        ],
        "speed_mph": [
          "181",
          "191",
          "197",
          "219",
          "238",
          "239",
          "249",
          "265",
          "273",
          "272",
          "261",
          "275",
          "296",
          "335",
          "380",
          "414",
          "437",
          "456",
          "464",
          "467",
          "476",
          "493",
          "505",
          "513",
          "520",
          "524",
          "525",
          "522",
          "520",
          "524",
          "524",
          "524",
          "522",
          "516",
          "505",
          "497",
          "496",
          "493",
          "493",
          "491",
          "488",
          "490",
          "488",
          "488",
          "489",
          "488",
          "489",
          "487",
          "486",
          "484",
          "483",
          "482",
          "482",
          "482",
          "484",
          "484",
          "484",
          "484",
          "484",
          "484",
          "486",
          "488",
          "487",
          "483",
          "480",
          "478",
          "476",
          "475",
          "474",
          "474",
          "472",
          "471",
          "470",
          "468",
          "468",
          "468",
          "472",
          "474",
          "474",
          "474",
          "474",
          "478",
          "480",
          "481",
          "481",
          "481",
          "481",
          "481",
          "480",
          "478",
          "475",
          "474",
          "474",
          "474",
          "473",
          "472",
          "471",
          "471",
          "464",
          "461",
          "464",
          "470",
          "474",
          "478",
          "478",
          "478",
          "480",
          "475",
          "473",
          "472",
          "470",
          "467",
          "464",
          "467",
          "475",
          "474",
          "473",
          "476",
          "479",
          "480",
          "480",
          "479",
          "474",
          "471",
          "474",
          "476",
          "479",
          "481",
          "479",
          "474",
          "471",
          "463",
          "463",
          "464",
          "466",
          "466",
          "460",
          "466",
          "472",
          "474",
          "478",
          "481",
          "486",
          "483",
          "481",
          "481",
          "479",
          "474",
          "472",
          "455",
          "453",
          "459",
          "453",
          "436",
          "433",
          "432",
          "421",
          "409",
          "402",
          "405",
          "426",
          "434",
          "434",
          "415",
          "415",
          "415",
          "412",
          "402",
          "392",
          "371",
          "367",
          "358",
          "314",
          "280",
          "284",
          "285",
          "282",
          "277",
          "274",
          "272",
          "275",
          "281",
          "284",
          "283",
          "275",
          "267",
          "267",
          "280",
          "280",
          "276",
          "272",
          "270",
          "259",
          "242",
          "216",
          "208",
          "209",
          "206",
          "211",
          "203",
          "196",
          "197",
          "200",
          "198",
          "175",
          "160",
          "152",
          "145",
          "140",
          "146",
          "142",
          "139",
          "142",
          "145"
        ],
        "altitude_ft": [
          "550",
          "1275",
          "2000",
          "2650",
          "3125",
          "3775",
          "4525",
          "5250",
          "6100",
          "7150",
          "8200",
          "9050",
          "9700",
          "10975",
          "12325",
          "13600",
          "15100",
          "16525",
          "18175",
          "19725",
          "21075",
          "22100",
          "23050",
          "24000",
          "25000",
          "25975",
          "26925",
          "27925",
          "28850",
          "29600",
          "30325",
          "31075",
          "31775",
          "32650",
          "33600",
          "34575",
          "35300",
          "36000",
          "36525",
          "37025",
          "37550",
          "37975",
          "38000",
          "38000",
          "38000",
          "38000",
          "38000",
          "38000",
          "38000",
          "38000",
          "38000",
          "38000",
          "38000",
          "38000",
          "38000",
          "38000",
          "38000",
          "38000",
          "38000",
          "38000",
          "38000",
          "38000",
          "38000",
          "38000",
          "38000",
          "38000",
          "38000",
          "38000",
          "38000",
          "38000",
          "38000",
          "38000",
          "38000",
          "38000",
          "38000",
          "38000",
          "38000",
          "38000",
          "38000",
          "38000",
          "38000",
          "38000",
          "38000",
          "38000",
          "38000",
          "38000",
          "38000",
          "38000",
          "38000",
          "38000",
          "38000",
          "38000",
          "38000",
          "38000",
          "38000",
          "38000",
          "38000",
          "38000",
          "38000",
          "38000",
          "38000",
          "38000",
          "38000",
          "38000",
          "38000",
          "38000",
          "38000",
          "38000",
          "38000",
          "38000",
          "38000",
          "38000",
          "38000",
          "38000",
          "38000",
          "38000",
          "38000",
          "38000",
          "38000",
          "38000",
          "38000",
          "38000",
          "37825",
          "37600",
          "37325",
          "37050",
          "37000",
          "37000",
          "37000",
          "37000",
          "36925",
          "36675",
          "36450",
          "36175",
          "35925",
          "35675",
          "35100",
          "34375",
          "33600",
          "32900",
          "32150",
          "31375",
          "30625",
          "29700",
          "28450",
          "27175",
          "25975",
          "24675",
          "23375",
          "22125",
          "20900",
          "19650",
          "18425",
          "17175",
          "15900",
          "14700",
          "13925",
          "13375",
          "12275",
          "11850",
          "11550",
          "11225",
          "11025",
          "10975",
          "10575",
          "10050",
          "10000",
          "10000",
          "10000",
          "10025",
          "10000",
          "10000",
          "9975",
          "9725",
          "9500",
          "9225",
          "8700",
          "8075",
          "7350",
          "6875",
          "6475",
          "5750",
          "4975",
          "4350",
          "4175",
          "4175",
          "4150",
          "4150",
          "4175",
          "3825",
          "3575",
          "3575",
          "3250",
          "3200",
          "3150",
          "3150",
          "2950",
          "2675",
          "2425",
          "2250",
          "2100",
          "2000",
          "1950",
          "1950",
          "1950",
          "1975",
          "1975",
          "1875",
          "1725",
          "1550",
          "1350",
          "1175",
          "1000",
          "825"
        ],
        "vertical_rate_fpm": [
          "",
          "2719",
          "2578",
          "1985",
          "1875",
          "2333",
          "2458",
          "2700",
          "3455",
          "3706",
          "3257",
          "2727",
          "2406",
          "2461",
          "2500",
          "2730",
          "2925",
          "3075",
          "3200",
          "2900",
          "2375",
          "1975",
          "1900",
          "1950",
          "1975",
          "1925",
          "1950",
          "1925",
          "1675",
          "1475",
          "1475",
          "1450",
          "1575",
          "1825",
          "1925",
          "1700",
          "1425",
          "1225",
          "1025",
          "1025",
          "950",
          "450",
          "25",
          "",
          "",
          "",
          "",
          "",
          "",
          "",
          "",
          "",
          "",
          "",
          "",
          "",
          "",
          "",
          "",
          "",
          "",
          "",
          "",
          "",
          "",
          "",
          "",
          "",
          "",
          "",
          "",
          "",
          "",
          "",
          "",
          "",
          "",
          "",
          "",
          "",
          "",
          "",
          "",
          "",
          "",
          "",
          "",
          "",
          "",
          "",
          "",
          "",
          "",
          "",
          "",
          "",
          "",
          "",
          "",
          "",
          "",
          "",
          "",
          "",
          "",
          "",
          "",
          "",
          "",
          "",
          "",
          "",
          "",
          "",
          "",
          "",
          "",
          "",
          "",
          "",
          "",
          "-175",
          "-400",
          "-500",
          "-550",
          "-310",
          "-46",
          "",
          "",
          "-75",
          "-325",
          "-475",
          "-500",
          "-525",
          "-500",
          "-825",
          "-1300",
          "-1500",
          "-1475",
          "-1450",
          "-1525",
          "-1525",
          "-1675",
          "-2175",
          "-2525",
          "-2475",
          "-2459",
          "-2557",
          "-2550",
          "-2475",
          "-2475",
          "-2475",
          "-2475",
          "-2525",
          "-2475",
          "-2521",
          "-2409",
          "-2020",
          "-1694",
          "-1088",
          "-1071",
          "-984",
          "-395",
          "-574",
          "-1009",
          "-575",
          "-50",
          "",
          "31",
          "",
          "-25",
          "-41",
          "-367",
          "-491",
          "-600",
          "-960",
          "-1232",
          "-1446",
          "-1500",
          "-1544",
          "-1467",
          "-1500",
          "-1500",
          "-1067",
          "-214",
          "-25",
          "-26",
          "29",
          "-368",
          "-800",
          "-938",
          "-1147",
          "-703",
          "-188",
          "-94",
          "-375",
          "-891",
          "-984",
          "-797",
          "-609",
          "-469",
          "-281",
          "-65",
          "",
          "26",
          "45",
          "-375",
          "-577",
          "-609",
          "-703",
          "-703",
          "-656",
          "-656",
          "-656"
        ],
        "reporting_facility": [
          "FlightAware ADS-B(LFMF)",
          "FlightAware ADS-B(NCE / LFMN)",
          "FlightAware ADS-B(CEQ / LFMD)",
          "FlightAware ADS-B(NCE / LFMN)",
          "FlightAware ADS-B(LFMF)",
          "FlightAware ADS-B(NCE / LFMN)",
          "FlightAware ADS-B(AJA / LFKJ)",
          "FlightAware ADS-B(NCE / LFMN)",
          "FlightAware ADS-B(CEQ / LFMD)",
          "FlightAware ADS-B(NCE / LFMN)",
          "FlightAware ADS-B(NCE / LFMN)",
          "FlightAware ADS-B(CEQ / LFMD)",
          "FlightAware ADS-B(CEQ / LFMD)",
          "FlightAware ADS-B(NCE / LFMN)",
          "FlightAware ADS-B(NCE / LFMN)",
          "FlightAware ADS-B(CEQ / LFMD)",
          "FlightAware ADS-B(CEQ / LFMD)",
          "FlightAware ADS-B(CEQ / LFMD)",
          "FlightAware ADS-B(CEQ / LFMD)",
          "FlightAware ADS-B(EBA / LIRJ)",
          "FlightAware ADS-B(BGY / LIME)",
          "FlightAware ADS-B(TRN / LIMF)",
          "FlightAware ADS-B(CUF / LIMZ)",
          "FlightAware ADS-B(CUF / LIMZ)",
          "FlightAware ADS-B(LFMA)",
          "FlightAware ADS-B(LFMA)",
          "FlightAware ADS-B(LFMA)",
          "FlightAware ADS-B(LFMA)",
          "FlightAware ADS-B(LFNE)",
          "FlightAware ADS-B(CEQ / LFMD)",
          "FlightAware ADS-B(LFNT)",
          "FlightAware ADS-B(GAT / LFNA)",
          "FlightAware ADS-B(LFMA)",
          "FlightAware ADS-B(LFMA)",
          "FlightAware ADS-B(LFMA)",
          "FlightAware ADS-B",
          "FlightAware ADS-B(MRS / LFML)",
          "FlightAware ADS-B(RNE / LFLO)",
          "FlightAware ADS-B(MRS / LFML)",
          "FlightAware ADS-B(LSGL)",
          "FlightAware ADS-B(GOA / LIMJ)",
          "FlightAware ADS-B(TRN / LIMF)",
          "FlightAware ADS-B(LFLG)",
          "FlightAware ADS-B(GNB / LFLS)",
          "FlightAware ADS-B(EBU / LFMH)",
          "FlightAware ADS-B(GNB / LFLS)",
          "FlightAware ADS-B(LFLG)",
          "FlightAware ADS-B(EBU / LFMH)",
          "FlightAware ADS-B(LFLG)",
          "FlightAware ADS-B(LFLG)",
          "FlightAware ADS-B(LFLG)",
          "FlightAware ADS-B(LFLG)",
          "FlightAware ADS-B(LFLG)",
          "FlightAware ADS-B(LFLG)",
          "FlightAware ADS-B(LFHS)",
          "FlightAware ADS-B(LFHS)",
          "FlightAware ADS-B(LFHS)",
          "FlightAware ADS-B(LFHS)",
          "FlightAware ADS-B(VAF / LFLU)",
          "FlightAware ADS-B(LFTN)",
          "FlightAware ADS-B(LFLI)",
          "FlightAware ADS-B(VAF / LFLU)",
          "FlightAware ADS-B(LFHY)",
          "FlightAware ADS-B(VAF / LFLU)",
          "FlightAware ADS-B(VAF / LFLU)",
          "FlightAware ADS-B(VAF / LFLU)",
          "FlightAware ADS-B(VAF / LFLU)",
          "FlightAware ADS-B(VAF / LFLU)",
          "FlightAware ADS-B(LYN / LFLY)",
          "FlightAware ADS-B(LUX / ELLX)",
          "FlightAware ADS-B(LSGY)",
          "FlightAware ADS-B(LSGY)",
          "FlightAware ADS-B(LSGP)",
          "FlightAware ADS-B(LUX / ELLX)",
          "FlightAware ADS-B(EBU / LFMH)",
          "FlightAware ADS-B(LFSU)",
          "FlightAware ADS-B(LSGP)",
          "FlightAware ADS-B(LUX / ELLX)",
          "FlightAware ADS-B(LUX / ELLX)",
          "FlightAware ADS-B(LSGL)",
          "FlightAware ADS-B(LSGL)",
          "FlightAware ADS-B(EBU / LFMH)",
          "FlightAware ADS-B(LBG / LFPB)",
          "FlightAware ADS-B(LBG / LFPB)",
          "FlightAware ADS-B(LYN / LFLY)",
          "FlightAware ADS-B(LYN / LFLY)",
          "FlightAware ADS-B(LFKL)",
          "FlightAware ADS-B(LYN / LFLY)",
          "FlightAware ADS-B(LFHX)",
          "FlightAware ADS-B(SYT / LFLN)",
          "FlightAware ADS-B(LSPD)",
          "FlightAware ADS-B(SCN / EDDR)",
          "FlightAware ADS-B(EBU / LFMH)",
          "FlightAware ADS-B(SYT / LFLN)",
          "FlightAware ADS-B(LSPD)",
          "FlightAware ADS-B(LSPD)",
          "FlightAware ADS-B(SYT / LFLN)",
          "FlightAware ADS-B(EBU / LFMH)",
          "FlightAware ADS-B(EDKV)",
          "FlightAware ADS-B(ORY / LFPO)",
          "FlightAware ADS-B(ESH / EGKA)",
          "FlightAware ADS-B(BVA / LFOB)",
          "FlightAware ADS-B(ESH / EGKA)",
          "FlightAware ADS-B(RMS / ETAR)",
          "FlightAware ADS-B(BVA / LFOB)",
          "FlightAware ADS-B(BVA / LFOB)",
          "FlightAware ADS-B(EBSG)",
          "FlightAware ADS-B(LFEK)",
          "FlightAware ADS-B(EVX / LFOE)",
          "FlightAware ADS-B(LEH / LFOH)",
          "FlightAware ADS-B(LYN / LFLY)",
          "FlightAware ADS-B(ORE / LFOJ)",
          "FlightAware ADS-B(LFSW)",
          "FlightAware ADS-B(LFPL)",
          "FlightAware ADS-B(LFPZ)",
          "FlightAware ADS-B(LBG / LFPB)",
          "FlightAware ADS-B(HZB / LFQT)",
          "FlightAware ADS-B(SYT / LFLN)",
          "FlightAware ADS-B(POX / LFPT)",
          "FlightAware ADS-B(POX / LFPT)",
          "FlightAware ADS-B(POX / LFPT)",
          "FlightAware ADS-B(POX / LFPT)",
          "FlightAware ADS-B(ORY / LFPO)",
          "FlightAware ADS-B(LFAG)",
          "FlightAware ADS-B(LFQR)",
          "FlightAware ADS-B(CDG / LFPG)",
          "FlightAware ADS-B(EBUL)",
          "FlightAware ADS-B(LFPV)",
          "FlightAware ADS-B(LFPV)",
          "FlightAware ADS-B(LFPV)",
          "FlightAware ADS-B(ORY / LFPO)",
          "FlightAware ADS-B(ORE / LFOJ)",
          "FlightAware ADS-B(LBG / LFPB)",
          "FlightAware ADS-B(EBFN)",
          "FlightAware ADS-B(LFAG)",
          "FlightAware ADS-B(GLZ / EHGR)",
          "FlightAware ADS-B(EGSQ)",
          "FlightAware ADS-B(JER / EGJJ)",
          "FlightAware ADS-B(BEX / EGUB)",
          "FlightAware ADS-B(LFAG)",
          "FlightAware ADS-B(LBG / LFPB)",
          "FlightAware ADS-B(LEH / LFOH)",
          "FlightAware ADS-B(EBFN)",
          "FlightAware ADS-B(STN / EGSS)",
          "FlightAware ADS-B(LFIS)",
          "FlightAware ADS-B(POX / LFPT)",
          "FlightAware ADS-B(FAB / EGLF)",
          "FlightAware ADS-B(DPE / LFAB)",
          "FlightAware ADS-B(ESH / EGKA)",
          "FlightAware ADS-B(LHR / EGLL)",
          "FlightAware ADS-B(BRU / EBBR)",
          "FlightAware ADS-B(LHR / EGLL)",
          "FlightAware ADS-B(RCS / EGTO)",
          "FlightAware ADS-B(URO / LFOP)",
          "FlightAware ADS-B(URO / LFOP)",
          "FlightAware ADS-B(EBGB)",
          "FlightAware ADS-B(EGSQ)",
          "FlightAware ADS-B(STN / EGSS)",
          "FlightAware ADS-B(LYX / EGMD)",
          "FlightAware ADS-B(EGSQ)",
          "FlightAware ADS-B(CQF / LFAC)",
          "FlightAware ADS-B(LYX / EGMD)",
          "FlightAware ADS-B(LYX / EGMD)",
          "FlightAware ADS-B(BZZ / EGVN)",
          "FlightAware ADS-B(EGSF)",
          "FlightAware ADS-B(RCS / EGTO)",
          "FlightAware ADS-B(EGSQ)",
          "FlightAware ADS-B(LHR / EGLL)",
          "FlightAware ADS-B(STN / EGSS)",
          "FlightAware ADS-B(RCS / EGTO)",
          "FlightAware ADS-B(EGHB)",
          "FlightAware ADS-B(LTN / EGGW)",
          "FlightAware ADS-B(BQH / EGKB)",
          "FlightAware ADS-B(EGTD)",
          "FlightAware ADS-B(MSE / EGMH)",
          "FlightAware ADS-B(EGWE)",
          "FlightAware ADS-B(NWI / EGSH)",
          "FlightAware ADS-B(EGKH)",
          "FlightAware ADS-B(LGW / EGKK)",
          "FlightAware ADS-B(LHR / EGLL)",
          "FlightAware ADS-B(LHR / EGLL)",
          "FlightAware ADS-B(LHR / EGLL)",
          "FlightAware ADS-B(SEN / EGMC)",
          "FlightAware ADS-B(LYX / EGMD)",
          "FlightAware ADS-B(LCY / EGLC)",
          "FlightAware ADS-B(SEN / EGMC)",
          "FlightAware ADS-B(SEN / EGMC)",
          "FlightAware ADS-B(EGKE)",
          "FlightAware ADS-B(EGSQ)",
          "FlightAware ADS-B(EGLW)",
          "Surface and Near-Surface",
          "FlightAware ADS-B(EGSQ)",
          "FlightAware ADS-B(EGSQ)",
          "FlightAware ADS-B(EGSG)",
          "FlightAware ADS-B(EGKH)",
          "FlightAware ADS-B(LTN / EGGW)",
          "FlightAware ADS-B(RCS / EGTO)",
          "FlightAware ADS-B(LCY / EGLC)",
          "FlightAware ADS-B(LHR / EGLL)",
          "FlightAware ADS-B(LCY / EGLC)",
          "FlightAware ADS-B(EGSQ)",
          "FlightAware ADS-B(EGML)",
          "FlightAware ADS-B(EGMT)",
          "FlightAware ADS-B(LCY / EGLC)",
          "FlightAware ADS-B(SEN / EGMC)",
          "FlightAware ADS-B(EGSG)",
          "Surface and Near-Surface",
          "FlightAware ADS-B(LHR / EGLL)",
          "FlightAware ADS-B(LCY / EGLC)",
          "FlightAware ADS-B(EGTF)",
          "FlightAware ADS-B(SEN / EGMC)",
          "FlightAware ADS-B(BQH / EGKB)",
          "FlightAware ADS-B(LCY / EGLC)",
          "FlightAware ADS-B(BQH / EGKB)"
        ]
      }
    }
  ]
}