{
  "type": "FeatureCollection",
  "features": [
    {
      "type": "Feature",
      "geometry": {
        "type": "LineString",
        "coordinates": [
          [
            16.7409,
            41.133
          ],
          [
            16.7279,
            41.1297
          ],
          [
            16.7127,
            41.1264
          ],
          [
            16.6968,
            41.1221
          ],
          [
            16.6777,
            41.1162
          ],
          [
            16.6574,
            41.1099
          ],
          [
            16.6387,
            41.1091
          ],
          [
            16.6226,
            41.1206
          ],
          [
            16.6165,
            41.1402
          ],
          [
            16.6169,
            41.1669
          ],
          [
            16.6222,
            41.2217
          ],
          [
            16.6238,
            41.263
          ],
          [
            16.6263,
            41.3077
          ],
          [
            16.6286,
            41.356
          ],
          [
            16.6307,
            41.4065
          ],
          [
            16.6331,
            41.4573
          ],
          [
            16.6352,
            41.509
          ],
          [
            16.6266,
            41.542
          ],
          [
            16.611,
            41.5696
          ],
          [
            16.5777,
            41.6153
          ],
          [
            16.5414,
            41.6611
          ],
          [
            16.5073,
            41.7045
          ],
          [
            16.4706,
            41.753
          ],
          [
            16.4374,
            41.7968
          ],
          [
            16.4039,
            41.8417
          ],
          [
            16.3702,
            41.8872
          ],
          [
            16.3395,
            41.9281
          ],
          [
            16.3078,
            41.9703
          ],
          [
            16.2752,
            42.0139
          ],
          [
            16.2419,
            42.058
          ],
          [
            16.209,
            42.1016
          ],
          [
            16.1731,
            42.1491
          ],
          [
            16.1382,
            42.1951
          ],
          [
            16.1018,
            42.2428
          ],
          [
            16.0673,
            42.2882
          ],
          [
            16.0334,
            42.3329
          ],
          [
            15.9993,
            42.3775
          ],
          [
            15.9647,
            42.4225
          ],
          [
            15.9463,
            42.4483
          ],
          [
            15.9282,
            42.4841
          ],
          [
            15.9066,
            42.5335
          ],
          [
            15.8835,
            42.5839
          ],
          [
            15.8578,
            42.6383
          ],
          [
            15.833,
            42.6926
          ],
          [
            15.8095,
            42.7425
          ],
          [
            15.7829,
            42.7993
          ],
          [
            15.76,
            42.8478
          ],
          [
            15.7355,
            42.8997
          ],
          [
            15.7124,
            42.9499
          ],
          [
            15.6885,
            42.9998
          ],
          [
            15.6657,
            43.0482
          ],
          [
            15.6424,
            43.0975
          ],
          [
            15.6192,
            43.1463
          ],
          [
            15.5962,
            43.1949
          ],
          [
            15.572,
            43.244
          ],
          [
            15.5493,
            43.2925
          ],
          [
            15.5266,
            43.3409
          ],
          [
            15.5036,
            43.3887
          ],
          [
            15.4804,
            43.437
          ],
          [
            15.4554,
            43.4892
          ],
          [
            15.4325,
            43.5369
          ],
          [
            15.4083,
            43.5873
          ],
          [
            15.3843,
            43.6368
          ],
          [
            15.3608,
            43.6854
          ],
          [
            15.338,
            43.7327
          ],
          [
            15.3128,
            43.7845
          ],
          [
            15.2887,
            43.8341
          ],
          [
            15.2622,
            43.8883
          ],
          [
            15.2371,
            43.94
          ],
          [
            15.2129,
            43.9895
          ],
          [
            15.1869,
            44.0429
          ],
          [
            15.1631,
            44.0911
          ],
          [
            15.1394,
            44.1399
          ],
          [
            15.1143,
            44.1904
          ],
          [
            15.09,
            44.2395
          ],
          [
            15.0659,
            44.2888
          ],
          [
            15.0402,
            44.3405
          ],
          [
            15.0148,
            44.3916
          ],
          [
            14.9899,
            44.4422
          ],
          [
            14.9646,
            44.4931
          ],
          [
            14.9396,
            44.5434
          ],
          [
            14.9133,
            44.5958
          ],
          [
            14.8853,
            44.6514
          ],
          [
            14.8578,
            44.7062
          ],
          [
            14.8302,
            44.7617
          ],
          [
            14.8032,
            44.8162
          ],
          [
            14.7739,
            44.8732
          ],
          [
            14.7475,
            44.9249
          ],
          [
            14.7202,
            44.9802
          ],
          [
            14.6903,
            45.0384
          ],
          [
            14.6618,
            45.094
          ],
          [
            14.6356,
            45.1463
          ],
          [
            14.6061,
            45.2039
          ],
          [
            14.5786,
            45.2579
          ],
          [
            14.549,
            45.3151
          ],
          [
            14.5218,
            45.3671
          ],
          [
            14.4892,
            45.4209
          ],
          [
            14.4551,
            45.474
          ],
          [
            14.4218,
            45.5258
          ],
          [
            14.3885,
            45.5798
          ],
          [
            14.3571,
            45.6288
          ],
          [
            14.3242,
            45.681
          ],
          [
            14.2907,
            45.7336
          ],
          [
            14.2563,
            45.7881
          ],
          [
            14.223,
            45.8409
          ],
          [
            14.1892,
            45.8935
          ],
          [
            14.1693,
            45.9252
          ],
          [
            14.1486,
            45.9573
          ],
          [
            14.1153,
            46.0094
          ],
          [
            14.0805,
            46.0638
          ],
          [
            14.0468,
            46.116
          ],
          [
            14.0124,
            46.17
          ],
          [
            13.9779,
            46.2231
          ],
          [
            13.9421,
            46.2785
          ],
          [
            13.9075,
            46.3321
          ],
          [
            13.8864,
            46.3648
          ],
          [
            13.839,
            46.4372
          ],
          [
            13.8022,
            46.4938
          ],
          [
            13.7694,
            46.5443
          ],
          [
            13.7339,
            46.5979
          ],
          [
            13.6979,
            46.6529
          ],
          [
            13.6623,
            46.7074
          ],
          [
            13.6266,
            46.7613
          ],
          [
            13.5999,
            46.8018
          ],
          [
            13.5733,
            46.8419
          ],
          [
            13.5504,
            46.8766
          ],
          [
            13.5249,
            46.9149
          ],
          [
            13.4863,
            46.9732
          ],
          [
            13.435,
            47.0498
          ],
          [
            13.3969,
            47.1072
          ],
          [
            13.3616,
            47.1601
          ],
          [
            13.3257,
            47.2131
          ],
          [
            13.2888,
            47.268
          ],
          [
            13.2521,
            47.3223
          ],
          [
            13.214,
            47.379
          ],
          [
            13.1767,
            47.4339
          ],
          [
            13.1388,
            47.4898
          ],
          [
            13.1007,
            47.5456
          ],
          [
            13.0637,
            47.6
          ],
          [
            13.0277,
            47.6506
          ],
          [
            13.0002,
            47.6721
          ],
          [
            12.9651,
            47.6907
          ],
          [
            12.9142,
            47.7132
          ],
          [
            12.8457,
            47.7413
          ],
          [
            12.7772,
            47.77
          ],
          [
            12.7073,
            47.7997
          ],
          [
            12.6663,
            47.8135
          ],
          [
            12.6089,
            47.8285
          ],
          [
            12.5348,
            47.8467
          ],
          [
            12.4616,
            47.8645
          ],
          [
            12.3913,
            47.8815
          ],
          [
            12.3617,
            47.8888
          ],
          [
            12.2226,
            47.9335
          ],
          [
            12.1567,
            47.9542
          ],
          [
            12.0945,
            47.9734
          ],
          [
            12.0326,
            47.9924
          ],
          [
            11.9728,
            48.0113
          ],
          [
            11.918,
            48.0289
          ],
          [
            11.862,
            48.0475
          ],
          [
            11.8041,
            48.0663
          ],
          [
            11.7624,
            48.0797
          ],
          [
            11.7286,
            48.0968
          ],
          [
            11.6984,
            48.115
          ],
          [
            11.6555,
            48.1411
          ],
          [
            11.612,
            48.1666
          ],
          [
            11.5692,
            48.1909
          ],
          [
            11.5257,
            48.2161
          ],
          [
            11.5126,
            48.2344
          ],
          [
            11.5114,
            48.2558
          ],
          [
            11.5123,
            48.2861
          ],
          [
            11.5187,
            48.3079
          ],
          [
            11.5369,
            48.3197
          ],
          [
            11.5616,
            48.329
          ],
          [
            11.5944,
            48.3295
          ],
          [
            11.6212,
            48.3311
          ],
          [
            11.6537,
            48.3333
          ],
          [
            11.6811,
            48.3353
          ],
          [
            11.6953,
            48.3364
          ],
          [
            11.7104,
            48.3376
          ],
          [
            11.7254,
            48.3386
          ],
          [
            11.7401,
            48.3399
          ],
          [
            11.7538,
            48.3409
          ]
        ]
      },
      "properties": {
        "time_europe_berlin": [
          "23.10.2025 10:32:48",
          "23.10.2025 10:33:04",
          "23.10.2025 10:33:20",
          "23.10.2025 10:33:37",
          "23.10.2025 10:33:53",
          "23.10.2025 10:34:12",
          "23.10.2025 10:34:28",
          "23.10.2025 10:34:46",
          "23.10.2025 10:35:04",
          "23.10.2025 10:35:29",
          "23.10.2025 10:36:14",
          "23.10.2025 10:36:44",
          "23.10.2025 10:37:14",
          "23.10.2025 10:37:45",
          "23.10.2025 10:38:15",
          "23.10.2025 10:38:46",
          "23.10.2025 10:39:14",
          "23.10.2025 10:39:34",
          "23.10.2025 10:39:53",
          "23.10.2025 10:40:23",
          "23.10.2025 10:40:53",
          "23.10.2025 10:41:24",
          "23.10.2025 10:41:56",
          "23.10.2025 10:42:26",
          "23.10.2025 10:42:56",
          "23.10.2025 10:43:26",
          "23.10.2025 10:43:56",
          "23.10.2025 10:44:26",
          "23.10.2025 10:44:56",
          "23.10.2025 10:45:26",
          "23.10.2025 10:45:56",
          "23.10.2025 10:46:26",
          "23.10.2025 10:46:57",
          "23.10.2025 10:47:28",
          "23.10.2025 10:47:59",
          "23.10.2025 10:48:29",
          "23.10.2025 10:48:59",
          "23.10.2025 10:49:29",
          "23.10.2025 10:49:47",
          "23.10.2025 10:50:08",
          "23.10.2025 10:50:38",
          "23.10.2025 10:51:08",
          "23.10.2025 10:51:39",
          "23.10.2025 10:52:11",
          "23.10.2025 10:52:41",
          "23.10.2025 10:53:15",
          "23.10.2025 10:53:45",
          "23.10.2025 10:54:16",
          "23.10.2025 10:54:47",
          "23.10.2025 10:55:17",
          "23.10.2025 10:55:47",
          "23.10.2025 10:56:17",
          "23.10.2025 10:56:47",
          "23.10.2025 10:57:17",
          "23.10.2025 10:57:47",
          "23.10.2025 10:58:17",
          "23.10.2025 10:58:47",
          "23.10.2025 10:59:17",
          "23.10.2025 10:59:47",
          "23.10.2025 11:00:18",
          "23.10.2025 11:00:49",
          "23.10.2025 11:01:20",
          "23.10.2025 11:01:50",
          "23.10.2025 11:02:20",
          "23.10.2025 11:02:50",
          "23.10.2025 11:03:21",
          "23.10.2025 11:03:52",
          "23.10.2025 11:04:25",
          "23.10.2025 11:04:57",
          "23.10.2025 11:05:28",
          "23.10.2025 11:06:00",
          "23.10.2025 11:06:30",
          "23.10.2025 11:07:00",
          "23.10.2025 11:07:31",
          "23.10.2025 11:08:01",
          "23.10.2025 11:08:31",
          "23.10.2025 11:09:02",
          "23.10.2025 11:09:32",
          "23.10.2025 11:10:02",
          "23.10.2025 11:10:32",
          "23.10.2025 11:11:02",
          "23.10.2025 11:11:32",
          "23.10.2025 11:12:02",
          "23.10.2025 11:12:32",
          "23.10.2025 11:13:02",
          "23.10.2025 11:13:32",
          "23.10.2025 11:14:03",
          "23.10.2025 11:14:33",
          "23.10.2025 11:15:03",
          "23.10.2025 11:15:35",
          "23.10.2025 11:16:05",
          "23.10.2025 11:16:35",
          "23.10.2025 11:17:06",
          "23.10.2025 11:17:37",
          "23.10.2025 11:18:08",
          "23.10.2025 11:18:38",
          "23.10.2025 11:19:08",
          "23.10.2025 11:19:39",
          "23.10.2025 11:20:09",
          "23.10.2025 11:20:39",
          "23.10.2025 11:21:09",
          "23.10.2025 11:21:39",
          "23.10.2025 11:22:09",
          "23.10.2025 11:22:39",
          "23.10.2025 11:23:10",
          "23.10.2025 11:23:40",
          "23.10.2025 11:23:57",
          "23.10.2025 11:24:16",
          "23.10.2025 11:24:46",
          "23.10.2025 11:25:16",
          "23.10.2025 11:25:46",
          "23.10.2025 11:26:16",
          "23.10.2025 11:26:46",
          "23.10.2025 11:27:17",
          "23.10.2025 11:27:48",
          "23.10.2025 11:28:08",
          "23.10.2025 11:28:46",
          "23.10.2025 11:29:16",
          "23.10.2025 11:29:46",
          "23.10.2025 11:30:16",
          "23.10.2025 11:30:46",
          "23.10.2025 11:31:16",
          "23.10.2025 11:31:46",
          "23.10.2025 11:32:09",
          "23.10.2025 11:32:30",
          "23.10.2025 11:32:50",
          "23.10.2025 11:33:13",
          "23.10.2025 11:33:43",
          "23.10.2025 11:34:23",
          "23.10.2025 11:34:53",
          "23.10.2025 11:35:23",
          "23.10.2025 11:35:53",
          "23.10.2025 11:36:24",
          "23.10.2025 11:36:54",
          "23.10.2025 11:37:24",
          "23.10.2025 11:37:54",
          "23.10.2025 11:38:24",
          "23.10.2025 11:38:54",
          "23.10.2025 11:39:24",
          "23.10.2025 11:39:53",
          "23.10.2025 11:40:09",
          "23.10.2025 11:40:26",
          "23.10.2025 11:40:48",
          "23.10.2025 11:41:18",
          "23.10.2025 11:41:48",
          "23.10.2025 11:42:18",
          "23.10.2025 11:42:36",
          "23.10.2025 11:43:00",
          "23.10.2025 11:43:30",
          "23.10.2025 11:44:00",
          "23.10.2025 11:44:30",
          "23.10.2025 11:44:47",
          "23.10.2025 11:45:47",
          "23.10.2025 11:46:17",
          "23.10.2025 11:46:47",
          "23.10.2025 11:47:17",
          "23.10.2025 11:47:46",
          "23.10.2025 11:48:16",
          "23.10.2025 11:48:46",
          "23.10.2025 11:49:14",
          "23.10.2025 11:49:34",
          "23.10.2025 11:49:54",
          "23.10.2025 11:50:12",
          "23.10.2025 11:50:42",
          "23.10.2025 11:51:12",
          "23.10.2025 11:51:42",
          "23.10.2025 11:52:12",
          "23.10.2025 11:52:28",
          "23.10.2025 11:52:44",
          "23.10.2025 11:53:11",
          "23.10.2025 11:53:30",
          "23.10.2025 11:53:46",
          "23.10.2025 11:54:04",
          "23.10.2025 11:54:25",
          "23.10.2025 11:54:47",
          "23.10.2025 11:55:17",
          "23.10.2025 11:55:44",
          "23.10.2025 11:55:59",
          "23.10.2025 11:56:15",
          "23.10.2025 11:56:31",
          "23.10.2025 11:56:47",
          "23.10.2025 11:57:03"
        ],
        "course_deg_clockwise_from_north": [
          "250",
          "253",
          "253",
          "249",
          "247",
          "250",
          "287",
          "333",
          "355",
          "4",
          "2",
          "2",
          "3",
          "2",
          "2",
          "2",
          "360",
          "342",
          "334",
          "330",
          "329",
          "330",
          "331",
          "330",
          "331",
          "331",
          "331",
          "331",
          "331",
          "330",
          "331",
          "331",
          "331",
          "330",
          "331",
          "330",
          "330",
          "331",
          "337",
          "342",
          "342",
          "341",
          "341",
          "341",
          "341",
          "341",
          "341",
          "342",
          "341",
          "341",
          "341",
          "341",
          "341",
          "340",
          "341",
          "342",
          "341",
          "340",
          "341",
          "341",
          "341",
          "341",
          "341",
          "341",
          "341",
          "341",
          "341",
          "341",
          "340",
          "340",
          "341",
          "341",
          "340",
          "340",
          "341",
          "341",
          "341",
          "340",
          "340",
          "340",
          "341",
          "340",
          "341",
          "340",
          "340",
          "340",
          "340",
          "341",
          "341",
          "340",
          "340",
          "340",
          "341",
          "340",
          "340",
          "338",
          "336",
          "335",
          "336",
          "336",
          "335",
          "336",
          "336",
          "336",
          "336",
          "336",
          "336",
          "337",
          "336",
          "336",
          "336",
          "336",
          "336",
          "336",
          "336",
          "337",
          "336",
          "336",
          "336",
          "336",
          "336",
          "336",
          "336",
          "336",
          "336",
          "336",
          "336",
          "336",
          "335",
          "336",
          "335",
          "335",
          "336",
          "335",
          "336",
          "335",
          "336",
          "335",
          "336",
          "329",
          "313",
          "305",
          "302",
          "301",
          "302",
          "302",
          "293",
          "291",
          "290",
          "290",
          "290",
          "293",
          "296",
          "295",
          "295",
          "295",
          "295",
          "296",
          "296",
          "295",
          "299",
          "311",
          "312",
          "312",
          "310",
          "311",
          "317",
          "350",
          "0",
          "1",
          "31",
          "52",
          "78",
          "87",
          "85",
          "85",
          "84",
          "84",
          "85",
          "82",
          "84",
          "84"
        ],
        "speed_kts": [
          "150",
          "157",
          "160",
          "181",
          "195",
          "200",
          "203",
          "213",
          "230",
          "256",
          "264",
          "315",
          "339",
          "347",
          "358",
          "365",
          "377",
          "368",
          "370",
          "369",
          "371",
          "375",
          "373",
          "370",
          "364",
          "348",
          "344",
          "353",
          "362",
          "367",
          "374",
          "384",
          "380",
          "376",
          "372",
          "368",
          "365",
          "369",
          "376",
          "382",
          "386",
          "386",
          "387",
          "383",
          "380",
          "378",
          "378",
          "378",
          "377",
          "375",
          "374",
          "374",
          "373",
          "373",
          "372",
          "372",
          "371",
          "369",
          "369",
          "369",
          "371",
          "371",
          "372",
          "372",
          "372",
          "371",
          "372",
          "373",
          "374",
          "374",
          "373",
          "375",
          "376",
          "377",
          "380",
          "381",
          "383",
          "385",
          "383",
          "390",
          "400",
          "408",
          "416",
          "423",
          "423",
          "421",
          "417",
          "417",
          "417",
          "416",
          "415",
          "414",
          "415",
          "413",
          "411",
          "409",
          "409",
          "409",
          "410",
          "411",
          "413",
          "415",
          "415",
          "416",
          "417",
          "416",
          "417",
          "419",
          "422",
          "418",
          "417",
          "419",
          "420",
          "422",
          "425",
          "427",
          "426",
          "425",
          "424",
          "427",
          "424",
          "429",
          "432",
          "434",
          "434",
          "432",
          "435",
          "440",
          "448",
          "444",
          "428",
          "422",
          "427",
          "442",
          "444",
          "435",
          "440",
          "433",
          "425",
          "410",
          "392",
          "388",
          "390",
          "395",
          "394",
          "394",
          "386",
          "380",
          "371",
          "365",
          "361",
          "358",
          "349",
          "344",
          "336",
          "320",
          "303",
          "308",
          "322",
          "328",
          "323",
          "306",
          "293",
          "285",
          "278",
          "279",
          "279",
          "277",
          "268",
          "243",
          "247",
          "240",
          "221",
          "195",
          "169",
          "158",
          "139",
          "136",
          "134",
          "135",
          "136",
          "135"
        ],
        "speed_mph": [
          "173",
          "181",
          "184",
          "208",
          "224",
          "230",
          "234",
          "245",
          "265",
          "295",
          "304",
          "362",
          "390",
          "399",
          "412",
          "420",
          "434",
          "423",
          "426",
          "425",
          "427",
          "432",
          "429",
          "426",
          "419",
          "400",
          "396",
          "406",
          "417",
          "422",
          "430",
          "442",
          "437",
          "433",
          "428",
          "423",
          "420",
          "425",
          "433",
          "440",
          "444",
          "444",
          "445",
          "441",
          "437",
          "435",
          "435",
          "435",
          "434",
          "432",
          "430",
          "430",
          "429",
          "429",
          "428",
          "428",
          "427",
          "425",
          "425",
          "425",
          "427",
          "427",
          "428",
          "428",
          "428",
          "427",
          "428",
          "429",
          "430",
          "430",
          "429",
          "432",
          "433",
          "434",
          "437",
          "438",
          "441",
          "443",
          "441",
          "449",
          "460",
          "470",
          "479",
          "487",
          "487",
          "484",
          "480",
          "480",
          "480",
          "479",
          "478",
          "476",
          "478",
          "475",
          "473",
          "471",
          "471",
          "471",
          "472",
          "473",
          "475",
          "478",
          "478",
          "479",
          "480",
          "479",
          "480",
          "482",
          "486",
          "481",
          "480",
          "482",
          "483",
          "486",
          "489",
          "491",
          "490",
          "489",
          "488",
          "491",
          "488",
          "494",
          "497",
          "499",
          "499",
          "497",
          "501",
          "506",
          "516",
          "511",
          "493",
          "486",
          "491",
          "509",
          "511",
          "501",
          "506",
          "498",
          "489",
          "472",
          "451",
          "447",
          "449",
          "455",
          "453",
          "453",
          "444",
          "437",
          "427",
          "420",
          "415",
          "412",
          "402",
          "396",
          "387",
          "368",
          "349",
          "354",
          "371",
          "377",
          "372",
          "352",
          "337",
          "328",
          "320",
          "321",
          "321",
          "319",
          "308",
          "280",
          "284",
          "276",
          "254",
          "224",
          "194",
          "182",
          "160",
          "157",
          "154",
          "155",
          "157",
          "155"
        ],
        "altitude_ft": [
          "875",
          "1600",
          "2450",
          "2925",
          "3675",
          "4650",
          "5475",
          "6425",
          "7450",
          "8475",
          "11325",
          "12525",
          "14125",
          "16225",
          "18100",
          "19875",
          "21300",
          "22400",
          "23275",
          "24775",
          "26225",
          "27350",
          "28775",
          "30000",
          "31300",
          "32925",
          "34050",
          "34575",
          "35075",
          "35575",
          "35975",
          "36000",
          "36125",
          "36800",
          "37425",
          "38125",
          "38725",
          "39075",
          "39225",
          "39400",
          "39625",
          "39850",
          "40000",
          "40000",
          "40000",
          "40000",
          "40000",
          "40000",
          "40000",
          "40000",
          "40000",
          "40000",
          "40000",
          "40000",
          "40000",
          "40000",
          "40000",
          "40000",
          "40000",
          "40000",
          "40000",
          "40000",
          "40000",
          "40000",
          "40000",
          "40000",
          "40000",
          "40000",
          "40000",
          "40000",
          "40000",
          "40000",
          "40000",
          "40000",
          "40000",
          "40000",
          "40000",
          "39775",
          "39275",
          "38775",
          "38275",
          "37775",
          "37250",
          "36775",
          "36525",
          "36100",
          "36000",
          "36000",
          "36000",
          "36000",
          "36000",
          "36000",
          "36000",
          "36000",
          "36000",
          "36000",
          "36000",
          "36000",
          "36000",
          "36000",
          "36000",
          "36000",
          "36000",
          "36000",
          "35650",
          "35175",
          "34875",
          "34600",
          "34125",
          "34000",
          "34000",
          "34000",
          "34000",
          "34000",
          "34000",
          "34000",
          "34000",
          "34000",
          "34000",
          "34000",
          "33975",
          "33500",
          "33050",
          "32725",
          "32400",
          "32200",
          "31850",
          "31425",
          "30825",
          "30425",
          "30050",
          "30000",
          "30000",
          "29375",
          "28400",
          "27450",
          "26450",
          "25475",
          "24575",
          "23875",
          "23575",
          "23225",
          "22800",
          "21900",
          "20900",
          "19850",
          "19250",
          "18450",
          "17475",
          "16525",
          "15625",
          "15075",
          "13275",
          "12325",
          "11500",
          "10750",
          "9975",
          "9250",
          "8500",
          "7775",
          "7600",
          "7600",
          "7600",
          "7600",
          "7600",
          "7375",
          "6925",
          "6675",
          "6425",
          "5825",
          "5300",
          "4950",
          "4575",
          "4150",
          "3825",
          "3400",
          "3050",
          "2875",
          "2675",
          "2500",
          "2325",
          "2150"
        ],
        "vertical_rate_fpm": [
          "",
          "2953",
          "2409",
          "2227",
          "2957",
          "3086",
          "3132",
          "3292",
          "2860",
          "3321",
          "3240",
          "2800",
          "3639",
          "3910",
          "3590",
          "3254",
          "3156",
          "3038",
          "2908",
          "2950",
          "2533",
          "2429",
          "2565",
          "2525",
          "2925",
          "2750",
          "1650",
          "1025",
          "1000",
          "900",
          "425",
          "148",
          "774",
          "1258",
          "1303",
          "1300",
          "950",
          "625",
          "500",
          "471",
          "450",
          "369",
          "143",
          "",
          "",
          "",
          "",
          "",
          "",
          "",
          "",
          "",
          "",
          "",
          "",
          "",
          "",
          "",
          "",
          "",
          "",
          "",
          "",
          "",
          "",
          "",
          "",
          "",
          "",
          "",
          "",
          "",
          "",
          "",
          "",
          "",
          "-221",
          "-725",
          "-1000",
          "-1000",
          "-1000",
          "-1025",
          "-1000",
          "-725",
          "-675",
          "-516",
          "-98",
          "",
          "",
          "",
          "",
          "",
          "",
          "",
          "",
          "",
          "",
          "",
          "",
          "",
          "",
          "",
          "",
          "-344",
          "-811",
          "-989",
          "-958",
          "-918",
          "-600",
          "-125",
          "",
          "",
          "",
          "",
          "",
          "",
          "",
          "",
          "",
          "-25",
          "-500",
          "-925",
          "-877",
          "-886",
          "-768",
          "-767",
          "-877",
          "-879",
          "-857",
          "-775",
          "-425",
          "-49",
          "-615",
          "-1600",
          "-1925",
          "-1950",
          "-1975",
          "-1875",
          "-1627",
          "-1333",
          "-1182",
          "-1192",
          "-1529",
          "-1900",
          "-2050",
          "-2063",
          "-2000",
          "-1972",
          "-1925",
          "-1850",
          "-1851",
          "-1831",
          "-1833",
          "-1775",
          "-1575",
          "-1551",
          "-1525",
          "-1475",
          "-1526",
          "-1125",
          "-263",
          "",
          "",
          "",
          "-225",
          "-675",
          "-913",
          "-938",
          "-1186",
          "-1467",
          "-1500",
          "-1279",
          "-1231",
          "-1047",
          "-865",
          "-816",
          "-750",
          "-726",
          "-703",
          "-656",
          "-656",
          "-656"
        ],
        "reporting_facility": [
          "FlightAware ADS-B(BRI / LIBD)",
          "FlightAware ADS-B(BRI / LIBD)",
          "FlightAware ADS-B(FOG / LIBF)",
          "FlightAware ADS-B(FOG / LIBF)",
          "FlightAware ADS-B(BRI / LIBD)",
          "FlightAware ADS-B(LCC / LIBN)",
          "FlightAware ADS-B(LIBX)",
          "FlightAware ADS-B(FOG / LIBF)",
          "FlightAware ADS-B(BRI / LIBD)",
          "FlightAware ADS-B(LINB)",
          "FlightAware ADS-B(LIBX)",
          "FlightAware ADS-B(BRI / LIBD)",
          "FlightAware ADS-B(FOG / LIBF)",
          "FlightAware ADS-B(PSR / LIBP)",
          "FlightAware ADS-B(LIBX)",
          "FlightAware ADS-B(PSR / LIBP)",
          "FlightAware ADS-B(FOG / LIBF)",
          "FlightAware ADS-B(BRI / LIBD)",
          "FlightAware ADS-B(LINB)",
          "FlightAware ADS-B(LINA)",
          "FlightAware ADS-B(QRT / LIQN)",
          "FlightAware ADS-B(BRI / LIBD)",
          "FlightAware ADS-B(QSR / LIRI)",
          "FlightAware ADS-B(NAP / LIRN)",
          "FlightAware ADS-B(PSR / LIBP)",
          "FlightAware ADS-B(SPU / LDSP)",
          "FlightAware ADS-B(NAP / LIRN)",
          "FlightAware ADS-B(QSR / LIRI)",
          "FlightAware ADS-B(QSR / LIRI)",
          "FlightAware ADS-B(QSR / LIRI)",
          "FlightAware ADS-B(BRI / LIBD)",
          "FlightAware ADS-B(PSR / LIBP)",
          "FlightAware ADS-B(PSR / LIBP)",
          "FlightAware ADS-B(AOI / LIPY)",
          "FlightAware ADS-B(PSR / LIBP)",
          "FlightAware ADS-B(LIBX)",
          "FlightAware ADS-B(AOI / LIPY)",
          "FlightAware ADS-B(AOI / LIPY)",
          "FlightAware ADS-B(PSR / LIBP)",
          "FlightAware ADS-B(LCC / LIBN)",
          "FlightAware ADS-B(ZAD / LDZD)",
          "FlightAware ADS-B(LIPF)",
          "FlightAware ADS-B(LDOR)",
          "FlightAware ADS-B(AOI / LIPY)",
          "FlightAware ADS-B(LIKO)",
          "FlightAware ADS-B(QSR / LIRI)",
          "FlightAware ADS-B(TQR / LINI)",
          "FlightAware ADS-B(TQR / LINI)",
          "FlightAware ADS-B(LCC / LIBN)",
          "FlightAware ADS-B(TQR / LINI)",
          "FlightAware ADS-B(LIPF)",
          "FlightAware ADS-B(LCC / LIBN)",
          "FlightAware ADS-B(QSR / LIRI)",
          "FlightAware ADS-B(QSR / LIRI)",
          "FlightAware ADS-B(QSR / LIRI)",
          "FlightAware ADS-B(QSR / LIRI)",
          "FlightAware ADS-B(QSR / LIRI)",
          "FlightAware ADS-B(AVB / LIPA)",
          "FlightAware ADS-B(AVB / LIPA)",
          "FlightAware ADS-B(AOI / LIPY)",
          "FlightAware ADS-B(TQR / LINI)",
          "FlightAware ADS-B(PSR / LIBP)",
          "FlightAware ADS-B(PSR / LIBP)",
          "FlightAware ADS-B(PEG / LIRZ)",
          "FlightAware ADS-B(PSR / LIBP)",
          "FlightAware ADS-B(PSR / LIBP)",
          "FlightAware ADS-B(TQR / LINI)",
          "FlightAware ADS-B(TQR / LINI)",
          "FlightAware ADS-B(ZAD / LDZD)",
          "FlightAware ADS-B(SOB / LHSM)",
          "FlightAware ADS-B(PSR / LIBP)",
          "FlightAware ADS-B(AOI / LIPY)",
          "FlightAware ADS-B(PSR / LIBP)",
          "FlightAware ADS-B(PSR / LIBP)",
          "FlightAware ADS-B(GRZ / LOWG)",
          "FlightAware ADS-B(FCO / LIRF)",
          "FlightAware ADS-B(ZAD / LDZD)",
          "FlightAware ADS-B(RMI / LIPR)",
          "FlightAware ADS-B(AOI / LIPY)",
          "FlightAware ADS-B(AOI / LIPY)",
          "FlightAware ADS-B(PUY / LDPL)",
          "FlightAware ADS-B(PUY / LDPL)",
          "FlightAware ADS-B(AVB / LIPA)",
          "FlightAware ADS-B(RMI / LIPR)",
          "FlightAware ADS-B(LIPF)",
          "FlightAware ADS-B(GRZ / LOWG)",
          "FlightAware ADS-B(VRN / LIPX)",
          "FlightAware ADS-B(LOGF)",
          "FlightAware ADS-B(LHPR)",
          "FlightAware ADS-B(LIDG)",
          "FlightAware ADS-B(SOB / LHSM)",
          "FlightAware ADS-B(LIDT)",
          "FlightAware ADS-B(LIDT)",
          "FlightAware ADS-B(LIKO)",
          "FlightAware ADS-B(LJBL)",
          "FlightAware ADS-B(UDN / LIPD)",
          "FlightAware ADS-B(AOI / LIPY)",
          "FlightAware ADS-B(LIDF)",
          "FlightAware ADS-B(AOI / LIPY)",
          "FlightAware ADS-B(AOI / LIPY)",
          "FlightAware ADS-B(GRZ / LOWG)",
          "FlightAware ADS-B(GRZ / LOWG)",
          "FlightAware ADS-B(LZMC)",
          "FlightAware ADS-B(LIPI)",
          "FlightAware ADS-B(VIE / LOWW)",
          "FlightAware ADS-B(LOGF)",
          "FlightAware ADS-B(PMF / LIMP)",
          "FlightAware ADS-B(VIE / LOWW)",
          "FlightAware ADS-B(VIC / LIPT)",
          "FlightAware ADS-B(PSR / LIBP)",
          "FlightAware ADS-B(LJPO)",
          "FlightAware ADS-B(GRZ / LOWG)",
          "FlightAware ADS-B(GRZ / LOWG)",
          "FlightAware ADS-B(KLU / LOWK)",
          "FlightAware ADS-B(LOKU)",
          "FlightAware ADS-B(VIE / LOWW)",
          "FlightAware ADS-B(LIPU)",
          "FlightAware ADS-B(KLU / LOWK)",
          "FlightAware ADS-B(BTS / LZIB)",
          "FlightAware ADS-B(RBM / EDMS)",
          "FlightAware ADS-B(LJNM)",
          "FlightAware ADS-B(LOSM)",
          "FlightAware ADS-B(LOSM)",
          "FlightAware ADS-B(GRZ / LOWG)",
          "FlightAware ADS-B(BZO / LIPB)",
          "FlightAware ADS-B(GRZ / LOWG)",
          "FlightAware ADS-B(VIE / LOWW)",
          "FlightAware ADS-B(TSF / LIPH)",
          "FlightAware ADS-B(LOSM)",
          "FlightAware ADS-B(LOSM)",
          "FlightAware ADS-B(LKLT)",
          "FlightAware ADS-B(LIDT)",
          "FlightAware ADS-B(LKST)",
          "FlightAware ADS-B(LOGF)",
          "FlightAware ADS-B(EDPK)",
          "FlightAware ADS-B(EDPK)",
          "FlightAware ADS-B(LOWZ)",
          "FlightAware ADS-B(LOWZ)",
          "FlightAware ADS-B(EDNV)",
          "FlightAware ADS-B(MUC / EDDM)",
          "FlightAware ADS-B(EDML)",
          "FlightAware ADS-B(LKKT)",
          "FlightAware ADS-B(MUC / EDDM)",
          "FlightAware ADS-B(EDNX)",
          "FlightAware ADS-B(MUC / EDDM)",
          "FlightAware ADS-B(ETSE)",
          "FlightAware ADS-B(EDMJ)",
          "FlightAware ADS-B(MUC / EDDM)",
          "FlightAware ADS-B(RBM / EDMS)",
          "FlightAware ADS-B(MUC / EDDM)",
          "FlightAware ADS-B(BZO / LIPB)",
          "FlightAware ADS-B(EDMR)",
          "FlightAware ADS-B(EDMR)",
          "FlightAware ADS-B(EDMR)",
          "FlightAware ADS-B(EDMR)",
          "FlightAware ADS-B(ETSE)",
          "FlightAware ADS-B(MUC / EDDM)",
          "FlightAware ADS-B(EDMR)",
          "FlightAware ADS-B(EDMK)",
          "FlightAware ADS-B(LOSL)",
          "FlightAware ADS-B(EDMR)",
          "FlightAware ADS-B(MUC / EDDM)",
          "FlightAware ADS-B(EDMR)",
          "FlightAware ADS-B(OBF / EDMO)",
          "FlightAware ADS-B(MUC / EDDM)",
          "FlightAware ADS-B(MUC / EDDM)",
          "FlightAware ADS-B(EDNX)",
          "FlightAware ADS-B(EDNA)",
          "FlightAware ADS-B(EDMR)",
          "FlightAware ADS-B(ETSL)",
          "FlightAware ADS-B(ETSN)",
          "FlightAware ADS-B(EDMD)",
          "FlightAware ADS-B(EDMJ)",
          "FlightAware ADS-B(ETSE)",
          "FlightAware ADS-B(MUC / EDDM)",
          "FlightAware ADS-B(MUC / EDDM)",
          "Surface and Near-Surface",
          "FlightAware ADS-B(ETSE)",
          "FlightAware ADS-B(MUC / EDDM)",
          "FlightAware ADS-B(EDMJ)",
          "FlightAware ADS-B(EDPI)",
          "FlightAware ADS-B(MUC / EDDM)"
        ]
      }
    }
  ]
}