{
  "type": "FeatureCollection",
  "features": [
    {
      "type": "Feature",
      "geometry": {
        "type": "LineString",
        "coordinates": [
          [
            -16.3485,
            28.4849
          ],
          [
            -16.3603,
            28.4881
          ],
          [
            -16.3758,
            28.492
          ],
          [
            -16.39,
            28.4967
          ],
          [
            -16.4023,
            28.5012
          ],
          [
            -16.4178,
            28.5057
          ],
          [
            -16.4506,
            28.516
          ],
          [
            -16.4657,
            28.5294
          ],
          [
            -16.4691,
            28.5485
          ],
          [
            -16.4663,
            28.5767
          ],
          [
            -16.4558,
            28.6337
          ],
          [
            -16.4497,
            28.6752
          ],
          [
            -16.4433,
            28.7178
          ],
          [
            -16.4366,
            28.7609
          ],
          [
            -16.4305,
            28.8028
          ],
          [
            -16.4239,
            28.8471
          ],
          [
            -16.4171,
            28.8925
          ],
          [
            -16.4102,
            28.9397
          ],
          [
            -16.4031,
            28.9875
          ],
          [
            -16.3961,
            29.0338
          ],
          [
            -16.3885,
            29.0852
          ],
          [
            -16.3815,
            29.1322
          ],
          [
            -16.3739,
            29.1834
          ],
          [
            -16.3666,
            29.2321
          ],
          [
            -16.3593,
            29.2813
          ],
          [
            -16.352,
            29.3299
          ],
          [
            -16.3441,
            29.3834
          ],
          [
            -16.336,
            29.4377
          ],
          [
            -16.3276,
            29.4932
          ],
          [
            -16.3195,
            29.5478
          ],
          [
            -16.3112,
            29.6033
          ],
          [
            -16.303,
            29.6577
          ],
          [
            -16.2944,
            29.7148
          ],
          [
            -16.2855,
            29.7736
          ],
          [
            -16.2767,
            29.8315
          ],
          [
            -16.2679,
            29.8905
          ],
          [
            -16.2589,
            29.9493
          ],
          [
            -16.2497,
            30.0107
          ],
          [
            -16.2406,
            30.0704
          ],
          [
            -16.2321,
            30.1265
          ],
          [
            -16.2234,
            30.184
          ],
          [
            -16.2145,
            30.2421
          ],
          [
            -16.2055,
            30.3012
          ],
          [
            -16.1973,
            30.3553
          ],
          [
            -16.189,
            30.4094
          ],
          [
            -16.1802,
            30.4673
          ],
          [
            -16.1717,
            30.5232
          ],
          [
            -16.1631,
            30.5792
          ],
          [
            -16.1543,
            30.6364
          ],
          [
            -16.1458,
            30.6921
          ],
          [
            -16.1372,
            30.7479
          ],
          [
            -16.1258,
            30.8222
          ],
          [
            -16.1162,
            30.8829
          ],
          [
            -16.1042,
            30.9208
          ],
          [
            -16.0778,
            30.9755
          ],
          [
            -16.0485,
            31.0288
          ],
          [
            -16.0106,
            31.1004
          ],
          [
            -15.9826,
            31.1535
          ],
          [
            -15.9491,
            31.2164
          ],
          [
            -15.9209,
            31.2696
          ],
          [
            -15.8906,
            31.3266
          ],
          [
            -15.8622,
            31.3799
          ],
          [
            -15.8343,
            31.4325
          ],
          [
            -15.8059,
            31.4857
          ],
          [
            -15.7787,
            31.5369
          ],
          [
            -15.7502,
            31.5901
          ],
          [
            -15.7206,
            31.6455
          ],
          [
            -15.6927,
            31.6977
          ],
          [
            -15.6649,
            31.7494
          ],
          [
            -15.6371,
            31.8014
          ],
          [
            -15.601,
            31.8681
          ],
          [
            -15.5627,
            31.931
          ],
          [
            -15.5273,
            31.9876
          ],
          [
            -15.4958,
            32.0386
          ],
          [
            -15.4637,
            32.0896
          ],
          [
            -15.4316,
            32.1405
          ],
          [
            -15.3983,
            32.1935
          ],
          [
            -15.3657,
            32.2451
          ],
          [
            -15.3335,
            32.296
          ],
          [
            -15.277,
            32.3851
          ],
          [
            -15.244,
            32.437
          ],
          [
            -15.2112,
            32.4887
          ],
          [
            -15.1579,
            32.5723
          ],
          [
            -15.1213,
            32.6298
          ],
          [
            -15.0798,
            32.6947
          ],
          [
            -15.0455,
            32.7483
          ],
          [
            -15.0121,
            32.8006
          ],
          [
            -14.9785,
            32.8528
          ],
          [
            -14.9421,
            32.9095
          ],
          [
            -14.9087,
            32.9613
          ],
          [
            -14.8567,
            33.042
          ],
          [
            -14.8211,
            33.0971
          ],
          [
            -14.7613,
            33.1896
          ],
          [
            -14.7185,
            33.2556
          ],
          [
            -14.6842,
            33.3084
          ],
          [
            -14.6491,
            33.3624
          ],
          [
            -14.6148,
            33.4151
          ],
          [
            -14.5658,
            33.4901
          ],
          [
            -14.5093,
            33.5767
          ],
          [
            -14.459,
            33.6534
          ],
          [
            -14.4172,
            33.7171
          ],
          [
            -14.3772,
            33.778
          ],
          [
            -14.3421,
            33.8312
          ],
          [
            -14.2883,
            33.9128
          ],
          [
            -14.253304587155963,
            33.964701376146785
          ],
          [
            -14.218309174311926,
            34.01660275229357
          ],
          [
            -14.18331376146789,
            34.06850412844037
          ],
          [
            -14.148318348623853,
            34.120405504587154
          ],
          [
            -14.113322935779816,
            34.17230688073394
          ],
          [
            -14.07832752293578,
            34.22420825688073
          ],
          [
            -14.043332110091743,
            34.276109633027524
          ],
          [
            -14.008336697247707,
            34.32801100917431
          ],
          [
            -13.97334128440367,
            34.3799123853211
          ],
          [
            -13.938345871559633,
            34.431813761467886
          ],
          [
            -13.903350458715597,
            34.48371513761467
          ],
          [
            -13.86835504587156,
            34.53561651376147
          ],
          [
            -13.833359633027523,
            34.587517889908256
          ],
          [
            -13.798364220183487,
            34.63941926605504
          ],
          [
            -13.76336880733945,
            34.69132064220183
          ],
          [
            -13.728373394495414,
            34.743222018348625
          ],
          [
            -13.693377981651377,
            34.79512339449541
          ],
          [
            -13.65838256880734,
            34.8470247706422
          ],
          [
            -13.623387155963304,
            34.89892614678899
          ],
          [
            -13.588391743119267,
            34.950827522935775
          ],
          [
            -13.55339633027523,
            35.00272889908257
          ],
          [
            -13.518400917431194,
            35.05463027522936
          ],
          [
            -13.483405504587157,
            35.106531651376145
          ],
          [
            -13.448410091743119,
            35.15843302752293
          ],
          [
            -13.413414678899082,
            35.21033440366972
          ],
          [
            -13.378419266055046,
            35.262235779816514
          ],
          [
            -13.343423853211009,
            35.3141371559633
          ],
          [
            -13.308428440366972,
            35.36603853211009
          ],
          [
            -13.273433027522936,
            35.417939908256876
          ],
          [
            -13.2711,
            35.4214
          ],
          [
            -13.2348,
            35.474
          ],
          [
            -13.1795,
            35.5541
          ],
          [
            -13.143823076923077,
            35.60546923076923
          ],
          [
            -13.108146153846155,
            35.65683846153846
          ],
          [
            -13.072469230769231,
            35.70820769230769
          ],
          [
            -13.036792307692307,
            35.75957692307692
          ],
          [
            -13.001115384615385,
            35.81094615384615
          ],
          [
            -12.965438461538461,
            35.862315384615385
          ],
          [
            -12.9476,
            35.888
          ],
          [
            -12.9122,
            35.9387
          ],
          [
            -12.8178,
            36.0734
          ],
          [
            -12.7474,
            36.1736
          ],
          [
            -12.7094,
            36.2275
          ],
          [
            -12.6623,
            36.2942
          ],
          [
            -12.6234,
            36.3494
          ],
          [
            -12.586,
            36.4021
          ],
          [
            -12.549,
            36.4543
          ],
          [
            -12.5131,
            36.5047
          ],
          [
            -12.4765,
            36.5561
          ],
          [
            -12.44,
            36.6075
          ],
          [
            -12.4031,
            36.6592
          ],
          [
            -12.367,
            36.7095
          ],
          [
            -12.3296,
            36.7618
          ],
          [
            -12.293,
            36.8131
          ],
          [
            -12.2561,
            36.8643
          ],
          [
            -12.2217,
            36.9121
          ],
          [
            -12.1833,
            36.9654
          ],
          [
            -12.1462,
            37.017
          ],
          [
            -12.1086,
            37.0689
          ],
          [
            -12.0712,
            37.1206
          ],
          [
            -12.0355,
            37.1698
          ],
          [
            -11.997,
            37.2227
          ],
          [
            -11.9599,
            37.2738
          ],
          [
            -11.923,
            37.3245
          ],
          [
            -11.8848,
            37.3769
          ],
          [
            -11.8478,
            37.4274
          ],
          [
            -11.8097,
            37.4796
          ],
          [
            -11.7724,
            37.5304
          ],
          [
            -11.735,
            37.5812
          ],
          [
            -11.6961,
            37.6341
          ],
          [
            -11.6583,
            37.6854
          ],
          [
            -11.6205,
            37.7368
          ],
          [
            -11.5828,
            37.7878
          ],
          [
            -11.5447,
            37.8392
          ],
          [
            -11.5064,
            37.8909
          ],
          [
            -11.4672,
            37.9436
          ],
          [
            -11.4288,
            37.9952
          ],
          [
            -11.3907,
            38.0464
          ],
          [
            -11.3528,
            38.0973
          ],
          [
            -11.313,
            38.1504
          ],
          [
            -11.2743,
            38.2021
          ],
          [
            -11.2348,
            38.2548
          ],
          [
            -11.1964,
            38.3058
          ],
          [
            -11.1584,
            38.3563
          ],
          [
            -11.1179,
            38.41
          ],
          [
            -11.0788,
            38.4619
          ],
          [
            -11.0405,
            38.5125
          ],
          [
            -11.0017,
            38.5637
          ],
          [
            -10.9629,
            38.6148
          ],
          [
            -10.924,
            38.6659
          ],
          [
            -10.8851,
            38.7171
          ],
          [
            -10.847,
            38.7669
          ],
          [
            -10.8068,
            38.8195
          ],
          [
            -10.7673,
            38.8712
          ],
          [
            -10.7269,
            38.9238
          ],
          [
            -10.6873,
            38.9754
          ],
          [
            -10.6475,
            39.0271
          ],
          [
            -10.6079,
            39.0786
          ],
          [
            -10.5685,
            39.1293
          ],
          [
            -10.5285,
            39.1813
          ],
          [
            -10.4873,
            39.2344
          ],
          [
            -10.4472,
            39.286
          ],
          [
            -10.4073,
            39.3373
          ],
          [
            -10.3663,
            39.3901
          ],
          [
            -10.3261,
            39.4416
          ],
          [
            -10.2861,
            39.4927
          ],
          [
            -10.2449,
            39.5453
          ],
          [
            -10.2054,
            39.5958
          ],
          [
            -10.1641,
            39.6484
          ],
          [
            -10.1229,
            39.7007
          ],
          [
            -10.0827,
            39.7516
          ],
          [
            -10.0396,
            39.8062
          ],
          [
            -10.0,
            39.8563
          ],
          [
            -9.9582,
            39.9089
          ],
          [
            -9.9178,
            39.9598
          ],
          [
            -9.8762,
            40.0122
          ],
          [
            -9.8345,
            40.0646
          ],
          [
            -9.7915,
            40.1183
          ],
          [
            -9.7497,
            40.1706
          ],
          [
            -9.708,
            40.2226
          ],
          [
            -9.6622,
            40.2797
          ],
          [
            -9.6202,
            40.3319
          ],
          [
            -9.5773,
            40.385
          ],
          [
            -9.5353,
            40.437
          ],
          [
            -9.4907,
            40.4921
          ],
          [
            -9.4472,
            40.5457
          ],
          [
            -9.4055,
            40.5972
          ],
          [
            -9.3633,
            40.649
          ],
          [
            -9.3206,
            40.7015
          ],
          [
            -9.2774,
            40.7542
          ],
          [
            -9.233,
            40.8086
          ],
          [
            -9.1903,
            40.8606
          ],
          [
            -9.1467,
            40.9136
          ],
          [
            -9.1036,
            40.966
          ],
          [
            -9.0591,
            41.02
          ],
          [
            -9.0168,
            41.0713
          ],
          [
            -8.9727,
            41.1244
          ],
          [
            -8.9288,
            41.1775
          ],
          [
            -8.8858,
            41.2292
          ],
          [
            -8.8421,
            41.2817
          ],
          [
            -8.7987,
            41.3338
          ],
          [
            -8.7551,
            41.3859
          ],
          [
            -8.7108,
            41.4387
          ],
          [
            -8.6668,
            41.4913
          ],
          [
            -8.6227,
            41.5438
          ],
          [
            -8.5783,
            41.5965
          ],
          [
            -8.5347,
            41.6482
          ],
          [
            -8.4862,
            41.7056
          ],
          [
            -8.4428,
            41.7567
          ],
          [
            -8.3974,
            41.81
          ],
          [
            -8.3517,
            41.8639
          ],
          [
            -8.3087,
            41.9143
          ],
          [
            -8.2603,
            41.9711
          ],
          [
            -8.2141,
            42.025
          ],
          [
            -8.1691,
            42.0775
          ],
          [
            -8.1229,
            42.1312
          ],
          [
            -8.0774,
            42.1842
          ],
          [
            -8.0316,
            42.2373
          ],
          [
            -7.9834,
            42.2931
          ],
          [
            -7.9359,
            42.3478
          ],
          [
            -7.8907,
            42.3998
          ],
          [
            -7.8434,
            42.4542
          ],
          [
            -7.7956,
            42.509
          ],
          [
            -7.7489,
            42.5625
          ],
          [
            -7.6992,
            42.6193
          ],
          [
            -7.6517,
            42.6735
          ],
          [
            -7.6043,
            42.7274
          ],
          [
            -7.5564,
            42.7817
          ],
          [
            -7.5085,
            42.836
          ],
          [
            -7.4608,
            42.89
          ],
          [
            -7.4103,
            42.9467
          ],
          [
            -7.3625,
            43.0006
          ],
          [
            -7.3145,
            43.0545
          ],
          [
            -7.2658,
            43.1091
          ],
          [
            -7.2177,
            43.1655
          ],
          [
            -7.1709,
            43.2226
          ],
          [
            -7.1244,
            43.2778
          ],
          [
            -7.08,
            43.331
          ],
          [
            -7.0095,
            43.4157
          ],
          [
            -6.9623,
            43.4721
          ],
          [
            -6.9142,
            43.5293
          ],
          [
            -6.8684,
            43.584
          ],
          [
            -6.8214,
            43.6398
          ],
          [
            -6.7691,
            43.7017
          ],
          [
            -6.7136,
            43.7674
          ],
          [
            -6.6652,
            43.8245
          ],
          [
            -6.6175,
            43.8807
          ],
          [
            -6.5707,
            43.9357
          ],
          [
            -6.5215,
            43.9931
          ],
          [
            -6.4736,
            44.0492
          ],
          [
            -6.4255,
            44.1053
          ],
          [
            -6.3761,
            44.1628
          ],
          [
            -6.3288,
            44.2177
          ],
          [
            -6.2803,
            44.2739
          ],
          [
            -6.2323,
            44.3294
          ],
          [
            -6.1828,
            44.3864
          ],
          [
            -6.1338,
            44.4431
          ],
          [
            -6.0812,
            44.5049
          ],
          [
            -6.0271,
            44.5648
          ],
          [
            -5.9727,
            44.6242
          ],
          [
            -5.9217,
            44.6803
          ],
          [
            -5.8693,
            44.7372
          ],
          [
            -5.8161,
            44.7947
          ],
          [
            -5.7651,
            44.8496
          ],
          [
            -5.7149,
            44.9038
          ],
          [
            -5.6627,
            44.9598
          ],
          [
            -5.6124,
            45.0135
          ],
          [
            -5.5607,
            45.0687
          ],
          [
            -5.5075,
            45.1253
          ],
          [
            -5.4561,
            45.1801
          ],
          [
            -5.4036,
            45.2359
          ],
          [
            -5.3515,
            45.2908
          ],
          [
            -5.2996,
            45.3456
          ],
          [
            -5.2476,
            45.4003
          ],
          [
            -5.1957,
            45.455
          ],
          [
            -5.1427,
            45.5104
          ],
          [
            -5.0911,
            45.5643
          ],
          [
            -5.0382,
            45.6195
          ],
          [
            -4.9857,
            45.6742
          ],
          [
            -4.9329,
            45.7289
          ],
          [
            -4.8793,
            45.7844
          ],
          [
            -4.8264,
            45.8391
          ],
          [
            -4.773,
            45.8939
          ],
          [
            -4.7203,
            45.9482
          ],
          [
            -4.667,
            46.003
          ],
          [
            -4.6144,
            46.0568
          ],
          [
            -4.5595,
            46.1127
          ],
          [
            -4.5058,
            46.1675
          ],
          [
            -4.4522,
            46.2218
          ],
          [
            -4.3987,
            46.2761
          ],
          [
            -4.3375,
            46.3378
          ],
          [
            -4.2734,
            46.4026
          ],
          [
            -4.2197,
            46.4564
          ],
          [
            -4.1654,
            46.5109
          ],
          [
            -4.1112,
            46.565
          ],
          [
            -4.0566,
            46.6195
          ],
          [
            -4.0022,
            46.6736
          ],
          [
            -3.9468,
            46.7286
          ],
          [
            -3.8917,
            46.7831
          ],
          [
            -3.8368,
            46.8372
          ],
          [
            -3.7819,
            46.8913
          ],
          [
            -3.7269,
            46.9455
          ],
          [
            -3.6702,
            47.001
          ],
          [
            -3.616,
            47.0539
          ],
          [
            -3.5598,
            47.1087
          ],
          [
            -3.5054,
            47.1617
          ],
          [
            -3.4482,
            47.2172
          ],
          [
            -3.3917,
            47.2719
          ],
          [
            -3.3375,
            47.3242
          ],
          [
            -3.2806,
            47.3789
          ],
          [
            -3.2251,
            47.4322
          ],
          [
            -3.1672,
            47.4877
          ],
          [
            -3.1111,
            47.5413
          ],
          [
            -3.0526,
            47.597
          ],
          [
            -2.997,
            47.6499
          ],
          [
            -2.9383,
            47.7056
          ],
          [
            -2.8825,
            47.7583
          ],
          [
            -2.8262,
            47.8113
          ],
          [
            -2.7688,
            47.8654
          ],
          [
            -2.7092,
            47.9213
          ],
          [
            -2.6517,
            47.9751
          ],
          [
            -2.5918,
            48.0309
          ],
          [
            -2.5356,
            48.0832
          ],
          [
            -2.4767,
            48.138
          ],
          [
            -2.4175,
            48.1927
          ],
          [
            -2.3606,
            48.2453
          ],
          [
            -2.303,
            48.2983
          ],
          [
            -2.2423,
            48.3541
          ],
          [
            -2.1849,
            48.4066
          ],
          [
            -2.1254,
            48.461
          ],
          [
            -2.0681,
            48.5132
          ],
          [
            -2.0076,
            48.5681
          ],
          [
            -1.9507,
            48.6197
          ],
          [
            -1.8902,
            48.6744
          ],
          [
            -1.8321,
            48.7268
          ],
          [
            -1.7736,
            48.7793
          ],
          [
            -1.7139,
            48.8329
          ],
          [
            -1.6562,
            48.8846
          ],
          [
            -1.5961,
            48.9382
          ],
          [
            -1.5373,
            48.9903
          ],
          [
            -1.4779,
            49.0431
          ],
          [
            -1.4178,
            49.0963
          ],
          [
            -1.3572,
            49.1498
          ],
          [
            -1.2964,
            49.2032
          ],
          [
            -1.2367,
            49.2555
          ],
          [
            -1.177,
            49.3079
          ],
          [
            -1.1173,
            49.3601
          ],
          [
            -1.0542,
            49.4148
          ],
          [
            -0.9899,
            49.4707
          ],
          [
            -0.9303,
            49.5222
          ],
          [
            -0.8658,
            49.5779
          ],
          [
            -0.8057,
            49.6297
          ],
          [
            -0.7428,
            49.6836
          ],
          [
            -0.683,
            49.7349
          ],
          [
            -0.6221,
            49.7867
          ],
          [
            -0.5704,
            49.8297
          ],
          [
            -0.5002,
            49.8741
          ],
          [
            -0.4457,
            49.9044
          ],
          [
            -0.3714,
            49.9446
          ],
          [
            -0.2966,
            49.9864
          ],
          [
            -0.225,
            50.0262
          ],
          [
            -0.151,
            50.0669
          ],
          [
            -0.0783,
            50.1071
          ],
          [
            -0.0053,
            50.1472
          ],
          [
            0.0635,
            50.185
          ],
          [
            0.1356,
            50.2245
          ],
          [
            0.2077,
            50.2639
          ],
          [
            0.2778,
            50.3021
          ],
          [
            0.3482,
            50.3404
          ],
          [
            0.4145,
            50.3764
          ],
          [
            0.4772,
            50.41
          ],
          [
            0.5464,
            50.441
          ],
          [
            0.602,
            50.4633
          ],
          [
            0.7013,
            50.5026
          ],
          [
            0.7758,
            50.5336
          ],
          [
            0.8518,
            50.5645
          ],
          [
            0.9059,
            50.5865
          ],
          [
            0.9416,
            50.6072
          ],
          [
            0.9739,
            50.6337
          ],
          [
            1.0232,
            50.6811
          ],
          [
            1.0704,
            50.7263
          ],
          [
            1.1187,
            50.7699
          ],
          [
            1.1669,
            50.8141
          ],
          [
            1.1869,
            50.8389
          ],
          [
            1.1899,
            50.8716
          ],
          [
            1.1743,
            50.916
          ],
          [
            1.1405,
            50.9848
          ],
          [
            1.1257,
            51.014
          ],
          [
            1.0989,
            51.0421
          ],
          [
            1.031,
            51.0956
          ],
          [
            0.9857,
            51.1328
          ],
          [
            0.9408,
            51.1706
          ],
          [
            0.8975,
            51.2061
          ],
          [
            0.8554,
            51.2412
          ],
          [
            0.8327,
            51.26
          ],
          [
            0.7909,
            51.2946
          ],
          [
            0.7483,
            51.33
          ],
          [
            0.707,
            51.3645
          ],
          [
            0.7006,
            51.3697
          ],
          [
            0.6848,
            51.3827
          ],
          [
            0.6649,
            51.399
          ],
          [
            0.642,
            51.4172
          ],
          [
            0.6169,
            51.4253
          ],
          [
            0.589,
            51.4263
          ],
          [
            0.5423,
            51.4262
          ],
          [
            0.4935,
            51.426
          ],
          [
            0.4678,
            51.426
          ],
          [
            0.438,
            51.4275
          ],
          [
            0.4081,
            51.431
          ],
          [
            0.3636,
            51.4377
          ],
          [
            0.3336,
            51.4429
          ],
          [
            0.2714,
            51.4539
          ],
          [
            0.2549,
            51.4567
          ],
          [
            0.2506,
            51.4575
          ],
          [
            0.2309,
            51.4613
          ],
          [
            0.2102,
            51.4648
          ],
          [
            0.1838,
            51.4615
          ],
          [
            0.1483,
            51.4544
          ],
          [
            0.1301,
            51.4498
          ],
          [
            0.1178,
            51.4396
          ],
          [
            0.1088,
            51.4297
          ],
          [
            0.1004,
            51.4193
          ],
          [
            0.0895,
            51.4052
          ],
          [
            0.0818,
            51.3961
          ],
          [
            0.0767,
            51.3887
          ],
          [
            0.0716,
            51.382
          ],
          [
            0.0671,
            51.3762
          ],
          [
            0.0617,
            51.369
          ],
          [
            0.0561,
            51.3616
          ],
          [
            0.05,
            51.3539
          ],
          [
            0.0444,
            51.3466
          ],
          [
            0.0386,
            51.339
          ]
        ]
      },
      "properties": {
        "time_europe_berlin": [
          "01.12.2025 10:52:31",
          "01.12.2025 10:52:47",
          "01.12.2025 10:53:05",
          "01.12.2025 10:53:21",
          "01.12.2025 10:53:37",
          "01.12.2025 10:53:53",
          "01.12.2025 10:54:23",
          "01.12.2025 10:54:41",
          "01.12.2025 10:55:01",
          "01.12.2025 10:55:27",
          "01.12.2025 10:56:12",
          "01.12.2025 10:56:42",
          "01.12.2025 10:57:12",
          "01.12.2025 10:57:42",
          "01.12.2025 10:58:12",
          "01.12.2025 10:58:42",
          "01.12.2025 10:59:12",
          "01.12.2025 10:59:42",
          "01.12.2025 11:00:12",
          "01.12.2025 11:00:42",
          "01.12.2025 11:01:13",
          "01.12.2025 11:01:43",
          "01.12.2025 11:02:13",
          "01.12.2025 11:02:43",
          "01.12.2025 11:03:13",
          "01.12.2025 11:03:43",
          "01.12.2025 11:04:14",
          "01.12.2025 11:04:44",
          "01.12.2025 11:05:14",
          "01.12.2025 11:05:44",
          "01.12.2025 11:06:14",
          "01.12.2025 11:06:44",
          "01.12.2025 11:07:14",
          "01.12.2025 11:07:44",
          "01.12.2025 11:08:14",
          "01.12.2025 11:08:44",
          "01.12.2025 11:09:15",
          "01.12.2025 11:09:45",
          "01.12.2025 11:10:15",
          "01.12.2025 11:10:45",
          "01.12.2025 11:11:15",
          "01.12.2025 11:11:45",
          "01.12.2025 11:12:15",
          "01.12.2025 11:12:45",
          "01.12.2025 11:13:15",
          "01.12.2025 11:13:45",
          "01.12.2025 11:14:16",
          "01.12.2025 11:14:46",
          "01.12.2025 11:15:16",
          "01.12.2025 11:15:46",
          "01.12.2025 11:16:16",
          "01.12.2025 11:16:54",
          "01.12.2025 11:17:27",
          "01.12.2025 11:17:47",
          "01.12.2025 11:18:18",
          "01.12.2025 11:18:49",
          "01.12.2025 11:19:28",
          "01.12.2025 11:20:00",
          "01.12.2025 11:20:35",
          "01.12.2025 11:21:05",
          "01.12.2025 11:21:37",
          "01.12.2025 11:22:07",
          "01.12.2025 11:22:37",
          "01.12.2025 11:23:07",
          "01.12.2025 11:23:37",
          "01.12.2025 11:24:07",
          "01.12.2025 11:24:39",
          "01.12.2025 11:25:09",
          "01.12.2025 11:25:39",
          "01.12.2025 11:26:09",
          "01.12.2025 11:26:47",
          "01.12.2025 11:27:24",
          "01.12.2025 11:27:56",
          "01.12.2025 11:28:26",
          "01.12.2025 11:28:56",
          "01.12.2025 11:29:26",
          "01.12.2025 11:29:57",
          "01.12.2025 11:30:27",
          "01.12.2025 11:30:57",
          "01.12.2025 11:31:48",
          "01.12.2025 11:32:20",
          "01.12.2025 11:32:50",
          "01.12.2025 11:33:38",
          "01.12.2025 11:34:12",
          "01.12.2025 11:34:50",
          "01.12.2025 11:35:21",
          "01.12.2025 11:35:51",
          "01.12.2025 11:36:21",
          "01.12.2025 11:36:54",
          "01.12.2025 11:37:24",
          "01.12.2025 11:38:11",
          "01.12.2025 11:38:42",
          "01.12.2025 11:39:35",
          "01.12.2025 11:40:12",
          "01.12.2025 11:40:42",
          "01.12.2025 11:41:12",
          "01.12.2025 11:41:43",
          "01.12.2025 11:42:26",
          "01.12.2025 11:43:16",
          "01.12.2025 11:44:00",
          "01.12.2025 11:44:37",
          "01.12.2025 11:45:12",
          "01.12.2025 11:45:42",
          "01.12.2025 11:46:29",
          "01.12.2025 11:46:59",
          "01.12.2025 11:47:29",
          "01.12.2025 11:47:59",
          "01.12.2025 11:48:29",
          "01.12.2025 11:48:59",
          "01.12.2025 11:49:29",
          "01.12.2025 11:49:59",
          "01.12.2025 11:50:29",
          "01.12.2025 11:50:59",
          "01.12.2025 11:51:29",
          "01.12.2025 11:51:59",
          "01.12.2025 11:52:29",
          "01.12.2025 11:52:59",
          "01.12.2025 11:53:29",
          "01.12.2025 11:53:59",
          "01.12.2025 11:54:29",
          "01.12.2025 11:54:59",
          "01.12.2025 11:55:29",
          "01.12.2025 11:55:59",
          "01.12.2025 11:56:29",
          "01.12.2025 11:56:59",
          "01.12.2025 11:57:29",
          "01.12.2025 11:57:59",
          "01.12.2025 11:58:29",
          "01.12.2025 11:58:59",
          "01.12.2025 11:59:29",
          "01.12.2025 11:59:59",
          "01.12.2025 12:00:29",
          "01.12.2025 12:00:59",
          "01.12.2025 12:01:01",
          "01.12.2025 12:01:32",
          "01.12.2025 12:02:19",
          "01.12.2025 12:02:49",
          "01.12.2025 12:03:19",
          "01.12.2025 12:03:49",
          "01.12.2025 12:04:19",
          "01.12.2025 12:04:49",
          "01.12.2025 12:05:19",
          "01.12.2025 12:05:34",
          "01.12.2025 12:06:04",
          "01.12.2025 12:07:23",
          "01.12.2025 12:08:22",
          "01.12.2025 12:08:54",
          "01.12.2025 12:09:34",
          "01.12.2025 12:10:06",
          "01.12.2025 12:10:37",
          "01.12.2025 12:11:07",
          "01.12.2025 12:11:37",
          "01.12.2025 12:12:08",
          "01.12.2025 12:12:38",
          "01.12.2025 12:13:09",
          "01.12.2025 12:13:39",
          "01.12.2025 12:14:10",
          "01.12.2025 12:14:40",
          "01.12.2025 12:15:10",
          "01.12.2025 12:15:40",
          "01.12.2025 12:16:11",
          "01.12.2025 12:16:41",
          "01.12.2025 12:17:12",
          "01.12.2025 12:17:42",
          "01.12.2025 12:18:12",
          "01.12.2025 12:18:43",
          "01.12.2025 12:19:13",
          "01.12.2025 12:19:43",
          "01.12.2025 12:20:14",
          "01.12.2025 12:20:44",
          "01.12.2025 12:21:15",
          "01.12.2025 12:21:45",
          "01.12.2025 12:22:15",
          "01.12.2025 12:22:46",
          "01.12.2025 12:23:16",
          "01.12.2025 12:23:46",
          "01.12.2025 12:24:16",
          "01.12.2025 12:24:47",
          "01.12.2025 12:25:17",
          "01.12.2025 12:25:48",
          "01.12.2025 12:26:18",
          "01.12.2025 12:26:48",
          "01.12.2025 12:27:18",
          "01.12.2025 12:27:49",
          "01.12.2025 12:28:20",
          "01.12.2025 12:28:50",
          "01.12.2025 12:29:20",
          "01.12.2025 12:29:50",
          "01.12.2025 12:30:21",
          "01.12.2025 12:30:51",
          "01.12.2025 12:31:21",
          "01.12.2025 12:31:51",
          "01.12.2025 12:32:21",
          "01.12.2025 12:32:51",
          "01.12.2025 12:33:21",
          "01.12.2025 12:33:51",
          "01.12.2025 12:34:21",
          "01.12.2025 12:34:51",
          "01.12.2025 12:35:22",
          "01.12.2025 12:35:52",
          "01.12.2025 12:36:22",
          "01.12.2025 12:36:52",
          "01.12.2025 12:37:22",
          "01.12.2025 12:37:52",
          "01.12.2025 12:38:22",
          "01.12.2025 12:38:53",
          "01.12.2025 12:39:23",
          "01.12.2025 12:39:53",
          "01.12.2025 12:40:23",
          "01.12.2025 12:40:53",
          "01.12.2025 12:41:23",
          "01.12.2025 12:41:53",
          "01.12.2025 12:42:23",
          "01.12.2025 12:42:53",
          "01.12.2025 12:43:23",
          "01.12.2025 12:43:53",
          "01.12.2025 12:44:23",
          "01.12.2025 12:44:53",
          "01.12.2025 12:45:23",
          "01.12.2025 12:45:53",
          "01.12.2025 12:46:23",
          "01.12.2025 12:46:53",
          "01.12.2025 12:47:23",
          "01.12.2025 12:47:53",
          "01.12.2025 12:48:25",
          "01.12.2025 12:48:55",
          "01.12.2025 12:49:25",
          "01.12.2025 12:49:55",
          "01.12.2025 12:50:26",
          "01.12.2025 12:50:56",
          "01.12.2025 12:51:26",
          "01.12.2025 12:51:56",
          "01.12.2025 12:52:26",
          "01.12.2025 12:52:56",
          "01.12.2025 12:53:27",
          "01.12.2025 12:53:57",
          "01.12.2025 12:54:27",
          "01.12.2025 12:54:58",
          "01.12.2025 12:55:28",
          "01.12.2025 12:55:58",
          "01.12.2025 12:56:28",
          "01.12.2025 12:56:58",
          "01.12.2025 12:57:28",
          "01.12.2025 12:57:58",
          "01.12.2025 12:58:28",
          "01.12.2025 12:58:58",
          "01.12.2025 12:59:28",
          "01.12.2025 12:59:58",
          "01.12.2025 13:00:28",
          "01.12.2025 13:00:58",
          "01.12.2025 13:01:28",
          "01.12.2025 13:01:59",
          "01.12.2025 13:02:29",
          "01.12.2025 13:02:59",
          "01.12.2025 13:03:29",
          "01.12.2025 13:03:59",
          "01.12.2025 13:04:30",
          "01.12.2025 13:05:00",
          "01.12.2025 13:05:30",
          "01.12.2025 13:06:00",
          "01.12.2025 13:06:30",
          "01.12.2025 13:07:00",
          "01.12.2025 13:07:31",
          "01.12.2025 13:08:01",
          "01.12.2025 13:08:31",
          "01.12.2025 13:09:01",
          "01.12.2025 13:09:31",
          "01.12.2025 13:10:01",
          "01.12.2025 13:10:31",
          "01.12.2025 13:11:01",
          "01.12.2025 13:11:31",
          "01.12.2025 13:12:01",
          "01.12.2025 13:12:32",
          "01.12.2025 13:13:02",
          "01.12.2025 13:13:33",
          "01.12.2025 13:14:03",
          "01.12.2025 13:14:33",
          "01.12.2025 13:15:03",
          "01.12.2025 13:15:34",
          "01.12.2025 13:16:04",
          "01.12.2025 13:16:34",
          "01.12.2025 13:17:04",
          "01.12.2025 13:17:48",
          "01.12.2025 13:18:18",
          "01.12.2025 13:18:49",
          "01.12.2025 13:19:19",
          "01.12.2025 13:19:49",
          "01.12.2025 13:20:21",
          "01.12.2025 13:20:56",
          "01.12.2025 13:21:26",
          "01.12.2025 13:21:57",
          "01.12.2025 13:22:27",
          "01.12.2025 13:22:57",
          "01.12.2025 13:23:27",
          "01.12.2025 13:23:57",
          "01.12.2025 13:24:27",
          "01.12.2025 13:24:57",
          "01.12.2025 13:25:27",
          "01.12.2025 13:25:57",
          "01.12.2025 13:26:27",
          "01.12.2025 13:26:57",
          "01.12.2025 13:27:31",
          "01.12.2025 13:28:03",
          "01.12.2025 13:28:34",
          "01.12.2025 13:29:05",
          "01.12.2025 13:29:35",
          "01.12.2025 13:30:06",
          "01.12.2025 13:30:36",
          "01.12.2025 13:31:06",
          "01.12.2025 13:31:36",
          "01.12.2025 13:32:06",
          "01.12.2025 13:32:36",
          "01.12.2025 13:33:06",
          "01.12.2025 13:33:36",
          "01.12.2025 13:34:06",
          "01.12.2025 13:34:36",
          "01.12.2025 13:35:06",
          "01.12.2025 13:35:36",
          "01.12.2025 13:36:06",
          "01.12.2025 13:36:36",
          "01.12.2025 13:37:07",
          "01.12.2025 13:37:37",
          "01.12.2025 13:38:07",
          "01.12.2025 13:38:37",
          "01.12.2025 13:39:07",
          "01.12.2025 13:39:37",
          "01.12.2025 13:40:07",
          "01.12.2025 13:40:37",
          "01.12.2025 13:41:07",
          "01.12.2025 13:41:37",
          "01.12.2025 13:42:07",
          "01.12.2025 13:42:37",
          "01.12.2025 13:43:07",
          "01.12.2025 13:43:38",
          "01.12.2025 13:44:12",
          "01.12.2025 13:44:47",
          "01.12.2025 13:45:17",
          "01.12.2025 13:45:47",
          "01.12.2025 13:46:18",
          "01.12.2025 13:46:48",
          "01.12.2025 13:47:18",
          "01.12.2025 13:47:48",
          "01.12.2025 13:48:18",
          "01.12.2025 13:48:48",
          "01.12.2025 13:49:18",
          "01.12.2025 13:49:49",
          "01.12.2025 13:50:19",
          "01.12.2025 13:50:49",
          "01.12.2025 13:51:19",
          "01.12.2025 13:51:49",
          "01.12.2025 13:52:19",
          "01.12.2025 13:52:49",
          "01.12.2025 13:53:19",
          "01.12.2025 13:53:49",
          "01.12.2025 13:54:19",
          "01.12.2025 13:54:49",
          "01.12.2025 13:55:19",
          "01.12.2025 13:55:50",
          "01.12.2025 13:56:20",
          "01.12.2025 13:56:50",
          "01.12.2025 13:57:20",
          "01.12.2025 13:57:50",
          "01.12.2025 13:58:20",
          "01.12.2025 13:58:51",
          "01.12.2025 13:59:21",
          "01.12.2025 13:59:52",
          "01.12.2025 14:00:22",
          "01.12.2025 14:00:52",
          "01.12.2025 14:01:22",
          "01.12.2025 14:01:52",
          "01.12.2025 14:02:22",
          "01.12.2025 14:02:52",
          "01.12.2025 14:03:22",
          "01.12.2025 14:03:52",
          "01.12.2025 14:04:22",
          "01.12.2025 14:04:52",
          "01.12.2025 14:05:22",
          "01.12.2025 14:05:52",
          "01.12.2025 14:06:22",
          "01.12.2025 14:06:52",
          "01.12.2025 14:07:22",
          "01.12.2025 14:07:52",
          "01.12.2025 14:08:22",
          "01.12.2025 14:08:52",
          "01.12.2025 14:09:22",
          "01.12.2025 14:09:52",
          "01.12.2025 14:10:22",
          "01.12.2025 14:10:52",
          "01.12.2025 14:11:22",
          "01.12.2025 14:11:52",
          "01.12.2025 14:12:22",
          "01.12.2025 14:12:52",
          "01.12.2025 14:13:22",
          "01.12.2025 14:13:52",
          "01.12.2025 14:14:22",
          "01.12.2025 14:14:52",
          "01.12.2025 14:15:22",
          "01.12.2025 14:15:52",
          "01.12.2025 14:16:22",
          "01.12.2025 14:16:46",
          "01.12.2025 14:17:16",
          "01.12.2025 14:17:39",
          "01.12.2025 14:18:09",
          "01.12.2025 14:18:39",
          "01.12.2025 14:19:09",
          "01.12.2025 14:19:39",
          "01.12.2025 14:20:09",
          "01.12.2025 14:20:39",
          "01.12.2025 14:21:09",
          "01.12.2025 14:21:39",
          "01.12.2025 14:22:09",
          "01.12.2025 14:22:39",
          "01.12.2025 14:23:09",
          "01.12.2025 14:23:39",
          "01.12.2025 14:24:06",
          "01.12.2025 14:24:33",
          "01.12.2025 14:24:57",
          "01.12.2025 14:25:37",
          "01.12.2025 14:26:07",
          "01.12.2025 14:26:37",
          "01.12.2025 14:26:58",
          "01.12.2025 14:27:16",
          "01.12.2025 14:27:34",
          "01.12.2025 14:28:04",
          "01.12.2025 14:28:34",
          "01.12.2025 14:29:04",
          "01.12.2025 14:29:34",
          "01.12.2025 14:29:51",
          "01.12.2025 14:30:08",
          "01.12.2025 14:30:35",
          "01.12.2025 14:31:19",
          "01.12.2025 14:31:37",
          "01.12.2025 14:31:59",
          "01.12.2025 14:32:40",
          "01.12.2025 14:33:10",
          "01.12.2025 14:33:40",
          "01.12.2025 14:34:10",
          "01.12.2025 14:34:38",
          "01.12.2025 14:34:56",
          "01.12.2025 14:35:24",
          "01.12.2025 14:35:54",
          "01.12.2025 14:36:24",
          "01.12.2025 14:36:28",
          "01.12.2025 14:36:40",
          "01.12.2025 14:36:56",
          "01.12.2025 14:37:14",
          "01.12.2025 14:37:30",
          "01.12.2025 14:37:46",
          "01.12.2025 14:38:16",
          "01.12.2025 14:38:46",
          "01.12.2025 14:39:02",
          "01.12.2025 14:39:20",
          "01.12.2025 14:39:37",
          "01.12.2025 14:40:06",
          "01.12.2025 14:40:25",
          "01.12.2025 14:41:08",
          "01.12.2025 14:41:21",
          "01.12.2025 14:41:24",
          "01.12.2025 14:41:40",
          "01.12.2025 14:41:56",
          "01.12.2025 14:42:19",
          "01.12.2025 14:42:49",
          "01.12.2025 14:43:07",
          "01.12.2025 14:43:28",
          "01.12.2025 14:43:51",
          "01.12.2025 14:44:11",
          "01.12.2025 14:44:41",
          "01.12.2025 14:45:02",
          "01.12.2025 14:45:18",
          "01.12.2025 14:45:34",
          "01.12.2025 14:45:50",
          "01.12.2025 14:46:06",
          "01.12.2025 14:46:22",
          "01.12.2025 14:46:38",
          "01.12.2025 14:46:54",
          "01.12.2025 14:47:10"
        ],
        "course_deg_clockwise_from_north": [
          289,
          286,
          287,
          295,
          290,
          288,
          296,
          335,
          1,
          8,
          8,
          7,
          8,
          8,
          7,
          8,
          7,
          7,
          8,
          8,
          8,
          8,
          7,
          7,
          8,
          8,
          7,
          8,
          7,
          8,
          8,
          8,
          7,
          8,
          8,
          7,
          8,
          8,
          7,
          8,
          8,
          8,
          8,
          8,
          8,
          7,
          8,
          8,
          8,
          8,
          8,
          8,
          10,
          19,
          25,
          25,
          24,
          25,
          25,
          25,
          25,
          24,
          25,
          25,
          25,
          25,
          25,
          25,
          25,
          25,
          26,
          28,
          28,
          28,
          28,
          28,
          28,
          28,
          28,
          28,
          28,
          28,
          28,
          28,
          28,
          28,
          28,
          29,
          28,
          29,
          29,
          29,
          29,
          29,
          29,
          29,
          29,
          29,
          29,
          29,
          29,
          29,
          29,
          29,
          29,
          29,
          29,
          29,
          29,
          29,
          29,
          29,
          29,
          29,
          29,
          29,
          29,
          29,
          30,
          30,
          30,
          30,
          30,
          30,
          30,
          30,
          30,
          30,
          30,
          30,
          30,
          30,
          30,
          30,
          29,
          30,
          30,
          30,
          30,
          30,
          30,
          30,
          30,
          30,
          30,
          30,
          30,
          30,
          30,
          30,
          30,
          30,
          30,
          30,
          30,
          30,
          30,
          30,
          30,
          30,
          30,
          30,
          30,
          30,
          30,
          30,
          30,
          30,
          30,
          30,
          30,
          30,
          30,
          30,
          30,
          30,
          30,
          31,
          30,
          31,
          31,
          31,
          31,
          31,
          31,
          31,
          31,
          31,
          31,
          31,
          31,
          31,
          31,
          31,
          31,
          31,
          31,
          31,
          31,
          31,
          31,
          31,
          31,
          31,
          31,
          31,
          31,
          31,
          31,
          31,
          31,
          31,
          31,
          31,
          31,
          31,
          32,
          31,
          32,
          31,
          32,
          32,
          31,
          32,
          32,
          32,
          32,
          32,
          32,
          32,
          32,
          32,
          32,
          32,
          32,
          32,
          32,
          32,
          32,
          32,
          32,
          32,
          32,
          32,
          32,
          32,
          32,
          32,
          32,
          32,
          32,
          32,
          33,
          32,
          32,
          33,
          32,
          33,
          33,
          33,
          33,
          33,
          33,
          33,
          33,
          33,
          33,
          33,
          33,
          33,
          33,
          33,
          33,
          33,
          33,
          33,
          33,
          33,
          31,
          31,
          32,
          31,
          31,
          31,
          31,
          32,
          31,
          32,
          32,
          32,
          32,
          32,
          32,
          32,
          32,
          32,
          32,
          32,
          32,
          32,
          32,
          32,
          33,
          33,
          33,
          33,
          33,
          33,
          34,
          34,
          34,
          34,
          34,
          34,
          34,
          34,
          34,
          34,
          34,
          34,
          34,
          34,
          34,
          34,
          34,
          34,
          34,
          34,
          34,
          34,
          34,
          34,
          34,
          34,
          34,
          35,
          35,
          35,
          35,
          35,
          35,
          35,
          35,
          35,
          35,
          35,
          35,
          35,
          35,
          35,
          35,
          35,
          35,
          35,
          35,
          35,
          35,
          36,
          36,
          36,
          36,
          36,
          36,
          36,
          36,
          36,
          36,
          36,
          36,
          36,
          36,
          36,
          36,
          36,
          36,
          36,
          36,
          36,
          36,
          36,
          36,
          36,
          37,
          36,
          37,
          37,
          37,
          37,
          37,
          37,
          37,
          37,
          37,
          37,
          37,
          37,
          37,
          37,
          37,
          41,
          48,
          50,
          50,
          49,
          50,
          49,
          49,
          50,
          50,
          50,
          50,
          50,
          50,
          50,
          52,
          57,
          59,
          57,
          57,
          58,
          56,
          41,
          35,
          33,
          35,
          35,
          34,
          15,
          356,
          344,
          343,
          336,
          324,
          321,
          324,
          323,
          323,
          323,
          323,
          323,
          323,
          323,
          323,
          323,
          323,
          317,
          281,
          271,
          270,
          270,
          270,
          280,
          282,
          285,
          286,
          286,
          286,
          286,
          287,
          277,
          253,
          252,
          232,
          212,
          207,
          206,
          208,
          204,
          205,
          202,
          209,
          205,
          206,
          206,
          206,
          205
        ],
        "speed_kts": [
          155,
          163,
          168,
          162,
          174,
          204,
          222,
          218,
          228,
          253,
          295,
          305,
          307,
          308,
          317,
          325,
          333,
          339,
          344,
          347,
          351,
          354,
          356,
          360,
          364,
          370,
          379,
          388,
          394,
          398,
          406,
          412,
          417,
          421,
          424,
          426,
          428,
          428,
          426,
          423,
          419,
          415,
          411,
          408,
          405,
          404,
          407,
          408,
          407,
          407,
          405,
          413,
          419,
          421,
          422,
          421,
          420,
          419,
          419,
          418,
          417,
          416,
          416,
          416,
          416,
          416,
          417,
          414,
          410,
          407,
          416,
          419,
          421,
          421,
          419,
          419,
          419,
          418,
          419,
          419,
          419,
          421,
          422,
          424,
          424,
          425,
          425,
          426,
          424,
          423,
          429,
          433,
          434,
          434,
          432,
          431,
          430,
          429,
          427,
          427,
          427,
          426,
          426,
          431,
          431,
          431,
          430,
          430,
          430,
          430,
          430,
          430,
          429,
          429,
          429,
          429,
          429,
          429,
          428,
          428,
          428,
          428,
          428,
          428,
          427,
          427,
          427,
          427,
          427,
          427,
          426,
          426,
          426,
          426,
          427,
          426,
          426,
          425,
          425,
          424,
          424,
          423,
          423,
          424,
          425,
          422,
          422,
          422,
          422,
          422,
          422,
          422,
          421,
          421,
          421,
          421,
          421,
          420,
          421,
          421,
          420,
          422,
          422,
          421,
          421,
          422,
          424,
          424,
          424,
          424,
          424,
          424,
          425,
          425,
          425,
          426,
          427,
          427,
          428,
          429,
          428,
          428,
          429,
          429,
          429,
          429,
          430,
          430,
          430,
          429,
          430,
          429,
          429,
          429,
          429,
          431,
          431,
          431,
          431,
          432,
          432,
          433,
          434,
          434,
          435,
          435,
          436,
          436,
          437,
          437,
          438,
          438,
          438,
          439,
          439,
          440,
          441,
          442,
          442,
          443,
          442,
          442,
          443,
          444,
          444,
          445,
          447,
          446,
          446,
          445,
          445,
          445,
          445,
          444,
          444,
          444,
          444,
          445,
          445,
          445,
          446,
          446,
          447,
          447,
          447,
          448,
          447,
          448,
          449,
          450,
          450,
          451,
          453,
          454,
          455,
          456,
          455,
          456,
          456,
          458,
          459,
          458,
          460,
          460,
          463,
          464,
          465,
          466,
          467,
          466,
          466,
          467,
          467,
          467,
          467,
          467,
          468,
          467,
          467,
          470,
          470,
          472,
          474,
          474,
          474,
          475,
          476,
          476,
          476,
          477,
          475,
          475,
          475,
          476,
          475,
          476,
          477,
          478,
          478,
          478,
          478,
          479,
          480,
          479,
          480,
          478,
          478,
          478,
          478,
          478,
          478,
          478,
          478,
          477,
          477,
          477,
          475,
          475,
          475,
          476,
          475,
          476,
          477,
          477,
          477,
          477,
          477,
          478,
          477,
          476,
          476,
          475,
          475,
          474,
          474,
          475,
          475,
          475,
          474,
          475,
          476,
          477,
          476,
          476,
          476,
          476,
          476,
          476,
          477,
          477,
          477,
          477,
          477,
          478,
          478,
          478,
          477,
          478,
          478,
          477,
          477,
          477,
          477,
          477,
          478,
          478,
          478,
          479,
          479,
          479,
          478,
          478,
          479,
          479,
          479,
          478,
          477,
          476,
          475,
          474,
          473,
          473,
          475,
          475,
          475,
          475,
          475,
          475,
          474,
          475,
          479,
          486,
          494,
          491,
          489,
          485,
          478,
          470,
          465,
          466,
          458,
          457,
          453,
          449,
          445,
          441,
          438,
          436,
          436,
          436,
          435,
          426,
          417,
          417,
          415,
          409,
          404,
          406,
          411,
          407,
          404,
          399,
          398,
          396,
          393,
          390,
          386,
          381,
          371,
          362,
          358,
          353,
          344,
          346,
          345,
          336,
          327,
          320,
          318,
          322,
          320,
          311,
          307,
          295,
          283,
          265,
          228,
          219,
          219,
          219,
          220,
          229,
          227,
          217,
          205,
          201,
          192,
          190,
          178,
          169,
          161,
          164,
          137,
          124,
          119,
          112,
          114,
          102,
          99,
          93,
          100,
          106,
          106,
          113,
          111,
          114
        ],
        "speed_mph": [
          178.0,
          188.0,
          193.0,
          186.0,
          200.0,
          235.0,
          255.0,
          251.0,
          262.0,
          291.0,
          339.0,
          351.0,
          353.0,
          354.0,
          365.0,
          374.0,
          383.0,
          390.0,
          396.0,
          399.0,
          404.0,
          407.0,
          410.0,
          414.0,
          419.0,
          426.0,
          436.0,
          447.0,
          453.0,
          458.0,
          467.0,
          474.0,
          480.0,
          484.0,
          488.0,
          490.0,
          493.0,
          493.0,
          490.0,
          487.0,
          482.0,
          478.0,
          473.0,
          470.0,
          466.0,
          465.0,
          468.0,
          470.0,
          468.0,
          468.0,
          466.0,
          475.0,
          482.0,
          484.0,
          486.0,
          484.0,
          483.0,
          482.0,
          482.0,
          481.0,
          480.0,
          479.0,
          479.0,
          479.0,
          479.0,
          479.0,
          480.0,
          476.0,
          472.0,
          468.0,
          479.0,
          482.0,
          484.0,
          484.0,
          482.0,
          482.0,
          482.0,
          481.0,
          482.0,
          482.0,
          482.0,
          484.0,
          486.0,
          488.0,
          488.0,
          489.0,
          489.0,
          490.0,
          488.0,
          487.0,
          494.0,
          498.0,
          499.0,
          499.0,
          497.0,
          496.0,
          495.0,
          494.0,
          491.0,
          491.0,
          491.0,
          490.0,
          490.0,
          496.0,
          496.0,
          496.0,
          495.0,
          495.0,
          495.0,
          495.0,
          495.0,
          494.0,
          494.0,
          494.0,
          494.0,
          494.0,
          493.0,
          493.0,
          493.0,
          493.0,
          492.0,
          492.0,
          492.0,
          492.0,
          492.0,
          491.0,
          491.0,
          491.0,
          491.0,
          491.0,
          490.0,
          490.0,
          490.0,
          490.0,
          491.0,
          490.0,
          490.0,
          489.0,
          489.0,
          488.0,
          488.0,
          487.0,
          487.0,
          488.0,
          489.0,
          486.0,
          486.0,
          486.0,
          486.0,
          486.0,
          486.0,
          486.0,
          484.0,
          484.0,
          484.0,
          484.0,
          484.0,
          483.0,
          484.0,
          484.0,
          483.0,
          486.0,
          486.0,
          484.0,
          484.0,
          486.0,
          488.0,
          488.0,
          488.0,
          488.0,
          488.0,
          488.0,
          489.0,
          489.0,
          489.0,
          490.0,
          491.0,
          491.0,
          493.0,
          494.0,
          493.0,
          493.0,
          494.0,
          494.0,
          494.0,
          494.0,
          495.0,
          495.0,
          495.0,
          494.0,
          495.0,
          494.0,
          494.0,
          494.0,
          494.0,
          496.0,
          496.0,
          496.0,
          496.0,
          497.0,
          497.0,
          498.0,
          499.0,
          499.0,
          501.0,
          501.0,
          502.0,
          502.0,
          503.0,
          503.0,
          504.0,
          504.0,
          504.0,
          505.0,
          505.0,
          506.0,
          507.0,
          509.0,
          509.0,
          510.0,
          509.0,
          509.0,
          510.0,
          511.0,
          511.0,
          512.0,
          514.0,
          513.0,
          513.0,
          512.0,
          512.0,
          512.0,
          512.0,
          511.0,
          511.0,
          511.0,
          511.0,
          512.0,
          512.0,
          512.0,
          513.0,
          513.0,
          514.0,
          514.0,
          514.0,
          516.0,
          514.0,
          516.0,
          517.0,
          518.0,
          518.0,
          519.0,
          521.0,
          522.0,
          524.0,
          525.0,
          524.0,
          525.0,
          525.0,
          527.0,
          528.0,
          527.0,
          529.0,
          529.0,
          533.0,
          534.0,
          535.0,
          536.0,
          537.0,
          536.0,
          536.0,
          537.0,
          537.0,
          537.0,
          537.0,
          537.0,
          539.0,
          537.0,
          537.0,
          541.0,
          541.0,
          543.0,
          545.0,
          545.0,
          545.0,
          547.0,
          548.0,
          548.0,
          548.0,
          549.0,
          547.0,
          547.0,
          547.0,
          548.0,
          547.0,
          548.0,
          549.0,
          550.0,
          550.0,
          550.0,
          550.0,
          551.0,
          552.0,
          551.0,
          552.0,
          550.0,
          550.0,
          550.0,
          550.0,
          550.0,
          550.0,
          550.0,
          550.0,
          549.0,
          549.0,
          549.0,
          547.0,
          547.0,
          547.0,
          548.0,
          547.0,
          548.0,
          549.0,
          549.0,
          549.0,
          549.0,
          549.0,
          550.0,
          549.0,
          548.0,
          548.0,
          547.0,
          547.0,
          545.0,
          545.0,
          547.0,
          547.0,
          547.0,
          545.0,
          547.0,
          548.0,
          549.0,
          548.0,
          548.0,
          548.0,
          548.0,
          548.0,
          548.0,
          549.0,
          549.0,
          549.0,
          549.0,
          549.0,
          550.0,
          550.0,
          550.0,
          549.0,
          550.0,
          550.0,
          549.0,
          549.0,
          549.0,
          549.0,
          549.0,
          550.0,
          550.0,
          550.0,
          551.0,
          551.0,
          551.0,
          550.0,
          550.0,
          551.0,
          551.0,
          551.0,
          550.0,
          549.0,
          548.0,
          547.0,
          545.0,
          544.0,
          544.0,
          547.0,
          547.0,
          547.0,
          547.0,
          547.0,
          547.0,
          545.0,
          547.0,
          551.0,
          559.0,
          568.0,
          565.0,
          563.0,
          558.0,
          550.0,
          541.0,
          535.0,
          536.0,
          527.0,
          526.0,
          521.0,
          517.0,
          512.0,
          507.0,
          504.0,
          502.0,
          502.0,
          502.0,
          501.0,
          490.0,
          480.0,
          480.0,
          478.0,
          471.0,
          465.0,
          467.0,
          473.0,
          468.0,
          465.0,
          459.0,
          458.0,
          456.0,
          452.0,
          449.0,
          444.0,
          438.0,
          427.0,
          417.0,
          412.0,
          406.0,
          396.0,
          398.0,
          397.0,
          387.0,
          376.0,
          368.0,
          366.0,
          371.0,
          368.0,
          358.0,
          353.0,
          339.0,
          326.0,
          305.0,
          262.0,
          252.0,
          252.0,
          252.0,
          253.0,
          264.0,
          261.0,
          250.0,
          236.0,
          231.0,
          221.0,
          219.0,
          205.0,
          194.0,
          185.0,
          189.0,
          158.0,
          143.0,
          137.0,
          129.0,
          131.0,
          117.0,
          114.0,
          107.0,
          115.0,
          122.0,
          122.0,
          130.0,
          128.0,
          131.0
        ],
        "altitude_ft": [
          2275,
          2950,
          3950,
          5050,
          5650,
          6000,
          7200,
          7950,
          8550,
          9275,
          10425,
          11400,
          12650,
          13900,
          14875,
          15850,
          16850,
          17850,
          18850,
          19825,
          20875,
          21850,
          22875,
          23800,
          24625,
          25350,
          26025,
          26675,
          27300,
          27975,
          28500,
          29000,
          29450,
          29950,
          30425,
          30925,
          31425,
          32000,
          32625,
          33250,
          33975,
          34725,
          35500,
          36200,
          36875,
          37450,
          37925,
          38425,
          38900,
          39400,
          39875,
          40000,
          40000,
          40000,
          40000,
          40000,
          40000,
          40000,
          40000,
          40000,
          40000,
          40000,
          40000,
          40000,
          40000,
          40000,
          40000,
          40100,
          40475,
          40925,
          41000,
          41000,
          41000,
          41000,
          41000,
          41000,
          41000,
          41000,
          41000,
          41000,
          41000,
          41000,
          41000,
          41250,
          41575,
          41825,
          42100,
          42350,
          42625,
          42875,
          43000,
          43000,
          43000,
          43000,
          43000,
          43000,
          43000,
          43000,
          43000,
          43000,
          43000,
          43000,
          43000,
          43000,
          43000,
          43000,
          43000,
          43000,
          43000,
          43000,
          43000,
          43000,
          43000,
          43000,
          43000,
          43000,
          43000,
          43000,
          43000,
          43000,
          43000,
          43000,
          43000,
          43000,
          43000,
          43000,
          43000,
          43000,
          43000,
          43000,
          43000,
          43000,
          43000,
          43000,
          43000,
          43000,
          43000,
          43000,
          43000,
          43000,
          43000,
          43000,
          43000,
          43000,
          43000,
          43000,
          43000,
          43000,
          43000,
          43000,
          43000,
          43000,
          43000,
          43000,
          43000,
          43000,
          43000,
          43000,
          43000,
          43000,
          43000,
          43000,
          43000,
          43000,
          43000,
          43000,
          43000,
          43000,
          43000,
          43000,
          43000,
          43000,
          43000,
          43000,
          43000,
          43000,
          43000,
          43000,
          43000,
          43000,
          43000,
          43000,
          43000,
          43000,
          43000,
          43000,
          43000,
          43000,
          43000,
          43000,
          43000,
          43000,
          43000,
          43000,
          43000,
          43000,
          43000,
          43000,
          43000,
          43000,
          43000,
          43000,
          43000,
          43000,
          43000,
          43000,
          43000,
          43000,
          43000,
          43000,
          43000,
          43000,
          43000,
          43000,
          43000,
          43000,
          43000,
          43000,
          43000,
          43000,
          43000,
          43000,
          43000,
          43000,
          43000,
          43000,
          43000,
          43000,
          43000,
          43000,
          43000,
          43000,
          43000,
          43000,
          43000,
          43000,
          43000,
          43000,
          43000,
          43000,
          43000,
          43000,
          43000,
          43000,
          43000,
          43000,
          43000,
          43000,
          43000,
          43000,
          43000,
          43000,
          43000,
          43000,
          43000,
          43000,
          43000,
          43000,
          43000,
          43000,
          43000,
          43000,
          43000,
          43000,
          43000,
          43000,
          43000,
          43000,
          43000,
          43000,
          43000,
          43000,
          43000,
          43000,
          43000,
          43000,
          43000,
          43000,
          43000,
          43000,
          43000,
          43000,
          43000,
          43000,
          43025,
          43000,
          43000,
          43000,
          43000,
          43000,
          43000,
          43000,
          43000,
          43000,
          43000,
          43000,
          43000,
          43000,
          43000,
          43000,
          43000,
          43000,
          43000,
          43000,
          43000,
          43000,
          43000,
          43000,
          43000,
          43000,
          43000,
          43000,
          43000,
          43000,
          43000,
          43000,
          43000,
          43000,
          43000,
          43000,
          43000,
          43000,
          43000,
          43000,
          43000,
          43000,
          43000,
          43000,
          43000,
          43000,
          43000,
          43000,
          43000,
          43000,
          43000,
          43000,
          43000,
          43000,
          43000,
          43000,
          43000,
          43000,
          43000,
          43000,
          43000,
          43000,
          43000,
          43000,
          43000,
          43000,
          43000,
          43000,
          43000,
          43000,
          43000,
          43000,
          43000,
          43000,
          43000,
          43000,
          43000,
          43000,
          43000,
          43000,
          43000,
          43000,
          43000,
          43000,
          43000,
          43000,
          43000,
          43000,
          43000,
          43000,
          43000,
          43000,
          43000,
          43000,
          43000,
          43000,
          43000,
          43000,
          43000,
          43000,
          43000,
          43000,
          43000,
          43000,
          43000,
          42150,
          40600,
          39150,
          37650,
          36075,
          34450,
          32900,
          31275,
          29675,
          28100,
          26750,
          25700,
          25000,
          24100,
          23200,
          22350,
          21500,
          20625,
          19725,
          18925,
          18050,
          17225,
          16375,
          15575,
          14775,
          14100,
          14000,
          14000,
          14000,
          13975,
          13700,
          13500,
          13375,
          13200,
          12950,
          12650,
          12425,
          12125,
          12000,
          11850,
          11600,
          11225,
          11050,
          10725,
          10025,
          9200,
          8175,
          7325,
          6575,
          6350,
          6325,
          6075,
          5350,
          5250,
          5050,
          4775,
          4450,
          4350,
          4325,
          4325,
          4325,
          4325,
          4325,
          3900,
          3375,
          3325,
          3325,
          3325,
          3325,
          3325,
          3275,
          2900,
          2425,
          2350,
          2325,
          2325,
          2325,
          2325,
          2075,
          1925,
          1825,
          1700,
          1575,
          1450,
          1300,
          1075,
          925
        ],
        "vertical_rate_fpm": [
          0.0,
          2956.0,
          3706.0,
          3188.0,
          1781.0,
          2022.0,
          2438.0,
          2132.0,
          1728.0,
          1585.0,
          1700.0,
          2225.0,
          2500.0,
          2225.0,
          1950.0,
          1975.0,
          2000.0,
          2000.0,
          1975.0,
          1992.0,
          1992.0,
          2000.0,
          1950.0,
          1750.0,
          1550.0,
          1377.0,
          1303.0,
          1275.0,
          1300.0,
          1200.0,
          1025.0,
          950.0,
          950.0,
          975.0,
          975.0,
          984.0,
          1057.0,
          1200.0,
          1250.0,
          1350.0,
          1475.0,
          1525.0,
          1475.0,
          1375.0,
          1250.0,
          1033.0,
          959.0,
          975.0,
          975.0,
          975.0,
          529.0,
          106.0,
          0.0,
          0.0,
          0.0,
          0.0,
          0.0,
          0.0,
          0.0,
          0.0,
          0.0,
          0.0,
          0.0,
          0.0,
          0.0,
          0.0,
          97.0,
          475.0,
          825.0,
          463.0,
          60.0,
          0.0,
          0.0,
          0.0,
          0.0,
          0.0,
          0.0,
          0.0,
          0.0,
          0.0,
          0.0,
          0.0,
          183.0,
          479.0,
          500.0,
          516.0,
          525.0,
          500.0,
          500.0,
          292.0,
          96.0,
          0.0,
          0.0,
          0.0,
          0.0,
          0.0,
          0.0,
          0.0,
          0.0,
          0.0,
          0.0,
          0.0,
          0.0,
          0.0,
          0.0,
          0.0,
          0.0,
          0.0,
          0.0,
          0.0,
          0.0,
          0.0,
          0.0,
          0.0,
          0.0,
          0.0,
          0.0,
          0.0,
          0.0,
          0.0,
          0.0,
          0.0,
          0.0,
          0.0,
          0.0,
          0.0,
          0.0,
          0.0,
          0.0,
          0.0,
          0.0,
          0.0,
          0.0,
          0.0,
          0.0,
          0.0,
          0.0,
          0.0,
          0.0,
          0.0,
          0.0,
          0.0,
          0.0,
          0.0,
          0.0,
          0.0,
          0.0,
          0.0,
          0.0,
          0.0,
          0.0,
          0.0,
          0.0,
          0.0,
          0.0,
          0.0,
          0.0,
          0.0,
          0.0,
          0.0,
          0.0,
          0.0,
          0.0,
          0.0,
          0.0,
          0.0,
          0.0,
          0.0,
          0.0,
          0.0,
          0.0,
          0.0,
          0.0,
          0.0,
          0.0,
          0.0,
          0.0,
          0.0,
          0.0,
          0.0,
          0.0,
          0.0,
          0.0,
          0.0,
          0.0,
          0.0,
          0.0,
          0.0,
          0.0,
          0.0,
          0.0,
          0.0,
          0.0,
          0.0,
          0.0,
          0.0,
          0.0,
          0.0,
          0.0,
          0.0,
          0.0,
          0.0,
          0.0,
          0.0,
          0.0,
          0.0,
          0.0,
          0.0,
          0.0,
          0.0,
          0.0,
          0.0,
          0.0,
          0.0,
          0.0,
          0.0,
          0.0,
          0.0,
          0.0,
          0.0,
          0.0,
          0.0,
          0.0,
          0.0,
          0.0,
          0.0,
          0.0,
          0.0,
          0.0,
          0.0,
          0.0,
          0.0,
          0.0,
          0.0,
          0.0,
          0.0,
          0.0,
          0.0,
          0.0,
          0.0,
          0.0,
          0.0,
          0.0,
          0.0,
          0.0,
          0.0,
          0.0,
          0.0,
          0.0,
          0.0,
          0.0,
          0.0,
          0.0,
          0.0,
          0.0,
          0.0,
          0.0,
          0.0,
          0.0,
          0.0,
          0.0,
          0.0,
          0.0,
          0.0,
          0.0,
          0.0,
          0.0,
          0.0,
          0.0,
          0.0,
          0.0,
          0.0,
          0.0,
          0.0,
          0.0,
          0.0,
          0.0,
          0.0,
          0.0,
          0.0,
          0.0,
          0.0,
          0.0,
          25.0,
          0.0,
          -25.0,
          0.0,
          0.0,
          0.0,
          0.0,
          0.0,
          0.0,
          0.0,
          0.0,
          0.0,
          0.0,
          0.0,
          0.0,
          0.0,
          0.0,
          0.0,
          0.0,
          0.0,
          0.0,
          0.0,
          0.0,
          0.0,
          0.0,
          0.0,
          0.0,
          0.0,
          0.0,
          0.0,
          0.0,
          0.0,
          0.0,
          0.0,
          0.0,
          0.0,
          0.0,
          0.0,
          0.0,
          0.0,
          0.0,
          0.0,
          0.0,
          0.0,
          0.0,
          0.0,
          0.0,
          0.0,
          0.0,
          0.0,
          0.0,
          0.0,
          0.0,
          0.0,
          0.0,
          0.0,
          0.0,
          0.0,
          0.0,
          0.0,
          0.0,
          0.0,
          0.0,
          0.0,
          0.0,
          0.0,
          0.0,
          0.0,
          0.0,
          0.0,
          0.0,
          0.0,
          0.0,
          0.0,
          0.0,
          0.0,
          0.0,
          0.0,
          0.0,
          0.0,
          0.0,
          0.0,
          0.0,
          0.0,
          0.0,
          0.0,
          0.0,
          0.0,
          0.0,
          0.0,
          0.0,
          0.0,
          0.0,
          0.0,
          0.0,
          0.0,
          0.0,
          0.0,
          0.0,
          0.0,
          0.0,
          0.0,
          0.0,
          0.0,
          0.0,
          -850.0,
          -2400.0,
          -3000.0,
          -2950.0,
          -3075.0,
          -3200.0,
          -3175.0,
          -3175.0,
          -3225.0,
          -3175.0,
          -3250.0,
          -2667.0,
          -1981.0,
          -1811.0,
          -1800.0,
          -1750.0,
          -1700.0,
          -1725.0,
          -1775.0,
          -1700.0,
          -1675.0,
          -1700.0,
          -1675.0,
          -1650.0,
          -1600.0,
          -1553.0,
          -861.0,
          -118.0,
          0.0,
          -21.0,
          -300.0,
          -559.0,
          -500.0,
          -500.0,
          -531.0,
          -550.0,
          -525.0,
          -525.0,
          -543.0,
          -485.0,
          -545.0,
          -528.0,
          -532.0,
          -750.0,
          -976.0,
          -1289.0,
          -1850.0,
          -1875.0,
          -1655.0,
          -1272.0,
          -326.0,
          -284.0,
          -975.0,
          -1456.0,
          -1125.0,
          -1018.0,
          -1059.0,
          -750.0,
          -234.0,
          -33.0,
          0.0,
          0.0,
          0.0,
          -729.0,
          -1239.0,
          -719.0,
          -48.0,
          0.0,
          0.0,
          0.0,
          -94.0,
          -654.0,
          -962.0,
          -688.0,
          -154.0,
          -34.0,
          0.0,
          0.0,
          -294.0,
          -649.0,
          -469.0,
          -422.0,
          -469.0,
          -469.0,
          -516.0,
          -703.0,
          -703.0,
          -563.0
        ]
      }
    }
  ]
}