{
  "type": "FeatureCollection",
  "features": [
    {
      "type": "Feature",
      "geometry": {
        "type": "LineString",
        "coordinates": [
          [
            11.1974,
            43.8052
          ],
          [
            11.1849,
            43.7982
          ],
          [
            11.1681,
            43.7971
          ],
          [
            11.1521,
            43.8008
          ],
          [
            11.1361,
            43.8053
          ],
          [
            11.1185,
            43.8097
          ],
          [
            11.0985,
            43.8171
          ],
          [
            11.0906,
            43.8327
          ],
          [
            11.097,
            43.8542
          ],
          [
            11.1106,
            43.8713
          ],
          [
            11.1311,
            43.8902
          ],
          [
            11.1625,
            43.9164
          ],
          [
            11.1951,
            43.9434
          ],
          [
            11.2324,
            43.975
          ],
          [
            11.2568,
            43.9962
          ],
          [
            11.2701,
            44.0219
          ],
          [
            11.2725,
            44.0481
          ],
          [
            11.2686,
            44.0991
          ],
          [
            11.2627,
            44.1468
          ],
          [
            11.2578,
            44.195
          ],
          [
            11.2543,
            44.246
          ],
          [
            11.2503,
            44.2974
          ],
          [
            11.2464,
            44.3505
          ],
          [
            11.2426,
            44.4068
          ],
          [
            11.2385,
            44.4635
          ],
          [
            11.2344,
            44.5243
          ],
          [
            11.2305,
            44.5811
          ],
          [
            11.2262,
            44.6414
          ],
          [
            11.2218,
            44.7033
          ],
          [
            11.2173,
            44.7664
          ],
          [
            11.2127,
            44.8337
          ],
          [
            11.2082,
            44.8972
          ],
          [
            11.2034,
            44.965
          ],
          [
            11.1991,
            45.0258
          ],
          [
            11.1947,
            45.0886
          ],
          [
            11.1902,
            45.1523
          ],
          [
            11.1858,
            45.2134
          ],
          [
            11.1815,
            45.2742
          ],
          [
            11.1771,
            45.3377
          ],
          [
            11.1726,
            45.4017
          ],
          [
            11.1679,
            45.4654
          ],
          [
            11.1633,
            45.5286
          ],
          [
            11.1585,
            45.5935
          ],
          [
            11.1541,
            45.6557
          ],
          [
            11.1499,
            45.7158
          ],
          [
            11.1455,
            45.7763
          ],
          [
            11.141,
            45.8368
          ],
          [
            11.1366,
            45.8984
          ],
          [
            11.132,
            45.9603
          ],
          [
            11.1279,
            46.0189
          ],
          [
            11.1233,
            46.0824
          ],
          [
            11.119,
            46.1395
          ],
          [
            11.1159,
            46.1766
          ],
          [
            11.1068,
            46.2084
          ],
          [
            11.0901,
            46.2403
          ],
          [
            11.0562,
            46.2911
          ],
          [
            11.0183,
            46.3438
          ],
          [
            10.983,
            46.3955
          ],
          [
            10.9475,
            46.448
          ],
          [
            10.9127,
            46.4985
          ],
          [
            10.878,
            46.55
          ],
          [
            10.8422,
            46.6027
          ],
          [
            10.8069,
            46.6545
          ],
          [
            10.772,
            46.706
          ],
          [
            10.7339,
            46.7615
          ],
          [
            10.6978,
            46.8142
          ],
          [
            10.6609,
            46.868
          ],
          [
            10.6241,
            46.9216
          ],
          [
            10.5872,
            46.975
          ],
          [
            10.5495,
            47.0298
          ],
          [
            10.5134,
            47.0818
          ],
          [
            10.4739,
            47.1373
          ],
          [
            10.4217,
            47.2035
          ],
          [
            10.3788,
            47.2564
          ],
          [
            10.3379,
            47.3078
          ],
          [
            10.3018,
            47.3528
          ],
          [
            10.2617,
            47.4028
          ],
          [
            10.2241,
            47.4495
          ],
          [
            10.1823,
            47.5014
          ],
          [
            10.1438,
            47.5495
          ],
          [
            10.1021,
            47.6008
          ],
          [
            10.075,
            47.6345
          ],
          [
            10.0521,
            47.6625
          ],
          [
            10.0109,
            47.7135
          ],
          [
            9.9695,
            47.7645
          ],
          [
            9.9471,
            47.7916
          ],
          [
            9.9054,
            47.8427
          ],
          [
            9.8649,
            47.8922
          ],
          [
            9.8216,
            47.9447
          ],
          [
            9.7894,
            47.9838
          ],
          [
            9.7471,
            48.0352
          ],
          [
            9.6917,
            48.1018
          ],
          [
            9.6499,
            48.1528
          ],
          [
            9.6182,
            48.1912
          ],
          [
            9.5763,
            48.2412
          ],
          [
            9.5346,
            48.2913
          ],
          [
            9.4933,
            48.3408
          ],
          [
            9.4511,
            48.3912
          ],
          [
            9.4099,
            48.4401
          ],
          [
            9.3781,
            48.4781
          ],
          [
            9.3402,
            48.523
          ],
          [
            9.3014,
            48.5689
          ],
          [
            9.2651,
            48.6118
          ],
          [
            9.2388,
            48.6487
          ],
          [
            9.1846,
            48.7323
          ],
          [
            9.165,
            48.761
          ],
          [
            9.1342,
            48.8074
          ],
          [
            9.1105,
            48.8429
          ],
          [
            9.0882,
            48.8759
          ],
          [
            9.0662,
            48.8997
          ],
          [
            9.0394,
            48.9234
          ],
          [
            8.9903,
            48.9627
          ],
          [
            8.9397,
            49.0022
          ],
          [
            8.8795,
            49.0513
          ],
          [
            8.8341,
            49.0882
          ],
          [
            8.7619,
            49.1466
          ],
          [
            8.7169,
            49.183
          ],
          [
            8.6663,
            49.2239
          ],
          [
            8.6181,
            49.2629
          ],
          [
            8.5755,
            49.2969
          ],
          [
            8.5354,
            49.3293
          ],
          [
            8.4835,
            49.3707
          ],
          [
            8.438,
            49.4073
          ],
          [
            8.3851,
            49.4497
          ],
          [
            8.3332,
            49.491
          ],
          [
            8.2275,
            49.5748
          ],
          [
            8.1751,
            49.6164
          ],
          [
            8.1181,
            49.6614
          ],
          [
            8.0678,
            49.7011
          ],
          [
            8.0128,
            49.7443
          ],
          [
            7.9591,
            49.7865
          ],
          [
            7.9041,
            49.8293
          ],
          [
            7.8513,
            49.8707
          ],
          [
            7.7976,
            49.9126
          ],
          [
            7.7427,
            49.9551
          ],
          [
            7.6897,
            49.9962
          ],
          [
            7.6345,
            50.0389
          ],
          [
            7.5824,
            50.0791
          ],
          [
            7.5299,
            50.1195
          ],
          [
            7.4768,
            50.1604
          ],
          [
            7.4204,
            50.2034
          ],
          [
            7.3656,
            50.2456
          ],
          [
            7.3107,
            50.2878
          ],
          [
            7.2237,
            50.3546
          ],
          [
            7.1715,
            50.3964
          ],
          [
            7.132,
            50.4283
          ],
          [
            7.0874,
            50.465
          ],
          [
            7.0359,
            50.5067
          ],
          [
            6.9653,
            50.5571
          ],
          [
            6.9196,
            50.5787
          ],
          [
            6.8302,
            50.6154
          ],
          [
            6.777,
            50.6365
          ],
          [
            6.6695,
            50.6806
          ],
          [
            6.5782,
            50.7189
          ],
          [
            6.515,
            50.7451
          ],
          [
            6.4573,
            50.7687
          ],
          [
            6.4005,
            50.7924
          ],
          [
            6.3406,
            50.817
          ],
          [
            6.2895,
            50.8378
          ],
          [
            6.2198,
            50.8665
          ],
          [
            6.1565,
            50.8924
          ],
          [
            6.0799,
            50.9237
          ],
          [
            6.0229,
            50.9468
          ],
          [
            5.9895,
            50.9605
          ],
          [
            5.9648,
            50.9797
          ],
          [
            5.9528,
            51.0043
          ],
          [
            5.9473,
            51.0258
          ],
          [
            5.9412,
            51.0632
          ],
          [
            5.9362,
            51.0905
          ],
          [
            5.9276,
            51.1281
          ],
          [
            5.9204,
            51.1623
          ],
          [
            5.9158,
            51.1844
          ],
          [
            5.9109,
            51.2085
          ],
          [
            5.9049,
            51.2359
          ],
          [
            5.8994,
            51.2562
          ],
          [
            5.8928,
            51.2732
          ],
          [
            5.8829,
            51.2949
          ],
          [
            5.8701,
            51.3193
          ],
          [
            5.8602,
            51.3383
          ],
          [
            5.8469,
            51.3668
          ],
          [
            5.8358,
            51.3908
          ],
          [
            5.8226,
            51.4189
          ],
          [
            5.8128,
            51.4397
          ],
          [
            5.7978,
            51.4573
          ],
          [
            5.7793,
            51.4706
          ],
          [
            5.7576,
            51.4837
          ],
          [
            5.7297,
            51.4992
          ],
          [
            5.6901,
            51.5209
          ],
          [
            5.6633,
            51.5367
          ],
          [
            5.6361,
            51.5518
          ],
          [
            5.6055,
            51.5658
          ],
          [
            5.5766,
            51.578
          ],
          [
            5.5592,
            51.5855
          ],
          [
            5.5357,
            51.5874
          ],
          [
            5.516,
            51.5795
          ],
          [
            5.4963,
            51.5633
          ],
          [
            5.4838,
            51.5507
          ],
          [
            5.4741,
            51.5395
          ],
          [
            5.4596,
            51.5263
          ],
          [
            5.4451,
            51.5133
          ],
          [
            5.4406,
            51.5093
          ],
          [
            5.4366,
            51.5057
          ],
          [
            5.4285,
            51.4983
          ],
          [
            5.4209,
            51.4917
          ],
          [
            5.4131,
            51.4845
          ],
          [
            5.4058,
            51.4781
          ],
          [
            5.3979,
            51.471
          ],
          [
            5.3899,
            51.4638
          ],
          [
            5.3814,
            51.4563
          ]
        ]
      },
      "properties": {
        "time_europe_berlin": [
          "30.10.2025 12:28:06",
          "30.10.2025 12:28:22",
          "30.10.2025 12:28:38",
          "30.10.2025 12:28:54",
          "30.10.2025 12:29:10",
          "30.10.2025 12:29:26",
          "30.10.2025 12:29:45",
          "30.10.2025 12:30:03",
          "30.10.2025 12:30:25",
          "30.10.2025 12:30:43",
          "30.10.2025 12:31:06",
          "30.10.2025 12:31:36",
          "30.10.2025 12:32:06",
          "30.10.2025 12:32:36",
          "30.10.2025 12:32:55",
          "30.10.2025 12:33:13",
          "30.10.2025 12:33:31",
          "30.10.2025 12:34:04",
          "30.10.2025 12:34:34",
          "30.10.2025 12:35:04",
          "30.10.2025 12:35:34",
          "30.10.2025 12:36:04",
          "30.10.2025 12:36:34",
          "30.10.2025 12:37:04",
          "30.10.2025 12:37:34",
          "30.10.2025 12:38:04",
          "30.10.2025 12:38:34",
          "30.10.2025 12:39:04",
          "30.10.2025 12:39:34",
          "30.10.2025 12:40:04",
          "30.10.2025 12:40:34",
          "30.10.2025 12:41:04",
          "30.10.2025 12:41:34",
          "30.10.2025 12:42:04",
          "30.10.2025 12:42:34",
          "30.10.2025 12:43:04",
          "30.10.2025 12:43:34",
          "30.10.2025 12:44:04",
          "30.10.2025 12:44:34",
          "30.10.2025 12:45:04",
          "30.10.2025 12:45:35",
          "30.10.2025 12:46:05",
          "30.10.2025 12:46:35",
          "30.10.2025 12:47:06",
          "30.10.2025 12:47:36",
          "30.10.2025 12:48:06",
          "30.10.2025 12:48:36",
          "30.10.2025 12:49:06",
          "30.10.2025 12:49:36",
          "30.10.2025 12:50:06",
          "30.10.2025 12:50:36",
          "30.10.2025 12:51:06",
          "30.10.2025 12:51:24",
          "30.10.2025 12:51:41",
          "30.10.2025 12:51:57",
          "30.10.2025 12:52:27",
          "30.10.2025 12:52:57",
          "30.10.2025 12:53:27",
          "30.10.2025 12:53:57",
          "30.10.2025 12:54:27",
          "30.10.2025 12:54:57",
          "30.10.2025 12:55:27",
          "30.10.2025 12:55:57",
          "30.10.2025 12:56:27",
          "30.10.2025 12:56:58",
          "30.10.2025 12:57:28",
          "30.10.2025 12:57:58",
          "30.10.2025 12:58:28",
          "30.10.2025 12:58:59",
          "30.10.2025 12:59:29",
          "30.10.2025 12:59:59",
          "30.10.2025 13:00:29",
          "30.10.2025 13:01:08",
          "30.10.2025 13:01:38",
          "30.10.2025 13:02:08",
          "30.10.2025 13:02:36",
          "30.10.2025 13:03:06",
          "30.10.2025 13:03:36",
          "30.10.2025 13:04:07",
          "30.10.2025 13:04:37",
          "30.10.2025 13:05:07",
          "30.10.2025 13:05:28",
          "30.10.2025 13:05:44",
          "30.10.2025 13:06:14",
          "30.10.2025 13:06:44",
          "30.10.2025 13:07:00",
          "30.10.2025 13:07:30",
          "30.10.2025 13:08:00",
          "30.10.2025 13:08:30",
          "30.10.2025 13:08:53",
          "30.10.2025 13:09:23",
          "30.10.2025 13:10:02",
          "30.10.2025 13:10:32",
          "30.10.2025 13:10:56",
          "30.10.2025 13:11:26",
          "30.10.2025 13:11:56",
          "30.10.2025 13:12:26",
          "30.10.2025 13:12:56",
          "30.10.2025 13:13:26",
          "30.10.2025 13:13:50",
          "30.10.2025 13:14:20",
          "30.10.2025 13:14:50",
          "30.10.2025 13:15:20",
          "30.10.2025 13:15:42",
          "30.10.2025 13:16:35",
          "30.10.2025 13:16:52",
          "30.10.2025 13:17:22",
          "30.10.2025 13:17:43",
          "30.10.2025 13:18:05",
          "30.10.2025 13:18:21",
          "30.10.2025 13:18:38",
          "30.10.2025 13:19:08",
          "30.10.2025 13:19:38",
          "30.10.2025 13:20:15",
          "30.10.2025 13:20:43",
          "30.10.2025 13:21:27",
          "30.10.2025 13:21:55",
          "30.10.2025 13:22:25",
          "30.10.2025 13:22:55",
          "30.10.2025 13:23:22",
          "30.10.2025 13:23:47",
          "30.10.2025 13:24:17",
          "30.10.2025 13:24:45",
          "30.10.2025 13:25:15",
          "30.10.2025 13:25:45",
          "30.10.2025 13:26:44",
          "30.10.2025 13:27:14",
          "30.10.2025 13:27:44",
          "30.10.2025 13:28:14",
          "30.10.2025 13:28:44",
          "30.10.2025 13:29:14",
          "30.10.2025 13:29:44",
          "30.10.2025 13:30:14",
          "30.10.2025 13:30:44",
          "30.10.2025 13:31:14",
          "30.10.2025 13:31:44",
          "30.10.2025 13:32:14",
          "30.10.2025 13:32:44",
          "30.10.2025 13:33:14",
          "30.10.2025 13:33:44",
          "30.10.2025 13:34:14",
          "30.10.2025 13:34:44",
          "30.10.2025 13:35:14",
          "30.10.2025 13:36:02",
          "30.10.2025 13:36:32",
          "30.10.2025 13:36:56",
          "30.10.2025 13:37:19",
          "30.10.2025 13:37:49",
          "30.10.2025 13:38:27",
          "30.10.2025 13:38:48",
          "30.10.2025 13:39:26",
          "30.10.2025 13:39:49",
          "30.10.2025 13:40:36",
          "30.10.2025 13:41:17",
          "30.10.2025 13:41:47",
          "30.10.2025 13:42:17",
          "30.10.2025 13:42:47",
          "30.10.2025 13:43:17",
          "30.10.2025 13:43:42",
          "30.10.2025 13:44:18",
          "30.10.2025 13:44:52",
          "30.10.2025 13:45:29",
          "30.10.2025 13:45:59",
          "30.10.2025 13:46:17",
          "30.10.2025 13:46:37",
          "30.10.2025 13:46:57",
          "30.10.2025 13:47:15",
          "30.10.2025 13:47:45",
          "30.10.2025 13:48:06",
          "30.10.2025 13:48:36",
          "30.10.2025 13:49:03",
          "30.10.2025 13:49:23",
          "30.10.2025 13:49:44",
          "30.10.2025 13:50:07",
          "30.10.2025 13:50:23",
          "30.10.2025 13:50:40",
          "30.10.2025 13:51:00",
          "30.10.2025 13:51:25",
          "30.10.2025 13:51:44",
          "30.10.2025 13:52:14",
          "30.10.2025 13:52:39",
          "30.10.2025 13:53:07",
          "30.10.2025 13:53:27",
          "30.10.2025 13:53:44",
          "30.10.2025 13:54:00",
          "30.10.2025 13:54:19",
          "30.10.2025 13:54:39",
          "30.10.2025 13:55:09",
          "30.10.2025 13:55:33",
          "30.10.2025 13:55:57",
          "30.10.2025 13:56:23",
          "30.10.2025 13:56:49",
          "30.10.2025 13:57:06",
          "30.10.2025 13:57:24",
          "30.10.2025 13:57:42",
          "30.10.2025 13:58:06",
          "30.10.2025 13:58:26",
          "30.10.2025 13:58:44",
          "30.10.2025 13:59:10",
          "30.10.2025 13:59:37",
          "30.10.2025 13:59:45",
          "30.10.2025 13:59:53",
          "30.10.2025 14:00:09",
          "30.10.2025 14:00:25",
          "30.10.2025 14:00:41",
          "30.10.2025 14:00:57",
          "30.10.2025 14:01:13",
          "30.10.2025 14:01:29",
          "30.10.2025 14:01:45"
        ],
        "course_deg_clockwise_from_north": [
          229,
          243,
          281,
          291,
          292,
          287,
          316,
          355,
          24,
          35,
          41,
          42,
          41,
          40,
          36,
          10,
          1,
          356,
          355,
          357,
          357,
          357,
          357,
          357,
          357,
          357,
          357,
          357,
          357,
          357,
          357,
          357,
          357,
          357,
          357,
          357,
          357,
          357,
          357,
          357,
          357,
          357,
          357,
          357,
          357,
          357,
          357,
          357,
          357,
          357,
          357,
          357,
          355,
          344,
          337,
          334,
          334,
          335,
          335,
          335,
          335,
          335,
          335,
          335,
          335,
          335,
          335,
          335,
          335,
          335,
          335,
          333,
          331,
          332,
          332,
          331,
          331,
          331,
          332,
          332,
          331,
          332,
          331,
          331,
          331,
          331,
          331,
          331,
          331,
          332,
          331,
          331,
          331,
          331,
          331,
          331,
          331,
          330,
          331,
          331,
          331,
          331,
          332,
          336,
          336,
          336,
          336,
          336,
          334,
          326,
          322,
          319,
          320,
          321,
          321,
          321,
          321,
          321,
          321,
          321,
          320,
          320,
          322,
          321,
          321,
          321,
          320,
          320,
          320,
          320,
          321,
          320,
          320,
          320,
          320,
          320,
          320,
          320,
          320,
          320,
          320,
          320,
          320,
          321,
          321,
          322,
          323,
          321,
          311,
          305,
          302,
          302,
          303,
          304,
          303,
          303,
          303,
          303,
          303,
          303,
          303,
          303,
          303,
          304,
          333,
          348,
          353,
          354,
          353,
          352,
          353,
          353,
          353,
          352,
          348,
          345,
          343,
          342,
          343,
          344,
          344,
          344,
          343,
          324,
          316,
          313,
          311,
          312,
          314,
          309,
          305,
          305,
          300,
          252,
          226,
          213,
          207,
          212,
          215,
          215,
          215,
          215,
          213,
          216,
          215,
          215,
          216,
          214,
          215
        ],
        "speed_kts": [
          150,
          159,
          166,
          164,
          172,
          175,
          203,
          221,
          227,
          235,
          235,
          247,
          274,
          310,
          317,
          326,
          327,
          337,
          347,
          358,
          366,
          382,
          395,
          407,
          417,
          427,
          433,
          438,
          449,
          465,
          470,
          472,
          467,
          460,
          449,
          448,
          450,
          453,
          459,
          459,
          456,
          449,
          443,
          440,
          440,
          441,
          440,
          439,
          439,
          437,
          434,
          433,
          431,
          425,
          423,
          424,
          416,
          415,
          412,
          412,
          414,
          415,
          417,
          419,
          422,
          423,
          424,
          425,
          427,
          429,
          430,
          429,
          425,
          419,
          406,
          401,
          401,
          403,
          406,
          411,
          414,
          417,
          418,
          419,
          419,
          421,
          422,
          422,
          423,
          422,
          421,
          418,
          417,
          417,
          417,
          417,
          410,
          404,
          391,
          377,
          370,
          376,
          381,
          385,
          375,
          375,
          376,
          375,
          376,
          372,
          371,
          370,
          370,
          370,
          369,
          370,
          371,
          364,
          357,
          357,
          365,
          376,
          382,
          390,
          396,
          398,
          397,
          396,
          395,
          394,
          394,
          395,
          396,
          395,
          394,
          393,
          391,
          381,
          380,
          386,
          399,
          401,
          398,
          395,
          393,
          393,
          392,
          390,
          384,
          380,
          377,
          375,
          367,
          355,
          335,
          321,
          319,
          324,
          324,
          317,
          322,
          323,
          297,
          276,
          265,
          273,
          276,
          277,
          275,
          268,
          263,
          260,
          257,
          255,
          251,
          243,
          233,
          224,
          218,
          217,
          223,
          228,
          237,
          237,
          240,
          241,
          240,
          222,
          214,
          202,
          188,
          176,
          178,
          175,
          180,
          177,
          161,
          150,
          124,
          126,
          129,
          123,
          115,
          114,
          113,
          114,
          115,
          119,
          120
        ],
        "speed_mph": [
          173.0,
          183.0,
          191.0,
          189.0,
          198.0,
          201.0,
          234.0,
          254.0,
          261.0,
          270.0,
          270.0,
          284.0,
          315.0,
          357.0,
          365.0,
          375.0,
          376.0,
          388.0,
          399.0,
          412.0,
          421.0,
          440.0,
          455.0,
          468.0,
          480.0,
          491.0,
          498.0,
          504.0,
          517.0,
          535.0,
          541.0,
          543.0,
          537.0,
          529.0,
          517.0,
          516.0,
          518.0,
          521.0,
          528.0,
          528.0,
          525.0,
          517.0,
          510.0,
          506.0,
          506.0,
          507.0,
          506.0,
          505.0,
          505.0,
          503.0,
          499.0,
          498.0,
          496.0,
          489.0,
          487.0,
          488.0,
          479.0,
          478.0,
          474.0,
          474.0,
          476.0,
          478.0,
          480.0,
          482.0,
          486.0,
          487.0,
          488.0,
          489.0,
          491.0,
          494.0,
          495.0,
          494.0,
          489.0,
          482.0,
          467.0,
          461.0,
          461.0,
          464.0,
          467.0,
          473.0,
          476.0,
          480.0,
          481.0,
          482.0,
          482.0,
          484.0,
          486.0,
          486.0,
          487.0,
          486.0,
          484.0,
          481.0,
          480.0,
          480.0,
          480.0,
          480.0,
          472.0,
          465.0,
          450.0,
          434.0,
          426.0,
          433.0,
          438.0,
          443.0,
          432.0,
          432.0,
          433.0,
          432.0,
          433.0,
          428.0,
          427.0,
          426.0,
          426.0,
          426.0,
          425.0,
          426.0,
          427.0,
          419.0,
          411.0,
          411.0,
          420.0,
          433.0,
          440.0,
          449.0,
          456.0,
          458.0,
          457.0,
          456.0,
          455.0,
          453.0,
          453.0,
          455.0,
          456.0,
          455.0,
          453.0,
          452.0,
          450.0,
          438.0,
          437.0,
          444.0,
          459.0,
          461.0,
          458.0,
          455.0,
          452.0,
          452.0,
          451.0,
          449.0,
          442.0,
          437.0,
          434.0,
          432.0,
          422.0,
          409.0,
          386.0,
          369.0,
          367.0,
          373.0,
          373.0,
          365.0,
          371.0,
          372.0,
          342.0,
          318.0,
          305.0,
          314.0,
          318.0,
          319.0,
          316.0,
          308.0,
          303.0,
          299.0,
          296.0,
          293.0,
          289.0,
          280.0,
          268.0,
          258.0,
          251.0,
          250.0,
          257.0,
          262.0,
          273.0,
          273.0,
          276.0,
          277.0,
          276.0,
          255.0,
          246.0,
          232.0,
          216.0,
          203.0,
          205.0,
          201.0,
          207.0,
          204.0,
          185.0,
          173.0,
          143.0,
          145.0,
          148.0,
          142.0,
          132.0,
          131.0,
          130.0,
          131.0,
          132.0,
          137.0,
          138.0
        ],
        "altitude_ft": [
          400,
          1150,
          2125,
          3150,
          3850,
          4650,
          5500,
          6400,
          7600,
          8625,
          9950,
          11675,
          12925,
          14050,
          15000,
          15750,
          16550,
          18100,
          19450,
          20700,
          22000,
          23100,
          24125,
          25125,
          26150,
          27200,
          28150,
          29175,
          29925,
          30325,
          31050,
          31775,
          32825,
          33925,
          35125,
          35975,
          36550,
          37050,
          37400,
          37850,
          38350,
          38975,
          39650,
          40225,
          40625,
          40925,
          41225,
          41550,
          41825,
          42100,
          42450,
          42725,
          42900,
          43000,
          43000,
          43000,
          43000,
          43000,
          43000,
          43000,
          43000,
          43000,
          43000,
          43000,
          43000,
          43000,
          43000,
          43000,
          43000,
          43000,
          43000,
          43000,
          43000,
          43000,
          43000,
          43000,
          43000,
          43000,
          43000,
          43000,
          43000,
          43000,
          43000,
          43000,
          43000,
          43000,
          43000,
          43000,
          43000,
          43000,
          43000,
          43000,
          43000,
          43000,
          43000,
          43000,
          42950,
          42275,
          41575,
          40975,
          40225,
          39525,
          38775,
          38225,
          38000,
          38000,
          38000,
          38000,
          38000,
          38000,
          38000,
          38000,
          38000,
          38000,
          38000,
          38000,
          38000,
          37950,
          37275,
          36600,
          36025,
          35225,
          34650,
          34150,
          34000,
          34000,
          34000,
          34000,
          34000,
          34000,
          34000,
          34000,
          34000,
          34000,
          34000,
          34000,
          34000,
          33425,
          32450,
          31475,
          30425,
          29425,
          28450,
          26875,
          25900,
          25100,
          24300,
          23325,
          22050,
          21375,
          20075,
          19325,
          17750,
          16350,
          15350,
          14400,
          13425,
          12425,
          11625,
          11025,
          11000,
          11000,
          10975,
          10675,
          10325,
          9975,
          9700,
          9175,
          8825,
          8300,
          7825,
          7525,
          7175,
          7000,
          7000,
          7000,
          7000,
          7000,
          7000,
          6850,
          6575,
          6300,
          6125,
          6000,
          5750,
          5450,
          5125,
          4575,
          4200,
          3975,
          3700,
          3425,
          3300,
          3175,
          3000,
          2800,
          2475,
          2175,
          1825,
          1450,
          1350,
          1275,
          1100,
          950,
          775,
          625,
          450,
          300,
          125
        ],
        "vertical_rate_fpm": [
          0.0,
          3234.0,
          3750.0,
          3234.0,
          2813.0,
          2829.0,
          2838.0,
          3150.0,
          3338.0,
          3439.0,
          3453.0,
          2975.0,
          2375.0,
          2541.0,
          2757.0,
          2583.0,
          2765.0,
          2762.0,
          2600.0,
          2550.0,
          2400.0,
          2125.0,
          2025.0,
          2025.0,
          2075.0,
          2000.0,
          1975.0,
          1775.0,
          1150.0,
          1125.0,
          1450.0,
          1775.0,
          2150.0,
          2300.0,
          2050.0,
          1425.0,
          1075.0,
          850.0,
          800.0,
          934.0,
          1107.0,
          1300.0,
          1230.0,
          959.0,
          700.0,
          600.0,
          625.0,
          600.0,
          550.0,
          625.0,
          625.0,
          563.0,
          471.0,
          182.0,
          0.0,
          0.0,
          0.0,
          0.0,
          0.0,
          0.0,
          0.0,
          0.0,
          0.0,
          0.0,
          0.0,
          0.0,
          0.0,
          0.0,
          0.0,
          0.0,
          0.0,
          0.0,
          0.0,
          0.0,
          0.0,
          0.0,
          0.0,
          0.0,
          0.0,
          0.0,
          0.0,
          0.0,
          0.0,
          0.0,
          0.0,
          0.0,
          0.0,
          0.0,
          0.0,
          0.0,
          0.0,
          0.0,
          0.0,
          0.0,
          0.0,
          -50.0,
          -725.0,
          -1375.0,
          -1444.0,
          -1500.0,
          -1450.0,
          -1450.0,
          -1500.0,
          -620.0,
          -193.0,
          0.0,
          0.0,
          0.0,
          0.0,
          0.0,
          0.0,
          0.0,
          0.0,
          0.0,
          0.0,
          0.0,
          -52.0,
          -725.0,
          -1421.0,
          -1442.0,
          -1500.0,
          -1422.0,
          -1112.0,
          -650.0,
          -101.0,
          0.0,
          0.0,
          0.0,
          0.0,
          0.0,
          0.0,
          0.0,
          0.0,
          0.0,
          0.0,
          0.0,
          -575.0,
          -1550.0,
          -1950.0,
          -2025.0,
          -2050.0,
          -1975.0,
          -1962.0,
          -1962.0,
          -1972.0,
          -2043.0,
          -2009.0,
          -1985.0,
          -1983.0,
          -2008.0,
          -2016.0,
          -1993.0,
          -2028.0,
          -2028.0,
          -1950.0,
          -1925.0,
          -1975.0,
          -1964.0,
          -1377.0,
          -536.0,
          -21.0,
          -22.0,
          -406.0,
          -1026.0,
          -1050.0,
          -987.0,
          -1000.0,
          -1029.0,
          -1029.0,
          -1053.0,
          -989.0,
          -951.0,
          -716.0,
          -269.0,
          0.0,
          0.0,
          0.0,
          0.0,
          -184.0,
          -464.0,
          -623.0,
          -563.0,
          -486.0,
          -682.0,
          -943.0,
          -962.0,
          -1050.0,
          -1028.0,
          -750.0,
          -600.0,
          -635.0,
          -558.0,
          -429.0,
          -500.0,
          -536.0,
          -716.0,
          -987.0,
          -886.0,
          -821.0,
          -814.0,
          -656.0,
          -625.0,
          -609.0,
          -609.0,
          -609.0,
          -609.0,
          -609.0,
          -609.0,
          -656.0
        ]
      }
    }
  ]
}