{
  "type": "FeatureCollection",
  "features": [
    {
      "type": "Feature",
      "geometry": {
        "type": "LineString",
        "coordinates": [
          [
            9.39949,
            51.420391
          ],
          [
            9.406969,
            51.420044
          ],
          [
            9.415131,
            51.419693
          ],
          [
            9.42276,
            51.419319
          ],
          [
            9.426938,
            51.419357
          ],
          [
            9.429387,
            51.419632
          ],
          [
            9.431688,
            51.42009
          ],
          [
            9.433915,
            51.420776
          ],
          [
            9.436736,
            51.422012
          ],
          [
            9.438518,
            51.423019
          ],
          [
            9.440077,
            51.424164
          ],
          [
            9.441681,
            51.425838
          ],
          [
            9.4426,
            51.427094
          ],
          [
            9.443565,
            51.428833
          ],
          [
            9.444122,
            51.430538
          ],
          [
            9.444427,
            51.432076
          ],
          [
            9.444456,
            51.434143
          ],
          [
            9.444234,
            51.435699
          ],
          [
            9.443789,
            51.437302
          ],
          [
            9.443046,
            51.439133
          ],
          [
            9.442229,
            51.440643
          ],
          [
            9.44119,
            51.442108
          ],
          [
            9.439928,
            51.443481
          ],
          [
            9.4384,
            51.444973
          ],
          [
            9.436736,
            51.446365
          ],
          [
            9.435029,
            51.44751
          ],
          [
            9.432728,
            51.448837
          ],
          [
            9.430723,
            51.449799
          ],
          [
            9.428496,
            51.450577
          ],
          [
            9.425964,
            51.451347
          ],
          [
            9.423599,
            51.451908
          ],
          [
            9.420624,
            51.452419
          ],
          [
            9.418106,
            51.452744
          ],
          [
            9.415877,
            51.452911
          ],
          [
            9.412613,
            51.453163
          ],
          [
            9.410095,
            51.453304
          ],
          [
            9.40712,
            51.453537
          ],
          [
            9.404817,
            51.45369
          ],
          [
            9.401703,
            51.453861
          ],
          [
            9.399027,
            51.45401
          ],
          [
            9.396577,
            51.454147
          ],
          [
            9.394127,
            51.454285
          ],
          [
            9.391306,
            51.454422
          ],
          [
            9.389377,
            51.454468
          ],
          [
            9.387001,
            51.454559
          ],
          [
            9.384308,
            51.454655
          ],
          [
            9.381359,
            51.454742
          ],
          [
            9.378983,
            51.454834
          ],
          [
            9.371115,
            51.455063
          ],
          [
            9.363632,
            51.455444
          ],
          [
            9.353745,
            51.455933
          ],
          [
            9.346248,
            51.456345
          ],
          [
            9.335707,
            51.45639
          ],
          [
            9.333267,
            51.456051
          ],
          [
            9.330956,
            51.455475
          ],
          [
            9.328506,
            51.454697
          ],
          [
            9.326353,
            51.453644
          ],
          [
            9.324795,
            51.452682
          ],
          [
            9.323502,
            51.451721
          ],
          [
            9.322048,
            51.450211
          ],
          [
            9.321157,
            51.448975
          ],
          [
            9.320489,
            51.44751
          ],
          [
            9.320068,
            51.44632
          ],
          [
            9.319598,
            51.444717
          ],
          [
            9.319305,
            51.44334
          ],
          [
            9.319077,
            51.442085
          ],
          [
            9.319,
            51.440548
          ],
          [
            9.319004,
            51.438721
          ],
          [
            9.319078,
            51.437485
          ],
          [
            9.319153,
            51.436081
          ],
          [
            9.319376,
            51.434509
          ],
          [
            9.319839,
            51.433147
          ],
          [
            9.32045,
            51.431938
          ],
          [
            9.321365,
            51.430588
          ],
          [
            9.322494,
            51.429382
          ],
          [
            9.323349,
            51.428726
          ],
          [
            9.325027,
            51.427654
          ],
          [
            9.327318,
            51.426544
          ],
          [
            9.328877,
            51.425903
          ],
          [
            9.330214,
            51.425446
          ],
          [
            9.332504,
            51.424908
          ],
          [
            9.335113,
            51.424438
          ],
          [
            9.337192,
            51.424118
          ],
          [
            9.338899,
            51.423889
          ],
          [
            9.341202,
            51.423603
          ],
          [
            9.342462,
            51.423431
          ],
          [
            9.344711,
            51.423233
          ],
          [
            9.350107,
            51.422928
          ],
          [
            9.351815,
            51.422882
          ],
          [
            9.354477,
            51.422859
          ],
          [
            9.356232,
            51.422764
          ],
          [
            9.360871,
            51.422516
          ]
        ]
      },
      "properties": {
        "time_europe_berlin": [
          "01.10.2025 10:41:05",
          "01.10.2025 10:41:11",
          "01.10.2025 10:41:18",
          "01.10.2025 10:41:25",
          "01.10.2025 10:41:28",
          "01.10.2025 10:41:30",
          "01.10.2025 10:41:32",
          "01.10.2025 10:41:34",
          "01.10.2025 10:41:37",
          "01.10.2025 10:41:39",
          "01.10.2025 10:41:41",
          "01.10.2025 10:41:43",
          "01.10.2025 10:41:46",
          "01.10.2025 10:41:48",
          "01.10.2025 10:41:50",
          "01.10.2025 10:41:52",
          "01.10.2025 10:41:54",
          "01.10.2025 10:41:56",
          "01.10.2025 10:41:59",
          "01.10.2025 10:42:01",
          "01.10.2025 10:42:03",
          "01.10.2025 10:42:05",
          "01.10.2025 10:42:07",
          "01.10.2025 10:42:09",
          "01.10.2025 10:42:11",
          "01.10.2025 10:42:13",
          "01.10.2025 10:42:16",
          "01.10.2025 10:42:18",
          "01.10.2025 10:42:20",
          "01.10.2025 10:42:22",
          "01.10.2025 10:42:24",
          "01.10.2025 10:42:26",
          "01.10.2025 10:42:28",
          "01.10.2025 10:42:30",
          "01.10.2025 10:42:33",
          "01.10.2025 10:42:35",
          "01.10.2025 10:42:37",
          "01.10.2025 10:42:39",
          "01.10.2025 10:42:41",
          "01.10.2025 10:42:43",
          "01.10.2025 10:42:45",
          "01.10.2025 10:42:48",
          "01.10.2025 10:42:50",
          "01.10.2025 10:42:52",
          "01.10.2025 10:42:54",
          "01.10.2025 10:42:56",
          "01.10.2025 10:42:58",
          "01.10.2025 10:43:00",
          "01.10.2025 10:43:07",
          "01.10.2025 10:43:14",
          "01.10.2025 10:43:22",
          "01.10.2025 10:43:29",
          "01.10.2025 10:43:38",
          "01.10.2025 10:43:40",
          "01.10.2025 10:43:43",
          "01.10.2025 10:43:45",
          "01.10.2025 10:43:47",
          "01.10.2025 10:43:49",
          "01.10.2025 10:43:51",
          "01.10.2025 10:43:54",
          "01.10.2025 10:43:56",
          "01.10.2025 10:43:58",
          "01.10.2025 10:44:00",
          "01.10.2025 10:44:02",
          "01.10.2025 10:44:04",
          "01.10.2025 10:44:07",
          "01.10.2025 10:44:09",
          "01.10.2025 10:44:12",
          "01.10.2025 10:44:14",
          "01.10.2025 10:44:16",
          "01.10.2025 10:44:19",
          "01.10.2025 10:44:21",
          "01.10.2025 10:44:23",
          "01.10.2025 10:44:25",
          "01.10.2025 10:44:28",
          "01.10.2025 10:44:30",
          "01.10.2025 10:44:32",
          "01.10.2025 10:44:34",
          "01.10.2025 10:44:36",
          "01.10.2025 10:44:39",
          "01.10.2025 10:44:41",
          "01.10.2025 10:44:43",
          "01.10.2025 10:44:46",
          "01.10.2025 10:44:48",
          "01.10.2025 10:44:50",
          "01.10.2025 10:44:53",
          "01.10.2025 10:44:55",
          "01.10.2025 10:45:01",
          "01.10.2025 10:45:03",
          "01.10.2025 10:45:06",
          "01.10.2025 10:45:08",
          "01.10.2025 10:45:14"
        ],
        "course_deg_clockwise_from_north": [
          94,
          94,
          94,
          92,
          87,
          77,
          68,
          60,
          53,
          43,
          36,
          29,
          22,
          17,
          11,
          6,
          1,
          354,
          349,
          345,
          339,
          335,
          329,
          325,
          321,
          316,
          311,
          305,
          300,
          294,
          290,
          283,
          279,
          277,
          276,
          276,
          276,
          275,
          275,
          275,
          275,
          274,
          274,
          273,
          273,
          272,
          272,
          272,
          273,
          274,
          275,
          274,
          260,
          254,
          247,
          241,
          233,
          223,
          216,
          209,
          199,
          196,
          191,
          189,
          187,
          185,
          180,
          179,
          177,
          177,
          173,
          169,
          160,
          154,
          147,
          140,
          130,
          125,
          123,
          115,
          107,
          104,
          103,
          102,
          101,
          100,
          98,
          94,
          92,
          92,
          94,
          95
        ],
        "speed_kts": [
          150,
          155,
          159,
          165,
          166,
          165,
          166,
          166,
          165,
          164,
          163,
          163,
          165,
          166,
          168,
          170,
          170,
          171,
          172,
          172,
          172,
          171,
          171,
          171,
          172,
          173,
          172,
          172,
          172,
          173,
          173,
          172,
          171,
          171,
          170,
          170,
          168,
          167,
          166,
          165,
          164,
          164,
          162,
          161,
          159,
          160,
          158,
          158,
          155,
          154,
          157,
          158,
          153,
          153,
          153,
          153,
          153,
          151,
          148,
          145,
          142,
          140,
          139,
          138,
          137,
          136,
          135,
          134,
          134,
          134,
          133,
          134,
          135,
          134,
          133,
          134,
          131,
          130,
          129,
          126,
          122,
          122,
          121,
          121,
          120,
          120,
          118,
          116,
          116,
          118,
          119,
          119
        ],
        "speed_mph": [
          173.0,
          178.0,
          183.0,
          190.0,
          191.0,
          190.0,
          191.0,
          191.0,
          190.0,
          189.0,
          188.0,
          188.0,
          190.0,
          191.0,
          193.0,
          196.0,
          196.0,
          197.0,
          198.0,
          198.0,
          198.0,
          197.0,
          197.0,
          197.0,
          198.0,
          199.0,
          198.0,
          198.0,
          198.0,
          199.0,
          199.0,
          198.0,
          197.0,
          197.0,
          196.0,
          196.0,
          193.0,
          192.0,
          191.0,
          190.0,
          189.0,
          189.0,
          186.0,
          185.0,
          183.0,
          184.0,
          182.0,
          182.0,
          178.0,
          177.0,
          181.0,
          182.0,
          176.0,
          176.0,
          176.0,
          176.0,
          176.0,
          174.0,
          170.0,
          167.0,
          163.0,
          161.0,
          160.0,
          159.0,
          158.0,
          157.0,
          155.0,
          154.0,
          154.0,
          154.0,
          153.0,
          154.0,
          155.0,
          154.0,
          153.0,
          154.0,
          151.0,
          150.0,
          148.0,
          145.0,
          140.0,
          140.0,
          139.0,
          139.0,
          138.0,
          138.0,
          136.0,
          133.0,
          133.0,
          136.0,
          137.0,
          137.0
        ],
        "altitude_ft": [
          700,
          975,
          1200,
          1375,
          1425,
          1425,
          1450,
          1450,
          1450,
          1450,
          1475,
          1475,
          1475,
          1450,
          1425,
          1400,
          1375,
          1375,
          1350,
          1325,
          1325,
          1325,
          1350,
          1350,
          1350,
          1350,
          1350,
          1350,
          1350,
          1325,
          1325,
          1350,
          1350,
          1350,
          1350,
          1350,
          1375,
          1400,
          1425,
          1450,
          1475,
          1475,
          1500,
          1500,
          1500,
          1525,
          1525,
          1525,
          1500,
          1500,
          1475,
          1475,
          1425,
          1400,
          1375,
          1325,
          1300,
          1275,
          1250,
          1250,
          1250,
          1225,
          1200,
          1175,
          1150,
          1150,
          1150,
          1125,
          1125,
          1125,
          1100,
          1075,
          1050,
          1025,
          1000,
          1000,
          1000,
          1000,
          1000,
          1000,
          1000,
          950,
          925,
          900,
          875,
          850,
          825,
          750,
          725,
          700,
          650,
          600
        ],
        "vertical_rate_fpm": [
          0.0,
          0.0,
          0.0,
          0.0,
          0.0,
          0.0,
          0.0,
          0.0,
          0.0,
          0.0,
          0.0,
          0.0,
          0.0,
          0.0,
          0.0,
          0.0,
          0.0,
          0.0,
          0.0,
          0.0,
          0.0,
          0.0,
          0.0,
          0.0,
          0.0,
          0.0,
          0.0,
          0.0,
          0.0,
          0.0,
          0.0,
          0.0,
          0.0,
          0.0,
          0.0,
          0.0,
          0.0,
          0.0,
          0.0,
          0.0,
          0.0,
          0.0,
          0.0,
          0.0,
          0.0,
          0.0,
          0.0,
          0.0,
          0.0,
          0.0,
          0.0,
          0.0,
          0.0,
          0.0,
          0.0,
          0.0,
          0.0,
          0.0,
          0.0,
          0.0,
          0.0,
          0.0,
          0.0,
          0.0,
          0.0,
          0.0,
          0.0,
          0.0,
          0.0,
          0.0,
          0.0,
          0.0,
          0.0,
          0.0,
          0.0,
          0.0,
          0.0,
          0.0,
          0.0,
          0.0,
          0.0,
          0.0,
          0.0,
          0.0,
          0.0,
          0.0,
          0.0,
          0.0,
          0.0,
          0.0,
          0.0,
          0.0
        ]
      }
    }
  ]
}