{
  "type": "FeatureCollection",
  "features": [
    {
      "type": "Feature",
      "geometry": {
        "type": "LineString",
        "coordinates": [
          [
            -2.2957,
            53.3392
          ],
          [
            -2.3119,
            53.3316
          ],
          [
            -2.3249,
            53.3251
          ],
          [
            -2.3405,
            53.3158
          ],
          [
            -2.3466,
            53.3025
          ],
          [
            -2.3428,
            53.2857
          ],
          [
            -2.3351,
            53.2653
          ],
          [
            -2.3296,
            53.2407
          ],
          [
            -2.3242,
            53.2131
          ],
          [
            -2.3192,
            53.1846
          ],
          [
            -2.304,
            53.0772
          ],
          [
            -2.2981,
            53.0285
          ],
          [
            -2.2939,
            52.9986
          ],
          [
            -2.2771,
            52.966
          ],
          [
            -2.2286,
            52.9007
          ],
          [
            -2.189,
            52.8637
          ],
          [
            -2.1561,
            52.8391
          ],
          [
            -2.1037,
            52.8017
          ],
          [
            -2.0325,
            52.7505
          ],
          [
            -1.9821,
            52.7183
          ],
          [
            -1.9254,
            52.6834
          ],
          [
            -1.8637,
            52.6458
          ],
          [
            -1.8036,
            52.609
          ],
          [
            -1.7414,
            52.571
          ],
          [
            -1.6842,
            52.536
          ],
          [
            -1.6275,
            52.5017
          ],
          [
            -1.5676,
            52.4652
          ],
          [
            -1.5029,
            52.4253
          ],
          [
            -1.4397,
            52.3865
          ],
          [
            -1.3778,
            52.3492
          ],
          [
            -1.3147,
            52.311
          ],
          [
            -1.2541,
            52.2745
          ],
          [
            -1.1932,
            52.2377
          ],
          [
            -1.1316,
            52.2008
          ],
          [
            -1.0859,
            52.1741
          ],
          [
            -1.0454,
            52.1505
          ],
          [
            -0.9871,
            52.1153
          ],
          [
            -0.9291,
            52.0804
          ],
          [
            -0.8747,
            52.0472
          ],
          [
            -0.8193,
            52.0127
          ],
          [
            -0.7535,
            51.9708
          ],
          [
            -0.7118,
            51.9447
          ],
          [
            -0.6808,
            51.9323
          ],
          [
            -0.6354,
            51.9297
          ],
          [
            -0.5949,
            51.9314
          ],
          [
            -0.5437,
            51.9343
          ],
          [
            -0.5062,
            51.9378
          ],
          [
            -0.4766,
            51.9418
          ],
          [
            -0.4435,
            51.947
          ],
          [
            -0.4104,
            51.9575
          ],
          [
            -0.3756,
            51.9702
          ],
          [
            -0.3471,
            51.9807
          ],
          [
            -0.3167,
            51.9869
          ],
          [
            -0.2868,
            51.9856
          ],
          [
            -0.2554,
            51.9835
          ],
          [
            -0.2271,
            51.9816
          ],
          [
            -0.2162,
            51.9808
          ],
          [
            -0.1798,
            51.9783
          ],
          [
            -0.1547,
            51.975
          ],
          [
            -0.1378,
            51.9624
          ],
          [
            -0.1296,
            51.9486
          ],
          [
            -0.1293,
            51.9355
          ],
          [
            -0.1405,
            51.9239
          ],
          [
            -0.155,
            51.9136
          ],
          [
            -0.1757,
            51.9075
          ],
          [
            -0.2125,
            51.901
          ],
          [
            -0.2451,
            51.8958
          ],
          [
            -0.256,
            51.8939
          ],
          [
            -0.261,
            51.893
          ],
          [
            -0.2753,
            51.8907
          ],
          [
            -0.2898,
            51.8881
          ],
          [
            -0.3032,
            51.8859
          ],
          [
            -0.316,
            51.8838
          ],
          [
            -0.3287,
            51.8815
          ],
          [
            -0.3428,
            51.8792
          ]
        ]
      },
      "properties": {
        "time_europe_berlin": [
          "29.10.2025 18:42:28",
          "29.10.2025 18:42:44",
          "29.10.2025 18:43:00",
          "29.10.2025 18:43:16",
          "29.10.2025 18:43:32",
          "29.10.2025 18:43:49",
          "29.10.2025 18:44:10",
          "29.10.2025 18:44:31",
          "29.10.2025 18:44:55",
          "29.10.2025 18:45:15",
          "29.10.2025 18:46:32",
          "29.10.2025 18:47:02",
          "29.10.2025 18:47:21",
          "29.10.2025 18:47:40",
          "29.10.2025 18:48:22",
          "29.10.2025 18:48:47",
          "29.10.2025 18:49:05",
          "29.10.2025 18:49:33",
          "29.10.2025 18:50:10",
          "29.10.2025 18:50:35",
          "29.10.2025 18:51:03",
          "29.10.2025 18:51:33",
          "29.10.2025 18:52:03",
          "29.10.2025 18:52:33",
          "29.10.2025 18:53:03",
          "29.10.2025 18:53:31",
          "29.10.2025 18:54:01",
          "29.10.2025 18:54:31",
          "29.10.2025 18:55:01",
          "29.10.2025 18:55:31",
          "29.10.2025 18:56:01",
          "29.10.2025 18:56:31",
          "29.10.2025 18:57:01",
          "29.10.2025 18:57:31",
          "29.10.2025 18:57:54",
          "29.10.2025 18:58:17",
          "29.10.2025 18:58:47",
          "29.10.2025 18:59:17",
          "29.10.2025 18:59:47",
          "29.10.2025 19:00:17",
          "29.10.2025 19:00:55",
          "29.10.2025 19:01:21",
          "29.10.2025 19:01:39",
          "29.10.2025 19:01:59",
          "29.10.2025 19:02:18",
          "29.10.2025 19:02:41",
          "29.10.2025 19:02:58",
          "29.10.2025 19:03:14",
          "29.10.2025 19:03:31",
          "29.10.2025 19:03:50",
          "29.10.2025 19:04:10",
          "29.10.2025 19:04:27",
          "29.10.2025 19:04:43",
          "29.10.2025 19:04:59",
          "29.10.2025 19:05:15",
          "29.10.2025 19:05:31",
          "29.10.2025 19:05:37",
          "29.10.2025 19:05:57",
          "29.10.2025 19:06:13",
          "29.10.2025 19:06:31",
          "29.10.2025 19:06:47",
          "29.10.2025 19:07:03",
          "29.10.2025 19:07:19",
          "29.10.2025 19:07:35",
          "29.10.2025 19:07:54",
          "29.10.2025 19:08:24",
          "29.10.2025 19:08:54",
          "29.10.2025 19:09:04",
          "29.10.2025 19:09:10",
          "29.10.2025 19:09:26",
          "29.10.2025 19:09:42",
          "29.10.2025 19:09:58",
          "29.10.2025 19:10:14",
          "29.10.2025 19:10:30",
          "29.10.2025 19:10:46"
        ],
        "course_deg_clockwise_from_north": [
          "232",
          "232",
          "229",
          "214",
          "183",
          "165",
          "171",
          "173",
          "174",
          "174",
          "176",
          "175",
          "173",
          "157",
          "155",
          "143",
          "140",
          "139",
          "138",
          "135",
          "135",
          "135",
          "135",
          "135",
          "135",
          "135",
          "135",
          "135",
          "135",
          "134",
          "135",
          "134",
          "135",
          "134",
          "133",
          "133",
          "135",
          "134",
          "135",
          "136",
          "136",
          "134",
          "110",
          "87",
          "85",
          "85",
          "79",
          "77",
          "69",
          "60",
          "59",
          "60",
          "88",
          "96",
          "96",
          "96",
          "96",
          "97",
          "112",
          "157",
          "162",
          "200",
          "215",
          "237",
          "251",
          "256",
          "255",
          "254",
          "254",
          "254",
          "255",
          "254",
          "255",
          "254",
          "255"
        ],
        "speed_kts": [
          "145",
          "148",
          "161",
          "184",
          "202",
          "221",
          "232",
          "249",
          "275",
          "290",
          "338",
          "350",
          "352",
          "360",
          "378",
          "393",
          "389",
          "388",
          "386",
          "382",
          "377",
          "376",
          "377",
          "378",
          "376",
          "376",
          "382",
          "391",
          "389",
          "388",
          "387",
          "386",
          "385",
          "364",
          "356",
          "352",
          "349",
          "347",
          "342",
          "344",
          "318",
          "301",
          "302",
          "296",
          "290",
          "284",
          "279",
          "276",
          "272",
          "262",
          "262",
          "260",
          "262",
          "260",
          "258",
          "247",
          "242",
          "223",
          "210",
          "199",
          "199",
          "188",
          "187",
          "173",
          "162",
          "153",
          "153",
          "141",
          "134",
          "123",
          "117",
          "116",
          "113",
          "119",
          "124"
        ],
        "speed_mph": [
          "167",
          "170",
          "185",
          "212",
          "232",
          "254",
          "267",
          "287",
          "316",
          "334",
          "389",
          "403",
          "405",
          "414",
          "435",
          "452",
          "448",
          "447",
          "444",
          "440",
          "434",
          "433",
          "434",
          "435",
          "433",
          "433",
          "440",
          "450",
          "448",
          "447",
          "445",
          "444",
          "443",
          "419",
          "410",
          "405",
          "402",
          "399",
          "394",
          "396",
          "366",
          "346",
          "348",
          "341",
          "334",
          "327",
          "321",
          "318",
          "313",
          "302",
          "302",
          "299",
          "302",
          "299",
          "297",
          "284",
          "278",
          "257",
          "242",
          "229",
          "229",
          "216",
          "215",
          "199",
          "186",
          "176",
          "176",
          "162",
          "154",
          "142",
          "135",
          "133",
          "130",
          "137",
          "143"
        ],
        "altitude_ft": [
          "1350",
          "2500",
          "3300",
          "4075",
          "4775",
          "5525",
          "6375",
          "7325",
          "8500",
          "9575",
          "13375",
          "14900",
          "15575",
          "16225",
          "17650",
          "18450",
          "18850",
          "19000",
          "19000",
          "19000",
          "19000",
          "19000",
          "19000",
          "19000",
          "19000",
          "19000",
          "19000",
          "19000",
          "19000",
          "19000",
          "19000",
          "19000",
          "18575",
          "17675",
          "16900",
          "16150",
          "15125",
          "14100",
          "12825",
          "11600",
          "10625",
          "9975",
          "9575",
          "9050",
          "8575",
          "7975",
          "7550",
          "7150",
          "6725",
          "6450",
          "6275",
          "5850",
          "5500",
          "5425",
          "5400",
          "5250",
          "5125",
          "4750",
          "4500",
          "4275",
          "4025",
          "3775",
          "3525",
          "3425",
          "3200",
          "2775",
          "2350",
          "2250",
          "2150",
          "1975",
          "1825",
          "1625",
          "1475",
          "1325",
          "1150"
        ],
        "vertical_rate_fpm": [
          "",
          "3656",
          "2953",
          "2766",
          "2636",
          "2526",
          "2571",
          "2833",
          "3068",
          "3015",
          "2986",
          "2694",
          "2092",
          "2041",
          "1993",
          "1674",
          "717",
          "138",
          "",
          "",
          "",
          "",
          "",
          "",
          "",
          "",
          "",
          "",
          "",
          "",
          "",
          "-425",
          "-1325",
          "-1896",
          "-1989",
          "-2009",
          "-2050",
          "-2300",
          "-2500",
          "-1941",
          "-1523",
          "-1432",
          "-1461",
          "-1538",
          "-1536",
          "-1538",
          "-1500",
          "-1500",
          "-1167",
          "-692",
          "-973",
          "-1409",
          "-797",
          "-188",
          "-328",
          "-750",
          "-1154",
          "-1042",
          "-838",
          "-838",
          "-938",
          "-938",
          "-656",
          "-557",
          "-796",
          "-850",
          "-788",
          "-750",
          "-750",
          "-609",
          "-656",
          "-656",
          "-563",
          "-609",
          "-656"
        ],
        "reporting_facility": [
          "FlightAware ADS-B(EGOW)",
          "FlightAware ADS-B(EGBO)",
          "FlightAware ADS-B(MAN / EGCC)",
          "FlightAware ADS-B(CEG / EGNR)",
          "FlightAware ADS-B(MAN / EGCC)",
          "FlightAware ADS-B(BHX / EGBB)",
          "FlightAware ADS-B(MAN / EGCC)",
          "FlightAware ADS-B(EMA / EGNX)",
          "FlightAware ADS-B(EGWC)",
          "FlightAware ADS-B(MAN / EGCC)",
          "FlightAware ADS-B(GLO / EGBJ)",
          "FlightAware ADS-B(EGOS)",
          "FlightAware ADS-B(EGBM)",
          "FlightAware ADS-B(DSA / EGCN)",
          "FlightAware ADS-B(DSA / EGCN)",
          "FlightAware ADS-B(BRS / EGGD)",
          "FlightAware ADS-B(EGBS)",
          "FlightAware ADS-B(ORM / EGBK)",
          "FlightAware ADS-B(CVT / EGBE)",
          "FlightAware ADS-B(MAN / EGCC)",
          "FlightAware ADS-B(EMA / EGNX)",
          "FlightAware ADS-B(EGBW)",
          "FlightAware ADS-B(MAN / EGCC)",
          "FlightAware ADS-B(CEG / EGNR)",
          "FlightAware ADS-B(EGBW)",
          "FlightAware ADS-B(EGFP)",
          "FlightAware ADS-B(ORM / EGBK)",
          "FlightAware ADS-B(ORM / EGBK)",
          "FlightAware ADS-B(EGHA)",
          "FlightAware ADS-B(EGTF)",
          "FlightAware ADS-B(LCY / EGLC)",
          "FlightAware ADS-B(EGNO)",
          "FlightAware ADS-B(EGCJ)",
          "FlightAware ADS-B(EGSF)",
          "FlightAware ADS-B(ORM / EGBK)",
          "FlightAware ADS-B(EGNE)",
          "FlightAware ADS-B(EGBO)",
          "FlightAware ADS-B(EGHF)",
          "FlightAware ADS-B(HUY / EGNJ)",
          "FlightAware ADS-B(EGBW)",
          "FlightAware ADS-B(DSA / EGCN)",
          "FlightAware ADS-B(EGBT)",
          "FlightAware ADS-B(HYC / EGTB)",
          "FlightAware ADS-B(LKZ / EGUL)",
          "FlightAware ADS-B(LHR / EGLL)",
          "FlightAware ADS-B(HYC / EGTB)",
          "FlightAware ADS-B(FZO / EGTG)",
          "FlightAware ADS-B(EGTC)",
          "FlightAware ADS-B(LHR / EGLL)",
          "FlightAware ADS-B(QUY / EGUY)",
          "FlightAware ADS-B(OXF / EGTK)",
          "FlightAware ADS-B(LCY / EGLC)",
          "FlightAware ADS-B(EGLJ)",
          "FlightAware ADS-B(KNF / EGYM)",
          "FlightAware ADS-B(NQT / EGBN)",
          "FlightAware ADS-B(NHT / EGWU)",
          "Surface and Near-Surface",
          "FlightAware ADS-B(EGWE)",
          "FlightAware ADS-B(EGTC)",
          "FlightAware ADS-B(EGCG)",
          "FlightAware ADS-B(STN / EGSS)",
          "FlightAware ADS-B(EGTH)",
          "FlightAware ADS-B(EGTC)",
          "FlightAware ADS-B(LCY / EGLC)",
          "FlightAware ADS-B(EGLD)",
          "FlightAware ADS-B(EGSG)",
          "FlightAware ADS-B(EGTC)",
          "Surface and Near-Surface",
          "FlightAware ADS-B(EGTF)",
          "FlightAware ADS-B(EGLG)",
          "FlightAware ADS-B(EGSU)",
          "FlightAware ADS-B(EGSU)",
          "FlightAware ADS-B(LCY / EGLC)",
          "FlightAware ADS-B(EGTC)",
          "FlightAware ADS-B(LTN / EGGW)"
        ]
      }
    }
  ]
}