{
  "type": "FeatureCollection",
  "features": [
    {
      "type": "Feature",
      "geometry": {
        "type": "LineString",
        "coordinates": [
          [
            30.9097,
            37.3194
          ],
          [
            30.8931,
            37.3775
          ],
          [
            30.8735,
            37.4441
          ],
          [
            30.8561,
            37.5057
          ],
          [
            30.8378,
            37.567
          ],
          [
            30.8127,
            37.6302
          ],
          [
            30.781,
            37.6893
          ],
          [
            30.7498,
            37.7488
          ],
          [
            30.7188,
            37.8053
          ],
          [
            30.6866,
            37.8642
          ],
          [
            30.6553,
            37.9208
          ],
          [
            30.6212,
            37.9827
          ],
          [
            30.5882,
            38.0426
          ],
          [
            30.5534,
            38.1061
          ],
          [
            30.5225,
            38.1619
          ],
          [
            30.4897,
            38.2212
          ],
          [
            30.4597,
            38.2766
          ],
          [
            30.4234,
            38.3416
          ],
          [
            30.3929,
            38.3968
          ],
          [
            30.3607,
            38.4559
          ],
          [
            30.3303,
            38.5096
          ],
          [
            30.2939,
            38.5757
          ],
          [
            30.2628,
            38.6304
          ],
          [
            30.2257,
            38.6957
          ],
          [
            30.1918,
            38.7578
          ],
          [
            30.157,
            38.8193
          ],
          [
            30.1237,
            38.8773
          ],
          [
            30.0903,
            38.9378
          ],
          [
            30.0571,
            38.9948
          ],
          [
            30.026,
            39.0523
          ],
          [
            29.9922,
            39.1112
          ],
          [
            29.9599,
            39.1679
          ],
          [
            29.9235,
            39.2309
          ],
          [
            29.8882,
            39.2926
          ],
          [
            29.8576,
            39.3482
          ],
          [
            29.826,
            39.4023
          ],
          [
            29.7935,
            39.4586
          ],
          [
            29.7591,
            39.5192
          ],
          [
            29.7255,
            39.5778
          ],
          [
            29.6921,
            39.6357
          ],
          [
            29.6586,
            39.6939
          ],
          [
            29.6254,
            39.7517
          ],
          [
            29.5933,
            39.8083
          ],
          [
            29.5602,
            39.8646
          ],
          [
            29.5224,
            39.9281
          ],
          [
            29.4902,
            39.9871
          ],
          [
            29.4546,
            40.0449
          ],
          [
            29.4217,
            40.1027
          ],
          [
            29.3897,
            40.1576
          ],
          [
            29.3527,
            40.2211
          ],
          [
            29.3196,
            40.2758
          ],
          [
            29.2704,
            40.3599
          ],
          [
            29.2375,
            40.4156
          ],
          [
            29.2026,
            40.4704
          ],
          [
            29.1668,
            40.5334
          ],
          [
            29.1306,
            40.5945
          ],
          [
            29.0967,
            40.6513
          ],
          [
            29.0614,
            40.7107
          ],
          [
            29.0273,
            40.767
          ],
          [
            28.9939,
            40.8236
          ],
          [
            28.9583,
            40.8826
          ],
          [
            28.9257,
            40.9381
          ],
          [
            28.8898,
            40.998
          ],
          [
            28.8557,
            41.0546
          ],
          [
            28.8191,
            41.1118
          ],
          [
            28.7886,
            41.1672
          ],
          [
            28.7482,
            41.231
          ],
          [
            28.7143,
            41.2863
          ],
          [
            28.6781,
            41.3472
          ],
          [
            28.6431,
            41.4052
          ],
          [
            28.6054,
            41.4667
          ],
          [
            28.5758,
            41.5155
          ],
          [
            28.5398,
            41.5715
          ],
          [
            28.5018,
            41.6354
          ],
          [
            28.4656,
            41.6943
          ],
          [
            28.4269,
            41.757
          ],
          [
            28.3888,
            41.8167
          ],
          [
            28.3494,
            41.8821
          ],
          [
            28.3147,
            41.9373
          ],
          [
            28.294,
            41.967
          ],
          [
            28.2439,
            42.0157
          ],
          [
            28.1779,
            42.0649
          ],
          [
            28.1197,
            42.1051
          ],
          [
            28.0605,
            42.146
          ],
          [
            27.9941,
            42.193
          ],
          [
            27.9322,
            42.2379
          ],
          [
            27.8669,
            42.2844
          ],
          [
            27.8067,
            42.3279
          ],
          [
            27.7466,
            42.3708
          ],
          [
            27.6843,
            42.4156
          ],
          [
            27.6208,
            42.46
          ],
          [
            27.5614,
            42.502
          ],
          [
            27.5021,
            42.5438
          ],
          [
            27.4412,
            42.5869
          ],
          [
            27.3812,
            42.6289
          ],
          [
            27.3231,
            42.6693
          ],
          [
            27.2585,
            42.7154
          ],
          [
            27.1934,
            42.7605
          ],
          [
            27.1273,
            42.8069
          ],
          [
            27.0692,
            42.8477
          ],
          [
            27.0061,
            42.8907
          ],
          [
            26.9409,
            42.9365
          ],
          [
            26.8808,
            42.9776
          ],
          [
            26.8185,
            43.0207
          ],
          [
            26.7566,
            43.0635
          ],
          [
            26.6886,
            43.1101
          ],
          [
            26.6264,
            43.1528
          ],
          [
            26.5677,
            43.1938
          ],
          [
            26.5068,
            43.2351
          ],
          [
            26.4423,
            43.2782
          ],
          [
            26.3782,
            43.3219
          ],
          [
            26.3145,
            43.3648
          ],
          [
            26.2554,
            43.4049
          ],
          [
            26.1865,
            43.4514
          ],
          [
            26.1247,
            43.4936
          ],
          [
            26.0564,
            43.5396
          ],
          [
            25.995,
            43.58
          ],
          [
            25.9306,
            43.6233
          ],
          [
            25.8693,
            43.6642
          ],
          [
            25.8036,
            43.7081
          ],
          [
            25.7411,
            43.7494
          ],
          [
            25.6749,
            43.7926
          ],
          [
            25.6108,
            43.8358
          ],
          [
            25.5432,
            43.8798
          ],
          [
            25.4753,
            43.9247
          ],
          [
            25.4053,
            43.9703
          ],
          [
            25.339,
            44.01
          ],
          [
            25.2745,
            44.048
          ],
          [
            25.2087,
            44.0876
          ],
          [
            25.1397,
            44.1293
          ],
          [
            25.0693,
            44.171
          ],
          [
            25.0022,
            44.2107
          ],
          [
            24.9357,
            44.2501
          ],
          [
            24.869,
            44.289
          ],
          [
            24.8024,
            44.3287
          ],
          [
            24.7374,
            44.3671
          ],
          [
            24.6739,
            44.4046
          ],
          [
            24.611,
            44.4421
          ],
          [
            24.5442,
            44.4807
          ],
          [
            24.4788,
            44.5185
          ],
          [
            24.4123,
            44.5577
          ],
          [
            24.3445,
            44.5966
          ],
          [
            24.2769,
            44.635
          ],
          [
            24.2118,
            44.6735
          ],
          [
            24.137,
            44.7172
          ],
          [
            24.0679,
            44.7565
          ],
          [
            24.0011,
            44.7951
          ],
          [
            23.9298,
            44.8354
          ],
          [
            23.8595,
            44.8754
          ],
          [
            23.7917,
            44.9145
          ],
          [
            23.7248,
            44.952
          ],
          [
            23.6584,
            44.9901
          ],
          [
            23.5925,
            45.0269
          ],
          [
            23.528,
            45.0632
          ],
          [
            23.4595,
            45.1017
          ],
          [
            23.3913,
            45.1403
          ],
          [
            23.3224,
            45.1792
          ],
          [
            23.2561,
            45.2161
          ],
          [
            23.1895,
            45.2534
          ],
          [
            23.1221,
            45.2916
          ],
          [
            23.0526,
            45.329
          ],
          [
            22.9809,
            45.368
          ],
          [
            22.9096,
            45.4086
          ],
          [
            22.8383,
            45.4472
          ],
          [
            22.7708,
            45.4835
          ],
          [
            22.6991,
            45.5228
          ],
          [
            22.6319,
            45.5606
          ],
          [
            22.5639,
            45.5978
          ],
          [
            22.4927,
            45.6351
          ],
          [
            22.4254,
            45.6724
          ],
          [
            22.3491,
            45.7137
          ],
          [
            22.2803,
            45.7511
          ],
          [
            22.2144,
            45.7866
          ],
          [
            22.1387,
            45.8277
          ],
          [
            22.0677,
            45.8654
          ],
          [
            21.994,
            45.9045
          ],
          [
            21.9191,
            45.9448
          ],
          [
            21.8529,
            45.9808
          ],
          [
            21.7796,
            46.0183
          ],
          [
            21.7137,
            46.0537
          ],
          [
            21.6456,
            46.0896
          ],
          [
            21.569,
            46.1299
          ],
          [
            21.4936,
            46.1696
          ],
          [
            21.4244,
            46.2053
          ],
          [
            21.3518,
            46.2445
          ],
          [
            21.2802,
            46.2818
          ],
          [
            21.2112,
            46.3165
          ],
          [
            21.137,
            46.354
          ],
          [
            21.0656,
            46.3926
          ],
          [
            20.9952,
            46.4282
          ],
          [
            20.9212,
            46.4667
          ],
          [
            20.8533,
            46.5009
          ],
          [
            20.7763,
            46.5405
          ],
          [
            20.7059,
            46.5767
          ],
          [
            20.6332,
            46.6136
          ],
          [
            20.5638,
            46.6487
          ],
          [
            20.4964,
            46.6833
          ],
          [
            20.4264,
            46.7179
          ],
          [
            20.352,
            46.7559
          ],
          [
            20.2839,
            46.7899
          ],
          [
            20.2088,
            46.8276
          ],
          [
            20.1315,
            46.8663
          ],
          [
            20.054,
            46.9057
          ],
          [
            19.982,
            46.9412
          ],
          [
            19.9078,
            46.9771
          ],
          [
            19.8326,
            47.0148
          ],
          [
            19.758,
            47.0518
          ],
          [
            19.6853,
            47.087
          ],
          [
            19.6176,
            47.1212
          ],
          [
            19.5396,
            47.1591
          ],
          [
            19.4582,
            47.1984
          ],
          [
            19.3861,
            47.2336
          ],
          [
            19.317,
            47.2672
          ],
          [
            19.2469,
            47.3007
          ],
          [
            19.1771,
            47.3346
          ],
          [
            19.1051,
            47.3688
          ],
          [
            19.0349,
            47.4037
          ],
          [
            18.9627,
            47.4387
          ],
          [
            18.8905,
            47.4713
          ],
          [
            18.8143,
            47.5085
          ],
          [
            18.7433,
            47.5425
          ],
          [
            18.6661,
            47.5795
          ],
          [
            18.5968,
            47.6121
          ],
          [
            18.5229,
            47.6491
          ],
          [
            18.4443,
            47.6849
          ],
          [
            18.3674,
            47.7201
          ],
          [
            18.2982,
            47.7501
          ],
          [
            18.2184,
            47.7815
          ],
          [
            18.1397,
            47.8114
          ],
          [
            18.0635,
            47.839
          ],
          [
            17.9818,
            47.8716
          ],
          [
            17.9134,
            47.8994
          ],
          [
            17.8351,
            47.9255
          ],
          [
            17.7879,
            47.9403
          ],
          [
            17.69,
            47.9797
          ],
          [
            17.6135,
            48.0087
          ],
          [
            17.5302,
            48.0401
          ],
          [
            17.4451,
            48.0714
          ],
          [
            17.3636,
            48.1013
          ],
          [
            17.2752,
            48.1345
          ],
          [
            17.1914,
            48.1654
          ],
          [
            17.1158,
            48.1991
          ],
          [
            17.0415,
            48.2342
          ],
          [
            16.9671,
            48.2677
          ],
          [
            16.8907,
            48.3022
          ],
          [
            16.8159,
            48.3358
          ],
          [
            16.7384,
            48.3707
          ],
          [
            16.6623,
            48.4048
          ],
          [
            16.5894,
            48.4378
          ],
          [
            16.5087,
            48.4729
          ],
          [
            16.427,
            48.5094
          ],
          [
            16.3527,
            48.5429
          ],
          [
            16.2799,
            48.5744
          ],
          [
            16.2067,
            48.6065
          ],
          [
            16.1361,
            48.6387
          ],
          [
            16.0524,
            48.6745
          ],
          [
            15.9772,
            48.7073
          ],
          [
            15.9003,
            48.7409
          ],
          [
            15.8275,
            48.7724
          ],
          [
            15.7465,
            48.8078
          ],
          [
            15.6728,
            48.8391
          ],
          [
            15.5964,
            48.8721
          ],
          [
            15.5164,
            48.9074
          ],
          [
            15.4349,
            48.942
          ],
          [
            15.36,
            48.974
          ],
          [
            15.2791,
            49.0088
          ],
          [
            15.2013,
            49.0412
          ],
          [
            15.1264,
            49.073
          ],
          [
            15.0459,
            49.1061
          ],
          [
            14.9685,
            49.1374
          ],
          [
            14.8881,
            49.1722
          ],
          [
            14.8115,
            49.2051
          ],
          [
            14.7356,
            49.2368
          ],
          [
            14.6595,
            49.2688
          ],
          [
            14.5724,
            49.3048
          ],
          [
            14.4896,
            49.3387
          ],
          [
            14.4016,
            49.3718
          ],
          [
            14.3135,
            49.3994
          ],
          [
            14.2309,
            49.4248
          ],
          [
            14.1492,
            49.45
          ],
          [
            14.0668,
            49.4754
          ],
          [
            13.9831,
            49.501
          ],
          [
            13.8972,
            49.5306
          ],
          [
            13.8168,
            49.5565
          ],
          [
            13.7261,
            49.5848
          ],
          [
            13.6461,
            49.6098
          ],
          [
            13.5602,
            49.6364
          ],
          [
            13.4665,
            49.6656
          ],
          [
            13.3816,
            49.6921
          ],
          [
            13.2985,
            49.7182
          ],
          [
            13.2141,
            49.7445
          ],
          [
            13.1316,
            49.7701
          ],
          [
            13.0424,
            49.7976
          ],
          [
            12.9609,
            49.8225
          ],
          [
            12.8781,
            49.848
          ],
          [
            12.7965,
            49.8723
          ],
          [
            12.7081,
            49.8993
          ],
          [
            12.6251,
            49.9244
          ],
          [
            12.5419,
            49.9493
          ],
          [
            12.4579,
            49.9746
          ],
          [
            12.3663,
            50.0015
          ],
          [
            12.2804,
            50.0266
          ],
          [
            12.1919,
            50.0537
          ],
          [
            12.1052,
            50.0801
          ],
          [
            12.0174,
            50.105
          ],
          [
            11.9234,
            50.1325
          ],
          [
            11.8361,
            50.1578
          ],
          [
            11.7482,
            50.1835
          ],
          [
            11.6662,
            50.2071
          ],
          [
            11.5838,
            50.232
          ],
          [
            11.4957,
            50.258
          ],
          [
            11.4104,
            50.2813
          ],
          [
            11.3267,
            50.305
          ],
          [
            11.2438,
            50.3281
          ],
          [
            11.1617,
            50.3517
          ],
          [
            11.0833,
            50.3749
          ],
          [
            10.9936,
            50.3992
          ],
          [
            10.9109,
            50.4224
          ],
          [
            10.8219,
            50.4422
          ],
          [
            10.7377,
            50.4545
          ],
          [
            10.6479,
            50.4699
          ],
          [
            10.5639,
            50.4853
          ],
          [
            10.4684,
            50.5032
          ],
          [
            10.3819,
            50.5202
          ],
          [
            10.294,
            50.5371
          ],
          [
            10.1998,
            50.5535
          ],
          [
            10.1097,
            50.5691
          ],
          [
            10.0289,
            50.5806
          ],
          [
            9.9219,
            50.5906
          ],
          [
            9.8129,
            50.5927
          ],
          [
            9.7138,
            50.5967
          ],
          [
            9.6159,
            50.6012
          ],
          [
            9.5171,
            50.6056
          ],
          [
            9.4193,
            50.6103
          ],
          [
            9.3211,
            50.6149
          ],
          [
            9.2247,
            50.6196
          ],
          [
            9.1297,
            50.6221
          ],
          [
            9.0334,
            50.6255
          ],
          [
            8.9397,
            50.6304
          ],
          [
            8.8483,
            50.6339
          ],
          [
            8.7531,
            50.6355
          ],
          [
            8.6503,
            50.641
          ],
          [
            8.5584,
            50.6471
          ],
          [
            8.4632,
            50.6497
          ],
          [
            8.3767,
            50.6534
          ],
          [
            8.2801,
            50.6562
          ],
          [
            8.1878,
            50.6576
          ],
          [
            8.0967,
            50.6621
          ],
          [
            8.0019,
            50.664
          ],
          [
            7.9205,
            50.6673
          ],
          [
            7.835,
            50.6698
          ],
          [
            7.7461,
            50.6717
          ],
          [
            7.6662,
            50.6742
          ],
          [
            7.5792,
            50.6771
          ],
          [
            7.5017,
            50.6786
          ],
          [
            7.4191,
            50.6809
          ],
          [
            7.3778,
            50.6827
          ],
          [
            7.2986,
            50.6842
          ],
          [
            7.2588,
            50.6854
          ],
          [
            7.1766,
            50.6875
          ],
          [
            7.1026,
            50.6898
          ],
          [
            7.0325,
            50.6912
          ],
          [
            6.9963,
            50.6923
          ],
          [
            6.9629,
            50.6923
          ],
          [
            6.9284,
            50.6929
          ],
          [
            6.8943,
            50.694
          ],
          [
            6.8685,
            50.7044
          ],
          [
            6.8441,
            50.7212
          ],
          [
            6.8279,
            50.7382
          ],
          [
            6.804,
            50.7754
          ],
          [
            6.9783,
            50.816
          ],
          [
            6.9992,
            50.8226
          ],
          [
            7.0322,
            50.8322
          ],
          [
            7.049,
            50.8383
          ],
          [
            7.0611,
            50.8408
          ],
          [
            7.0721,
            50.8445
          ],
          [
            7.0856,
            50.8486
          ],
          [
            7.1001,
            50.853
          ],
          [
            7.112,
            50.8573
          ]
        ]
      },
      "properties": {
        "time_europe_berlin": [
          "18.10.2025 17:15:17",
          "18.10.2025 17:15:47",
          "18.10.2025 17:16:21",
          "18.10.2025 17:16:52",
          "18.10.2025 17:17:22",
          "18.10.2025 17:17:53",
          "18.10.2025 17:18:24",
          "18.10.2025 17:18:54",
          "18.10.2025 17:19:24",
          "18.10.2025 17:19:54",
          "18.10.2025 17:20:24",
          "18.10.2025 17:20:57",
          "18.10.2025 17:21:29",
          "18.10.2025 17:22:03",
          "18.10.2025 17:22:33",
          "18.10.2025 17:23:05",
          "18.10.2025 17:23:35",
          "18.10.2025 17:24:10",
          "18.10.2025 17:24:40",
          "18.10.2025 17:25:11",
          "18.10.2025 17:25:41",
          "18.10.2025 17:26:15",
          "18.10.2025 17:26:46",
          "18.10.2025 17:27:20",
          "18.10.2025 17:27:53",
          "18.10.2025 17:28:26",
          "18.10.2025 17:28:57",
          "18.10.2025 17:29:29",
          "18.10.2025 17:29:59",
          "18.10.2025 17:30:29",
          "18.10.2025 17:31:00",
          "18.10.2025 17:31:30",
          "18.10.2025 17:32:04",
          "18.10.2025 17:32:37",
          "18.10.2025 17:33:07",
          "18.10.2025 17:33:37",
          "18.10.2025 17:34:08",
          "18.10.2025 17:34:41",
          "18.10.2025 17:35:13",
          "18.10.2025 17:35:44",
          "18.10.2025 17:36:16",
          "18.10.2025 17:36:47",
          "18.10.2025 17:37:18",
          "18.10.2025 17:37:48",
          "18.10.2025 17:38:22",
          "18.10.2025 17:38:54",
          "18.10.2025 17:39:25",
          "18.10.2025 17:39:56",
          "18.10.2025 17:40:26",
          "18.10.2025 17:41:00",
          "18.10.2025 17:41:30",
          "18.10.2025 17:42:15",
          "18.10.2025 17:42:45",
          "18.10.2025 17:43:15",
          "18.10.2025 17:43:49",
          "18.10.2025 17:44:23",
          "18.10.2025 17:44:54",
          "18.10.2025 17:45:26",
          "18.10.2025 17:45:58",
          "18.10.2025 17:46:28",
          "18.10.2025 17:47:00",
          "18.10.2025 17:47:30",
          "18.10.2025 17:48:02",
          "18.10.2025 17:48:33",
          "18.10.2025 17:49:04",
          "18.10.2025 17:49:34",
          "18.10.2025 17:50:08",
          "18.10.2025 17:50:38",
          "18.10.2025 17:51:11",
          "18.10.2025 17:51:42",
          "18.10.2025 17:52:15",
          "18.10.2025 17:52:41",
          "18.10.2025 17:53:12",
          "18.10.2025 17:53:46",
          "18.10.2025 17:54:17",
          "18.10.2025 17:54:51",
          "18.10.2025 17:55:23",
          "18.10.2025 17:55:57",
          "18.10.2025 17:56:27",
          "18.10.2025 17:56:43",
          "18.10.2025 17:57:14",
          "18.10.2025 17:57:48",
          "18.10.2025 17:58:18",
          "18.10.2025 17:58:48",
          "18.10.2025 17:59:21",
          "18.10.2025 17:59:53",
          "18.10.2025 18:00:27",
          "18.10.2025 18:00:58",
          "18.10.2025 18:01:28",
          "18.10.2025 18:02:00",
          "18.10.2025 18:02:32",
          "18.10.2025 18:03:02",
          "18.10.2025 18:03:32",
          "18.10.2025 18:04:03",
          "18.10.2025 18:04:33",
          "18.10.2025 18:05:03",
          "18.10.2025 18:05:36",
          "18.10.2025 18:06:09",
          "18.10.2025 18:06:42",
          "18.10.2025 18:07:12",
          "18.10.2025 18:07:43",
          "18.10.2025 18:08:16",
          "18.10.2025 18:08:46",
          "18.10.2025 18:09:17",
          "18.10.2025 18:09:48",
          "18.10.2025 18:10:22",
          "18.10.2025 18:10:53",
          "18.10.2025 18:11:23",
          "18.10.2025 18:11:53",
          "18.10.2025 18:12:25",
          "18.10.2025 18:12:57",
          "18.10.2025 18:13:28",
          "18.10.2025 18:13:58",
          "18.10.2025 18:14:32",
          "18.10.2025 18:15:03",
          "18.10.2025 18:15:36",
          "18.10.2025 18:16:06",
          "18.10.2025 18:16:38",
          "18.10.2025 18:17:08",
          "18.10.2025 18:17:40",
          "18.10.2025 18:18:10",
          "18.10.2025 18:18:42",
          "18.10.2025 18:19:14",
          "18.10.2025 18:19:47",
          "18.10.2025 18:20:20",
          "18.10.2025 18:20:54",
          "18.10.2025 18:21:25",
          "18.10.2025 18:21:55",
          "18.10.2025 18:22:26",
          "18.10.2025 18:22:59",
          "18.10.2025 18:23:32",
          "18.10.2025 18:24:03",
          "18.10.2025 18:24:35",
          "18.10.2025 18:25:05",
          "18.10.2025 18:25:37",
          "18.10.2025 18:26:07",
          "18.10.2025 18:26:37",
          "18.10.2025 18:27:07",
          "18.10.2025 18:27:37",
          "18.10.2025 18:28:08",
          "18.10.2025 18:28:39",
          "18.10.2025 18:29:11",
          "18.10.2025 18:29:42",
          "18.10.2025 18:30:13",
          "18.10.2025 18:30:47",
          "18.10.2025 18:31:19",
          "18.10.2025 18:31:50",
          "18.10.2025 18:32:23",
          "18.10.2025 18:32:55",
          "18.10.2025 18:33:27",
          "18.10.2025 18:33:58",
          "18.10.2025 18:34:28",
          "18.10.2025 18:34:58",
          "18.10.2025 18:35:28",
          "18.10.2025 18:35:59",
          "18.10.2025 18:36:31",
          "18.10.2025 18:37:02",
          "18.10.2025 18:37:32",
          "18.10.2025 18:38:02",
          "18.10.2025 18:38:33",
          "18.10.2025 18:39:05",
          "18.10.2025 18:39:38",
          "18.10.2025 18:40:11",
          "18.10.2025 18:40:44",
          "18.10.2025 18:41:15",
          "18.10.2025 18:41:48",
          "18.10.2025 18:42:18",
          "18.10.2025 18:42:49",
          "18.10.2025 18:43:21",
          "18.10.2025 18:43:52",
          "18.10.2025 18:44:26",
          "18.10.2025 18:44:57",
          "18.10.2025 18:45:27",
          "18.10.2025 18:46:01",
          "18.10.2025 18:46:33",
          "18.10.2025 18:47:06",
          "18.10.2025 18:47:39",
          "18.10.2025 18:48:09",
          "18.10.2025 18:48:41",
          "18.10.2025 18:49:11",
          "18.10.2025 18:49:41",
          "18.10.2025 18:50:15",
          "18.10.2025 18:50:48",
          "18.10.2025 18:51:18",
          "18.10.2025 18:51:50",
          "18.10.2025 18:52:22",
          "18.10.2025 18:52:52",
          "18.10.2025 18:53:24",
          "18.10.2025 18:53:56",
          "18.10.2025 18:54:27",
          "18.10.2025 18:54:59",
          "18.10.2025 18:55:29",
          "18.10.2025 18:56:03",
          "18.10.2025 18:56:34",
          "18.10.2025 18:57:06",
          "18.10.2025 18:57:36",
          "18.10.2025 18:58:06",
          "18.10.2025 18:58:36",
          "18.10.2025 18:59:08",
          "18.10.2025 18:59:38",
          "18.10.2025 19:00:10",
          "18.10.2025 19:00:43",
          "18.10.2025 19:01:16",
          "18.10.2025 19:01:47",
          "18.10.2025 19:02:18",
          "18.10.2025 19:02:51",
          "18.10.2025 19:03:23",
          "18.10.2025 19:03:54",
          "18.10.2025 19:04:24",
          "18.10.2025 19:04:57",
          "18.10.2025 19:05:32",
          "18.10.2025 19:06:03",
          "18.10.2025 19:06:33",
          "18.10.2025 19:07:03",
          "18.10.2025 19:07:33",
          "18.10.2025 19:08:04",
          "18.10.2025 19:08:34",
          "18.10.2025 19:09:05",
          "18.10.2025 19:09:36",
          "18.10.2025 19:10:09",
          "18.10.2025 19:10:39",
          "18.10.2025 19:11:12",
          "18.10.2025 19:11:42",
          "18.10.2025 19:12:14",
          "18.10.2025 19:12:47",
          "18.10.2025 19:13:19",
          "18.10.2025 19:13:49",
          "18.10.2025 19:14:21",
          "18.10.2025 19:14:53",
          "18.10.2025 19:15:23",
          "18.10.2025 19:15:55",
          "18.10.2025 19:16:25",
          "18.10.2025 19:16:56",
          "18.10.2025 19:17:14",
          "18.10.2025 19:17:54",
          "18.10.2025 19:18:24",
          "18.10.2025 19:18:57",
          "18.10.2025 19:19:30",
          "18.10.2025 19:20:02",
          "18.10.2025 19:20:36",
          "18.10.2025 19:21:09",
          "18.10.2025 19:21:40",
          "18.10.2025 19:22:11",
          "18.10.2025 19:22:41",
          "18.10.2025 19:23:13",
          "18.10.2025 19:23:44",
          "18.10.2025 19:24:16",
          "18.10.2025 19:24:47",
          "18.10.2025 19:25:18",
          "18.10.2025 19:25:51",
          "18.10.2025 19:26:25",
          "18.10.2025 19:26:56",
          "18.10.2025 19:27:26",
          "18.10.2025 19:27:56",
          "18.10.2025 19:28:26",
          "18.10.2025 19:28:59",
          "18.10.2025 19:29:29",
          "18.10.2025 19:30:01",
          "18.10.2025 19:30:31",
          "18.10.2025 19:31:04",
          "18.10.2025 19:31:34",
          "18.10.2025 19:32:05",
          "18.10.2025 19:32:37",
          "18.10.2025 19:33:10",
          "18.10.2025 19:33:40",
          "18.10.2025 19:34:13",
          "18.10.2025 19:34:43",
          "18.10.2025 19:35:13",
          "18.10.2025 19:35:45",
          "18.10.2025 19:36:16",
          "18.10.2025 19:36:48",
          "18.10.2025 19:37:18",
          "18.10.2025 19:37:48",
          "18.10.2025 19:38:18",
          "18.10.2025 19:38:52",
          "18.10.2025 19:39:24",
          "18.10.2025 19:39:58",
          "18.10.2025 19:40:30",
          "18.10.2025 19:41:00",
          "18.10.2025 19:41:30",
          "18.10.2025 19:42:00",
          "18.10.2025 19:42:31",
          "18.10.2025 19:43:03",
          "18.10.2025 19:43:33",
          "18.10.2025 19:44:06",
          "18.10.2025 19:44:36",
          "18.10.2025 19:45:08",
          "18.10.2025 19:45:42",
          "18.10.2025 19:46:13",
          "18.10.2025 19:46:44",
          "18.10.2025 19:47:15",
          "18.10.2025 19:47:45",
          "18.10.2025 19:48:17",
          "18.10.2025 19:48:47",
          "18.10.2025 19:49:17",
          "18.10.2025 19:49:47",
          "18.10.2025 19:50:19",
          "18.10.2025 19:50:49",
          "18.10.2025 19:51:19",
          "18.10.2025 19:51:49",
          "18.10.2025 19:52:21",
          "18.10.2025 19:52:52",
          "18.10.2025 19:53:24",
          "18.10.2025 19:53:55",
          "18.10.2025 19:54:26",
          "18.10.2025 19:54:59",
          "18.10.2025 19:55:30",
          "18.10.2025 19:56:02",
          "18.10.2025 19:56:32",
          "18.10.2025 19:57:02",
          "18.10.2025 19:57:35",
          "18.10.2025 19:58:07",
          "18.10.2025 19:58:38",
          "18.10.2025 19:59:08",
          "18.10.2025 19:59:38",
          "18.10.2025 20:00:08",
          "18.10.2025 20:00:41",
          "18.10.2025 20:01:12",
          "18.10.2025 20:01:44",
          "18.10.2025 20:02:15",
          "18.10.2025 20:02:48",
          "18.10.2025 20:03:18",
          "18.10.2025 20:03:52",
          "18.10.2025 20:04:22",
          "18.10.2025 20:04:52",
          "18.10.2025 20:05:23",
          "18.10.2025 20:05:53",
          "18.10.2025 20:06:20",
          "18.10.2025 20:06:54",
          "18.10.2025 20:07:27",
          "18.10.2025 20:07:57",
          "18.10.2025 20:08:28",
          "18.10.2025 20:08:58",
          "18.10.2025 20:09:28",
          "18.10.2025 20:09:59",
          "18.10.2025 20:10:30",
          "18.10.2025 20:11:01",
          "18.10.2025 20:11:32",
          "18.10.2025 20:12:02",
          "18.10.2025 20:12:32",
          "18.10.2025 20:13:02",
          "18.10.2025 20:13:35",
          "18.10.2025 20:14:08",
          "18.10.2025 20:14:40",
          "18.10.2025 20:15:10",
          "18.10.2025 20:15:43",
          "18.10.2025 20:16:16",
          "18.10.2025 20:16:48",
          "18.10.2025 20:17:21",
          "18.10.2025 20:17:51",
          "18.10.2025 20:18:22",
          "18.10.2025 20:18:55",
          "18.10.2025 20:19:25",
          "18.10.2025 20:19:58",
          "18.10.2025 20:20:28",
          "18.10.2025 20:21:00",
          "18.10.2025 20:21:16",
          "18.10.2025 20:21:47",
          "18.10.2025 20:22:03",
          "18.10.2025 20:22:36",
          "18.10.2025 20:23:06",
          "18.10.2025 20:23:36",
          "18.10.2025 20:23:53",
          "18.10.2025 20:24:10",
          "18.10.2025 20:24:28",
          "18.10.2025 20:24:45",
          "18.10.2025 20:25:02",
          "18.10.2025 20:25:20",
          "18.10.2025 20:25:36",
          "18.10.2025 20:26:05",
          "18.10.2025 20:27:36",
          "18.10.2025 20:27:54",
          "18.10.2025 20:28:25",
          "18.10.2025 20:28:43",
          "18.10.2025 20:29:00",
          "18.10.2025 20:29:17",
          "18.10.2025 20:29:35",
          "18.10.2025 20:29:53",
          "18.10.2025 20:30:11"
        ],
        "course_deg_clockwise_from_north": [
          "347",
          "347",
          "347",
          "347",
          "347",
          "340",
          "336",
          "337",
          "336",
          "336",
          "336",
          "336",
          "336",
          "336",
          "336",
          "336",
          "336",
          "336",
          "336",
          "336",
          "336",
          "336",
          "336",
          "336",
          "336",
          "336",
          "336",
          "336",
          "336",
          "336",
          "336",
          "336",
          "336",
          "336",
          "336",
          "336",
          "336",
          "336",
          "336",
          "336",
          "336",
          "336",
          "336",
          "336",
          "336",
          "336",
          "336",
          "336",
          "336",
          "336",
          "335",
          "336",
          "335",
          "336",
          "335",
          "336",
          "336",
          "336",
          "335",
          "336",
          "335",
          "336",
          "335",
          "335",
          "336",
          "335",
          "336",
          "335",
          "335",
          "335",
          "335",
          "335",
          "336",
          "335",
          "335",
          "335",
          "335",
          "335",
          "335",
          "328",
          "318",
          "314",
          "312",
          "313",
          "314",
          "314",
          "314",
          "314",
          "314",
          "314",
          "314",
          "314",
          "313",
          "313",
          "314",
          "313",
          "313",
          "313",
          "314",
          "313",
          "313",
          "313",
          "313",
          "313",
          "313",
          "313",
          "313",
          "313",
          "313",
          "313",
          "313",
          "313",
          "313",
          "313",
          "313",
          "313",
          "313",
          "313",
          "312",
          "312",
          "313",
          "312",
          "313",
          "312",
          "312",
          "311",
          "309",
          "310",
          "310",
          "309",
          "310",
          "309",
          "310",
          "310",
          "309",
          "309",
          "310",
          "309",
          "309",
          "309",
          "309",
          "309",
          "309",
          "309",
          "309",
          "309",
          "309",
          "308",
          "309",
          "309",
          "309",
          "308",
          "308",
          "309",
          "308",
          "308",
          "308",
          "308",
          "308",
          "308",
          "308",
          "308",
          "308",
          "308",
          "308",
          "308",
          "307",
          "308",
          "308",
          "308",
          "308",
          "307",
          "308",
          "307",
          "307",
          "307",
          "307",
          "307",
          "307",
          "307",
          "307",
          "307",
          "307",
          "307",
          "307",
          "307",
          "307",
          "307",
          "307",
          "307",
          "307",
          "306",
          "307",
          "307",
          "306",
          "306",
          "306",
          "306",
          "306",
          "306",
          "306",
          "306",
          "306",
          "306",
          "306",
          "306",
          "306",
          "306",
          "306",
          "306",
          "306",
          "306",
          "305",
          "305",
          "305",
          "305",
          "306",
          "305",
          "305",
          "305",
          "305",
          "305",
          "305",
          "305",
          "305",
          "305",
          "301",
          "299",
          "299",
          "300",
          "299",
          "299",
          "299",
          "299",
          "300",
          "299",
          "299",
          "299",
          "299",
          "299",
          "302",
          "305",
          "304",
          "304",
          "304",
          "304",
          "304",
          "304",
          "304",
          "304",
          "304",
          "303",
          "304",
          "304",
          "303",
          "304",
          "303",
          "304",
          "303",
          "303",
          "303",
          "303",
          "303",
          "303",
          "303",
          "303",
          "303",
          "303",
          "303",
          "302",
          "303",
          "302",
          "302",
          "303",
          "302",
          "220",
          "297",
          "295",
          "296",
          "296",
          "296",
          "296",
          "296",
          "296",
          "296",
          "296",
          "296",
          "296",
          "296",
          "295",
          "295",
          "295",
          "295",
          "296",
          "295",
          "295",
          "295",
          "295",
          "295",
          "295",
          "295",
          "295",
          "295",
          "294",
          "294",
          "294",
          "294",
          "294",
          "295",
          "294",
          "294",
          "294",
          "294",
          "294",
          "294",
          "294",
          "294",
          "289",
          "286",
          "286",
          "287",
          "286",
          "286",
          "286",
          "286",
          "286",
          "285",
          "277",
          "274",
          "275",
          "274",
          "274",
          "274",
          "274",
          "274",
          "274",
          "274",
          "274",
          "274",
          "273",
          "273",
          "273",
          "273",
          "273",
          "273",
          "273",
          "273",
          "273",
          "273",
          "273",
          "272",
          "273",
          "273",
          "273",
          "272",
          "273",
          "273",
          "273",
          "273",
          "273",
          "273",
          "272",
          "272",
          "272",
          "273",
          "281",
          "316",
          "331",
          "334",
          "45",
          "64",
          "64",
          "64",
          "65",
          "65",
          "64",
          "64",
          "64",
          "64"
        ],
        "speed_kts": [
          "426",
          "428",
          "434",
          "440",
          "454",
          "454",
          "456",
          "456",
          "454",
          "452",
          "448",
          "444",
          "442",
          "438",
          "436",
          "438",
          "438",
          "438",
          "438",
          "436",
          "436",
          "440",
          "440",
          "442",
          "442",
          "442",
          "444",
          "450",
          "452",
          "450",
          "450",
          "448",
          "442",
          "438",
          "436",
          "432",
          "430",
          "432",
          "436",
          "438",
          "440",
          "440",
          "438",
          "440",
          "440",
          "442",
          "440",
          "440",
          "438",
          "438",
          "438",
          "440",
          "440",
          "438",
          "436",
          "434",
          "434",
          "434",
          "434",
          "436",
          "438",
          "438",
          "438",
          "440",
          "440",
          "440",
          "440",
          "442",
          "442",
          "444",
          "444",
          "444",
          "444",
          "444",
          "444",
          "446",
          "448",
          "448",
          "448",
          "444",
          "436",
          "434",
          "434",
          "434",
          "436",
          "438",
          "438",
          "438",
          "438",
          "436",
          "436",
          "436",
          "434",
          "436",
          "434",
          "434",
          "434",
          "434",
          "436",
          "436",
          "436",
          "436",
          "436",
          "436",
          "436",
          "436",
          "434",
          "432",
          "432",
          "432",
          "434",
          "434",
          "434",
          "434",
          "434",
          "434",
          "436",
          "436",
          "436",
          "436",
          "436",
          "436",
          "436",
          "434",
          "434",
          "432",
          "430",
          "430",
          "430",
          "430",
          "432",
          "430",
          "430",
          "430",
          "430",
          "430",
          "430",
          "430",
          "428",
          "428",
          "428",
          "428",
          "428",
          "426",
          "426",
          "428",
          "428",
          "428",
          "428",
          "428",
          "428",
          "430",
          "430",
          "428",
          "428",
          "428",
          "428",
          "428",
          "426",
          "426",
          "422",
          "422",
          "420",
          "420",
          "420",
          "422",
          "422",
          "424",
          "424",
          "424",
          "424",
          "426",
          "426",
          "424",
          "424",
          "424",
          "426",
          "426",
          "426",
          "428",
          "428",
          "428",
          "428",
          "428",
          "428",
          "426",
          "426",
          "426",
          "426",
          "426",
          "424",
          "424",
          "424",
          "422",
          "422",
          "424",
          "424",
          "426",
          "428",
          "430",
          "430",
          "430",
          "430",
          "428",
          "426",
          "426",
          "424",
          "422",
          "422",
          "422",
          "422",
          "422",
          "420",
          "420",
          "418",
          "418",
          "420",
          "420",
          "420",
          "420",
          "422",
          "422",
          "420",
          "418",
          "416",
          "414",
          "412",
          "412",
          "412",
          "412",
          "414",
          "416",
          "416",
          "418",
          "420",
          "422",
          "422",
          "424",
          "426",
          "428",
          "426",
          "424",
          "426",
          "424",
          "422",
          "422",
          "420",
          "418",
          "416",
          "416",
          "418",
          "418",
          "420",
          "422",
          "420",
          "420",
          "420",
          "418",
          "418",
          "420",
          "422",
          "424",
          "424",
          "424",
          "424",
          "424",
          "424",
          "424",
          "424",
          "426",
          "426",
          "426",
          "428",
          "428",
          "430",
          "402",
          "430",
          "430",
          "426",
          "426",
          "426",
          "424",
          "424",
          "424",
          "424",
          "422",
          "422",
          "424",
          "424",
          "424",
          "426",
          "426",
          "426",
          "426",
          "426",
          "426",
          "426",
          "428",
          "428",
          "430",
          "430",
          "432",
          "432",
          "432",
          "430",
          "430",
          "428",
          "424",
          "416",
          "410",
          "404",
          "410",
          "416",
          "414",
          "408",
          "406",
          "404",
          "404",
          "402",
          "394",
          "392",
          "402",
          "412",
          "420",
          "424",
          "424",
          "428",
          "436",
          "448",
          "446",
          "450",
          "450",
          "450",
          "440",
          "436",
          "434",
          "430",
          "430",
          "420",
          "418",
          "418",
          "416",
          "414",
          "406",
          "400",
          "396",
          "392",
          "386",
          "382",
          "380",
          "376",
          "372",
          "366",
          "360",
          "352",
          "354",
          "354",
          "348",
          "346",
          "342",
          "334",
          "298",
          "284",
          "270",
          "260",
          "254",
          "254",
          "254",
          "256",
          "238",
          "194",
          "176",
          "146",
          "130",
          "130",
          "118",
          "115",
          "108",
          "108"
        ],
        "speed_mph": [
          "490",
          "493",
          "499",
          "506",
          "522",
          "522",
          "525",
          "525",
          "522",
          "520",
          "516",
          "511",
          "509",
          "504",
          "502",
          "504",
          "504",
          "504",
          "504",
          "502",
          "502",
          "506",
          "506",
          "509",
          "509",
          "509",
          "511",
          "518",
          "520",
          "518",
          "518",
          "516",
          "509",
          "504",
          "502",
          "497",
          "495",
          "497",
          "502",
          "504",
          "506",
          "506",
          "504",
          "506",
          "506",
          "509",
          "506",
          "506",
          "504",
          "504",
          "504",
          "506",
          "506",
          "504",
          "502",
          "499",
          "499",
          "499",
          "499",
          "502",
          "504",
          "504",
          "504",
          "506",
          "506",
          "506",
          "506",
          "509",
          "509",
          "511",
          "511",
          "511",
          "511",
          "511",
          "511",
          "513",
          "516",
          "516",
          "516",
          "511",
          "502",
          "499",
          "499",
          "499",
          "502",
          "504",
          "504",
          "504",
          "504",
          "502",
          "502",
          "502",
          "499",
          "502",
          "499",
          "499",
          "499",
          "499",
          "502",
          "502",
          "502",
          "502",
          "502",
          "502",
          "502",
          "502",
          "499",
          "497",
          "497",
          "497",
          "499",
          "499",
          "499",
          "499",
          "499",
          "499",
          "502",
          "502",
          "502",
          "502",
          "502",
          "502",
          "502",
          "499",
          "499",
          "497",
          "495",
          "495",
          "495",
          "495",
          "497",
          "495",
          "495",
          "495",
          "495",
          "495",
          "495",
          "495",
          "493",
          "493",
          "493",
          "493",
          "493",
          "490",
          "490",
          "493",
          "493",
          "493",
          "493",
          "493",
          "493",
          "495",
          "495",
          "493",
          "493",
          "493",
          "493",
          "493",
          "490",
          "490",
          "486",
          "486",
          "483",
          "483",
          "483",
          "486",
          "486",
          "488",
          "488",
          "488",
          "488",
          "490",
          "490",
          "488",
          "488",
          "488",
          "490",
          "490",
          "490",
          "493",
          "493",
          "493",
          "493",
          "493",
          "493",
          "490",
          "490",
          "490",
          "490",
          "490",
          "488",
          "488",
          "488",
          "486",
          "486",
          "488",
          "488",
          "490",
          "493",
          "495",
          "495",
          "495",
          "495",
          "493",
          "490",
          "490",
          "488",
          "486",
          "486",
          "486",
          "486",
          "486",
          "483",
          "483",
          "481",
          "481",
          "483",
          "483",
          "483",
          "483",
          "486",
          "486",
          "483",
          "481",
          "479",
          "476",
          "474",
          "474",
          "474",
          "474",
          "476",
          "479",
          "479",
          "481",
          "483",
          "486",
          "486",
          "488",
          "490",
          "493",
          "490",
          "488",
          "490",
          "488",
          "486",
          "486",
          "483",
          "481",
          "479",
          "479",
          "481",
          "481",
          "483",
          "486",
          "483",
          "483",
          "483",
          "481",
          "481",
          "483",
          "486",
          "488",
          "488",
          "488",
          "488",
          "488",
          "488",
          "488",
          "488",
          "490",
          "490",
          "490",
          "493",
          "493",
          "495",
          "463",
          "495",
          "495",
          "490",
          "490",
          "490",
          "488",
          "488",
          "488",
          "488",
          "486",
          "486",
          "488",
          "488",
          "488",
          "490",
          "490",
          "490",
          "490",
          "490",
          "490",
          "490",
          "493",
          "493",
          "495",
          "495",
          "497",
          "497",
          "497",
          "495",
          "495",
          "493",
          "488",
          "479",
          "472",
          "465",
          "472",
          "479",
          "476",
          "470",
          "467",
          "465",
          "465",
          "463",
          "453",
          "451",
          "463",
          "474",
          "483",
          "488",
          "488",
          "493",
          "502",
          "516",
          "513",
          "518",
          "518",
          "518",
          "506",
          "502",
          "499",
          "495",
          "495",
          "483",
          "481",
          "481",
          "479",
          "476",
          "467",
          "460",
          "456",
          "451",
          "444",
          "440",
          "437",
          "433",
          "428",
          "421",
          "414",
          "405",
          "407",
          "407",
          "400",
          "398",
          "394",
          "384",
          "343",
          "327",
          "311",
          "299",
          "292",
          "292",
          "292",
          "295",
          "274",
          "223",
          "203",
          "168",
          "150",
          "150",
          "136",
          "132",
          "124",
          "124"
        ],
        "altitude_ft": [
          "24625",
          "25675",
          "27050",
          "27825",
          "28475",
          "29350",
          "29950",
          "30775",
          "31575",
          "32475",
          "33350",
          "34275",
          "35100",
          "36075",
          "36875",
          "37400",
          "37975",
          "38525",
          "39025",
          "39625",
          "39975",
          "40000",
          "40000",
          "40000",
          "40000",
          "40000",
          "40000",
          "40000",
          "40275",
          "40625",
          "40925",
          "41225",
          "41600",
          "41975",
          "42325",
          "42675",
          "42925",
          "43000",
          "43000",
          "43000",
          "43000",
          "43000",
          "43000",
          "43000",
          "43000",
          "43000",
          "43000",
          "43000",
          "43000",
          "43000",
          "43000",
          "43000",
          "43000",
          "43000",
          "43000",
          "43000",
          "43000",
          "43000",
          "43000",
          "43000",
          "43000",
          "43000",
          "43000",
          "43000",
          "43000",
          "43000",
          "43000",
          "43000",
          "43000",
          "43000",
          "43000",
          "43000",
          "43000",
          "43000",
          "43000",
          "43000",
          "43000",
          "43000",
          "43000",
          "43000",
          "43000",
          "43000",
          "43000",
          "43000",
          "43000",
          "43000",
          "43000",
          "43000",
          "43000",
          "43000",
          "43000",
          "43000",
          "43000",
          "43000",
          "43000",
          "43000",
          "43000",
          "43000",
          "43000",
          "43000",
          "43000",
          "43000",
          "43000",
          "43000",
          "43000",
          "43000",
          "43000",
          "43000",
          "43000",
          "43000",
          "43000",
          "43000",
          "43000",
          "43000",
          "43000",
          "43000",
          "43000",
          "43000",
          "43000",
          "43000",
          "43000",
          "43000",
          "43000",
          "43000",
          "43000",
          "43000",
          "43000",
          "43000",
          "43000",
          "43000",
          "43000",
          "43000",
          "43000",
          "43000",
          "43000",
          "43000",
          "43000",
          "43000",
          "43000",
          "43000",
          "43000",
          "43000",
          "43000",
          "43000",
          "43000",
          "43000",
          "43000",
          "43000",
          "43000",
          "43000",
          "43000",
          "43000",
          "43000",
          "43000",
          "43000",
          "43000",
          "43025",
          "43000",
          "43000",
          "43000",
          "43000",
          "43000",
          "43000",
          "43000",
          "43000",
          "43000",
          "43000",
          "43000",
          "43000",
          "43000",
          "43000",
          "43000",
          "43000",
          "43000",
          "43000",
          "43000",
          "43000",
          "43000",
          "43000",
          "43000",
          "43000",
          "43000",
          "43000",
          "43000",
          "43000",
          "43000",
          "43000",
          "43000",
          "43000",
          "43000",
          "43000",
          "43000",
          "43000",
          "43000",
          "43000",
          "43000",
          "43000",
          "43000",
          "43000",
          "43000",
          "43000",
          "43000",
          "43000",
          "43000",
          "43000",
          "43000",
          "43000",
          "43000",
          "43000",
          "43000",
          "43000",
          "43000",
          "43025",
          "43000",
          "43000",
          "43000",
          "43000",
          "43000",
          "43000",
          "43000",
          "43000",
          "43000",
          "43000",
          "43000",
          "43000",
          "43000",
          "43000",
          "43000",
          "43000",
          "43000",
          "43000",
          "43000",
          "43000",
          "43000",
          "43000",
          "43000",
          "43000",
          "43000",
          "43000",
          "43000",
          "43000",
          "43000",
          "43000",
          "43000",
          "43000",
          "43000",
          "43000",
          "43000",
          "43000",
          "43000",
          "43000",
          "43000",
          "43000",
          "43000",
          "43000",
          "43000",
          "43000",
          "43000",
          "43000",
          "43000",
          "43000",
          "43000",
          "43000",
          "43000",
          "43000",
          "43000",
          "43000",
          "43000",
          "43000",
          "43000",
          "43000",
          "43000",
          "43000",
          "43000",
          "43000",
          "43000",
          "43000",
          "43000",
          "43000",
          "43000",
          "43000",
          "43000",
          "43000",
          "43000",
          "43000",
          "43000",
          "43000",
          "43000",
          "43000",
          "43000",
          "43000",
          "43000",
          "43000",
          "43000",
          "43000",
          "43000",
          "43000",
          "43000",
          "43000",
          "43000",
          "43000",
          "43000",
          "43000",
          "43000",
          "43000",
          "43000",
          "43000",
          "42600",
          "42100",
          "41575",
          "40975",
          "40450",
          "39875",
          "39350",
          "38850",
          "38350",
          "37775",
          "37200",
          "36675",
          "35850",
          "35025",
          "34275",
          "33375",
          "32575",
          "31825",
          "31000",
          "30175",
          "29550",
          "28675",
          "27850",
          "27000",
          "26275",
          "25475",
          "24725",
          "23925",
          "23100",
          "22250",
          "21450",
          "20700",
          "19925",
          "19075",
          "18325",
          "17700",
          "17125",
          "16575",
          "16050",
          "15475",
          "14900",
          "14325",
          "13800",
          "13225",
          "12700",
          "12125",
          "11550",
          "11050",
          "10200",
          "9750",
          "8975",
          "8550",
          "7725",
          "6950",
          "6150",
          "5775",
          "5325",
          "5025",
          "4750",
          "4600",
          "4050",
          "3500",
          "2750",
          "2025",
          "1700",
          "1225",
          "1050",
          "875",
          "725",
          "550",
          "375",
          "225"
        ],
        "vertical_rate_fpm": [
          "",
          "2273",
          "1985",
          "1402",
          "1500",
          "1427",
          "1402",
          "1625",
          "1700",
          "1775",
          "1714",
          "1615",
          "1636",
          "1664",
          "1282",
          "1065",
          "1038",
          "969",
          "1082",
          "934",
          "352",
          "23",
          "",
          "",
          "",
          "",
          "",
          "266",
          "625",
          "639",
          "590",
          "633",
          "672",
          "690",
          "700",
          "590",
          "305",
          "69",
          "",
          "",
          "",
          "",
          "",
          "",
          "",
          "",
          "",
          "",
          "",
          "",
          "",
          "",
          "",
          "",
          "",
          "",
          "",
          "",
          "",
          "",
          "",
          "",
          "",
          "",
          "",
          "",
          "",
          "",
          "",
          "",
          "",
          "",
          "",
          "",
          "",
          "",
          "",
          "",
          "",
          "",
          "",
          "",
          "",
          "",
          "",
          "",
          "",
          "",
          "",
          "",
          "",
          "",
          "",
          "",
          "",
          "",
          "",
          "",
          "",
          "",
          "",
          "",
          "",
          "",
          "",
          "",
          "",
          "",
          "",
          "",
          "",
          "",
          "",
          "",
          "",
          "",
          "",
          "",
          "",
          "",
          "",
          "",
          "",
          "",
          "",
          "",
          "",
          "",
          "",
          "",
          "",
          "",
          "",
          "",
          "",
          "",
          "",
          "",
          "",
          "",
          "",
          "",
          "",
          "",
          "",
          "",
          "",
          "",
          "",
          "",
          "",
          "",
          "",
          "",
          "",
          "24",
          "",
          "-25",
          "",
          "",
          "",
          "",
          "",
          "",
          "",
          "",
          "",
          "",
          "",
          "",
          "",
          "",
          "",
          "",
          "",
          "",
          "",
          "",
          "",
          "",
          "",
          "",
          "",
          "",
          "",
          "",
          "",
          "",
          "",
          "",
          "",
          "",
          "",
          "",
          "",
          "",
          "",
          "",
          "",
          "",
          "",
          "",
          "",
          "",
          "",
          "",
          "",
          "",
          "",
          "",
          "",
          "25",
          "",
          "-25",
          "",
          "",
          "",
          "",
          "",
          "",
          "",
          "",
          "",
          "",
          "",
          "",
          "",
          "",
          "",
          "",
          "",
          "",
          "",
          "",
          "",
          "",
          "",
          "",
          "",
          "",
          "",
          "",
          "",
          "",
          "",
          "",
          "",
          "",
          "",
          "",
          "",
          "",
          "",
          "",
          "",
          "",
          "",
          "",
          "",
          "",
          "",
          "",
          "",
          "",
          "",
          "",
          "",
          "",
          "",
          "",
          "",
          "",
          "",
          "",
          "",
          "",
          "",
          "",
          "",
          "",
          "",
          "",
          "",
          "",
          "",
          "",
          "",
          "",
          "",
          "",
          "",
          "",
          "",
          "",
          "",
          "",
          "",
          "",
          "",
          "",
          "",
          "",
          "",
          "",
          "",
          "",
          "-381",
          "-871",
          "-1025",
          "-1071",
          "-1038",
          "-1048",
          "-1082",
          "-1025",
          "-1000",
          "-1024",
          "-1078",
          "-1048",
          "-1286",
          "-1547",
          "-1500",
          "-1547",
          "-1594",
          "-1550",
          "-1549",
          "-1623",
          "-1526",
          "-1475",
          "-1522",
          "-1595",
          "-1549",
          "-1500",
          "-1550",
          "-1525",
          "-1573",
          "-1621",
          "-1597",
          "-1525",
          "-1525",
          "-1625",
          "-1524",
          "-1250",
          "-1108",
          "-1089",
          "-1024",
          "-1000",
          "-1062",
          "-1062",
          "-1048",
          "-1082",
          "-1031",
          "-1048",
          "-1095",
          "-1024",
          "-1306",
          "-1625",
          "-1564",
          "-1532",
          "-1531",
          "-1524",
          "-1575",
          "-1500",
          "-1456",
          "-1286",
          "-986",
          "-750",
          "-1200",
          "-1941",
          "-1733",
          "-738",
          "-578",
          "-980",
          "-796",
          "-600",
          "-574",
          "-557",
          "-583",
          "-542",
          "-500"
        ],
        "reporting_facility": [
          "FlightAware MLAT(7 sites)",
          "FlightAware MLAT(8 sites)",
          "FlightAware MLAT(5 sites)",
          "FlightAware MLAT(7 sites)",
          "FlightAware MLAT(6 sites)",
          "FlightAware MLAT(7 sites)",
          "FlightAware MLAT(8 sites)",
          "FlightAware MLAT(8 sites)",
          "FlightAware MLAT(4 sites)",
          "FlightAware MLAT(7 sites)",
          "FlightAware MLAT(7 sites)",
          "FlightAware MLAT(5 sites)",
          "FlightAware MLAT(7 sites)",
          "FlightAware MLAT(4 sites)",
          "FlightAware MLAT(5 sites)",
          "FlightAware MLAT(4 sites)",
          "FlightAware MLAT(6 sites)",
          "FlightAware MLAT(5 sites)",
          "FlightAware MLAT(5 sites)",
          "FlightAware MLAT(8 sites)",
          "FlightAware MLAT(5 sites)",
          "FlightAware MLAT(4 sites)",
          "FlightAware MLAT(7 sites)",
          "FlightAware MLAT(7 sites)",
          "FlightAware MLAT(4 sites)",
          "FlightAware MLAT(4 sites)",
          "FlightAware MLAT(9 sites)",
          "FlightAware MLAT(7 sites)",
          "FlightAware MLAT(9 sites)",
          "FlightAware MLAT(8 sites)",
          "FlightAware MLAT(5 sites)",
          "FlightAware MLAT(8 sites)",
          "FlightAware MLAT(7 sites)",
          "FlightAware MLAT(4 sites)",
          "FlightAware MLAT(8 sites)",
          "FlightAware MLAT(7 sites)",
          "FlightAware MLAT(6 sites)",
          "FlightAware MLAT(9 sites)",
          "FlightAware MLAT(5 sites)",
          "FlightAware MLAT(5 sites)",
          "FlightAware MLAT(7 sites)",
          "FlightAware MLAT(7 sites)",
          "FlightAware MLAT(7 sites)",
          "FlightAware MLAT(12 sites)",
          "FlightAware MLAT(4 sites)",
          "FlightAware MLAT(5 sites)",
          "FlightAware MLAT(6 sites)",
          "FlightAware MLAT(9 sites)",
          "FlightAware MLAT(7 sites)",
          "FlightAware MLAT(10 sites)",
          "FlightAware MLAT(10 sites)",
          "FlightAware MLAT(8 sites)",
          "FlightAware MLAT(10 sites)",
          "FlightAware MLAT(5 sites)",
          "FlightAware MLAT(5 sites)",
          "FlightAware MLAT(6 sites)",
          "FlightAware MLAT(7 sites)",
          "FlightAware MLAT(7 sites)",
          "FlightAware MLAT(6 sites)",
          "FlightAware MLAT(5 sites)",
          "FlightAware MLAT(6 sites)",
          "FlightAware MLAT(8 sites)",
          "FlightAware MLAT(10 sites)",
          "FlightAware MLAT(4 sites)",
          "FlightAware MLAT(8 sites)",
          "FlightAware MLAT(5 sites)",
          "FlightAware MLAT(4 sites)",
          "FlightAware MLAT(5 sites)",
          "FlightAware MLAT(7 sites)",
          "FlightAware MLAT(7 sites)",
          "FlightAware MLAT(6 sites)",
          "FlightAware MLAT(5 sites)",
          "FlightAware MLAT(4 sites)",
          "FlightAware MLAT(7 sites)",
          "FlightAware MLAT(12 sites)",
          "FlightAware MLAT(5 sites)",
          "FlightAware MLAT(5 sites)",
          "FlightAware MLAT(6 sites)",
          "FlightAware MLAT(6 sites)",
          "FlightAware MLAT(12 sites)",
          "FlightAware MLAT(6 sites)",
          "FlightAware MLAT(4 sites)",
          "FlightAware MLAT(6 sites)",
          "FlightAware MLAT(11 sites)",
          "FlightAware MLAT(8 sites)",
          "FlightAware MLAT(8 sites)",
          "FlightAware MLAT(5 sites)",
          "FlightAware MLAT(7 sites)",
          "FlightAware MLAT(8 sites)",
          "FlightAware MLAT(10 sites)",
          "FlightAware MLAT(4 sites)",
          "FlightAware MLAT(9 sites)",
          "FlightAware MLAT(12 sites)",
          "FlightAware MLAT(6 sites)",
          "FlightAware MLAT(12 sites)",
          "FlightAware MLAT(8 sites)",
          "FlightAware MLAT(7 sites)",
          "FlightAware MLAT(4 sites)",
          "FlightAware MLAT(10 sites)",
          "FlightAware MLAT(9 sites)",
          "FlightAware MLAT(11 sites)",
          "FlightAware MLAT(7 sites)",
          "FlightAware MLAT(12 sites)",
          "FlightAware MLAT(7 sites)",
          "FlightAware MLAT(4 sites)",
          "FlightAware MLAT(7 sites)",
          "FlightAware MLAT(6 sites)",
          "FlightAware MLAT(4 sites)",
          "FlightAware MLAT(12 sites)",
          "FlightAware MLAT(6 sites)",
          "FlightAware MLAT(12 sites)",
          "FlightAware MLAT(5 sites)",
          "FlightAware MLAT(10 sites)",
          "FlightAware MLAT(7 sites)",
          "FlightAware MLAT(12 sites)",
          "FlightAware MLAT(13 sites)",
          "FlightAware MLAT(5 sites)",
          "FlightAware MLAT(15 sites)",
          "FlightAware MLAT(15 sites)",
          "FlightAware MLAT(9 sites)",
          "FlightAware MLAT(14 sites)",
          "FlightAware MLAT(16 sites)",
          "FlightAware MLAT(15 sites)",
          "FlightAware MLAT(7 sites)",
          "FlightAware MLAT(11 sites)",
          "FlightAware MLAT(11 sites)",
          "FlightAware MLAT(4 sites)",
          "FlightAware MLAT(11 sites)",
          "FlightAware MLAT(4 sites)",
          "FlightAware MLAT(5 sites)",
          "FlightAware MLAT(7 sites)",
          "FlightAware MLAT(11 sites)",
          "FlightAware MLAT(9 sites)",
          "FlightAware MLAT(8 sites)",
          "FlightAware MLAT(8 sites)",
          "FlightAware MLAT(10 sites)",
          "FlightAware MLAT(12 sites)",
          "FlightAware MLAT(10 sites)",
          "FlightAware MLAT(4 sites)",
          "FlightAware MLAT(4 sites)",
          "FlightAware MLAT(4 sites)",
          "FlightAware MLAT(4 sites)",
          "FlightAware MLAT(13 sites)",
          "FlightAware MLAT(7 sites)",
          "FlightAware MLAT(5 sites)",
          "FlightAware MLAT(8 sites)",
          "FlightAware MLAT(4 sites)",
          "FlightAware MLAT(6 sites)",
          "FlightAware MLAT(10 sites)",
          "FlightAware MLAT(4 sites)",
          "FlightAware MLAT(13 sites)",
          "FlightAware MLAT(12 sites)",
          "FlightAware MLAT(6 sites)",
          "FlightAware MLAT(9 sites)",
          "FlightAware MLAT(8 sites)",
          "FlightAware MLAT(6 sites)",
          "FlightAware MLAT(12 sites)",
          "FlightAware MLAT(8 sites)",
          "FlightAware MLAT(11 sites)",
          "FlightAware MLAT(6 sites)",
          "FlightAware MLAT(10 sites)",
          "FlightAware MLAT(11 sites)",
          "FlightAware MLAT(4 sites)",
          "FlightAware MLAT(5 sites)",
          "FlightAware MLAT(10 sites)",
          "FlightAware MLAT(6 sites)",
          "FlightAware MLAT(8 sites)",
          "FlightAware MLAT(8 sites)",
          "FlightAware MLAT(7 sites)",
          "FlightAware MLAT(11 sites)",
          "FlightAware MLAT(5 sites)",
          "FlightAware MLAT(5 sites)",
          "FlightAware MLAT(8 sites)",
          "FlightAware MLAT(5 sites)",
          "FlightAware MLAT(4 sites)",
          "FlightAware MLAT(7 sites)",
          "FlightAware MLAT(7 sites)",
          "FlightAware MLAT(12 sites)",
          "FlightAware MLAT(5 sites)",
          "FlightAware MLAT(8 sites)",
          "FlightAware MLAT(10 sites)",
          "FlightAware MLAT(8 sites)",
          "FlightAware MLAT(6 sites)",
          "FlightAware MLAT(13 sites)",
          "FlightAware MLAT(11 sites)",
          "FlightAware MLAT(7 sites)",
          "FlightAware MLAT(4 sites)",
          "FlightAware MLAT(10 sites)",
          "FlightAware MLAT(5 sites)",
          "FlightAware MLAT(5 sites)",
          "FlightAware MLAT(6 sites)",
          "FlightAware MLAT(5 sites)",
          "FlightAware MLAT(6 sites)",
          "FlightAware MLAT(11 sites)",
          "FlightAware MLAT(7 sites)",
          "FlightAware MLAT(11 sites)",
          "FlightAware MLAT(8 sites)",
          "FlightAware MLAT(8 sites)",
          "FlightAware MLAT(8 sites)",
          "FlightAware MLAT(9 sites)",
          "FlightAware MLAT(4 sites)",
          "FlightAware MLAT(4 sites)",
          "FlightAware MLAT(4 sites)",
          "FlightAware MLAT(11 sites)",
          "FlightAware MLAT(13 sites)",
          "FlightAware MLAT(10 sites)",
          "FlightAware MLAT(12 sites)",
          "FlightAware MLAT(4 sites)",
          "FlightAware MLAT(8 sites)",
          "FlightAware MLAT(7 sites)",
          "FlightAware MLAT(5 sites)",
          "FlightAware MLAT(13 sites)",
          "FlightAware MLAT(4 sites)",
          "FlightAware MLAT(5 sites)",
          "FlightAware MLAT(11 sites)",
          "FlightAware MLAT(7 sites)",
          "FlightAware MLAT(10 sites)",
          "FlightAware MLAT(6 sites)",
          "FlightAware MLAT(8 sites)",
          "FlightAware MLAT(8 sites)",
          "FlightAware MLAT(8 sites)",
          "FlightAware MLAT(4 sites)",
          "FlightAware MLAT(9 sites)",
          "FlightAware MLAT(8 sites)",
          "FlightAware MLAT(17 sites)",
          "FlightAware MLAT(5 sites)",
          "FlightAware MLAT(10 sites)",
          "FlightAware MLAT(6 sites)",
          "FlightAware MLAT(4 sites)",
          "FlightAware MLAT(6 sites)",
          "FlightAware MLAT(10 sites)",
          "FlightAware MLAT(11 sites)",
          "FlightAware MLAT(5 sites)",
          "FlightAware MLAT(8 sites)",
          "FlightAware MLAT(10 sites)",
          "FlightAware MLAT(6 sites)",
          "FlightAware MLAT(7 sites)",
          "FlightAware MLAT(4 sites)",
          "FlightAware MLAT(13 sites)",
          "FlightAware MLAT(7 sites)",
          "FlightAware MLAT(11 sites)",
          "FlightAware MLAT(10 sites)",
          "FlightAware MLAT(10 sites)",
          "FlightAware MLAT(13 sites)",
          "FlightAware MLAT(13 sites)",
          "FlightAware MLAT(8 sites)",
          "FlightAware MLAT(13 sites)",
          "FlightAware MLAT(5 sites)",
          "FlightAware MLAT(7 sites)",
          "FlightAware MLAT(10 sites)",
          "FlightAware MLAT(5 sites)",
          "FlightAware MLAT(8 sites)",
          "FlightAware MLAT(12 sites)",
          "FlightAware MLAT(11 sites)",
          "FlightAware MLAT(15 sites)",
          "FlightAware MLAT(12 sites)",
          "FlightAware MLAT(4 sites)",
          "FlightAware MLAT(5 sites)",
          "FlightAware MLAT(14 sites)",
          "FlightAware MLAT(11 sites)",
          "FlightAware MLAT(13 sites)",
          "FlightAware MLAT(15 sites)",
          "FlightAware MLAT(4 sites)",
          "FlightAware MLAT(12 sites)",
          "FlightAware MLAT(9 sites)",
          "FlightAware MLAT(4 sites)",
          "FlightAware MLAT(10 sites)",
          "FlightAware MLAT(7 sites)",
          "FlightAware MLAT(21 sites)",
          "FlightAware MLAT(9 sites)",
          "FlightAware MLAT(6 sites)",
          "FlightAware MLAT(12 sites)",
          "FlightAware MLAT(12 sites)",
          "FlightAware MLAT(12 sites)",
          "FlightAware MLAT(5 sites)",
          "FlightAware MLAT(4 sites)",
          "FlightAware MLAT(11 sites)",
          "FlightAware MLAT(12 sites)",
          "FlightAware MLAT(4 sites)",
          "FlightAware MLAT(12 sites)",
          "FlightAware MLAT(11 sites)",
          "FlightAware MLAT(14 sites)",
          "FlightAware MLAT(6 sites)",
          "FlightAware MLAT(13 sites)",
          "FlightAware MLAT(12 sites)",
          "FlightAware MLAT(14 sites)",
          "FlightAware MLAT(4 sites)",
          "FlightAware MLAT(7 sites)",
          "FlightAware MLAT(4 sites)",
          "FlightAware MLAT(9 sites)",
          "FlightAware MLAT(10 sites)",
          "FlightAware MLAT(5 sites)",
          "FlightAware MLAT(6 sites)",
          "FlightAware MLAT(16 sites)",
          "FlightAware MLAT(12 sites)",
          "FlightAware MLAT(15 sites)",
          "FlightAware MLAT(7 sites)",
          "FlightAware MLAT(9 sites)",
          "FlightAware MLAT(4 sites)",
          "FlightAware MLAT(12 sites)",
          "FlightAware MLAT(12 sites)",
          "FlightAware MLAT(14 sites)",
          "FlightAware MLAT(4 sites)",
          "FlightAware MLAT(4 sites)",
          "FlightAware MLAT(4 sites)",
          "FlightAware MLAT(10 sites)",
          "FlightAware MLAT(11 sites)",
          "FlightAware MLAT(5 sites)",
          "FlightAware MLAT(5 sites)",
          "FlightAware MLAT(9 sites)",
          "FlightAware MLAT(8 sites)",
          "FlightAware MLAT(5 sites)",
          "FlightAware MLAT(11 sites)",
          "FlightAware MLAT(13 sites)",
          "FlightAware MLAT(9 sites)",
          "FlightAware MLAT(4 sites)",
          "FlightAware MLAT(4 sites)",
          "FlightAware MLAT(18 sites)",
          "FlightAware MLAT(15 sites)",
          "FlightAware MLAT(11 sites)",
          "FlightAware MLAT(9 sites)",
          "FlightAware MLAT(9 sites)",
          "FlightAware MLAT(6 sites)",
          "FlightAware MLAT(12 sites)",
          "FlightAware MLAT(5 sites)",
          "FlightAware MLAT(12 sites)",
          "FlightAware MLAT(16 sites)",
          "FlightAware MLAT(11 sites)",
          "FlightAware MLAT(7 sites)",
          "FlightAware MLAT(5 sites)",
          "FlightAware MLAT(5 sites)",
          "FlightAware MLAT(6 sites)",
          "FlightAware MLAT(14 sites)",
          "FlightAware MLAT(10 sites)",
          "FlightAware MLAT(10 sites)",
          "FlightAware MLAT(13 sites)",
          "FlightAware MLAT(8 sites)",
          "FlightAware MLAT(10 sites)",
          "FlightAware MLAT(10 sites)",
          "FlightAware MLAT(11 sites)",
          "FlightAware MLAT(13 sites)",
          "FlightAware MLAT(5 sites)",
          "FlightAware MLAT(10 sites)",
          "FlightAware MLAT(5 sites)",
          "FlightAware MLAT(12 sites)",
          "FlightAware MLAT(6 sites)",
          "FlightAware MLAT(4 sites)",
          "FlightAware MLAT(5 sites)",
          "FlightAware MLAT(7 sites)",
          "FlightAware MLAT(11 sites)",
          "FlightAware MLAT(16 sites)",
          "FlightAware MLAT(6 sites)",
          "FlightAware MLAT(10 sites)",
          "FlightAware MLAT(8 sites)",
          "FlightAware MLAT(7 sites)",
          "FlightAware MLAT(5 sites)",
          "FlightAware MLAT(13 sites)",
          "FlightAware MLAT(4 sites)",
          "FlightAware MLAT(9 sites)",
          "FlightAware MLAT(7 sites)",
          "FlightAware MLAT(5 sites)",
          "FlightAware MLAT(6 sites)",
          "FlightAware MLAT(5 sites)",
          "FlightAware MLAT(9 sites)",
          "FlightAware MLAT(5 sites)",
          "FlightAware MLAT(8 sites)",
          "FlightAware MLAT(11 sites)",
          "FlightAware MLAT(7 sites)",
          "FlightAware MLAT(4 sites)",
          "FlightAware MLAT(4 sites)",
          "FlightAware MLAT(11 sites)",
          "FlightAware MLAT(7 sites)",
          "FlightAware MLAT(8 sites)",
          "FlightAware MLAT(6 sites)",
          "FlightAware MLAT(6 sites)",
          "FlightAware MLAT(5 sites)",
          "FlightAware MLAT(6 sites)",
          "FlightAware MLAT(5 sites)",
          "FlightAware MLAT(5 sites)"
        ]
      }
    }
  ]
}