{
  "type": "FeatureCollection",
  "features": [
    {
      "type": "Feature",
      "geometry": {
        "type": "LineString",
        "coordinates": [
          [
            -1.704,
            55.0346
          ],
          [
            -1.704,
            55.0346
          ],
          [
            -1.7217,
            55.0312
          ],
          [
            -1.7386,
            55.0263
          ],
          [
            -1.7608,
            55.02
          ],
          [
            -1.789,
            55.0089
          ],
          [
            -1.8135,
            54.9874
          ],
          [
            -1.8304,
            54.9501
          ],
          [
            -1.8406,
            54.932
          ],
          [
            -1.8567,
            54.8862
          ],
          [
            -1.8717,
            54.8432
          ],
          [
            -1.8933,
            54.7976
          ],
          [
            -1.9171,
            54.7509
          ],
          [
            -1.9406,
            54.7038
          ],
          [
            -1.9628,
            54.6525
          ],
          [
            -1.9742,
            54.598
          ],
          [
            -1.9607,
            54.5234
          ],
          [
            -1.944,
            54.4625
          ],
          [
            -1.9315,
            54.3362
          ],
          [
            -1.9148,
            54.2878
          ],
          [
            -1.8278,
            54.2462
          ],
          [
            -1.5181,
            54.1723
          ],
          [
            -1.4121,
            54.1417
          ],
          [
            -1.3149,
            54.1144
          ],
          [
            -1.2071,
            54.081
          ],
          [
            -1.1089,
            54.0508
          ],
          [
            -1.0144,
            54.0226
          ],
          [
            -0.9032,
            53.9906
          ],
          [
            -0.8006,
            53.9608
          ],
          [
            -0.7037,
            53.9311
          ],
          [
            -0.6081,
            53.9016
          ],
          [
            -0.5078,
            53.8713
          ],
          [
            -0.4098,
            53.8415
          ],
          [
            -0.3055,
            53.8086
          ],
          [
            -0.2083,
            53.7799
          ],
          [
            -0.1119,
            53.7481
          ],
          [
            -0.0143,
            53.7175
          ],
          [
            0.0912,
            53.6945
          ],
          [
            0.2072,
            53.6712
          ],
          [
            0.3128,
            53.6518
          ],
          [
            0.4213,
            53.6269
          ],
          [
            0.5268,
            53.6043
          ],
          [
            0.637,
            53.5805
          ],
          [
            0.7372,
            53.5593
          ],
          [
            0.8444,
            53.5355
          ],
          [
            0.9451,
            53.5131
          ],
          [
            1.0556,
            53.4879
          ],
          [
            1.1593,
            53.4651
          ],
          [
            1.261,
            53.4418
          ],
          [
            1.363,
            53.4186
          ],
          [
            1.4603,
            53.3962
          ],
          [
            1.558,
            53.3744
          ],
          [
            1.662,
            53.3499
          ],
          [
            1.761,
            53.327
          ],
          [
            1.8606,
            53.3039
          ],
          [
            2.0081,
            53.2693
          ],
          [
            2.1085,
            53.2456
          ],
          [
            2.2091,
            53.2221
          ],
          [
            2.3074,
            53.1984
          ],
          [
            2.4064,
            53.1747
          ],
          [
            2.5073,
            53.1507
          ],
          [
            2.6081,
            53.1266
          ],
          [
            2.7169,
            53.0997
          ],
          [
            2.834,
            53.0713
          ],
          [
            2.897,
            53.0559
          ],
          [
            2.9711,
            53.0384
          ],
          [
            3.1195,
            53.0015
          ],
          [
            3.2178,
            52.9767
          ],
          [
            3.3165,
            52.9528
          ],
          [
            3.4167,
            52.9276
          ],
          [
            3.5146,
            52.9022
          ],
          [
            3.6066,
            52.8799
          ],
          [
            3.6797,
            52.8598
          ],
          [
            3.7408,
            52.8341
          ],
          [
            3.8083,
            52.794
          ],
          [
            3.886,
            52.7419
          ],
          [
            3.9601,
            52.6916
          ],
          [
            4.032,
            52.6448
          ],
          [
            4.1078,
            52.5937
          ],
          [
            4.1787,
            52.5469
          ],
          [
            4.2429,
            52.5044
          ],
          [
            4.3123,
            52.4576
          ],
          [
            4.3866,
            52.4081
          ],
          [
            4.4568,
            52.3608
          ],
          [
            4.5313,
            52.3106
          ],
          [
            4.5722,
            52.2829
          ],
          [
            4.6355,
            52.2404
          ],
          [
            4.7061,
            52.1921
          ],
          [
            4.7762,
            52.1439
          ],
          [
            4.8725,
            52.0785
          ],
          [
            4.9293,
            52.0398
          ],
          [
            4.9718,
            52.016
          ],
          [
            5.0204,
            51.9913
          ],
          [
            5.0676,
            51.9677
          ],
          [
            5.1768,
            51.9127
          ],
          [
            5.2149,
            51.8937
          ],
          [
            5.2963,
            51.8533
          ],
          [
            5.3659,
            51.8084
          ],
          [
            5.4134,
            51.7714
          ],
          [
            5.4456,
            51.7461
          ],
          [
            5.4832,
            51.7168
          ],
          [
            5.5477,
            51.6666
          ],
          [
            5.6075,
            51.622
          ],
          [
            5.6677,
            51.5765
          ],
          [
            5.7261,
            51.5311
          ],
          [
            5.787,
            51.4849
          ],
          [
            5.8442,
            51.4407
          ],
          [
            5.9013,
            51.3972
          ],
          [
            5.9583,
            51.3531
          ],
          [
            6.017,
            51.3083
          ],
          [
            6.0483,
            51.2842
          ],
          [
            6.1179,
            51.2297
          ],
          [
            6.1749,
            51.1875
          ],
          [
            6.2293,
            51.1473
          ],
          [
            6.2841,
            51.1066
          ],
          [
            6.3402,
            51.0646
          ],
          [
            6.3715,
            51.0428
          ],
          [
            6.4071,
            51.023
          ],
          [
            6.4571,
            50.9965
          ],
          [
            6.4944,
            50.9764
          ],
          [
            6.5584,
            50.9417
          ],
          [
            6.6178,
            50.9092
          ],
          [
            6.6652,
            50.8833
          ],
          [
            6.7221,
            50.852
          ],
          [
            6.7809,
            50.8195
          ],
          [
            6.8142,
            50.8013
          ],
          [
            6.8724,
            50.7748
          ],
          [
            6.9125,
            50.7574
          ],
          [
            6.9622,
            50.7346
          ],
          [
            7.0003,
            50.7218
          ],
          [
            7.0624,
            50.7031
          ],
          [
            7.1084,
            50.6892
          ],
          [
            7.1432,
            50.6818
          ],
          [
            7.1809,
            50.6747
          ],
          [
            7.214,
            50.6717
          ],
          [
            7.2656,
            50.6732
          ],
          [
            7.2935,
            50.6763
          ],
          [
            7.3305,
            50.6855
          ],
          [
            7.3522,
            50.6943
          ],
          [
            7.3595,
            50.7084
          ],
          [
            7.3521,
            50.7251
          ],
          [
            7.3386,
            50.7363
          ],
          [
            7.3176,
            50.7504
          ],
          [
            7.2896,
            50.7696
          ],
          [
            7.2777,
            50.7753
          ],
          [
            7.2721,
            50.7767
          ],
          [
            7.2521,
            50.7816
          ],
          [
            7.2378,
            50.7902
          ],
          [
            7.2252,
            50.7987
          ],
          [
            7.2145,
            50.806
          ],
          [
            7.2035,
            50.8135
          ],
          [
            7.1936,
            50.8205
          ],
          [
            7.1838,
            50.8274
          ],
          [
            7.1746,
            50.8339
          ],
          [
            7.1644,
            50.8408
          ],
          [
            7.1554,
            50.8471
          ],
          [
            7.1462,
            50.8534
          ]
        ]
      },
      "properties": {
        "time_europe_berlin": [
          "09.10.2025 20:55:24",
          "09.10.2025 20:55:24",
          "09.10.2025 20:55:41",
          "09.10.2025 20:55:57",
          "09.10.2025 20:56:14",
          "09.10.2025 20:56:34",
          "09.10.2025 20:57:00",
          "09.10.2025 20:57:34",
          "09.10.2025 20:57:50",
          "09.10.2025 20:58:22",
          "09.10.2025 20:58:52",
          "09.10.2025 20:59:24",
          "09.10.2025 20:59:55",
          "09.10.2025 21:00:25",
          "09.10.2025 21:00:55",
          "09.10.2025 21:01:25",
          "09.10.2025 21:02:04",
          "09.10.2025 21:02:34",
          "09.10.2025 21:03:40",
          "09.10.2025 21:04:09",
          "09.10.2025 21:04:48",
          "09.10.2025 21:06:10",
          "09.10.2025 21:06:43",
          "09.10.2025 21:07:14",
          "09.10.2025 21:07:48",
          "09.10.2025 21:08:20",
          "09.10.2025 21:08:50",
          "09.10.2025 21:09:24",
          "09.10.2025 21:09:56",
          "09.10.2025 21:10:26",
          "09.10.2025 21:10:57",
          "09.10.2025 21:11:29",
          "09.10.2025 21:12:00",
          "09.10.2025 21:12:31",
          "09.10.2025 21:13:02",
          "09.10.2025 21:13:33",
          "09.10.2025 21:14:03",
          "09.10.2025 21:14:33",
          "09.10.2025 21:15:06",
          "09.10.2025 21:15:36",
          "09.10.2025 21:16:08",
          "09.10.2025 21:16:39",
          "09.10.2025 21:17:11",
          "09.10.2025 21:17:41",
          "09.10.2025 21:18:13",
          "09.10.2025 21:18:43",
          "09.10.2025 21:19:16",
          "09.10.2025 21:19:47",
          "09.10.2025 21:20:18",
          "09.10.2025 21:20:48",
          "09.10.2025 21:21:18",
          "09.10.2025 21:21:48",
          "09.10.2025 21:22:18",
          "09.10.2025 21:22:48",
          "09.10.2025 21:23:18",
          "09.10.2025 21:24:02",
          "09.10.2025 21:24:32",
          "09.10.2025 21:25:02",
          "09.10.2025 21:25:32",
          "09.10.2025 21:26:02",
          "09.10.2025 21:26:32",
          "09.10.2025 21:27:02",
          "09.10.2025 21:27:36",
          "09.10.2025 21:28:11",
          "09.10.2025 21:28:30",
          "09.10.2025 21:28:52",
          "09.10.2025 21:29:37",
          "09.10.2025 21:30:07",
          "09.10.2025 21:30:37",
          "09.10.2025 21:31:07",
          "09.10.2025 21:31:37",
          "09.10.2025 21:32:06",
          "09.10.2025 21:32:28",
          "09.10.2025 21:32:49",
          "09.10.2025 21:33:16",
          "09.10.2025 21:33:46",
          "09.10.2025 21:34:16",
          "09.10.2025 21:34:46",
          "09.10.2025 21:35:16",
          "09.10.2025 21:35:46",
          "09.10.2025 21:36:11",
          "09.10.2025 21:36:41",
          "09.10.2025 21:37:11",
          "09.10.2025 21:37:41",
          "09.10.2025 21:38:11",
          "09.10.2025 21:38:28",
          "09.10.2025 21:38:55",
          "09.10.2025 21:39:25",
          "09.10.2025 21:39:55",
          "09.10.2025 21:40:36",
          "09.10.2025 21:41:00",
          "09.10.2025 21:41:17",
          "09.10.2025 21:41:35",
          "09.10.2025 21:41:53",
          "09.10.2025 21:42:32",
          "09.10.2025 21:42:49",
          "09.10.2025 21:43:19",
          "09.10.2025 21:43:49",
          "09.10.2025 21:44:13",
          "09.10.2025 21:44:29",
          "09.10.2025 21:44:48",
          "09.10.2025 21:45:18",
          "09.10.2025 21:45:48",
          "09.10.2025 21:46:18",
          "09.10.2025 21:46:48",
          "09.10.2025 21:47:18",
          "09.10.2025 21:47:48",
          "09.10.2025 21:48:18",
          "09.10.2025 21:48:48",
          "09.10.2025 21:49:18",
          "09.10.2025 21:49:38",
          "09.10.2025 21:50:16",
          "09.10.2025 21:50:46",
          "09.10.2025 21:51:16",
          "09.10.2025 21:51:46",
          "09.10.2025 21:52:17",
          "09.10.2025 21:52:34",
          "09.10.2025 21:52:52",
          "09.10.2025 21:53:15",
          "09.10.2025 21:53:35",
          "09.10.2025 21:54:05",
          "09.10.2025 21:54:35",
          "09.10.2025 21:54:57",
          "09.10.2025 21:55:27",
          "09.10.2025 21:55:57",
          "09.10.2025 21:56:15",
          "09.10.2025 21:56:44",
          "09.10.2025 21:57:04",
          "09.10.2025 21:57:32",
          "09.10.2025 21:57:53",
          "09.10.2025 21:58:23",
          "09.10.2025 21:58:44",
          "09.10.2025 21:59:02",
          "09.10.2025 21:59:20",
          "09.10.2025 21:59:37",
          "09.10.2025 22:00:05",
          "09.10.2025 22:00:22",
          "09.10.2025 22:00:48",
          "09.10.2025 22:01:04",
          "09.10.2025 22:01:20",
          "09.10.2025 22:01:38",
          "09.10.2025 22:01:54",
          "09.10.2025 22:02:16",
          "09.10.2025 22:02:46",
          "09.10.2025 22:02:57",
          "09.10.2025 22:03:02",
          "09.10.2025 22:03:18",
          "09.10.2025 22:03:34",
          "09.10.2025 22:03:50",
          "09.10.2025 22:04:06",
          "09.10.2025 22:04:22",
          "09.10.2025 22:04:38",
          "09.10.2025 22:04:54",
          "09.10.2025 22:05:10",
          "09.10.2025 22:05:26",
          "09.10.2025 22:05:42",
          "09.10.2025 22:05:58"
        ],
        "course_deg_clockwise_from_north": [
          "236",
          "236",
          "247",
          "246",
          "244",
          "239",
          "224",
          "205",
          "202",
          "195",
          "196",
          "196",
          "196",
          "195",
          "190",
          "177",
          "175",
          "176",
          "174",
          "137",
          "116",
          "116",
          "117",
          "116",
          "117",
          "116",
          "117",
          "116",
          "117",
          "117",
          "116",
          "118",
          "117",
          "118",
          "117",
          "118",
          "113",
          "110",
          "110",
          "111",
          "109",
          "110",
          "110",
          "111",
          "110",
          "111",
          "110",
          "111",
          "111",
          "111",
          "111",
          "111",
          "112",
          "110",
          "111",
          "111",
          "112",
          "112",
          "112",
          "111",
          "112",
          "112",
          "111",
          "113",
          "111",
          "112",
          "112",
          "113",
          "112",
          "113",
          "113",
          "113",
          "118",
          "131",
          "137",
          "138",
          "138",
          "137",
          "138",
          "137",
          "138",
          "137",
          "138",
          "138",
          "138",
          "138",
          "138",
          "138",
          "138",
          "138",
          "136",
          "130",
          "129",
          "130",
          "129",
          "129",
          "129",
          "140",
          "142",
          "141",
          "142",
          "141",
          "141",
          "141",
          "140",
          "141",
          "141",
          "141",
          "141",
          "140",
          "142",
          "140",
          "139",
          "140",
          "140",
          "139",
          "135",
          "131",
          "131",
          "130",
          "131",
          "131",
          "131",
          "130",
          "132",
          "129",
          "124",
          "126",
          "124",
          "116",
          "116",
          "113",
          "107",
          "106",
          "90",
          "87",
          "71",
          "68",
          "40",
          "357",
          "332",
          "318",
          "317",
          "317",
          "296",
          "290",
          "298",
          "317",
          "318",
          "317",
          "316",
          "318",
          "319",
          "317",
          "319",
          "317",
          "317"
        ],
        "speed_kts": [
          "77",
          "77",
          "106",
          "125",
          "152",
          "181",
          "201",
          "232",
          "242",
          "298",
          "310",
          "334",
          "346",
          "354",
          "404",
          "418",
          "408",
          "418",
          "424",
          "432",
          "434",
          "446",
          "456",
          "452",
          "446",
          "452",
          "456",
          "458",
          "462",
          "454",
          "454",
          "456",
          "460",
          "462",
          "470",
          "476",
          "472",
          "472",
          "472",
          "474",
          "468",
          "466",
          "464",
          "462",
          "462",
          "462",
          "460",
          "462",
          "462",
          "462",
          "462",
          "464",
          "465",
          "464",
          "465",
          "465",
          "466",
          "466",
          "466",
          "465",
          "466",
          "465",
          "464",
          "466",
          "465",
          "465",
          "464",
          "464",
          "465",
          "465",
          "465",
          "465",
          "469",
          "479",
          "483",
          "484",
          "484",
          "483",
          "481",
          "468",
          "471",
          "473",
          "477",
          "478",
          "477",
          "476",
          "473",
          "470",
          "467",
          "462",
          "463",
          "462",
          "462",
          "461",
          "457",
          "453",
          "441",
          "441",
          "441",
          "441",
          "440",
          "440",
          "424",
          "420",
          "423",
          "423",
          "418",
          "410",
          "402",
          "396",
          "394",
          "388",
          "384",
          "381",
          "383",
          "376",
          "373",
          "372",
          "370",
          "369",
          "368",
          "367",
          "362",
          "350",
          "346",
          "350",
          "329",
          "303",
          "300",
          "304",
          "319",
          "311",
          "294",
          "278",
          "265",
          "243",
          "213",
          "219",
          "217",
          "201",
          "203",
          "203",
          "187",
          "189",
          "185",
          "185",
          "173",
          "163",
          "144",
          "140",
          "136",
          "123",
          "127",
          "121",
          "116",
          "117",
          "118"
        ],
        "speed_mph": [
          "89",
          "89",
          "122",
          "144",
          "175",
          "208",
          "231",
          "267",
          "278",
          "343",
          "357",
          "384",
          "398",
          "407",
          "465",
          "481",
          "470",
          "481",
          "488",
          "497",
          "499",
          "513",
          "525",
          "520",
          "513",
          "520",
          "525",
          "527",
          "532",
          "522",
          "522",
          "525",
          "529",
          "532",
          "541",
          "548",
          "543",
          "543",
          "543",
          "545",
          "539",
          "536",
          "534",
          "532",
          "532",
          "532",
          "529",
          "532",
          "532",
          "532",
          "532",
          "534",
          "535",
          "534",
          "535",
          "535",
          "536",
          "536",
          "536",
          "535",
          "536",
          "535",
          "534",
          "536",
          "535",
          "535",
          "534",
          "534",
          "535",
          "535",
          "535",
          "535",
          "540",
          "551",
          "556",
          "557",
          "557",
          "556",
          "554",
          "539",
          "542",
          "544",
          "549",
          "550",
          "549",
          "548",
          "544",
          "541",
          "537",
          "532",
          "533",
          "532",
          "532",
          "531",
          "526",
          "521",
          "507",
          "507",
          "507",
          "507",
          "506",
          "506",
          "488",
          "483",
          "487",
          "487",
          "481",
          "472",
          "463",
          "456",
          "453",
          "447",
          "442",
          "438",
          "441",
          "433",
          "429",
          "428",
          "426",
          "425",
          "423",
          "422",
          "417",
          "403",
          "398",
          "403",
          "379",
          "349",
          "345",
          "350",
          "367",
          "358",
          "338",
          "320",
          "305",
          "280",
          "245",
          "252",
          "250",
          "231",
          "234",
          "234",
          "215",
          "217",
          "213",
          "213",
          "199",
          "188",
          "166",
          "161",
          "157",
          "142",
          "146",
          "139",
          "133",
          "135",
          "136"
        ],
        "altitude_ft": [
          "900",
          "900",
          "1900",
          "2550",
          "3350",
          "4475",
          "5625",
          "6875",
          "7600",
          "9600",
          "11125",
          "12300",
          "13700",
          "14775",
          "15000",
          "15700",
          "17375",
          "18125",
          "19975",
          "20800",
          "21800",
          "23875",
          "24475",
          "25500",
          "26750",
          "27675",
          "28475",
          "29400",
          "30275",
          "31350",
          "32300",
          "33075",
          "33850",
          "34600",
          "34975",
          "35000",
          "35000",
          "35000",
          "35000",
          "35000",
          "35000",
          "35000",
          "35000",
          "35000",
          "35000",
          "35000",
          "35000",
          "35000",
          "35000",
          "35000",
          "35000",
          "35000",
          "35000",
          "35000",
          "35000",
          "35000",
          "35000",
          "35000",
          "35000",
          "35000",
          "35000",
          "35000",
          "35000",
          "35000",
          "35000",
          "35000",
          "35000",
          "35000",
          "35000",
          "35000",
          "35000",
          "35000",
          "35000",
          "35000",
          "35000",
          "35000",
          "35000",
          "35000",
          "34925",
          "34050",
          "33225",
          "32275",
          "31250",
          "30250",
          "29300",
          "28750",
          "27875",
          "26900",
          "26175",
          "25225",
          "24475",
          "23900",
          "23300",
          "22725",
          "21475",
          "21100",
          "21000",
          "21000",
          "21000",
          "21000",
          "21000",
          "20975",
          "20025",
          "19025",
          "18050",
          "17000",
          "16200",
          "16000",
          "15425",
          "14375",
          "13700",
          "12525",
          "11475",
          "10550",
          "10050",
          "10000",
          "10000",
          "10000",
          "10000",
          "10000",
          "10000",
          "10000",
          "9975",
          "9225",
          "8175",
          "8000",
          "7275",
          "6925",
          "6550",
          "6125",
          "5125",
          "4400",
          "3925",
          "3450",
          "3075",
          "2600",
          "2600",
          "2600",
          "2600",
          "2600",
          "2600",
          "2600",
          "2600",
          "2225",
          "2025",
          "1950",
          "1800",
          "1575",
          "1350",
          "1200",
          "1050",
          "950",
          "825",
          "650",
          "425",
          "200",
          "50"
        ],
        "vertical_rate_fpm": [
          "",
          "3529",
          "3000",
          "2636",
          "3122",
          "2967",
          "2400",
          "2370",
          "3406",
          "3411",
          "2613",
          "2452",
          "2434",
          "1300",
          "925",
          "2065",
          "2109",
          "1625",
          "1689",
          "1610",
          "1525",
          "1396",
          "1523",
          "2100",
          "1977",
          "1669",
          "1617",
          "1636",
          "1887",
          "1992",
          "1643",
          "1476",
          "1476",
          "1089",
          "387",
          "25",
          "",
          "",
          "",
          "",
          "",
          "",
          "",
          "",
          "",
          "",
          "",
          "",
          "",
          "",
          "",
          "",
          "",
          "",
          "",
          "",
          "",
          "",
          "",
          "",
          "",
          "",
          "",
          "",
          "",
          "",
          "",
          "",
          "",
          "",
          "",
          "",
          "",
          "",
          "",
          "",
          "",
          "-75",
          "-950",
          "-1855",
          "-1936",
          "-1975",
          "-2025",
          "-1950",
          "-1915",
          "-1943",
          "-1947",
          "-1700",
          "-1415",
          "-1569",
          "-1939",
          "-2014",
          "-1958",
          "-1921",
          "-1741",
          "-606",
          "-100",
          "",
          "",
          "",
          "-31",
          "-975",
          "-1950",
          "-1975",
          "-2025",
          "-1850",
          "-1000",
          "-775",
          "-1625",
          "-2070",
          "-1914",
          "-1963",
          "-1975",
          "-1425",
          "-541",
          "-63",
          "",
          "",
          "",
          "",
          "",
          "-29",
          "-894",
          "-1800",
          "-1531",
          "-1149",
          "-1316",
          "-906",
          "-980",
          "-1676",
          "-2029",
          "-1846",
          "-1583",
          "-1457",
          "-1133",
          "-633",
          "",
          "",
          "",
          "",
          "",
          "",
          "-433",
          "-841",
          "-1031",
          "-643",
          "-703",
          "-844",
          "-703",
          "-563",
          "-469",
          "-422",
          "-563",
          "-750",
          "-844",
          "-703",
          "-563"
        ],
        "reporting_facility": [
          "FlightAware MLAT(13 sites)",
          "FlightAware MLAT(13 sites)",
          "FlightAware MLAT(17 sites)",
          "FlightAware MLAT(16 sites)",
          "FlightAware MLAT(18 sites)",
          "FlightAware MLAT(7 sites)",
          "FlightAware MLAT(18 sites)",
          "FlightAware MLAT(7 sites)",
          "FlightAware MLAT(15 sites)",
          "FlightAware MLAT(16 sites)",
          "FlightAware MLAT(14 sites)",
          "FlightAware MLAT(5 sites)",
          "FlightAware MLAT(9 sites)",
          "FlightAware MLAT(12 sites)",
          "FlightAware MLAT(15 sites)",
          "FlightAware MLAT(16 sites)",
          "FlightAware MLAT(16 sites)",
          "FlightAware MLAT(13 sites)",
          "FlightAware MLAT(4 sites)",
          "FlightAware MLAT(18 sites)",
          "FlightAware MLAT(8 sites)",
          "FlightAware MLAT(11 sites)",
          "FlightAware MLAT(4 sites)",
          "FlightAware MLAT(9 sites)",
          "FlightAware MLAT(4 sites)",
          "FlightAware MLAT(15 sites)",
          "FlightAware MLAT(16 sites)",
          "FlightAware MLAT(4 sites)",
          "FlightAware MLAT(7 sites)",
          "FlightAware MLAT(15 sites)",
          "FlightAware MLAT(5 sites)",
          "FlightAware MLAT(8 sites)",
          "FlightAware MLAT(13 sites)",
          "FlightAware MLAT(16 sites)",
          "FlightAware MLAT(15 sites)",
          "FlightAware MLAT(11 sites)",
          "FlightAware MLAT(8 sites)",
          "FlightAware MLAT(11 sites)",
          "FlightAware MLAT(8 sites)",
          "FlightAware MLAT(14 sites)",
          "FlightAware MLAT(4 sites)",
          "FlightAware MLAT(5 sites)",
          "FlightAware MLAT(12 sites)",
          "FlightAware MLAT(4 sites)",
          "FlightAware MLAT(6 sites)",
          "FlightAware MLAT(9 sites)",
          "FlightAware MLAT(6 sites)",
          "FlightAware MLAT(7 sites)",
          "FlightAware ADS-B(EGSG)",
          "FlightAware ADS-B(AMS / EHAM)",
          "FlightAware ADS-B(EGSQ)",
          "FlightAware ADS-B(RTM / EHRD)",
          "FlightAware ADS-B(STN / EGSS)",
          "FlightAware ADS-B(HRT / EGXU)",
          "FlightAware ADS-B(LCY / EGLC)",
          "FlightAware ADS-B(EGSP)",
          "FlightAware ADS-B(EGXT)",
          "FlightAware ADS-B(ODH / EGVO)",
          "FlightAware ADS-B(EGXE)",
          "FlightAware ADS-B(EGYD)",
          "FlightAware ADS-B(EGBG)",
          "FlightAware ADS-B(EGNY)",
          "FlightAware ADS-B(EHVB)",
          "FlightAware ADS-B(UTC / EHSB)",
          "FlightAware ADS-B(EGNA)",
          "FlightAware ADS-B(EBHN)",
          "FlightAware ADS-B(AMS / EHAM)",
          "FlightAware ADS-B(EGSQ)",
          "FlightAware ADS-B(EGSR)",
          "FlightAware ADS-B(MSE / EGMH)",
          "FlightAware ADS-B(EGSV)",
          "FlightAware ADS-B(EGSL)",
          "FlightAware ADS-B(EGLW)",
          "FlightAware ADS-B(RTM / EHRD)",
          "FlightAware ADS-B(EHDR)",
          "FlightAware ADS-B(AMS / EHAM)",
          "FlightAware ADS-B(EGUW)",
          "FlightAware ADS-B(AMS / EHAM)",
          "FlightAware ADS-B(EBBL)",
          "FlightAware ADS-B(EGSQ)",
          "FlightAware ADS-B(AMS / EHAM)",
          "FlightAware ADS-B(AMS / EHAM)",
          "FlightAware ADS-B(EHHO)",
          "FlightAware ADS-B(EIN / EHEH)",
          "FlightAware ADS-B(GLZ / EHGR)",
          "FlightAware ADS-B(EDLS)",
          "FlightAware ADS-B(EHHA)",
          "FlightAware ADS-B(EHHV)",
          "FlightAware ADS-B(GLZ / EHGR)",
          "FlightAware ADS-B(EBLC)",
          "FlightAware ADS-B(AAH / EDKA)",
          "FlightAware ADS-B(EGSQ)",
          "FlightAware ADS-B(UDE / EHVK)",
          "FlightAware ADS-B(AMS / EHAM)",
          "FlightAware ADS-B(EHDL)",
          "FlightAware ADS-B(RTM / EHRD)",
          "FlightAware ADS-B(UDE / EHVK)",
          "FlightAware ADS-B(AMS / EHAM)",
          "FlightAware ADS-B(LEY / EHLE)",
          "FlightAware ADS-B(EHHO)",
          "FlightAware ADS-B(GLZ / EHGR)",
          "FlightAware ADS-B(GKE / ETNG)",
          "FlightAware ADS-B(AMS / EHAM)",
          "FlightAware ADS-B(EBSH)",
          "FlightAware ADS-B(EIN / EHEH)",
          "FlightAware ADS-B(LEY / EHLE)",
          "FlightAware ADS-B(GLZ / EHGR)",
          "FlightAware ADS-B(EHSE)",
          "FlightAware ADS-B(EHBD)",
          "FlightAware ADS-B(EHDL)",
          "FlightAware ADS-B(EDLG)",
          "FlightAware ADS-B(DTM / EDLW)",
          "FlightAware ADS-B(CGN / EDDK)",
          "FlightAware ADS-B(MGL / EDLN)",
          "FlightAware ADS-B(EHTE)",
          "FlightAware ADS-B(CGN / EDDK)",
          "FlightAware ADS-B(EDGQ)",
          "FlightAware ADS-B(DUS / EDDL)",
          "FlightAware ADS-B(MGL / EDLN)",
          "FlightAware ADS-B(ETOU)",
          "FlightAware ADS-B(MST / EHBK)",
          "FlightAware ADS-B(EIN / EHEH)",
          "FlightAware ADS-B(MGL / EDLN)",
          "FlightAware ADS-B(GKE / ETNG)",
          "FlightAware ADS-B(EDGQ)",
          "FlightAware ADS-B(CGN / EDDK)",
          "FlightAware ADS-B(CGN / EDDK)",
          "FlightAware ADS-B(MST / EHBK)",
          "FlightAware ADS-B(CGN / EDDK)",
          "FlightAware ADS-B(CGN / EDDK)",
          "FlightAware ADS-B(CGN / EDDK)",
          "FlightAware ADS-B(EDKB)",
          "FlightAware ADS-B(GKE / ETNG)",
          "FlightAware ADS-B(EDKB)",
          "FlightAware ADS-B(EDKV)",
          "FlightAware ADS-B(DUS / EDDL)",
          "FlightAware ADS-B(CGN / EDDK)",
          "FlightAware ADS-B(ETNN)",
          "FlightAware ADS-B(EDKB)",
          "FlightAware ADS-B(CGN / EDDK)",
          "FlightAware ADS-B(DUS / EDDL)",
          "FlightAware ADS-B(CGN / EDDK)",
          "FlightAware ADS-B(CGN / EDDK)",
          "FlightAware ADS-B(EDKV)",
          "Surface and Near-Surface",
          "FlightAware ADS-B(EDKB)",
          "FlightAware ADS-B(CGN / EDDK)",
          "FlightAware ADS-B(CGN / EDDK)",
          "FlightAware ADS-B(EDKB)",
          "FlightAware ADS-B(CGN / EDDK)",
          "FlightAware ADS-B(EDRK)",
          "FlightAware ADS-B(CGN / EDDK)",
          "FlightAware ADS-B(CGN / EDDK)",
          "FlightAware ADS-B(CGN / EDDK)",
          "FlightAware ADS-B(EDKB)",
          "FlightAware ADS-B(CGN / EDDK)",
          "FlightAware ADS-B(ETNN)"
        ]
      }
    }
  ]
}