{
  "type": "FeatureCollection",
  "features": [
    {
      "type": "Feature",
      "geometry": {
        "type": "LineString",
        "coordinates": [
          [
            2.715,
            39.5493
          ],
          [
            2.7011,
            39.5433
          ],
          [
            2.6884,
            39.538
          ],
          [
            2.6742,
            39.5315
          ],
          [
            2.6583,
            39.5235
          ],
          [
            2.6361,
            39.5118
          ],
          [
            2.6067,
            39.495
          ],
          [
            2.58,
            39.4661
          ],
          [
            2.5697,
            39.4437
          ],
          [
            2.5731,
            39.4237
          ],
          [
            2.5939,
            39.401
          ],
          [
            2.6227,
            39.3902
          ],
          [
            2.6912,
            39.3907
          ],
          [
            2.7325,
            39.3984
          ],
          [
            2.7947,
            39.4176
          ],
          [
            2.8611,
            39.4406
          ],
          [
            2.9345,
            39.465
          ],
          [
            2.9777,
            39.4789
          ],
          [
            3.018,
            39.4984
          ],
          [
            3.0717,
            39.5367
          ],
          [
            3.126,
            39.58
          ],
          [
            3.183,
            39.6248
          ],
          [
            3.2372,
            39.6658
          ],
          [
            3.296,
            39.7103
          ],
          [
            3.3543,
            39.7544
          ],
          [
            3.4147,
            39.7995
          ],
          [
            3.4773,
            39.8466
          ],
          [
            3.5104,
            39.8807
          ],
          [
            3.5676,
            39.9705
          ],
          [
            3.6021,
            40.0304
          ],
          [
            3.6368,
            40.0887
          ],
          [
            3.6791,
            40.1581
          ],
          [
            3.726,
            40.2357
          ],
          [
            3.7634,
            40.2965
          ],
          [
            3.8019,
            40.3595
          ],
          [
            3.8399,
            40.4214
          ],
          [
            3.8769,
            40.4812
          ],
          [
            3.9148,
            40.5427
          ],
          [
            3.9531,
            40.6044
          ],
          [
            3.9907,
            40.665
          ],
          [
            4.028,
            40.7251
          ],
          [
            4.0657,
            40.7855
          ],
          [
            4.1049,
            40.8483
          ],
          [
            4.1414,
            40.9068
          ],
          [
            4.1789,
            40.9664
          ],
          [
            4.2173,
            41.0277
          ],
          [
            4.2568,
            41.0906
          ],
          [
            4.2914,
            41.1463
          ],
          [
            4.3304,
            41.2242
          ],
          [
            4.3613,
            41.2927
          ],
          [
            4.3997,
            41.3751
          ],
          [
            4.4296,
            41.4391
          ],
          [
            4.4596,
            41.5023
          ],
          [
            4.4904,
            41.5674
          ],
          [
            4.5211,
            41.6323
          ],
          [
            4.5514,
            41.696
          ],
          [
            4.5804,
            41.757
          ],
          [
            4.6121,
            41.8231
          ],
          [
            4.6427,
            41.887
          ],
          [
            4.664,
            41.9196
          ],
          [
            4.7271,
            41.9781
          ],
          [
            4.7923,
            42.0278
          ],
          [
            4.8611,
            42.0807
          ],
          [
            4.9257,
            42.1307
          ],
          [
            4.9897,
            42.1797
          ],
          [
            5.054,
            42.2287
          ],
          [
            5.1212,
            42.2802
          ],
          [
            5.1848,
            42.3288
          ],
          [
            5.2495,
            42.378
          ],
          [
            5.3125,
            42.4258
          ],
          [
            5.3733,
            42.4719
          ],
          [
            5.4358,
            42.5191
          ],
          [
            5.5005,
            42.568
          ],
          [
            5.5664,
            42.6177
          ],
          [
            5.6267,
            42.6628
          ],
          [
            5.6869,
            42.7078
          ],
          [
            5.7491,
            42.7545
          ],
          [
            5.8083,
            42.7985
          ],
          [
            5.8648,
            42.8405
          ],
          [
            5.9203,
            42.8819
          ],
          [
            5.9764,
            42.9235
          ],
          [
            6.0308,
            42.9637
          ],
          [
            6.0854,
            43.004
          ],
          [
            6.1364,
            43.0416
          ],
          [
            6.1879,
            43.0795
          ],
          [
            6.2415,
            43.1189
          ],
          [
            6.2926,
            43.1564
          ],
          [
            6.3212,
            43.1771
          ],
          [
            6.3642,
            43.198
          ],
          [
            6.4369,
            43.2232
          ],
          [
            6.5003,
            43.2455
          ],
          [
            6.5456,
            43.2584
          ],
          [
            6.611,
            43.2717
          ],
          [
            6.6652,
            43.2833
          ],
          [
            6.7179,
            43.2951
          ],
          [
            6.7698,
            43.3073
          ],
          [
            6.8221,
            43.3189
          ],
          [
            6.8739,
            43.3293
          ],
          [
            6.9232,
            43.3408
          ],
          [
            6.956,
            43.3488
          ],
          [
            6.9811,
            43.3588
          ],
          [
            7.002,
            43.3698
          ],
          [
            7.025,
            43.3835
          ],
          [
            7.0572,
            43.403
          ],
          [
            7.0815,
            43.4166
          ],
          [
            7.1103,
            43.4326
          ],
          [
            7.1375,
            43.448
          ],
          [
            7.154,
            43.4575
          ],
          [
            7.1614,
            43.4768
          ],
          [
            7.1604,
            43.4955
          ],
          [
            7.158,
            43.519
          ],
          [
            7.156,
            43.5425
          ],
          [
            7.1538,
            43.5631
          ],
          [
            7.1527,
            43.5741
          ],
          [
            7.1521,
            43.5856
          ],
          [
            7.1525,
            43.6013
          ],
          [
            7.1535,
            43.6058
          ],
          [
            7.1558,
            43.6107
          ],
          [
            7.1639,
            43.6189
          ],
          [
            7.1744,
            43.6263
          ],
          [
            7.1837,
            43.6331
          ],
          [
            7.1934,
            43.6401
          ],
          [
            7.2024,
            43.6467
          ],
          [
            7.2111,
            43.653
          ]
        ]
      },
      "properties": {
        "time_europe_berlin": [
          "28.10.2025 11:56:27",
          "28.10.2025 11:56:43",
          "28.10.2025 11:56:59",
          "28.10.2025 11:57:15",
          "28.10.2025 11:57:31",
          "28.10.2025 11:57:51",
          "28.10.2025 11:58:16",
          "28.10.2025 11:58:46",
          "28.10.2025 11:59:03",
          "28.10.2025 11:59:19",
          "28.10.2025 11:59:38",
          "28.10.2025 11:59:55",
          "28.10.2025 12:00:28",
          "28.10.2025 12:00:47",
          "28.10.2025 12:01:17",
          "28.10.2025 12:01:47",
          "28.10.2025 12:02:17",
          "28.10.2025 12:02:37",
          "28.10.2025 12:02:54",
          "28.10.2025 12:03:24",
          "28.10.2025 12:03:54",
          "28.10.2025 12:04:24",
          "28.10.2025 12:04:54",
          "28.10.2025 12:05:24",
          "28.10.2025 12:05:54",
          "28.10.2025 12:06:24",
          "28.10.2025 12:06:54",
          "28.10.2025 12:07:14",
          "28.10.2025 12:07:58",
          "28.10.2025 12:08:28",
          "28.10.2025 12:08:58",
          "28.10.2025 12:09:32",
          "28.10.2025 12:10:10",
          "28.10.2025 12:10:40",
          "28.10.2025 12:11:10",
          "28.10.2025 12:11:40",
          "28.10.2025 12:12:10",
          "28.10.2025 12:12:40",
          "28.10.2025 12:13:10",
          "28.10.2025 12:13:41",
          "28.10.2025 12:14:11",
          "28.10.2025 12:14:41",
          "28.10.2025 12:15:11",
          "28.10.2025 12:15:41",
          "28.10.2025 12:16:11",
          "28.10.2025 12:16:42",
          "28.10.2025 12:17:13",
          "28.10.2025 12:17:39",
          "28.10.2025 12:18:17",
          "28.10.2025 12:18:50",
          "28.10.2025 12:19:30",
          "28.10.2025 12:20:00",
          "28.10.2025 12:20:31",
          "28.10.2025 12:21:02",
          "28.10.2025 12:21:32",
          "28.10.2025 12:22:02",
          "28.10.2025 12:22:32",
          "28.10.2025 12:23:02",
          "28.10.2025 12:23:32",
          "28.10.2025 12:23:49",
          "28.10.2025 12:24:21",
          "28.10.2025 12:24:52",
          "28.10.2025 12:25:23",
          "28.10.2025 12:25:53",
          "28.10.2025 12:26:23",
          "28.10.2025 12:26:53",
          "28.10.2025 12:27:24",
          "28.10.2025 12:27:55",
          "28.10.2025 12:28:26",
          "28.10.2025 12:28:56",
          "28.10.2025 12:29:26",
          "28.10.2025 12:29:56",
          "28.10.2025 12:30:26",
          "28.10.2025 12:30:56",
          "28.10.2025 12:31:26",
          "28.10.2025 12:31:56",
          "28.10.2025 12:32:26",
          "28.10.2025 12:32:56",
          "28.10.2025 12:33:26",
          "28.10.2025 12:33:56",
          "28.10.2025 12:34:26",
          "28.10.2025 12:34:56",
          "28.10.2025 12:35:27",
          "28.10.2025 12:35:57",
          "28.10.2025 12:36:27",
          "28.10.2025 12:36:57",
          "28.10.2025 12:37:27",
          "28.10.2025 12:37:43",
          "28.10.2025 12:38:03",
          "28.10.2025 12:38:34",
          "28.10.2025 12:39:04",
          "28.10.2025 12:39:27",
          "28.10.2025 12:39:57",
          "28.10.2025 12:40:27",
          "28.10.2025 12:40:57",
          "28.10.2025 12:41:27",
          "28.10.2025 12:41:58",
          "28.10.2025 12:42:28",
          "28.10.2025 12:42:58",
          "28.10.2025 12:43:19",
          "28.10.2025 12:43:38",
          "28.10.2025 12:43:54",
          "28.10.2025 12:44:15",
          "28.10.2025 12:44:45",
          "28.10.2025 12:45:08",
          "28.10.2025 12:45:38",
          "28.10.2025 12:46:08",
          "28.10.2025 12:46:26",
          "28.10.2025 12:46:51",
          "28.10.2025 12:47:13",
          "28.10.2025 12:47:43",
          "28.10.2025 12:48:14",
          "28.10.2025 12:48:44",
          "28.10.2025 12:49:00",
          "28.10.2025 12:49:16",
          "28.10.2025 12:49:42",
          "28.10.2025 12:49:49",
          "28.10.2025 12:49:58",
          "28.10.2025 12:50:14",
          "28.10.2025 12:50:32",
          "28.10.2025 12:50:48",
          "28.10.2025 12:51:04",
          "28.10.2025 12:51:20",
          "28.10.2025 12:51:36"
        ],
        "course_deg_clockwise_from_north": [
          "240",
          "242",
          "241",
          "239",
          "236",
          "235",
          "227",
          "209",
          "186",
          "162",
          "129",
          "104",
          "83",
          "72",
          "67",
          "66",
          "67",
          "66",
          "53",
          "45",
          "44",
          "45",
          "46",
          "46",
          "46",
          "46",
          "45",
          "32",
          "24",
          "24",
          "25",
          "25",
          "25",
          "25",
          "25",
          "25",
          "25",
          "25",
          "25",
          "25",
          "25",
          "25",
          "26",
          "25",
          "26",
          "25",
          "26",
          "23",
          "19",
          "19",
          "20",
          "19",
          "20",
          "20",
          "20",
          "20",
          "19",
          "20",
          "20",
          "31",
          "43",
          "45",
          "44",
          "44",
          "44",
          "44",
          "44",
          "44",
          "44",
          "44",
          "44",
          "44",
          "44",
          "45",
          "45",
          "45",
          "45",
          "45",
          "45",
          "45",
          "45",
          "45",
          "45",
          "45",
          "45",
          "45",
          "45",
          "47",
          "64",
          "65",
          "64",
          "74",
          "74",
          "73",
          "72",
          "72",
          "74",
          "74",
          "72",
          "69",
          "58",
          "52",
          "50",
          "51",
          "53",
          "52",
          "53",
          "45",
          "1",
          "356",
          "356",
          "356",
          "355",
          "357",
          "359",
          "6",
          "12",
          "23",
          "43",
          "47",
          "45",
          "45",
          "44",
          "45"
        ],
        "speed_kts": [
          "150",
          "157",
          "158",
          "185",
          "207",
          "231",
          "253",
          "278",
          "298",
          "309",
          "323",
          "335",
          "357",
          "370",
          "393",
          "417",
          "426",
          "427",
          "429",
          "431",
          "432",
          "442",
          "449",
          "454",
          "463",
          "470",
          "475",
          "475",
          "478",
          "480",
          "482",
          "487",
          "489",
          "486",
          "484",
          "483",
          "483",
          "483",
          "482",
          "483",
          "482",
          "482",
          "482",
          "482",
          "482",
          "483",
          "483",
          "483",
          "480",
          "480",
          "480",
          "479",
          "481",
          "482",
          "484",
          "486",
          "487",
          "487",
          "489",
          "494",
          "498",
          "498",
          "498",
          "501",
          "504",
          "494",
          "485",
          "480",
          "474",
          "476",
          "480",
          "484",
          "488",
          "479",
          "467",
          "458",
          "452",
          "439",
          "431",
          "417",
          "406",
          "401",
          "392",
          "392",
          "388",
          "390",
          "396",
          "401",
          "409",
          "392",
          "366",
          "348",
          "318",
          "298",
          "284",
          "283",
          "284",
          "276",
          "262",
          "252",
          "246",
          "239",
          "226",
          "207",
          "196",
          "187",
          "186",
          "185",
          "183",
          "177",
          "163",
          "160",
          "147",
          "149",
          "139",
          "136",
          "136",
          "134",
          "132",
          "130",
          "129",
          "129",
          "127",
          "102"
        ],
        "speed_mph": [
          "173",
          "181",
          "182",
          "213",
          "238",
          "266",
          "291",
          "320",
          "343",
          "356",
          "372",
          "386",
          "411",
          "426",
          "452",
          "480",
          "490",
          "491",
          "494",
          "496",
          "497",
          "509",
          "517",
          "522",
          "533",
          "541",
          "547",
          "547",
          "550",
          "552",
          "555",
          "560",
          "563",
          "559",
          "557",
          "556",
          "556",
          "556",
          "555",
          "556",
          "555",
          "555",
          "555",
          "555",
          "555",
          "556",
          "556",
          "556",
          "552",
          "552",
          "552",
          "551",
          "554",
          "555",
          "557",
          "559",
          "560",
          "560",
          "563",
          "568",
          "573",
          "573",
          "573",
          "577",
          "580",
          "568",
          "558",
          "552",
          "545",
          "548",
          "552",
          "557",
          "562",
          "551",
          "537",
          "527",
          "520",
          "505",
          "496",
          "480",
          "467",
          "461",
          "451",
          "451",
          "447",
          "449",
          "456",
          "461",
          "471",
          "451",
          "421",
          "400",
          "366",
          "343",
          "327",
          "326",
          "327",
          "318",
          "302",
          "290",
          "283",
          "275",
          "260",
          "238",
          "226",
          "215",
          "214",
          "213",
          "211",
          "204",
          "188",
          "184",
          "169",
          "171",
          "160",
          "157",
          "157",
          "154",
          "152",
          "150",
          "148",
          "148",
          "146",
          "117"
        ],
        "altitude_ft": [
          "475",
          "1325",
          "2150",
          "2600",
          "3125",
          "3825",
          "4875",
          "6125",
          "6875",
          "7500",
          "8325",
          "9000",
          "10425",
          "11225",
          "12475",
          "13750",
          "15250",
          "16300",
          "17375",
          "19025",
          "20725",
          "22075",
          "23275",
          "24500",
          "25425",
          "26350",
          "27275",
          "27850",
          "29200",
          "29650",
          "29875",
          "30000",
          "30000",
          "30000",
          "30000",
          "30000",
          "30000",
          "30000",
          "30000",
          "30000",
          "30000",
          "30000",
          "30000",
          "30000",
          "30000",
          "30000",
          "30000",
          "30000",
          "30000",
          "30000",
          "30000",
          "30000",
          "30000",
          "30000",
          "30000",
          "30000",
          "30000",
          "30000",
          "30000",
          "30000",
          "30000",
          "30000",
          "30000",
          "30000",
          "30000",
          "29575",
          "28800",
          "28025",
          "27400",
          "26875",
          "26375",
          "25875",
          "25325",
          "24500",
          "23325",
          "22075",
          "20800",
          "19525",
          "18375",
          "17225",
          "16050",
          "15375",
          "14775",
          "14225",
          "14000",
          "14000",
          "14000",
          "14000",
          "13575",
          "12550",
          "11575",
          "10850",
          "9975",
          "9275",
          "8525",
          "7575",
          "6575",
          "5675",
          "4925",
          "4500",
          "4075",
          "3775",
          "3500",
          "3200",
          "3000",
          "2950",
          "2950",
          "2950",
          "2950",
          "2950",
          "2925",
          "2200",
          "1925",
          "1850",
          "1650",
          "1325",
          "1200",
          "1050",
          "800",
          "600",
          "400",
          "200",
          "25",
          ""
        ],
        "vertical_rate_fpm": [
          "",
          "3141",
          "2391",
          "1828",
          "2042",
          "2333",
          "2509",
          "2553",
          "2500",
          "2486",
          "2500",
          "2520",
          "2567",
          "2510",
          "2525",
          "2775",
          "3060",
          "3446",
          "3479",
          "3350",
          "3050",
          "2550",
          "2425",
          "2150",
          "1850",
          "1850",
          "1800",
          "1805",
          "1459",
          "675",
          "328",
          "104",
          "",
          "",
          "",
          "",
          "",
          "",
          "",
          "",
          "",
          "",
          "",
          "",
          "",
          "",
          "",
          "",
          "",
          "",
          "",
          "",
          "",
          "",
          "",
          "",
          "",
          "",
          "",
          "",
          "",
          "",
          "",
          "",
          "-425",
          "-1180",
          "-1500",
          "-1355",
          "-1131",
          "-1025",
          "-1000",
          "-1050",
          "-1375",
          "-2000",
          "-2425",
          "-2525",
          "-2550",
          "-2425",
          "-2300",
          "-2325",
          "-1850",
          "-1254",
          "-1131",
          "-775",
          "-225",
          "",
          "",
          "-708",
          "-1706",
          "-1967",
          "-1925",
          "-1811",
          "-1575",
          "-1450",
          "-1700",
          "-1918",
          "-1869",
          "-1650",
          "-1382",
          "-1275",
          "-1243",
          "-932",
          "-676",
          "-566",
          "-283",
          "-50",
          "",
          "",
          "",
          "-29",
          "-738",
          "-984",
          "-457",
          "-516",
          "-750",
          "-818",
          "-1031",
          "-960",
          "-794",
          "-706",
          "-750",
          "-703",
          "-469",
          "-281"
        ],
        "reporting_facility": [
          "FlightAware ADS-B(PMI / LEPA)",
          "FlightAware ADS-B(PMI / LEPA)",
          "FlightAware ADS-B(PMI / LEPA)",
          "FlightAware ADS-B(LESB)",
          "FlightAware ADS-B(PMI / LEPA)",
          "FlightAware ADS-B(LESB)",
          "FlightAware ADS-B(LESB)",
          "FlightAware ADS-B(REU / LERS)",
          "FlightAware ADS-B(LESB)",
          "FlightAware ADS-B(BCN / LEBL)",
          "FlightAware ADS-B(LELL)",
          "FlightAware ADS-B(PMI / LEPA)",
          "FlightAware ADS-B(BCN / LEBL)",
          "FlightAware ADS-B(BCN / LEBL)",
          "FlightAware ADS-B(PMI / LEPA)",
          "FlightAware ADS-B(PMI / LEPA)",
          "FlightAware ADS-B(MAD / LEMD)",
          "FlightAware ADS-B(PMI / LEPA)",
          "FlightAware ADS-B(LESB)",
          "FlightAware ADS-B(MAH / LEMH)",
          "FlightAware ADS-B(MAH / LEMH)",
          "FlightAware ADS-B(PMI / LEPA)",
          "FlightAware ADS-B(LELL)",
          "FlightAware ADS-B(LEMU)",
          "FlightAware ADS-B(PMI / LEPA)",
          "FlightAware ADS-B(PMI / LEPA)",
          "FlightAware ADS-B(PMI / LEPA)",
          "FlightAware ADS-B(LELL)",
          "FlightAware ADS-B(LEBC)",
          "FlightAware ADS-B(LEBC)",
          "FlightAware ADS-B(GRO / LEGE)",
          "FlightAware ADS-B(LELL)",
          "FlightAware ADS-B(GRO / LEGE)",
          "FlightAware ADS-B(GRO / LEGE)",
          "FlightAware ADS-B(GRO / LEGE)",
          "FlightAware ADS-B(PMI / LEPA)",
          "FlightAware ADS-B(PMI / LEPA)",
          "FlightAware ADS-B(PMI / LEPA)",
          "FlightAware ADS-B(PMI / LEPA)",
          "FlightAware ADS-B(PMI / LEPA)",
          "FlightAware ADS-B(PMI / LEPA)",
          "FlightAware ADS-B(PMI / LEPA)",
          "FlightAware ADS-B(PMI / LEPA)",
          "FlightAware ADS-B(BCN / LEBL)",
          "FlightAware ADS-B(GRO / LEGE)",
          "FlightAware ADS-B(BCN / LEBL)",
          "FlightAware ADS-B(MAH / LEMH)",
          "FlightAware ADS-B(LEBC)",
          "FlightAware ADS-B(LEBC)",
          "FlightAware ADS-B(BCN / LEBL)",
          "FlightAware ADS-B(CTT / LFMQ)",
          "FlightAware ADS-B(BCN / LEBL)",
          "FlightAware ADS-B(BCN / LEBL)",
          "FlightAware ADS-B(MAH / LEMH)",
          "FlightAware ADS-B(LELL)",
          "FlightAware ADS-B(MAH / LEMH)",
          "FlightAware ADS-B(CTT / LFMQ)",
          "FlightAware ADS-B(LELL)",
          "FlightAware ADS-B(LELL)",
          "FlightAware ADS-B(CTT / LFMQ)",
          "FlightAware ADS-B(MAH / LEMH)",
          "FlightAware ADS-B(AHO / LIEA)",
          "FlightAware ADS-B(MRS / LFML)",
          "FlightAware ADS-B(LFTN)",
          "FlightAware ADS-B(CTT / LFMQ)",
          "FlightAware ADS-B(GRO / LEGE)",
          "FlightAware ADS-B(CTT / LFMQ)",
          "FlightAware ADS-B(MRS / LFML)",
          "FlightAware ADS-B(CTT / LFMQ)",
          "FlightAware ADS-B(CTT / LFMQ)",
          "FlightAware ADS-B(AHO / LIEA)",
          "FlightAware ADS-B(FNU / LIER)",
          "FlightAware ADS-B(CEQ / LFMD)",
          "FlightAware ADS-B(LFNT)",
          "FlightAware ADS-B(MRS / LFML)",
          "FlightAware ADS-B(MRS / LFML)",
          "FlightAware ADS-B(CTT / LFMQ)",
          "FlightAware ADS-B(CTT / LFMQ)",
          "FlightAware ADS-B(CTT / LFMQ)",
          "FlightAware ADS-B(CTT / LFMQ)",
          "FlightAware ADS-B(CTT / LFMQ)",
          "FlightAware ADS-B(CTT / LFMQ)",
          "FlightAware ADS-B(CTT / LFMQ)",
          "FlightAware ADS-B(NCE / LFMN)",
          "FlightAware ADS-B(LFME)",
          "FlightAware ADS-B(LFME)",
          "FlightAware ADS-B(BAE / LFMR)",
          "FlightAware ADS-B(CEQ / LFMD)",
          "FlightAware ADS-B(NCE / LFMN)",
          "FlightAware ADS-B(LTT / LFTZ)",
          "FlightAware ADS-B(CEQ / LFMD)",
          "FlightAware ADS-B(NCE / LFMN)",
          "FlightAware ADS-B(CTT / LFMQ)",
          "FlightAware ADS-B(NCE / LFMN)",
          "FlightAware ADS-B(CEQ / LFMD)",
          "FlightAware ADS-B(CEQ / LFMD)",
          "FlightAware ADS-B(NCE / LFMN)",
          "FlightAware ADS-B(CEQ / LFMD)",
          "FlightAware ADS-B(CEQ / LFMD)",
          "FlightAware ADS-B(NCE / LFMN)",
          "FlightAware ADS-B(NCE / LFMN)",
          "FlightAware ADS-B(CEQ / LFMD)",
          "FlightAware ADS-B(NCE / LFMN)",
          "FlightAware ADS-B(MCM / LNMC)",
          "FlightAware ADS-B(NCE / LFMN)",
          "FlightAware ADS-B(CEQ / LFMD)",
          "FlightAware ADS-B(NCE / LFMN)",
          "FlightAware ADS-B(CEQ / LFMD)",
          "FlightAware ADS-B(NCE / LFMN)",
          "FlightAware ADS-B(MCM / LNMC)",
          "FlightAware ADS-B(MCM / LNMC)",
          "FlightAware ADS-B(CEQ / LFMD)",
          "FlightAware ADS-B(CEQ / LFMD)",
          "FlightAware ADS-B(CEQ / LFMD)",
          "FlightAware ADS-B(CEQ / LFMD)",
          "FlightAware ADS-B(NCE / LFMN)",
          "Surface and Near-Surface",
          "FlightAware ADS-B(CEQ / LFMD)",
          "FlightAware ADS-B(NCE / LFMN)",
          "FlightAware ADS-B(NCE / LFMN)",
          "FlightAware ADS-B(CEQ / LFMD)",
          "FlightAware ADS-B(CEQ / LFMD)",
          "FlightAware ADS-B(NCE / LFMN)",
          "FlightAware ADS-B(NCE / LFMN)"
        ]
      }
    }
  ]
}