{
  "type": "FeatureCollection",
  "features": [
    {
      "type": "Feature",
      "geometry": {
        "type": "LineString",
        "coordinates": [
          [
            6.7469,
            51.2762
          ],
          [
            6.7469,
            51.2762
          ],
          [
            6.7287,
            51.2672
          ],
          [
            6.711,
            51.2598
          ],
          [
            6.6923,
            51.2528
          ],
          [
            6.6585,
            51.236
          ],
          [
            6.6378,
            51.2288
          ],
          [
            6.6075,
            51.2387
          ],
          [
            6.5761,
            51.245
          ],
          [
            6.5508,
            51.234
          ],
          [
            6.5258,
            51.2313
          ],
          [
            6.5021,
            51.224
          ],
          [
            6.4407,
            51.1934
          ],
          [
            6.3959,
            51.1624
          ],
          [
            6.3341,
            51.1285
          ],
          [
            6.2707,
            51.0971
          ],
          [
            6.2041,
            51.0684
          ],
          [
            6.1306,
            51.0364
          ],
          [
            6.06,
            51.0003
          ],
          [
            6.0277,
            50.9733
          ],
          [
            5.9701,
            50.9041
          ],
          [
            5.9278,
            50.8457
          ],
          [
            5.8802,
            50.7894
          ],
          [
            5.8311,
            50.7313
          ],
          [
            5.7796,
            50.674
          ],
          [
            5.7355,
            50.6179
          ],
          [
            5.6855,
            50.5611
          ],
          [
            5.6332,
            50.5036
          ],
          [
            5.5793,
            50.4432
          ],
          [
            5.5306,
            50.3852
          ],
          [
            5.4808,
            50.3272
          ],
          [
            5.4239,
            50.287
          ],
          [
            5.3491,
            50.2391
          ],
          [
            5.2845,
            50.2292
          ],
          [
            5.1825,
            50.1987
          ],
          [
            5.0886,
            50.1669
          ],
          [
            4.9911,
            50.1324
          ],
          [
            4.8994,
            50.1025
          ],
          [
            4.8053,
            50.0712
          ],
          [
            4.7104,
            50.0398
          ],
          [
            4.6082,
            50.0056
          ],
          [
            4.5155,
            49.9733
          ],
          [
            4.4168,
            49.9413
          ],
          [
            4.3254,
            49.9092
          ],
          [
            4.2374,
            49.88
          ],
          [
            4.1458,
            49.8502
          ],
          [
            4.0515,
            49.8156
          ],
          [
            3.9637,
            49.7886
          ],
          [
            3.8731,
            49.7636
          ],
          [
            3.7773,
            49.7386
          ],
          [
            3.6825,
            49.711
          ],
          [
            3.5893,
            49.6845
          ],
          [
            3.4922,
            49.6562
          ],
          [
            3.4007,
            49.6293
          ],
          [
            3.3052,
            49.6029
          ],
          [
            3.208,
            49.5742
          ],
          [
            3.1159,
            49.548
          ],
          [
            3.022,
            49.5216
          ],
          [
            2.924,
            49.4929
          ],
          [
            2.8285,
            49.4646
          ],
          [
            2.7322,
            49.4365
          ],
          [
            2.6398,
            49.4098
          ],
          [
            2.5423,
            49.382
          ],
          [
            2.4482,
            49.364
          ],
          [
            2.3513,
            49.341
          ],
          [
            2.2572,
            49.318
          ],
          [
            2.1604,
            49.2924
          ],
          [
            2.0674,
            49.2699
          ],
          [
            1.9734,
            49.248
          ],
          [
            1.871,
            49.2221
          ],
          [
            1.7789,
            49.1983
          ],
          [
            1.6849,
            49.176
          ],
          [
            1.5929,
            49.1528
          ],
          [
            1.497,
            49.1293
          ],
          [
            1.3996,
            49.1037
          ],
          [
            1.2968,
            49.0798
          ],
          [
            1.2036,
            49.0558
          ],
          [
            1.1076,
            49.0316
          ],
          [
            1.0134,
            49.0076
          ],
          [
            0.921,
            48.9851
          ],
          [
            0.8189,
            48.9588
          ],
          [
            0.7206,
            48.9344
          ],
          [
            0.6247,
            48.9097
          ],
          [
            0.515,
            48.8824
          ],
          [
            0.4146,
            48.8571
          ],
          [
            0.3181,
            48.8329
          ],
          [
            0.2223,
            48.8088
          ],
          [
            0.1239,
            48.7842
          ],
          [
            0.0176,
            48.7569
          ],
          [
            -0.0839,
            48.7318
          ],
          [
            -0.1831,
            48.7073
          ],
          [
            -0.2842,
            48.6817
          ],
          [
            -0.3818,
            48.6572
          ],
          [
            -0.4772,
            48.634
          ],
          [
            -0.573,
            48.6113
          ],
          [
            -0.6676,
            48.5872
          ],
          [
            -0.7648,
            48.5628
          ],
          [
            -0.8704,
            48.5362
          ],
          [
            -0.9677,
            48.5106
          ],
          [
            -1.0691,
            48.4862
          ],
          [
            -1.1604,
            48.4642
          ],
          [
            -1.2672,
            48.4378
          ],
          [
            -1.3767,
            48.4115
          ],
          [
            -1.4928,
            48.3847
          ],
          [
            -1.5955,
            48.3606
          ],
          [
            -1.6923,
            48.3382
          ],
          [
            -1.7923,
            48.3155
          ],
          [
            -1.8853,
            48.295
          ],
          [
            -1.9768,
            48.2748
          ],
          [
            -2.0732,
            48.254
          ],
          [
            -2.1528,
            48.2303
          ],
          [
            -2.2259,
            48.2032
          ],
          [
            -2.2973,
            48.1767
          ],
          [
            -2.3678,
            48.1514
          ],
          [
            -2.4178,
            48.1363
          ],
          [
            -2.4548,
            48.1305
          ],
          [
            -2.4915,
            48.1219
          ],
          [
            -2.5261,
            48.1132
          ],
          [
            -2.5619,
            48.1039
          ],
          [
            -2.5928,
            48.0947
          ],
          [
            -2.6241,
            48.0869
          ],
          [
            -2.6864,
            48.0711
          ],
          [
            -2.7166,
            48.0635
          ],
          [
            -2.7844,
            48.0456
          ],
          [
            -2.8165,
            48.037
          ],
          [
            -2.8843,
            48.0197
          ],
          [
            -2.9448,
            48.0038
          ],
          [
            -2.9765,
            47.9958
          ],
          [
            -3.0163,
            47.9858
          ],
          [
            -3.051,
            47.9759
          ],
          [
            -3.1051,
            47.9621
          ],
          [
            -3.1369,
            47.9542
          ],
          [
            -3.1687,
            47.9452
          ],
          [
            -3.2006,
            47.9369
          ],
          [
            -3.2304,
            47.9303
          ],
          [
            -3.278,
            47.9234
          ],
          [
            -3.3044,
            47.9196
          ],
          [
            -3.352,
            47.897
          ],
          [
            -3.4576,
            47.8673
          ],
          [
            -3.543,
            47.8435
          ]
        ]
      },
      "properties": {
        "time_europe_berlin": [
          "16.10.2025 12:25:02",
          "16.10.2025 12:25:02",
          "16.10.2025 12:25:21",
          "16.10.2025 12:25:38",
          "16.10.2025 12:25:54",
          "16.10.2025 12:26:22",
          "16.10.2025 12:26:38",
          "16.10.2025 12:26:57",
          "16.10.2025 12:27:19",
          "16.10.2025 12:27:36",
          "16.10.2025 12:27:53",
          "16.10.2025 12:28:10",
          "16.10.2025 12:28:45",
          "16.10.2025 12:29:10",
          "16.10.2025 12:29:41",
          "16.10.2025 12:30:12",
          "16.10.2025 12:30:42",
          "16.10.2025 12:31:14",
          "16.10.2025 12:31:46",
          "16.10.2025 12:32:04",
          "16.10.2025 12:32:44",
          "16.10.2025 12:33:15",
          "16.10.2025 12:33:45",
          "16.10.2025 12:34:17",
          "16.10.2025 12:34:48",
          "16.10.2025 12:35:18",
          "16.10.2025 12:35:49",
          "16.10.2025 12:36:19",
          "16.10.2025 12:36:50",
          "16.10.2025 12:37:20",
          "16.10.2025 12:37:50",
          "16.10.2025 12:38:15",
          "16.10.2025 12:38:47",
          "16.10.2025 12:39:04",
          "16.10.2025 12:39:36",
          "16.10.2025 12:40:07",
          "16.10.2025 12:40:40",
          "16.10.2025 12:41:10",
          "16.10.2025 12:41:41",
          "16.10.2025 12:42:13",
          "16.10.2025 12:42:47",
          "16.10.2025 12:43:18",
          "16.10.2025 12:43:51",
          "16.10.2025 12:44:21",
          "16.10.2025 12:44:51",
          "16.10.2025 12:45:22",
          "16.10.2025 12:45:54",
          "16.10.2025 12:46:23",
          "16.10.2025 12:46:53",
          "16.10.2025 12:47:23",
          "16.10.2025 12:47:55",
          "16.10.2025 12:48:26",
          "16.10.2025 12:48:58",
          "16.10.2025 12:49:28",
          "16.10.2025 12:49:59",
          "16.10.2025 12:50:31",
          "16.10.2025 12:51:02",
          "16.10.2025 12:51:32",
          "16.10.2025 12:52:04",
          "16.10.2025 12:52:36",
          "16.10.2025 12:53:08",
          "16.10.2025 12:53:38",
          "16.10.2025 12:54:10",
          "16.10.2025 12:54:40",
          "16.10.2025 12:55:11",
          "16.10.2025 12:55:41",
          "16.10.2025 12:56:13",
          "16.10.2025 12:56:43",
          "16.10.2025 12:57:14",
          "16.10.2025 12:57:47",
          "16.10.2025 12:58:17",
          "16.10.2025 12:58:47",
          "16.10.2025 12:59:17",
          "16.10.2025 12:59:48",
          "16.10.2025 13:00:20",
          "16.10.2025 13:00:53",
          "16.10.2025 13:01:23",
          "16.10.2025 13:01:53",
          "16.10.2025 13:02:23",
          "16.10.2025 13:02:53",
          "16.10.2025 13:03:25",
          "16.10.2025 13:03:56",
          "16.10.2025 13:04:26",
          "16.10.2025 13:05:00",
          "16.10.2025 13:05:31",
          "16.10.2025 13:06:02",
          "16.10.2025 13:06:32",
          "16.10.2025 13:07:02",
          "16.10.2025 13:07:35",
          "16.10.2025 13:08:07",
          "16.10.2025 13:08:38",
          "16.10.2025 13:09:10",
          "16.10.2025 13:09:40",
          "16.10.2025 13:10:10",
          "16.10.2025 13:10:41",
          "16.10.2025 13:11:11",
          "16.10.2025 13:11:42",
          "16.10.2025 13:12:15",
          "16.10.2025 13:12:46",
          "16.10.2025 13:13:17",
          "16.10.2025 13:13:47",
          "16.10.2025 13:14:21",
          "16.10.2025 13:14:55",
          "16.10.2025 13:15:31",
          "16.10.2025 13:16:03",
          "16.10.2025 13:16:34",
          "16.10.2025 13:17:06",
          "16.10.2025 13:17:37",
          "16.10.2025 13:18:08",
          "16.10.2025 13:18:42",
          "16.10.2025 13:19:12",
          "16.10.2025 13:19:42",
          "16.10.2025 13:20:13",
          "16.10.2025 13:20:47",
          "16.10.2025 13:21:11",
          "16.10.2025 13:21:28",
          "16.10.2025 13:21:46",
          "16.10.2025 13:22:03",
          "16.10.2025 13:22:21",
          "16.10.2025 13:22:38",
          "16.10.2025 13:22:54",
          "16.10.2025 13:23:27",
          "16.10.2025 13:23:43",
          "16.10.2025 13:24:17",
          "16.10.2025 13:24:34",
          "16.10.2025 13:25:09",
          "16.10.2025 13:25:40",
          "16.10.2025 13:25:56",
          "16.10.2025 13:26:17",
          "16.10.2025 13:26:36",
          "16.10.2025 13:27:06",
          "16.10.2025 13:27:23",
          "16.10.2025 13:27:42",
          "16.10.2025 13:27:59",
          "16.10.2025 13:28:15",
          "16.10.2025 13:28:40",
          "16.10.2025 13:28:57",
          "16.10.2025 13:29:24",
          "16.10.2025 13:30:24",
          "16.10.2025 13:31:11"
        ],
        "course_deg_clockwise_from_north": [
          "232",
          "232",
          "235",
          "234",
          "234",
          "236",
          "232",
          "298",
          "246",
          "232",
          "230",
          "230",
          "233",
          "234",
          "233",
          "234",
          "234",
          "234",
          "216",
          "212",
          "207",
          "208",
          "209",
          "209",
          "209",
          "209",
          "210",
          "209",
          "209",
          "209",
          "215",
          "230",
          "240",
          "242",
          "243",
          "242",
          "243",
          "243",
          "243",
          "243",
          "242",
          "242",
          "242",
          "242",
          "243",
          "242",
          "242",
          "247",
          "247",
          "246",
          "246",
          "246",
          "246",
          "246",
          "246",
          "246",
          "246",
          "246",
          "246",
          "246",
          "246",
          "246",
          "251",
          "250",
          "249",
          "249",
          "249",
          "249",
          "249",
          "249",
          "249",
          "249",
          "249",
          "249",
          "249",
          "249",
          "249",
          "249",
          "249",
          "249",
          "249",
          "249",
          "249",
          "249",
          "249",
          "249",
          "249",
          "249",
          "249",
          "249",
          "249",
          "249",
          "249",
          "249",
          "249",
          "249",
          "249",
          "249",
          "249",
          "250",
          "250",
          "250",
          "251",
          "251",
          "250",
          "251",
          "251",
          "252",
          "252",
          "250",
          "243",
          "241",
          "241",
          "247",
          "251",
          "249",
          "249",
          "248",
          "249",
          "249",
          "249",
          "249",
          "249",
          "249",
          "249",
          "248",
          "249",
          "249",
          "249",
          "248",
          "249",
          "249",
          "249",
          "249",
          "249",
          "249",
          "249",
          "249",
          "246",
          "249"
        ],
        "speed_kts": [
          "154",
          "154",
          "164",
          "184",
          "184",
          "196",
          "196",
          "204",
          "230",
          "240",
          "256",
          "272",
          "302",
          "328",
          "354",
          "364",
          "372",
          "382",
          "402",
          "406",
          "432",
          "446",
          "450",
          "452",
          "452",
          "462",
          "470",
          "476",
          "478",
          "480",
          "480",
          "476",
          "472",
          "470",
          "472",
          "478",
          "474",
          "474",
          "472",
          "472",
          "470",
          "470",
          "470",
          "470",
          "470",
          "470",
          "470",
          "468",
          "468",
          "468",
          "468",
          "468",
          "468",
          "468",
          "468",
          "468",
          "468",
          "468",
          "468",
          "470",
          "470",
          "470",
          "468",
          "468",
          "468",
          "468",
          "468",
          "468",
          "468",
          "468",
          "468",
          "468",
          "468",
          "468",
          "468",
          "474",
          "476",
          "482",
          "478",
          "482",
          "484",
          "488",
          "490",
          "492",
          "490",
          "490",
          "490",
          "490",
          "490",
          "488",
          "486",
          "486",
          "486",
          "486",
          "486",
          "486",
          "486",
          "486",
          "484",
          "482",
          "486",
          "488",
          "488",
          "490",
          "484",
          "482",
          "470",
          "450",
          "438",
          "428",
          "414",
          "388",
          "370",
          "338",
          "334",
          "320",
          "314",
          "310",
          "304",
          "300",
          "298",
          "296",
          "302",
          "302",
          "302",
          "302",
          "302",
          "302",
          "300",
          "288",
          "286",
          "280",
          "280",
          "280",
          "280",
          "285",
          "251",
          "266",
          "289",
          "284"
        ],
        "speed_mph": [
          "177",
          "177",
          "189",
          "212",
          "212",
          "226",
          "226",
          "235",
          "265",
          "276",
          "295",
          "313",
          "348",
          "377",
          "407",
          "419",
          "428",
          "440",
          "463",
          "467",
          "497",
          "513",
          "518",
          "520",
          "520",
          "532",
          "541",
          "548",
          "550",
          "552",
          "552",
          "548",
          "543",
          "541",
          "543",
          "550",
          "545",
          "545",
          "543",
          "543",
          "541",
          "541",
          "541",
          "541",
          "541",
          "541",
          "541",
          "539",
          "539",
          "539",
          "539",
          "539",
          "539",
          "539",
          "539",
          "539",
          "539",
          "539",
          "539",
          "541",
          "541",
          "541",
          "539",
          "539",
          "539",
          "539",
          "539",
          "539",
          "539",
          "539",
          "539",
          "539",
          "539",
          "539",
          "539",
          "545",
          "548",
          "555",
          "550",
          "555",
          "557",
          "562",
          "564",
          "566",
          "564",
          "564",
          "564",
          "564",
          "564",
          "562",
          "559",
          "559",
          "559",
          "559",
          "559",
          "559",
          "559",
          "559",
          "557",
          "555",
          "559",
          "562",
          "562",
          "564",
          "557",
          "555",
          "541",
          "518",
          "504",
          "493",
          "476",
          "447",
          "426",
          "389",
          "384",
          "368",
          "361",
          "357",
          "350",
          "345",
          "343",
          "341",
          "348",
          "348",
          "348",
          "348",
          "348",
          "348",
          "345",
          "331",
          "329",
          "322",
          "322",
          "322",
          "322",
          "328",
          "289",
          "306",
          "333",
          "327"
        ],
        "altitude_ft": [
          "700",
          "700",
          "1575",
          "2225",
          "2975",
          "4225",
          "4900",
          "5750",
          "6800",
          "7750",
          "8475",
          "9175",
          "10775",
          "12025",
          "13650",
          "15600",
          "17525",
          "19425",
          "20800",
          "21625",
          "22950",
          "24050",
          "25300",
          "26600",
          "27925",
          "28650",
          "29450",
          "30200",
          "31000",
          "31725",
          "32525",
          "33100",
          "33925",
          "34350",
          "34975",
          "35000",
          "35000",
          "35000",
          "35000",
          "35000",
          "35000",
          "35000",
          "35000",
          "35000",
          "35000",
          "35000",
          "35000",
          "35000",
          "35000",
          "35000",
          "35000",
          "35000",
          "35000",
          "35000",
          "35000",
          "35000",
          "35000",
          "35000",
          "35000",
          "35000",
          "35000",
          "35000",
          "35000",
          "35000",
          "35000",
          "35000",
          "35000",
          "35000",
          "35000",
          "35000",
          "35000",
          "35000",
          "35000",
          "34875",
          "34075",
          "33275",
          "33000",
          "32575",
          "31875",
          "31150",
          "31000",
          "31000",
          "31000",
          "31000",
          "31000",
          "31000",
          "31000",
          "31000",
          "31000",
          "31000",
          "31000",
          "31000",
          "31000",
          "31000",
          "31000",
          "31000",
          "31000",
          "31000",
          "30525",
          "29325",
          "28025",
          "26650",
          "25275",
          "23825",
          "22475",
          "21175",
          "20000",
          "18750",
          "17475",
          "15875",
          "14700",
          "13375",
          "12275",
          "10825",
          "9850",
          "9300",
          "8675",
          "8325",
          "7800",
          "7625",
          "7250",
          "7000",
          "7000",
          "7000",
          "7000",
          "7000",
          "6825",
          "6525",
          "6150",
          "5900",
          "5400",
          "5100",
          "4725",
          "4575",
          "4300",
          "3950",
          "3575",
          "3075",
          "2725",
          "2725"
        ],
        "vertical_rate_fpm": [
          "",
          "2763",
          "2542",
          "2545",
          "2727",
          "2625",
          "2614",
          "2780",
          "3077",
          "2956",
          "2515",
          "2654",
          "2850",
          "3080",
          "3460",
          "3811",
          "3702",
          "3070",
          "2640",
          "2224",
          "2049",
          "2311",
          "2468",
          "2500",
          "2016",
          "1500",
          "1525",
          "1525",
          "1500",
          "1525",
          "1500",
          "1474",
          "1531",
          "1286",
          "619",
          "23",
          "",
          "",
          "",
          "",
          "",
          "",
          "",
          "",
          "",
          "",
          "",
          "",
          "",
          "",
          "",
          "",
          "",
          "",
          "",
          "",
          "",
          "",
          "",
          "",
          "",
          "",
          "",
          "",
          "",
          "",
          "",
          "",
          "",
          "",
          "",
          "",
          "-123",
          "-881",
          "-1477",
          "-1024",
          "-700",
          "-1125",
          "-1425",
          "-847",
          "-143",
          "",
          "",
          "",
          "",
          "",
          "",
          "",
          "",
          "",
          "",
          "",
          "",
          "",
          "",
          "",
          "",
          "-445",
          "-1621",
          "-2459",
          "-2508",
          "-2426",
          "-2421",
          "-2471",
          "-2524",
          "-2357",
          "-2310",
          "-2444",
          "-2654",
          "-2602",
          "-2500",
          "-2385",
          "-2354",
          "-2509",
          "-2232",
          "-2014",
          "-1671",
          "-1500",
          "-1200",
          "-1000",
          "-765",
          "-306",
          "",
          "",
          "",
          "-159",
          "-606",
          "-1095",
          "-938",
          "-918",
          "-1021",
          "-1125",
          "-875",
          "-773",
          "-915",
          "-1036",
          "-1193",
          "-586",
          "-196",
          ""
        ],
        "reporting_facility": [
          "FlightAware MLAT(6 sites)",
          "FlightAware MLAT(6 sites)",
          "FlightAware MLAT(10 sites)",
          "FlightAware MLAT(19 sites)",
          "FlightAware MLAT(7 sites)",
          "FlightAware MLAT(13 sites)",
          "FlightAware MLAT(9 sites)",
          "FlightAware MLAT(10 sites)",
          "FlightAware MLAT(10 sites)",
          "FlightAware MLAT(11 sites)",
          "FlightAware MLAT(12 sites)",
          "FlightAware MLAT(5 sites)",
          "FlightAware MLAT(9 sites)",
          "FlightAware MLAT(10 sites)",
          "FlightAware MLAT(8 sites)",
          "FlightAware MLAT(4 sites)",
          "FlightAware MLAT(8 sites)",
          "FlightAware MLAT(14 sites)",
          "FlightAware MLAT(5 sites)",
          "FlightAware MLAT(9 sites)",
          "FlightAware MLAT(10 sites)",
          "FlightAware MLAT(11 sites)",
          "FlightAware MLAT(10 sites)",
          "FlightAware MLAT(5 sites)",
          "FlightAware MLAT(4 sites)",
          "FlightAware MLAT(5 sites)",
          "FlightAware MLAT(10 sites)",
          "FlightAware MLAT(4 sites)",
          "FlightAware MLAT(11 sites)",
          "FlightAware MLAT(10 sites)",
          "FlightAware MLAT(10 sites)",
          "FlightAware MLAT(10 sites)",
          "FlightAware MLAT(4 sites)",
          "FlightAware MLAT(6 sites)",
          "FlightAware MLAT(4 sites)",
          "FlightAware MLAT(13 sites)",
          "FlightAware MLAT(4 sites)",
          "FlightAware MLAT(12 sites)",
          "FlightAware MLAT(12 sites)",
          "FlightAware MLAT(12 sites)",
          "FlightAware MLAT(6 sites)",
          "FlightAware MLAT(8 sites)",
          "FlightAware MLAT(7 sites)",
          "FlightAware MLAT(6 sites)",
          "FlightAware MLAT(13 sites)",
          "FlightAware MLAT(10 sites)",
          "FlightAware MLAT(5 sites)",
          "FlightAware MLAT(13 sites)",
          "FlightAware MLAT(6 sites)",
          "FlightAware MLAT(10 sites)",
          "FlightAware MLAT(11 sites)",
          "FlightAware MLAT(5 sites)",
          "FlightAware MLAT(5 sites)",
          "FlightAware MLAT(10 sites)",
          "FlightAware MLAT(10 sites)",
          "FlightAware MLAT(8 sites)",
          "FlightAware MLAT(16 sites)",
          "FlightAware MLAT(12 sites)",
          "FlightAware MLAT(5 sites)",
          "FlightAware MLAT(10 sites)",
          "FlightAware MLAT(5 sites)",
          "FlightAware MLAT(8 sites)",
          "FlightAware MLAT(5 sites)",
          "FlightAware MLAT(14 sites)",
          "FlightAware MLAT(4 sites)",
          "FlightAware MLAT(9 sites)",
          "FlightAware MLAT(10 sites)",
          "FlightAware MLAT(4 sites)",
          "FlightAware MLAT(10 sites)",
          "FlightAware MLAT(4 sites)",
          "FlightAware MLAT(8 sites)",
          "FlightAware MLAT(11 sites)",
          "FlightAware MLAT(6 sites)",
          "FlightAware MLAT(9 sites)",
          "FlightAware MLAT(7 sites)",
          "FlightAware MLAT(10 sites)",
          "FlightAware MLAT(5 sites)",
          "FlightAware MLAT(9 sites)",
          "FlightAware MLAT(7 sites)",
          "FlightAware MLAT(6 sites)",
          "FlightAware MLAT(4 sites)",
          "FlightAware MLAT(8 sites)",
          "FlightAware MLAT(13 sites)",
          "FlightAware MLAT(5 sites)",
          "FlightAware MLAT(11 sites)",
          "FlightAware MLAT(4 sites)",
          "FlightAware MLAT(8 sites)",
          "FlightAware MLAT(9 sites)",
          "FlightAware MLAT(4 sites)",
          "FlightAware MLAT(5 sites)",
          "FlightAware MLAT(11 sites)",
          "FlightAware MLAT(7 sites)",
          "FlightAware MLAT(9 sites)",
          "FlightAware MLAT(7 sites)",
          "FlightAware MLAT(6 sites)",
          "FlightAware MLAT(7 sites)",
          "FlightAware MLAT(10 sites)",
          "FlightAware MLAT(9 sites)",
          "FlightAware MLAT(8 sites)",
          "FlightAware MLAT(6 sites)",
          "FlightAware MLAT(6 sites)",
          "FlightAware MLAT(5 sites)",
          "FlightAware MLAT(7 sites)",
          "FlightAware MLAT(6 sites)",
          "FlightAware MLAT(4 sites)",
          "FlightAware MLAT(8 sites)",
          "FlightAware MLAT(8 sites)",
          "FlightAware MLAT(5 sites)",
          "FlightAware MLAT(6 sites)",
          "FlightAware MLAT(4 sites)",
          "FlightAware MLAT(6 sites)",
          "FlightAware MLAT(7 sites)",
          "FlightAware MLAT(4 sites)",
          "FlightAware MLAT(4 sites)",
          "FlightAware MLAT(4 sites)",
          "FlightAware MLAT(6 sites)",
          "FlightAware MLAT(4 sites)",
          "FlightAware MLAT(6 sites)",
          "FlightAware MLAT(4 sites)",
          "FlightAware MLAT(4 sites)",
          "FlightAware MLAT(6 sites)",
          "FlightAware MLAT(5 sites)",
          "FlightAware MLAT(4 sites)",
          "FlightAware MLAT(4 sites)",
          "FlightAware MLAT(5 sites)",
          "FlightAware MLAT(4 sites)",
          "FlightAware MLAT(4 sites)",
          "FlightAware MLAT(7 sites)",
          "FlightAware MLAT(7 sites)",
          "FlightAware MLAT(5 sites)",
          "FlightAware MLAT(5 sites)",
          "FlightAware MLAT(4 sites)",
          "FlightAware MLAT(4 sites)",
          "FlightAware MLAT(4 sites)",
          "FlightAware MLAT(5 sites)",
          "FlightAware MLAT(4 sites)",
          "FlightAware MLAT(4 sites)",
          "FlightAware MLAT(4 sites)",
          "FlightAware MLAT(4 sites)",
          "FlightAware MLAT(4 sites)"
        ]
      }
    }
  ]
}