{
  "type": "FeatureCollection",
  "features": [
    {
      "type": "Feature",
      "geometry": {
        "type": "LineString",
        "coordinates": [
          [
            -0.4953,
            39.4952
          ],
          [
            -0.5084,
            39.5017
          ],
          [
            -0.5231,
            39.5092
          ],
          [
            -0.5357,
            39.5146
          ],
          [
            -0.5501,
            39.52
          ],
          [
            -0.5657,
            39.5255
          ],
          [
            -0.5746,
            39.5358
          ],
          [
            -0.5712,
            39.5543
          ],
          [
            -0.5619,
            39.5693
          ],
          [
            -0.5463,
            39.583
          ],
          [
            -0.5267,
            39.5935
          ],
          [
            -0.495,
            39.6049
          ],
          [
            -0.4586,
            39.6274
          ],
          [
            -0.4194,
            39.6611
          ],
          [
            -0.3763,
            39.6981
          ],
          [
            -0.3279,
            39.7393
          ],
          [
            -0.2807,
            39.78
          ],
          [
            -0.2303,
            39.823
          ],
          [
            -0.1811,
            39.8649
          ],
          [
            -0.1289,
            39.9094
          ],
          [
            -0.0773,
            39.9533
          ],
          [
            -0.0219,
            40.0003
          ],
          [
            0.0337,
            40.0474
          ],
          [
            0.0664,
            40.0778
          ],
          [
            0.0974,
            40.1237
          ],
          [
            0.1293,
            40.1826
          ],
          [
            0.1594,
            40.2389
          ],
          [
            0.1912,
            40.2958
          ],
          [
            0.223,
            40.3538
          ],
          [
            0.2551,
            40.4122
          ],
          [
            0.2871,
            40.4699
          ],
          [
            0.3196,
            40.5288
          ],
          [
            0.3523,
            40.5874
          ],
          [
            0.3842,
            40.6448
          ],
          [
            0.4142,
            40.6987
          ],
          [
            0.4462,
            40.7559
          ],
          [
            0.4778,
            40.8126
          ],
          [
            0.5118,
            40.8731
          ],
          [
            0.5358,
            40.9209
          ],
          [
            0.5603,
            41.0087
          ],
          [
            0.5749,
            41.067
          ],
          [
            0.5903,
            41.1235
          ],
          [
            0.605,
            41.1789
          ],
          [
            0.6199,
            41.2343
          ],
          [
            0.6353,
            41.2911
          ],
          [
            0.6498,
            41.3442
          ],
          [
            0.6649,
            41.4
          ],
          [
            0.6796,
            41.4539
          ],
          [
            0.6946,
            41.5088
          ],
          [
            0.7096,
            41.5634
          ],
          [
            0.7247,
            41.6186
          ],
          [
            0.7395,
            41.6724
          ],
          [
            0.7577,
            41.7388
          ],
          [
            0.7745,
            41.7999
          ],
          [
            0.7906,
            41.8578
          ],
          [
            0.8063,
            41.9145
          ],
          [
            0.8219,
            41.9711
          ],
          [
            0.8378,
            42.028
          ],
          [
            0.854,
            42.0867
          ],
          [
            0.8699,
            42.1435
          ],
          [
            0.8859,
            42.2006
          ],
          [
            0.9013,
            42.256
          ],
          [
            0.9172,
            42.3128
          ],
          [
            0.9331,
            42.3692
          ],
          [
            0.9491,
            42.4263
          ],
          [
            0.9652,
            42.4834
          ],
          [
            0.9729,
            42.5647
          ],
          [
            0.973,
            42.6026
          ],
          [
            0.9731,
            42.6349
          ],
          [
            0.9738,
            42.6795
          ],
          [
            0.9752,
            42.7359
          ],
          [
            0.9766,
            42.7946
          ],
          [
            0.9779,
            42.8536
          ],
          [
            0.9793,
            42.9088
          ],
          [
            0.9809,
            42.9705
          ],
          [
            0.9822,
            43.0268
          ],
          [
            0.9838,
            43.0846
          ],
          [
            0.9851,
            43.1392
          ],
          [
            0.9867,
            43.199
          ],
          [
            0.988,
            43.2551
          ],
          [
            0.9896,
            43.3147
          ],
          [
            0.9911,
            43.3708
          ],
          [
            0.9926,
            43.431
          ],
          [
            0.9941,
            43.4912
          ],
          [
            0.9957,
            43.5479
          ],
          [
            0.9969,
            43.6035
          ],
          [
            0.9986,
            43.6634
          ],
          [
            1.0,
            43.7189
          ],
          [
            1.0015,
            43.7772
          ],
          [
            1.003,
            43.8347
          ],
          [
            1.0045,
            43.8922
          ],
          [
            1.006,
            43.9492
          ],
          [
            1.0075,
            44.0082
          ],
          [
            1.009,
            44.0666
          ],
          [
            1.0106,
            44.1236
          ],
          [
            1.012,
            44.1812
          ],
          [
            1.0136,
            44.2389
          ],
          [
            1.0151,
            44.2978
          ],
          [
            1.0166,
            44.354
          ],
          [
            1.0181,
            44.413
          ],
          [
            1.0196,
            44.4695
          ],
          [
            1.0212,
            44.5275
          ],
          [
            1.0227,
            44.5834
          ],
          [
            1.0243,
            44.6421
          ],
          [
            1.0257,
            44.6993
          ],
          [
            1.0274,
            44.7579
          ],
          [
            1.0288,
            44.8153
          ],
          [
            1.0304,
            44.8726
          ],
          [
            1.032,
            44.9309
          ],
          [
            1.0335,
            44.9872
          ],
          [
            1.0349,
            45.0445
          ],
          [
            1.049,
            45.1252
          ],
          [
            1.0665,
            45.1826
          ],
          [
            1.0816,
            45.2371
          ],
          [
            1.0973,
            45.2962
          ],
          [
            1.1126,
            45.3511
          ],
          [
            1.1287,
            45.4102
          ],
          [
            1.1435,
            45.4647
          ],
          [
            1.1592,
            45.5214
          ],
          [
            1.1743,
            45.5768
          ],
          [
            1.19,
            45.6337
          ],
          [
            1.206,
            45.6916
          ],
          [
            1.2167,
            45.7307
          ],
          [
            1.2342,
            45.7934
          ],
          [
            1.2498,
            45.8495
          ],
          [
            1.2654,
            45.9059
          ],
          [
            1.2816,
            45.9642
          ],
          [
            1.2984,
            46.0246
          ],
          [
            1.314,
            46.08
          ],
          [
            1.3305,
            46.1392
          ],
          [
            1.3464,
            46.1955
          ],
          [
            1.3624,
            46.2518
          ],
          [
            1.3783,
            46.3088
          ],
          [
            1.3948,
            46.3672
          ],
          [
            1.41,
            46.4207
          ],
          [
            1.4261,
            46.4772
          ],
          [
            1.442,
            46.5331
          ],
          [
            1.4582,
            46.5901
          ],
          [
            1.4746,
            46.6474
          ],
          [
            1.4911,
            46.705
          ],
          [
            1.5079,
            46.761
          ],
          [
            1.5334,
            46.815
          ],
          [
            1.5653,
            46.8728
          ],
          [
            1.5945,
            46.9291
          ],
          [
            1.6238,
            46.9863
          ],
          [
            1.6517,
            47.0393
          ],
          [
            1.6813,
            47.0963
          ],
          [
            1.7106,
            47.1526
          ],
          [
            1.7392,
            47.2072
          ],
          [
            1.7685,
            47.2635
          ],
          [
            1.7982,
            47.3201
          ],
          [
            1.8274,
            47.3754
          ],
          [
            1.8548,
            47.4275
          ],
          [
            1.8857,
            47.4861
          ],
          [
            1.916,
            47.5433
          ],
          [
            1.9443,
            47.5968
          ],
          [
            1.9743,
            47.6531
          ],
          [
            2.0043,
            47.7095
          ],
          [
            2.0348,
            47.7666
          ],
          [
            2.0643,
            47.8217
          ],
          [
            2.0931,
            47.8753
          ],
          [
            2.1133,
            47.9128
          ],
          [
            2.1399,
            47.9474
          ],
          [
            2.1853,
            47.9857
          ],
          [
            2.2524,
            48.032
          ],
          [
            2.3144,
            48.0732
          ],
          [
            2.3823,
            48.1205
          ],
          [
            2.4482,
            48.1658
          ],
          [
            2.5126,
            48.2098
          ],
          [
            2.5829,
            48.2581
          ],
          [
            2.6471,
            48.302
          ],
          [
            2.7128,
            48.3467
          ],
          [
            2.7773,
            48.3906
          ],
          [
            2.8449,
            48.4365
          ],
          [
            2.9106,
            48.481
          ],
          [
            2.9773,
            48.526
          ],
          [
            3.0432,
            48.5703
          ],
          [
            3.11,
            48.6153
          ],
          [
            3.1762,
            48.6596
          ],
          [
            3.2438,
            48.7048
          ],
          [
            3.311,
            48.7495
          ],
          [
            3.3779,
            48.7939
          ],
          [
            3.4465,
            48.8394
          ],
          [
            3.5134,
            48.8836
          ],
          [
            3.5799,
            48.9274
          ],
          [
            3.6508,
            48.974
          ],
          [
            3.7147,
            49.0158
          ],
          [
            3.7786,
            49.0577
          ],
          [
            3.8418,
            49.0989
          ],
          [
            3.9032,
            49.139
          ],
          [
            3.9668,
            49.1802
          ],
          [
            4.0294,
            49.2208
          ],
          [
            4.0957,
            49.2635
          ],
          [
            4.163,
            49.3068
          ],
          [
            4.2336,
            49.3524
          ],
          [
            4.3034,
            49.3969
          ],
          [
            4.3707,
            49.44
          ],
          [
            4.4445,
            49.487
          ],
          [
            4.5106,
            49.5289
          ],
          [
            4.6482,
            49.6162
          ],
          [
            4.7166,
            49.6592
          ],
          [
            4.7863,
            49.7031
          ],
          [
            4.8545,
            49.7456
          ],
          [
            4.925,
            49.7889
          ],
          [
            4.9928,
            49.8304
          ],
          [
            5.0633,
            49.8735
          ],
          [
            5.1331,
            49.9159
          ],
          [
            5.2032,
            49.9582
          ],
          [
            5.273,
            50.0001
          ],
          [
            5.3433,
            50.0422
          ],
          [
            5.4145,
            50.0844
          ],
          [
            5.486,
            50.1265
          ],
          [
            5.5565,
            50.1679
          ],
          [
            5.6254,
            50.2086
          ],
          [
            5.6919,
            50.2505
          ],
          [
            5.7569,
            50.291
          ],
          [
            5.8266,
            50.3336
          ],
          [
            5.8923,
            50.374
          ],
          [
            5.9606,
            50.4158
          ],
          [
            6.0297,
            50.4578
          ],
          [
            6.1005,
            50.501
          ],
          [
            6.1701,
            50.5432
          ],
          [
            6.2416,
            50.5863
          ],
          [
            6.3159,
            50.6311
          ],
          [
            6.3536,
            50.6538
          ],
          [
            6.4273,
            50.6981
          ],
          [
            6.4989,
            50.7411
          ],
          [
            6.5427,
            50.7671
          ],
          [
            6.5826,
            50.791
          ],
          [
            6.6219,
            50.8246
          ],
          [
            6.6548,
            50.8621
          ],
          [
            6.6799,
            50.8924
          ],
          [
            6.7359,
            50.957
          ],
          [
            6.7735,
            51.0004
          ],
          [
            6.8014,
            51.0329
          ],
          [
            6.859,
            51.0988
          ],
          [
            6.899,
            51.1447
          ],
          [
            6.9374,
            51.1899
          ],
          [
            6.9769,
            51.2361
          ],
          [
            7.0114,
            51.2774
          ],
          [
            7.0456,
            51.3185
          ],
          [
            7.0637,
            51.3419
          ],
          [
            7.0644,
            51.366
          ],
          [
            7.0454,
            51.3807
          ],
          [
            7.0216,
            51.3847
          ],
          [
            6.9892,
            51.3867
          ],
          [
            6.967,
            51.3815
          ],
          [
            6.938,
            51.3678
          ],
          [
            6.9078,
            51.3538
          ],
          [
            6.879,
            51.3401
          ],
          [
            6.8605,
            51.3314
          ],
          [
            6.8481,
            51.3253
          ],
          [
            6.8361,
            51.3196
          ],
          [
            6.823,
            51.3135
          ],
          [
            6.812,
            51.3081
          ],
          [
            6.8008,
            51.3029
          ],
          [
            6.7893,
            51.2974
          ]
        ]
      },
      "properties": {
        "time_europe_berlin": [
          "07.12.2025 11:17:33",
          "07.12.2025 11:17:49",
          "07.12.2025 11:18:05",
          "07.12.2025 11:18:21",
          "07.12.2025 11:18:37",
          "07.12.2025 11:18:53",
          "07.12.2025 11:19:09",
          "07.12.2025 11:19:28",
          "07.12.2025 11:19:45",
          "07.12.2025 11:20:01",
          "07.12.2025 11:20:17",
          "07.12.2025 11:20:38",
          "07.12.2025 11:21:03",
          "07.12.2025 11:21:33",
          "07.12.2025 11:22:03",
          "07.12.2025 11:22:34",
          "07.12.2025 11:23:04",
          "07.12.2025 11:23:34",
          "07.12.2025 11:24:04",
          "07.12.2025 11:24:34",
          "07.12.2025 11:25:04",
          "07.12.2025 11:25:35",
          "07.12.2025 11:26:05",
          "07.12.2025 11:26:23",
          "07.12.2025 11:26:49",
          "07.12.2025 11:27:19",
          "07.12.2025 11:27:49",
          "07.12.2025 11:28:19",
          "07.12.2025 11:28:49",
          "07.12.2025 11:29:19",
          "07.12.2025 11:29:49",
          "07.12.2025 11:30:19",
          "07.12.2025 11:30:49",
          "07.12.2025 11:31:19",
          "07.12.2025 11:31:49",
          "07.12.2025 11:32:19",
          "07.12.2025 11:32:50",
          "07.12.2025 11:33:20",
          "07.12.2025 11:33:46",
          "07.12.2025 11:34:31",
          "07.12.2025 11:35:02",
          "07.12.2025 11:35:32",
          "07.12.2025 11:36:03",
          "07.12.2025 11:36:33",
          "07.12.2025 11:37:03",
          "07.12.2025 11:37:33",
          "07.12.2025 11:38:03",
          "07.12.2025 11:38:33",
          "07.12.2025 11:39:04",
          "07.12.2025 11:39:34",
          "07.12.2025 11:40:04",
          "07.12.2025 11:40:34",
          "07.12.2025 11:41:09",
          "07.12.2025 11:41:43",
          "07.12.2025 11:42:13",
          "07.12.2025 11:42:43",
          "07.12.2025 11:43:13",
          "07.12.2025 11:43:43",
          "07.12.2025 11:44:14",
          "07.12.2025 11:44:44",
          "07.12.2025 11:45:14",
          "07.12.2025 11:45:44",
          "07.12.2025 11:46:14",
          "07.12.2025 11:46:44",
          "07.12.2025 11:47:14",
          "07.12.2025 11:47:44",
          "07.12.2025 11:48:27",
          "07.12.2025 11:48:47",
          "07.12.2025 11:49:04",
          "07.12.2025 11:49:28",
          "07.12.2025 11:49:58",
          "07.12.2025 11:50:29",
          "07.12.2025 11:50:59",
          "07.12.2025 11:51:29",
          "07.12.2025 11:52:00",
          "07.12.2025 11:52:30",
          "07.12.2025 11:53:00",
          "07.12.2025 11:53:30",
          "07.12.2025 11:54:00",
          "07.12.2025 11:54:31",
          "07.12.2025 11:55:01",
          "07.12.2025 11:55:31",
          "07.12.2025 11:56:02",
          "07.12.2025 11:56:33",
          "07.12.2025 11:57:03",
          "07.12.2025 11:57:33",
          "07.12.2025 11:58:03",
          "07.12.2025 11:58:33",
          "07.12.2025 11:59:03",
          "07.12.2025 11:59:33",
          "07.12.2025 12:00:03",
          "07.12.2025 12:00:34",
          "07.12.2025 12:01:04",
          "07.12.2025 12:01:34",
          "07.12.2025 12:02:04",
          "07.12.2025 12:02:34",
          "07.12.2025 12:03:05",
          "07.12.2025 12:03:35",
          "07.12.2025 12:04:05",
          "07.12.2025 12:04:35",
          "07.12.2025 12:05:05",
          "07.12.2025 12:05:35",
          "07.12.2025 12:06:05",
          "07.12.2025 12:06:36",
          "07.12.2025 12:07:06",
          "07.12.2025 12:07:36",
          "07.12.2025 12:08:06",
          "07.12.2025 12:08:37",
          "07.12.2025 12:09:07",
          "07.12.2025 12:09:38",
          "07.12.2025 12:10:08",
          "07.12.2025 12:10:51",
          "07.12.2025 12:11:21",
          "07.12.2025 12:11:51",
          "07.12.2025 12:12:21",
          "07.12.2025 12:12:51",
          "07.12.2025 12:13:21",
          "07.12.2025 12:13:51",
          "07.12.2025 12:14:21",
          "07.12.2025 12:14:51",
          "07.12.2025 12:15:21",
          "07.12.2025 12:15:51",
          "07.12.2025 12:16:13",
          "07.12.2025 12:16:46",
          "07.12.2025 12:17:16",
          "07.12.2025 12:17:46",
          "07.12.2025 12:18:16",
          "07.12.2025 12:18:49",
          "07.12.2025 12:19:19",
          "07.12.2025 12:19:50",
          "07.12.2025 12:20:20",
          "07.12.2025 12:20:50",
          "07.12.2025 12:21:20",
          "07.12.2025 12:21:51",
          "07.12.2025 12:22:21",
          "07.12.2025 12:22:51",
          "07.12.2025 12:23:21",
          "07.12.2025 12:23:51",
          "07.12.2025 12:24:21",
          "07.12.2025 12:24:52",
          "07.12.2025 12:25:22",
          "07.12.2025 12:25:52",
          "07.12.2025 12:26:23",
          "07.12.2025 12:26:54",
          "07.12.2025 12:27:25",
          "07.12.2025 12:27:55",
          "07.12.2025 12:28:26",
          "07.12.2025 12:28:56",
          "07.12.2025 12:29:26",
          "07.12.2025 12:29:56",
          "07.12.2025 12:30:27",
          "07.12.2025 12:30:57",
          "07.12.2025 12:31:27",
          "07.12.2025 12:31:58",
          "07.12.2025 12:32:29",
          "07.12.2025 12:32:59",
          "07.12.2025 12:33:30",
          "07.12.2025 12:34:00",
          "07.12.2025 12:34:31",
          "07.12.2025 12:35:01",
          "07.12.2025 12:35:31",
          "07.12.2025 12:35:51",
          "07.12.2025 12:36:11",
          "07.12.2025 12:36:35",
          "07.12.2025 12:37:05",
          "07.12.2025 12:37:35",
          "07.12.2025 12:38:05",
          "07.12.2025 12:38:36",
          "07.12.2025 12:39:06",
          "07.12.2025 12:39:37",
          "07.12.2025 12:40:07",
          "07.12.2025 12:40:37",
          "07.12.2025 12:41:08",
          "07.12.2025 12:41:38",
          "07.12.2025 12:42:08",
          "07.12.2025 12:42:38",
          "07.12.2025 12:43:08",
          "07.12.2025 12:43:38",
          "07.12.2025 12:44:08",
          "07.12.2025 12:44:38",
          "07.12.2025 12:45:08",
          "07.12.2025 12:45:38",
          "07.12.2025 12:46:08",
          "07.12.2025 12:46:38",
          "07.12.2025 12:47:08",
          "07.12.2025 12:47:38",
          "07.12.2025 12:48:08",
          "07.12.2025 12:48:38",
          "07.12.2025 12:49:08",
          "07.12.2025 12:49:38",
          "07.12.2025 12:50:08",
          "07.12.2025 12:50:38",
          "07.12.2025 12:51:08",
          "07.12.2025 12:51:38",
          "07.12.2025 12:52:09",
          "07.12.2025 12:52:39",
          "07.12.2025 12:53:09",
          "07.12.2025 12:53:39",
          "07.12.2025 12:54:09",
          "07.12.2025 12:55:09",
          "07.12.2025 12:55:39",
          "07.12.2025 12:56:09",
          "07.12.2025 12:56:39",
          "07.12.2025 12:57:09",
          "07.12.2025 12:57:39",
          "07.12.2025 12:58:09",
          "07.12.2025 12:58:39",
          "07.12.2025 12:59:09",
          "07.12.2025 12:59:39",
          "07.12.2025 13:00:09",
          "07.12.2025 13:00:39",
          "07.12.2025 13:01:09",
          "07.12.2025 13:01:39",
          "07.12.2025 13:02:09",
          "07.12.2025 13:02:39",
          "07.12.2025 13:03:09",
          "07.12.2025 13:03:39",
          "07.12.2025 13:04:09",
          "07.12.2025 13:04:39",
          "07.12.2025 13:05:09",
          "07.12.2025 13:05:39",
          "07.12.2025 13:06:09",
          "07.12.2025 13:06:39",
          "07.12.2025 13:07:09",
          "07.12.2025 13:07:25",
          "07.12.2025 13:07:55",
          "07.12.2025 13:08:25",
          "07.12.2025 13:08:43",
          "07.12.2025 13:08:59",
          "07.12.2025 13:09:18",
          "07.12.2025 13:09:41",
          "07.12.2025 13:10:00",
          "07.12.2025 13:10:41",
          "07.12.2025 13:11:11",
          "07.12.2025 13:11:35",
          "07.12.2025 13:12:19",
          "07.12.2025 13:12:49",
          "07.12.2025 13:13:19",
          "07.12.2025 13:13:49",
          "07.12.2025 13:14:19",
          "07.12.2025 13:14:49",
          "07.12.2025 13:15:08",
          "07.12.2025 13:15:26",
          "07.12.2025 13:15:44",
          "07.12.2025 13:16:00",
          "07.12.2025 13:16:23",
          "07.12.2025 13:16:42",
          "07.12.2025 13:17:11",
          "07.12.2025 13:17:41",
          "07.12.2025 13:18:11",
          "07.12.2025 13:18:30",
          "07.12.2025 13:18:46",
          "07.12.2025 13:19:02",
          "07.12.2025 13:19:18",
          "07.12.2025 13:19:34",
          "07.12.2025 13:19:50",
          "07.12.2025 13:20:06"
        ],
        "course_deg_clockwise_from_north": [
          300,
          304,
          302,
          297,
          295,
          302,
          347,
          19,
          33,
          49,
          60,
          65,
          43,
          42,
          42,
          42,
          42,
          42,
          42,
          42,
          42,
          42,
          42,
          33,
          24,
          22,
          23,
          23,
          23,
          23,
          23,
          23,
          23,
          23,
          23,
          23,
          23,
          23,
          16,
          10,
          11,
          12,
          11,
          12,
          12,
          12,
          12,
          12,
          12,
          12,
          12,
          12,
          12,
          12,
          12,
          12,
          12,
          12,
          12,
          12,
          12,
          12,
          12,
          12,
          12,
          12,
          1,
          360,
          1,
          1,
          1,
          1,
          1,
          1,
          1,
          1,
          1,
          1,
          1,
          1,
          1,
          1,
          1,
          1,
          1,
          1,
          1,
          1,
          1,
          1,
          1,
          1,
          1,
          1,
          1,
          1,
          1,
          1,
          1,
          1,
          1,
          1,
          1,
          1,
          1,
          1,
          1,
          1,
          1,
          1,
          1,
          11,
          12,
          11,
          11,
          11,
          11,
          11,
          11,
          11,
          11,
          11,
          55,
          11,
          11,
          11,
          11,
          11,
          11,
          11,
          11,
          11,
          11,
          11,
          11,
          11,
          11,
          11,
          11,
          11,
          14,
          20,
          21,
          19,
          20,
          20,
          20,
          20,
          20,
          20,
          20,
          20,
          20,
          20,
          20,
          20,
          20,
          20,
          20,
          20,
          20,
          21,
          33,
          42,
          46,
          45,
          44,
          44,
          44,
          44,
          44,
          44,
          45,
          45,
          45,
          45,
          45,
          45,
          45,
          45,
          45,
          45,
          45,
          45,
          45,
          45,
          45,
          45,
          45,
          45,
          45,
          45,
          46,
          45,
          46,
          46,
          46,
          46,
          46,
          46,
          46,
          46,
          46,
          46,
          47,
          47,
          47,
          47,
          47,
          47,
          48,
          47,
          48,
          46,
          45,
          46,
          46,
          46,
          46,
          46,
          46,
          47,
          47,
          47,
          47,
          47,
          47,
          47,
          44,
          32,
          28,
          28,
          29,
          28,
          28,
          29,
          29,
          28,
          28,
          28,
          27,
          20,
          341,
          301,
          277,
          273,
          235,
          234,
          233,
          233,
          232,
          232,
          233,
          233,
          232,
          233,
          234
        ],
        "speed_kts": [
          155,
          167,
          169,
          170,
          170,
          177,
          187,
          216,
          229,
          247,
          264,
          286,
          312,
          344,
          376,
          394,
          406,
          413,
          423,
          430,
          439,
          446,
          450,
          448,
          448,
          452,
          455,
          456,
          455,
          453,
          457,
          455,
          450,
          443,
          438,
          435,
          439,
          446,
          438,
          423,
          416,
          412,
          409,
          406,
          403,
          400,
          400,
          400,
          401,
          402,
          401,
          403,
          408,
          414,
          417,
          419,
          419,
          420,
          420,
          418,
          417,
          416,
          416,
          416,
          416,
          415,
          410,
          411,
          412,
          412,
          413,
          412,
          412,
          412,
          411,
          412,
          412,
          413,
          412,
          413,
          414,
          414,
          414,
          415,
          415,
          415,
          415,
          415,
          414,
          415,
          414,
          414,
          414,
          414,
          413,
          414,
          413,
          414,
          414,
          414,
          413,
          412,
          412,
          412,
          413,
          412,
          410,
          410,
          409,
          409,
          408,
          415,
          415,
          414,
          415,
          415,
          415,
          415,
          416,
          415,
          415,
          415,
          718,
          415,
          414,
          415,
          414,
          414,
          413,
          412,
          413,
          413,
          413,
          414,
          413,
          414,
          414,
          414,
          413,
          413,
          415,
          421,
          421,
          420,
          421,
          420,
          420,
          420,
          421,
          423,
          422,
          422,
          422,
          422,
          422,
          421,
          421,
          421,
          422,
          422,
          423,
          425,
          436,
          446,
          451,
          450,
          449,
          451,
          451,
          451,
          452,
          452,
          453,
          453,
          453,
          453,
          453,
          453,
          453,
          454,
          455,
          457,
          458,
          457,
          458,
          448,
          434,
          423,
          411,
          413,
          421,
          434,
          446,
          448,
          453,
          455,
          458,
          458,
          454,
          450,
          449,
          448,
          448,
          448,
          447,
          446,
          446,
          446,
          446,
          447,
          447,
          446,
          447,
          429,
          428,
          429,
          428,
          432,
          438,
          444,
          451,
          455,
          456,
          458,
          459,
          458,
          457,
          456,
          453,
          439,
          421,
          396,
          362,
          345,
          354,
          377,
          378,
          376,
          365,
          336,
          304,
          289,
          264,
          229,
          199,
          177,
          179,
          171,
          165,
          166,
          140,
          140,
          129,
          126,
          124,
          120,
          122
        ],
        "speed_mph": [
          178.0,
          192.0,
          194.0,
          196.0,
          196.0,
          204.0,
          215.0,
          249.0,
          264.0,
          284.0,
          304.0,
          329.0,
          359.0,
          396.0,
          433.0,
          453.0,
          467.0,
          475.0,
          487.0,
          495.0,
          505.0,
          513.0,
          518.0,
          516.0,
          516.0,
          520.0,
          524.0,
          525.0,
          524.0,
          521.0,
          526.0,
          524.0,
          518.0,
          510.0,
          504.0,
          501.0,
          505.0,
          513.0,
          504.0,
          487.0,
          479.0,
          474.0,
          471.0,
          467.0,
          464.0,
          460.0,
          460.0,
          460.0,
          461.0,
          463.0,
          461.0,
          464.0,
          470.0,
          476.0,
          480.0,
          482.0,
          482.0,
          483.0,
          483.0,
          481.0,
          480.0,
          479.0,
          479.0,
          479.0,
          479.0,
          478.0,
          472.0,
          473.0,
          474.0,
          474.0,
          475.0,
          474.0,
          474.0,
          474.0,
          473.0,
          474.0,
          474.0,
          475.0,
          474.0,
          475.0,
          476.0,
          476.0,
          476.0,
          478.0,
          478.0,
          478.0,
          478.0,
          478.0,
          476.0,
          478.0,
          476.0,
          476.0,
          476.0,
          476.0,
          475.0,
          476.0,
          475.0,
          476.0,
          476.0,
          476.0,
          475.0,
          474.0,
          474.0,
          474.0,
          475.0,
          474.0,
          472.0,
          472.0,
          471.0,
          471.0,
          470.0,
          478.0,
          478.0,
          476.0,
          478.0,
          478.0,
          478.0,
          478.0,
          479.0,
          478.0,
          478.0,
          478.0,
          826.0,
          478.0,
          476.0,
          478.0,
          476.0,
          476.0,
          475.0,
          474.0,
          475.0,
          475.0,
          475.0,
          476.0,
          475.0,
          476.0,
          476.0,
          476.0,
          475.0,
          475.0,
          478.0,
          484.0,
          484.0,
          483.0,
          484.0,
          483.0,
          483.0,
          483.0,
          484.0,
          487.0,
          486.0,
          486.0,
          486.0,
          486.0,
          486.0,
          484.0,
          484.0,
          484.0,
          486.0,
          486.0,
          487.0,
          489.0,
          502.0,
          513.0,
          519.0,
          518.0,
          517.0,
          519.0,
          519.0,
          519.0,
          520.0,
          520.0,
          521.0,
          521.0,
          521.0,
          521.0,
          521.0,
          521.0,
          521.0,
          522.0,
          524.0,
          526.0,
          527.0,
          526.0,
          527.0,
          516.0,
          499.0,
          487.0,
          473.0,
          475.0,
          484.0,
          499.0,
          513.0,
          516.0,
          521.0,
          524.0,
          527.0,
          527.0,
          522.0,
          518.0,
          517.0,
          516.0,
          516.0,
          516.0,
          514.0,
          513.0,
          513.0,
          513.0,
          513.0,
          514.0,
          514.0,
          513.0,
          514.0,
          494.0,
          493.0,
          494.0,
          493.0,
          497.0,
          504.0,
          511.0,
          519.0,
          524.0,
          525.0,
          527.0,
          528.0,
          527.0,
          526.0,
          525.0,
          521.0,
          505.0,
          484.0,
          456.0,
          417.0,
          397.0,
          407.0,
          434.0,
          435.0,
          433.0,
          420.0,
          387.0,
          350.0,
          333.0,
          304.0,
          264.0,
          229.0,
          204.0,
          206.0,
          197.0,
          190.0,
          191.0,
          161.0,
          161.0,
          148.0,
          145.0,
          143.0,
          138.0,
          140.0
        ],
        "altitude_ft": [
          700,
          1450,
          2400,
          3125,
          3975,
          4800,
          5475,
          6200,
          6950,
          7675,
          8325,
          9250,
          10375,
          11650,
          12925,
          14475,
          16200,
          17975,
          19450,
          20950,
          22175,
          23475,
          24750,
          25500,
          26475,
          27475,
          28450,
          29450,
          30450,
          31450,
          31975,
          32100,
          32975,
          33975,
          34825,
          35600,
          35975,
          36175,
          36800,
          37950,
          38725,
          39375,
          39875,
          40400,
          40925,
          41425,
          41725,
          42000,
          42250,
          42525,
          42800,
          42975,
          43000,
          43000,
          43000,
          43000,
          43000,
          43000,
          43000,
          43000,
          43000,
          43000,
          43000,
          43000,
          43000,
          43000,
          43000,
          43000,
          43000,
          43000,
          43000,
          43000,
          43000,
          43000,
          43000,
          43000,
          43000,
          43000,
          43000,
          43000,
          43000,
          43000,
          43000,
          43000,
          43000,
          43000,
          43000,
          43000,
          43000,
          43000,
          43000,
          43000,
          43000,
          43000,
          43000,
          43000,
          43000,
          43000,
          43000,
          43000,
          43000,
          43000,
          43000,
          43000,
          43000,
          43000,
          43000,
          43000,
          43000,
          43000,
          43000,
          43000,
          43000,
          43000,
          43000,
          43000,
          43000,
          43000,
          43000,
          43000,
          43000,
          43000,
          43000,
          43000,
          43000,
          43000,
          43000,
          43000,
          43000,
          43000,
          43000,
          43000,
          43000,
          43000,
          43000,
          43000,
          43000,
          43000,
          43000,
          43000,
          43000,
          43000,
          43000,
          43000,
          43000,
          43000,
          43000,
          43000,
          43000,
          43000,
          43000,
          43000,
          43000,
          43000,
          43000,
          43000,
          43000,
          43000,
          43000,
          43000,
          43000,
          43000,
          43000,
          43000,
          43000,
          43000,
          43000,
          43000,
          43000,
          43000,
          43000,
          43000,
          43000,
          43000,
          43000,
          43000,
          43000,
          43000,
          43000,
          43000,
          43000,
          43000,
          43000,
          43000,
          43000,
          42425,
          41675,
          40925,
          40125,
          39375,
          38625,
          37900,
          37150,
          37000,
          37000,
          37000,
          37000,
          37000,
          37000,
          37000,
          37000,
          37000,
          37000,
          37000,
          37000,
          37000,
          37000,
          37000,
          37000,
          37000,
          37000,
          37000,
          37000,
          36475,
          35225,
          33975,
          32700,
          31475,
          30225,
          28975,
          27725,
          26525,
          25275,
          24000,
          23350,
          22100,
          20850,
          20100,
          19375,
          18675,
          17650,
          16900,
          15175,
          13900,
          12900,
          10675,
          9225,
          7725,
          6225,
          5125,
          4325,
          3825,
          3350,
          3175,
          3175,
          3150,
          3175,
          2750,
          2300,
          1850,
          1575,
          1375,
          1175,
          975,
          825,
          650,
          450
        ],
        "vertical_rate_fpm": [
          0.0,
          3188.0,
          3141.0,
          2953.0,
          3141.0,
          2813.0,
          2400.0,
          2458.0,
          2682.0,
          2578.0,
          2554.0,
          2674.0,
          2618.0,
          2550.0,
          2779.0,
          3221.0,
          3500.0,
          3250.0,
          2975.0,
          2725.0,
          2484.0,
          2533.0,
          2531.0,
          2352.0,
          2116.0,
          1975.0,
          1975.0,
          2000.0,
          2000.0,
          1525.0,
          650.0,
          1000.0,
          1875.0,
          1850.0,
          1625.0,
          1131.0,
          566.0,
          884.0,
          1500.0,
          1520.0,
          1402.0,
          1131.0,
          1008.0,
          1050.0,
          1025.0,
          800.0,
          575.0,
          516.0,
          516.0,
          550.0,
          450.0,
          185.0,
          22.0,
          0.0,
          0.0,
          0.0,
          0.0,
          0.0,
          0.0,
          0.0,
          0.0,
          0.0,
          0.0,
          0.0,
          0.0,
          0.0,
          0.0,
          0.0,
          0.0,
          0.0,
          0.0,
          0.0,
          0.0,
          0.0,
          0.0,
          0.0,
          0.0,
          0.0,
          0.0,
          0.0,
          0.0,
          0.0,
          0.0,
          0.0,
          0.0,
          0.0,
          0.0,
          0.0,
          0.0,
          0.0,
          0.0,
          0.0,
          0.0,
          0.0,
          0.0,
          0.0,
          0.0,
          0.0,
          0.0,
          0.0,
          0.0,
          0.0,
          0.0,
          0.0,
          0.0,
          0.0,
          0.0,
          0.0,
          0.0,
          0.0,
          0.0,
          0.0,
          0.0,
          0.0,
          0.0,
          0.0,
          0.0,
          0.0,
          0.0,
          0.0,
          0.0,
          0.0,
          0.0,
          0.0,
          0.0,
          0.0,
          0.0,
          0.0,
          0.0,
          0.0,
          0.0,
          0.0,
          0.0,
          0.0,
          0.0,
          0.0,
          0.0,
          0.0,
          0.0,
          0.0,
          0.0,
          0.0,
          0.0,
          0.0,
          0.0,
          0.0,
          0.0,
          0.0,
          0.0,
          0.0,
          0.0,
          0.0,
          0.0,
          0.0,
          0.0,
          0.0,
          0.0,
          0.0,
          0.0,
          0.0,
          0.0,
          0.0,
          0.0,
          0.0,
          0.0,
          0.0,
          0.0,
          0.0,
          0.0,
          0.0,
          0.0,
          0.0,
          0.0,
          0.0,
          0.0,
          0.0,
          0.0,
          0.0,
          0.0,
          0.0,
          0.0,
          0.0,
          0.0,
          0.0,
          -575.0,
          -1325.0,
          -1500.0,
          -1550.0,
          -1550.0,
          -1500.0,
          -1475.0,
          -1475.0,
          -900.0,
          -148.0,
          0.0,
          0.0,
          0.0,
          0.0,
          0.0,
          0.0,
          0.0,
          0.0,
          0.0,
          0.0,
          0.0,
          0.0,
          0.0,
          0.0,
          0.0,
          0.0,
          0.0,
          0.0,
          -525.0,
          -1775.0,
          -2500.0,
          -2525.0,
          -2500.0,
          -2475.0,
          -2500.0,
          -2500.0,
          -2450.0,
          -2450.0,
          -2525.0,
          -2511.0,
          -2478.0,
          -2500.0,
          -2500.0,
          -2603.0,
          -2443.0,
          -2464.0,
          -2536.0,
          -2475.0,
          -2535.0,
          -2528.0,
          -2846.0,
          -2980.0,
          -2950.0,
          -3000.0,
          -2600.0,
          -1900.0,
          -1592.0,
          -1581.0,
          -1083.0,
          -309.0,
          -38.0,
          0.0,
          -500.0,
          -890.0,
          -900.0,
          -888.0,
          -814.0,
          -750.0,
          -750.0,
          -656.0,
          -609.0,
          -703.0,
          -750.0
        ]
      }
    }
  ]
}