{
  "type": "FeatureCollection",
  "features": [
    {
      "type": "Feature",
      "geometry": {
        "type": "LineString",
        "coordinates": [
          [
            19.7694,
            50.0756
          ],
          [
            19.7537,
            50.0738
          ],
          [
            19.7374,
            50.072
          ],
          [
            19.7167,
            50.0698
          ],
          [
            19.6965,
            50.0678
          ],
          [
            19.674,
            50.0693
          ],
          [
            19.645,
            50.0758
          ],
          [
            19.604,
            50.0847
          ],
          [
            19.5545,
            50.0951
          ],
          [
            19.5036,
            50.106
          ],
          [
            19.4443,
            50.1187
          ],
          [
            19.382,
            50.1319
          ],
          [
            19.3144,
            50.1463
          ],
          [
            19.2434,
            50.1613
          ],
          [
            19.1681,
            50.1772
          ],
          [
            19.0951,
            50.1925
          ],
          [
            19.0217,
            50.2077
          ],
          [
            18.9463,
            50.2234
          ],
          [
            18.8702,
            50.2392
          ],
          [
            18.7978,
            50.2543
          ],
          [
            18.7248,
            50.2716
          ],
          [
            18.6469,
            50.2939
          ],
          [
            18.5454,
            50.3211
          ],
          [
            18.4659,
            50.3424
          ],
          [
            18.3891,
            50.3631
          ],
          [
            18.288,
            50.3901
          ],
          [
            18.2101,
            50.4108
          ],
          [
            18.1311,
            50.4318
          ],
          [
            18.0519,
            50.4526
          ],
          [
            18.0077,
            50.4644
          ],
          [
            17.9279,
            50.4853
          ],
          [
            17.8486,
            50.5061
          ],
          [
            17.7725,
            50.5261
          ],
          [
            17.6957,
            50.5459
          ],
          [
            17.5841,
            50.5749
          ],
          [
            17.5085,
            50.5945
          ],
          [
            17.431,
            50.6144
          ],
          [
            17.351,
            50.6348
          ],
          [
            17.2775,
            50.6537
          ],
          [
            17.1632,
            50.6828
          ],
          [
            17.091,
            50.701
          ],
          [
            17.0104,
            50.7214
          ],
          [
            16.9367,
            50.7399
          ],
          [
            16.8571,
            50.7598
          ],
          [
            16.7568,
            50.785
          ],
          [
            16.6804,
            50.8039
          ],
          [
            16.6027,
            50.8232
          ],
          [
            16.5266,
            50.8421
          ],
          [
            16.4517,
            50.8605
          ],
          [
            16.3756,
            50.8791
          ],
          [
            16.2984,
            50.8979
          ],
          [
            16.2227,
            50.9164
          ],
          [
            16.1455,
            50.9352
          ],
          [
            16.067,
            50.9542
          ],
          [
            16.0262,
            50.9641
          ],
          [
            15.9641,
            50.9783
          ],
          [
            15.9184,
            50.9879
          ],
          [
            15.8439,
            51.0036
          ],
          [
            15.7882,
            51.0155
          ],
          [
            15.7083,
            51.0325
          ],
          [
            15.6269,
            51.05
          ],
          [
            15.5495,
            51.0659
          ],
          [
            15.4723,
            51.0821
          ],
          [
            15.3846,
            51.1005
          ],
          [
            15.304,
            51.1171
          ],
          [
            15.2612,
            51.126
          ],
          [
            15.1628,
            51.1465
          ],
          [
            15.0834,
            51.1626
          ],
          [
            15.0077,
            51.1781
          ],
          [
            14.9264,
            51.1948
          ],
          [
            14.8488,
            51.2105
          ],
          [
            14.7693,
            51.2264
          ],
          [
            14.6911,
            51.2424
          ],
          [
            14.6101,
            51.2586
          ],
          [
            14.5286,
            51.2747
          ],
          [
            14.4603,
            51.2885
          ],
          [
            14.3809,
            51.3042
          ],
          [
            14.3034,
            51.3195
          ],
          [
            14.2244,
            51.335
          ],
          [
            14.147,
            51.3502
          ],
          [
            14.0497,
            51.369
          ],
          [
            13.9582,
            51.387
          ],
          [
            13.882,
            51.4016
          ],
          [
            13.8001,
            51.4173
          ],
          [
            13.7227,
            51.432
          ],
          [
            13.6426,
            51.4477
          ],
          [
            13.562,
            51.4627
          ],
          [
            13.4824,
            51.4778
          ],
          [
            13.4104,
            51.4913
          ],
          [
            13.3305,
            51.5062
          ],
          [
            13.2479,
            51.5219
          ],
          [
            13.1765,
            51.5351
          ],
          [
            13.0936,
            51.5502
          ],
          [
            13.0158,
            51.5647
          ],
          [
            12.9374,
            51.5793
          ],
          [
            12.8578,
            51.5936
          ],
          [
            12.7782,
            51.6081
          ],
          [
            12.7222,
            51.6178
          ],
          [
            12.6253,
            51.6324
          ],
          [
            12.5455,
            51.6444
          ],
          [
            12.4673,
            51.6563
          ],
          [
            12.365,
            51.6718
          ],
          [
            12.2794,
            51.6845
          ],
          [
            12.2039,
            51.6957
          ],
          [
            12.1191,
            51.7083
          ],
          [
            12.0386,
            51.7203
          ],
          [
            11.9561,
            51.7323
          ],
          [
            11.9021,
            51.7403
          ],
          [
            11.8475,
            51.7482
          ],
          [
            11.7698,
            51.7593
          ],
          [
            11.6859,
            51.7716
          ],
          [
            11.6078,
            51.7828
          ],
          [
            11.5229,
            51.7947
          ],
          [
            11.449,
            51.8054
          ],
          [
            11.3696,
            51.8168
          ],
          [
            11.319,
            51.8256
          ],
          [
            11.171,
            51.8513
          ],
          [
            11.0923,
            51.8646
          ],
          [
            10.9518,
            51.8884
          ],
          [
            10.8675,
            51.9026
          ],
          [
            10.7848,
            51.9163
          ],
          [
            10.7054,
            51.9297
          ],
          [
            10.6587,
            51.9373
          ],
          [
            10.5338,
            51.9581
          ],
          [
            10.4511,
            51.9714
          ],
          [
            10.371,
            51.9846
          ],
          [
            10.3133,
            51.9942
          ],
          [
            10.2316,
            52.007
          ],
          [
            10.1646,
            52.018
          ],
          [
            10.0806,
            52.0316
          ],
          [
            9.9972,
            52.0448
          ],
          [
            9.9168,
            52.0575
          ],
          [
            9.832,
            52.0709
          ],
          [
            9.7512,
            52.0836
          ],
          [
            9.6661,
            52.097
          ],
          [
            9.6201,
            52.1041
          ],
          [
            9.5366,
            52.117
          ],
          [
            9.4794,
            52.126
          ],
          [
            9.3777,
            52.1416
          ],
          [
            9.2662,
            52.1585
          ],
          [
            9.186,
            52.1708
          ],
          [
            9.0981,
            52.1842
          ],
          [
            9.0201,
            52.1957
          ],
          [
            8.9714,
            52.2029
          ],
          [
            8.9272,
            52.2096
          ],
          [
            8.8177,
            52.2257
          ],
          [
            8.7365,
            52.2379
          ],
          [
            8.6508,
            52.2505
          ],
          [
            8.5662,
            52.263
          ],
          [
            8.5233,
            52.2698
          ],
          [
            8.4424,
            52.2831
          ],
          [
            8.3218,
            52.3019
          ],
          [
            8.2381,
            52.3152
          ],
          [
            8.158,
            52.3276
          ],
          [
            8.1155,
            52.3342
          ],
          [
            8.0271,
            52.3478
          ],
          [
            7.9806,
            52.355
          ],
          [
            7.8993,
            52.3675
          ],
          [
            7.814,
            52.3803
          ],
          [
            7.6943,
            52.3989
          ],
          [
            7.6083,
            52.4117
          ],
          [
            7.5278,
            52.4237
          ],
          [
            7.4423,
            52.4366
          ],
          [
            7.3605,
            52.4485
          ],
          [
            7.2775,
            52.4609
          ],
          [
            7.1979,
            52.4725
          ],
          [
            7.1121,
            52.4851
          ],
          [
            7.0284,
            52.4973
          ],
          [
            6.9463,
            52.5091
          ],
          [
            6.8607,
            52.5214
          ],
          [
            6.7776,
            52.5332
          ],
          [
            6.696,
            52.545
          ],
          [
            6.5754,
            52.562
          ],
          [
            6.4867,
            52.5744
          ],
          [
            6.4032,
            52.586
          ],
          [
            6.321,
            52.5974
          ],
          [
            6.2538,
            52.6067
          ],
          [
            6.1477,
            52.6212
          ],
          [
            6.0608,
            52.6329
          ],
          [
            5.9777,
            52.6445
          ],
          [
            5.8884,
            52.6564
          ],
          [
            5.8031,
            52.6678
          ],
          [
            5.7143,
            52.6796
          ],
          [
            5.6396,
            52.6895
          ],
          [
            5.475,
            52.7111
          ],
          [
            5.3892,
            52.7224
          ],
          [
            5.3178,
            52.7314
          ],
          [
            5.2311,
            52.7427
          ],
          [
            5.1462,
            52.7535
          ],
          [
            5.0592,
            52.7646
          ],
          [
            4.9734,
            52.7754
          ],
          [
            4.887,
            52.7862
          ],
          [
            4.7614,
            52.8019
          ],
          [
            4.6769,
            52.8124
          ],
          [
            4.5899,
            52.823
          ],
          [
            4.5047,
            52.8334
          ],
          [
            4.4162,
            52.8442
          ],
          [
            4.3335,
            52.854
          ],
          [
            4.2465,
            52.8646
          ],
          [
            4.1669,
            52.874
          ],
          [
            4.0799,
            52.8843
          ],
          [
            3.9924,
            52.8946
          ],
          [
            3.9049,
            52.9048
          ],
          [
            3.8145,
            52.9152
          ],
          [
            3.7312,
            52.9249
          ],
          [
            3.6447,
            52.9346
          ],
          [
            3.5607,
            52.9442
          ],
          [
            3.4734,
            52.954
          ],
          [
            3.4003,
            52.9626
          ],
          [
            3.2867,
            52.9816
          ],
          [
            3.201,
            52.9965
          ],
          [
            3.1144,
            53.0117
          ],
          [
            2.9922,
            53.0335
          ],
          [
            2.9092,
            53.0481
          ],
          [
            2.8204,
            53.0632
          ],
          [
            2.7342,
            53.0778
          ],
          [
            2.6481,
            53.0918
          ],
          [
            2.5596,
            53.1067
          ],
          [
            2.4754,
            53.1209
          ],
          [
            2.3855,
            53.136
          ],
          [
            2.2996,
            53.1505
          ],
          [
            2.2133,
            53.1651
          ],
          [
            2.1255,
            53.1799
          ],
          [
            2.0377,
            53.194
          ],
          [
            1.9502,
            53.2079
          ],
          [
            1.8623,
            53.2218
          ],
          [
            1.7737,
            53.2362
          ],
          [
            1.6873,
            53.2508
          ],
          [
            1.5751,
            53.2683
          ],
          [
            1.4873,
            53.2818
          ],
          [
            1.4342,
            53.29
          ],
          [
            1.3218,
            53.3107
          ],
          [
            1.2364,
            53.3268
          ],
          [
            1.151,
            53.3438
          ],
          [
            1.0687,
            53.3609
          ],
          [
            1.0132,
            53.3724
          ],
          [
            0.9283,
            53.3903
          ],
          [
            0.8501,
            53.4044
          ],
          [
            0.7651,
            53.4126
          ],
          [
            0.6767,
            53.4192
          ],
          [
            0.5889,
            53.4254
          ],
          [
            0.5071,
            53.4316
          ],
          [
            0.4139,
            53.4382
          ],
          [
            0.3211,
            53.4445
          ],
          [
            0.241,
            53.4503
          ],
          [
            0.1511,
            53.4564
          ],
          [
            0.062,
            53.4627
          ],
          [
            -0.0276,
            53.4691
          ],
          [
            -0.1178,
            53.4751
          ],
          [
            -0.1991,
            53.4799
          ],
          [
            -0.2624,
            53.483
          ],
          [
            -0.3095,
            53.485
          ],
          [
            -0.3761,
            53.4875
          ],
          [
            -0.4357,
            53.4896
          ],
          [
            -0.4959,
            53.4923
          ],
          [
            -0.5742,
            53.5031
          ],
          [
            -0.63,
            53.5128
          ],
          [
            -0.7605,
            53.5349
          ],
          [
            -0.8086,
            53.5426
          ],
          [
            -0.9196,
            53.5604
          ],
          [
            -1.0067,
            53.5745
          ],
          [
            -1.0945,
            53.5885
          ],
          [
            -1.1783,
            53.6017
          ],
          [
            -1.2621,
            53.615
          ],
          [
            -1.3406,
            53.6272
          ],
          [
            -1.4372,
            53.6421
          ],
          [
            -1.5073,
            53.6494
          ],
          [
            -1.5425,
            53.6523
          ],
          [
            -1.589,
            53.6554
          ],
          [
            -1.6626,
            53.6609
          ],
          [
            -1.7088,
            53.6647
          ],
          [
            -1.7638,
            53.669
          ],
          [
            -1.816,
            53.6733
          ],
          [
            -1.8701,
            53.6775
          ],
          [
            -1.9189,
            53.6813
          ],
          [
            -1.9653,
            53.685
          ],
          [
            -1.9959,
            53.6874
          ],
          [
            -2.0237,
            53.6821
          ],
          [
            -2.0381,
            53.6652
          ],
          [
            -2.0278,
            53.6475
          ],
          [
            -2.0013,
            53.6341
          ],
          [
            -1.9801,
            53.6228
          ],
          [
            -1.9683,
            53.61
          ],
          [
            -1.9544,
            53.5924
          ],
          [
            -1.9485,
            53.5777
          ],
          [
            -1.9576,
            53.558
          ],
          [
            -1.9687,
            53.5434
          ],
          [
            -1.9857,
            53.5202
          ],
          [
            -1.995,
            53.5048
          ],
          [
            -2.0043,
            53.4898
          ],
          [
            -2.0195,
            53.4781
          ],
          [
            -2.0427,
            53.466
          ],
          [
            -2.0752,
            53.45
          ],
          [
            -2.1019,
            53.4372
          ],
          [
            -2.1207,
            53.4283
          ],
          [
            -2.1379,
            53.42
          ],
          [
            -2.1586,
            53.41
          ],
          [
            -2.172,
            53.4035
          ],
          [
            -2.1814,
            53.399
          ],
          [
            -2.1843,
            53.3975
          ],
          [
            -2.1959,
            53.3919
          ],
          [
            -2.2071,
            53.3864
          ],
          [
            -2.2184,
            53.3811
          ],
          [
            -2.2306,
            53.3752
          ],
          [
            -2.241,
            53.3701
          ],
          [
            -2.254,
            53.3639
          ],
          [
            -2.2645,
            53.3588
          ]
        ]
      },
      "properties": {
        "time_europe_berlin": [
          "29.10.2025 13:55:51",
          "29.10.2025 13:56:07",
          "29.10.2025 13:56:23",
          "29.10.2025 13:56:39",
          "29.10.2025 13:56:55",
          "29.10.2025 13:57:11",
          "29.10.2025 13:57:31",
          "29.10.2025 13:58:00",
          "29.10.2025 13:58:30",
          "29.10.2025 13:59:00",
          "29.10.2025 13:59:30",
          "29.10.2025 14:00:00",
          "29.10.2025 14:00:30",
          "29.10.2025 14:01:00",
          "29.10.2025 14:01:30",
          "29.10.2025 14:02:00",
          "29.10.2025 14:02:30",
          "29.10.2025 14:03:00",
          "29.10.2025 14:03:30",
          "29.10.2025 14:04:00",
          "29.10.2025 14:04:29",
          "29.10.2025 14:04:59",
          "29.10.2025 14:05:41",
          "29.10.2025 14:06:11",
          "29.10.2025 14:06:41",
          "29.10.2025 14:07:21",
          "29.10.2025 14:07:51",
          "29.10.2025 14:08:21",
          "29.10.2025 14:08:51",
          "29.10.2025 14:09:10",
          "29.10.2025 14:09:40",
          "29.10.2025 14:10:10",
          "29.10.2025 14:10:40",
          "29.10.2025 14:11:10",
          "29.10.2025 14:11:54",
          "29.10.2025 14:12:24",
          "29.10.2025 14:12:54",
          "29.10.2025 14:13:24",
          "29.10.2025 14:13:54",
          "29.10.2025 14:14:37",
          "29.10.2025 14:15:07",
          "29.10.2025 14:15:37",
          "29.10.2025 14:16:07",
          "29.10.2025 14:16:37",
          "29.10.2025 14:17:17",
          "29.10.2025 14:17:47",
          "29.10.2025 14:18:17",
          "29.10.2025 14:18:47",
          "29.10.2025 14:19:17",
          "29.10.2025 14:19:47",
          "29.10.2025 14:20:17",
          "29.10.2025 14:20:47",
          "29.10.2025 14:21:17",
          "29.10.2025 14:21:47",
          "29.10.2025 14:22:04",
          "29.10.2025 14:22:28",
          "29.10.2025 14:22:45",
          "29.10.2025 14:23:15",
          "29.10.2025 14:23:36",
          "29.10.2025 14:24:06",
          "29.10.2025 14:24:36",
          "29.10.2025 14:25:06",
          "29.10.2025 14:25:36",
          "29.10.2025 14:26:10",
          "29.10.2025 14:26:40",
          "29.10.2025 14:26:57",
          "29.10.2025 14:27:33",
          "29.10.2025 14:28:03",
          "29.10.2025 14:28:33",
          "29.10.2025 14:29:03",
          "29.10.2025 14:29:33",
          "29.10.2025 14:30:03",
          "29.10.2025 14:30:33",
          "29.10.2025 14:31:04",
          "29.10.2025 14:31:34",
          "29.10.2025 14:32:01",
          "29.10.2025 14:32:31",
          "29.10.2025 14:33:01",
          "29.10.2025 14:33:31",
          "29.10.2025 14:34:01",
          "29.10.2025 14:34:38",
          "29.10.2025 14:35:12",
          "29.10.2025 14:35:42",
          "29.10.2025 14:36:12",
          "29.10.2025 14:36:42",
          "29.10.2025 14:37:12",
          "29.10.2025 14:37:42",
          "29.10.2025 14:38:12",
          "29.10.2025 14:38:40",
          "29.10.2025 14:39:10",
          "29.10.2025 14:39:41",
          "29.10.2025 14:40:09",
          "29.10.2025 14:40:39",
          "29.10.2025 14:41:09",
          "29.10.2025 14:41:39",
          "29.10.2025 14:42:09",
          "29.10.2025 14:42:39",
          "29.10.2025 14:43:00",
          "29.10.2025 14:43:35",
          "29.10.2025 14:44:05",
          "29.10.2025 14:44:35",
          "29.10.2025 14:45:13",
          "29.10.2025 14:45:43",
          "29.10.2025 14:46:13",
          "29.10.2025 14:46:44",
          "29.10.2025 14:47:14",
          "29.10.2025 14:47:44",
          "29.10.2025 14:48:04",
          "29.10.2025 14:48:24",
          "29.10.2025 14:48:54",
          "29.10.2025 14:49:24",
          "29.10.2025 14:49:54",
          "29.10.2025 14:50:24",
          "29.10.2025 14:50:52",
          "29.10.2025 14:51:20",
          "29.10.2025 14:51:40",
          "29.10.2025 14:52:34",
          "29.10.2025 14:53:04",
          "29.10.2025 14:53:56",
          "29.10.2025 14:54:26",
          "29.10.2025 14:54:56",
          "29.10.2025 14:55:26",
          "29.10.2025 14:55:43",
          "29.10.2025 14:56:28",
          "29.10.2025 14:56:58",
          "29.10.2025 14:57:28",
          "29.10.2025 14:57:50",
          "29.10.2025 14:58:20",
          "29.10.2025 14:58:45",
          "29.10.2025 14:59:15",
          "29.10.2025 14:59:45",
          "29.10.2025 15:00:15",
          "29.10.2025 15:00:45",
          "29.10.2025 15:01:15",
          "29.10.2025 15:01:45",
          "29.10.2025 15:02:02",
          "29.10.2025 15:02:32",
          "29.10.2025 15:02:53",
          "29.10.2025 15:03:30",
          "29.10.2025 15:04:09",
          "29.10.2025 15:04:39",
          "29.10.2025 15:05:09",
          "29.10.2025 15:05:39",
          "29.10.2025 15:05:55",
          "29.10.2025 15:06:12",
          "29.10.2025 15:06:52",
          "29.10.2025 15:07:22",
          "29.10.2025 15:07:52",
          "29.10.2025 15:08:22",
          "29.10.2025 15:08:38",
          "29.10.2025 15:09:08",
          "29.10.2025 15:09:52",
          "29.10.2025 15:10:22",
          "29.10.2025 15:10:51",
          "29.10.2025 15:11:07",
          "29.10.2025 15:11:37",
          "29.10.2025 15:11:55",
          "29.10.2025 15:12:25",
          "29.10.2025 15:12:55",
          "29.10.2025 15:13:39",
          "29.10.2025 15:14:09",
          "29.10.2025 15:14:39",
          "29.10.2025 15:15:09",
          "29.10.2025 15:15:39",
          "29.10.2025 15:16:09",
          "29.10.2025 15:16:38",
          "29.10.2025 15:17:08",
          "29.10.2025 15:17:38",
          "29.10.2025 15:18:08",
          "29.10.2025 15:18:38",
          "29.10.2025 15:19:08",
          "29.10.2025 15:19:38",
          "29.10.2025 15:20:20",
          "29.10.2025 15:20:50",
          "29.10.2025 15:21:20",
          "29.10.2025 15:21:50",
          "29.10.2025 15:22:13",
          "29.10.2025 15:22:51",
          "29.10.2025 15:23:21",
          "29.10.2025 15:23:51",
          "29.10.2025 15:24:21",
          "29.10.2025 15:24:51",
          "29.10.2025 15:25:21",
          "29.10.2025 15:25:48",
          "29.10.2025 15:26:45",
          "29.10.2025 15:27:15",
          "29.10.2025 15:27:40",
          "29.10.2025 15:28:10",
          "29.10.2025 15:28:40",
          "29.10.2025 15:29:10",
          "29.10.2025 15:29:40",
          "29.10.2025 15:30:10",
          "29.10.2025 15:30:54",
          "29.10.2025 15:31:24",
          "29.10.2025 15:31:54",
          "29.10.2025 15:32:24",
          "29.10.2025 15:32:54",
          "29.10.2025 15:33:24",
          "29.10.2025 15:33:54",
          "29.10.2025 15:34:22",
          "29.10.2025 15:34:52",
          "29.10.2025 15:35:22",
          "29.10.2025 15:35:52",
          "29.10.2025 15:36:22",
          "29.10.2025 15:36:52",
          "29.10.2025 15:37:22",
          "29.10.2025 15:37:52",
          "29.10.2025 15:38:22",
          "29.10.2025 15:38:47",
          "29.10.2025 15:39:27",
          "29.10.2025 15:39:57",
          "29.10.2025 15:40:27",
          "29.10.2025 15:41:10",
          "29.10.2025 15:41:40",
          "29.10.2025 15:42:10",
          "29.10.2025 15:42:40",
          "29.10.2025 15:43:10",
          "29.10.2025 15:43:40",
          "29.10.2025 15:44:10",
          "29.10.2025 15:44:40",
          "29.10.2025 15:45:10",
          "29.10.2025 15:45:40",
          "29.10.2025 15:46:10",
          "29.10.2025 15:46:40",
          "29.10.2025 15:47:10",
          "29.10.2025 15:47:40",
          "29.10.2025 15:48:10",
          "29.10.2025 15:48:40",
          "29.10.2025 15:49:18",
          "29.10.2025 15:49:48",
          "29.10.2025 15:50:07",
          "29.10.2025 15:50:45",
          "29.10.2025 15:51:15",
          "29.10.2025 15:51:45",
          "29.10.2025 15:52:14",
          "29.10.2025 15:52:35",
          "29.10.2025 15:53:05",
          "29.10.2025 15:53:33",
          "29.10.2025 15:54:03",
          "29.10.2025 15:54:33",
          "29.10.2025 15:55:04",
          "29.10.2025 15:55:33",
          "29.10.2025 15:56:03",
          "29.10.2025 15:56:33",
          "29.10.2025 15:57:00",
          "29.10.2025 15:57:30",
          "29.10.2025 15:58:00",
          "29.10.2025 15:58:30",
          "29.10.2025 15:59:00",
          "29.10.2025 15:59:26",
          "29.10.2025 15:59:46",
          "29.10.2025 16:00:02",
          "29.10.2025 16:00:23",
          "29.10.2025 16:00:43",
          "29.10.2025 16:01:01",
          "29.10.2025 16:01:27",
          "29.10.2025 16:01:45",
          "29.10.2025 16:02:27",
          "29.10.2025 16:02:43",
          "29.10.2025 16:03:21",
          "29.10.2025 16:03:51",
          "29.10.2025 16:04:21",
          "29.10.2025 16:04:51",
          "29.10.2025 16:05:21",
          "29.10.2025 16:05:51",
          "29.10.2025 16:06:30",
          "29.10.2025 16:06:58",
          "29.10.2025 16:07:14",
          "29.10.2025 16:07:35",
          "29.10.2025 16:08:14",
          "29.10.2025 16:08:37",
          "29.10.2025 16:09:07",
          "29.10.2025 16:09:37",
          "29.10.2025 16:10:07",
          "29.10.2025 16:10:37",
          "29.10.2025 16:11:07",
          "29.10.2025 16:11:26",
          "29.10.2025 16:11:44",
          "29.10.2025 16:12:03",
          "29.10.2025 16:12:21",
          "29.10.2025 16:12:39",
          "29.10.2025 16:12:55",
          "29.10.2025 16:13:11",
          "29.10.2025 16:13:30",
          "29.10.2025 16:13:47",
          "29.10.2025 16:14:09",
          "29.10.2025 16:14:26",
          "29.10.2025 16:14:52",
          "29.10.2025 16:15:10",
          "29.10.2025 16:15:28",
          "29.10.2025 16:15:44",
          "29.10.2025 16:16:05",
          "29.10.2025 16:16:35",
          "29.10.2025 16:17:03",
          "29.10.2025 16:17:23",
          "29.10.2025 16:17:41",
          "29.10.2025 16:18:02",
          "29.10.2025 16:18:18",
          "29.10.2025 16:18:30",
          "29.10.2025 16:18:34",
          "29.10.2025 16:18:50",
          "29.10.2025 16:19:06",
          "29.10.2025 16:19:22",
          "29.10.2025 16:19:38",
          "29.10.2025 16:19:54",
          "29.10.2025 16:20:10",
          "29.10.2025 16:20:26"
        ],
        "course_deg_clockwise_from_north": [
          "259",
          "260",
          "261",
          "260",
          "265",
          "288",
          "290",
          "288",
          "288",
          "289",
          "288",
          "288",
          "288",
          "288",
          "288",
          "288",
          "288",
          "288",
          "288",
          "288",
          "293",
          "294",
          "292",
          "293",
          "292",
          "293",
          "293",
          "292",
          "293",
          "293",
          "293",
          "292",
          "292",
          "292",
          "292",
          "292",
          "292",
          "292",
          "292",
          "292",
          "292",
          "292",
          "292",
          "292",
          "292",
          "291",
          "291",
          "291",
          "292",
          "291",
          "291",
          "291",
          "291",
          "291",
          "291",
          "289",
          "288",
          "288",
          "289",
          "289",
          "289",
          "288",
          "289",
          "288",
          "288",
          "288",
          "288",
          "288",
          "288",
          "288",
          "287",
          "288",
          "288",
          "288",
          "288",
          "288",
          "288",
          "288",
          "287",
          "287",
          "287",
          "287",
          "287",
          "287",
          "287",
          "287",
          "287",
          "287",
          "287",
          "288",
          "286",
          "287",
          "287",
          "286",
          "287",
          "287",
          "286",
          "284",
          "283",
          "284",
          "284",
          "284",
          "284",
          "284",
          "284",
          "283",
          "284",
          "284",
          "283",
          "283",
          "283",
          "283",
          "283",
          "283",
          "285",
          "287",
          "285",
          "285",
          "286",
          "285",
          "285",
          "285",
          "285",
          "285",
          "285",
          "285",
          "284",
          "284",
          "285",
          "285",
          "285",
          "284",
          "284",
          "284",
          "284",
          "284",
          "284",
          "284",
          "284",
          "284",
          "284",
          "284",
          "284",
          "283",
          "284",
          "283",
          "283",
          "283",
          "284",
          "285",
          "285",
          "284",
          "284",
          "285",
          "284",
          "285",
          "284",
          "285",
          "284",
          "284",
          "284",
          "284",
          "284",
          "284",
          "284",
          "285",
          "283",
          "284",
          "284",
          "283",
          "283",
          "283",
          "284",
          "283",
          "283",
          "283",
          "282",
          "283",
          "283",
          "283",
          "282",
          "282",
          "282",
          "282",
          "282",
          "282",
          "282",
          "282",
          "282",
          "282",
          "282",
          "282",
          "282",
          "281",
          "282",
          "281",
          "282",
          "281",
          "281",
          "281",
          "281",
          "281",
          "281",
          "281",
          "281",
          "280",
          "281",
          "280",
          "283",
          "286",
          "286",
          "287",
          "286",
          "286",
          "286",
          "285",
          "286",
          "286",
          "286",
          "286",
          "286",
          "286",
          "286",
          "285",
          "285",
          "285",
          "285",
          "285",
          "284",
          "284",
          "285",
          "288",
          "288",
          "289",
          "289",
          "289",
          "289",
          "283",
          "278",
          "276",
          "277",
          "277",
          "277",
          "276",
          "277",
          "276",
          "277",
          "276",
          "276",
          "275",
          "274",
          "274",
          "274",
          "273",
          "277",
          "286",
          "287",
          "285",
          "285",
          "285",
          "286",
          "284",
          "285",
          "285",
          "285",
          "282",
          "278",
          "277",
          "276",
          "278",
          "278",
          "277",
          "278",
          "277",
          "278",
          "278",
          "273",
          "231",
          "184",
          "142",
          "127",
          "145",
          "154",
          "155",
          "185",
          "199",
          "206",
          "201",
          "200",
          "207",
          "225",
          "230",
          "231",
          "233",
          "231",
          "232",
          "231",
          "231",
          "231",
          "231",
          "231",
          "231",
          "231",
          "231",
          "231",
          "232",
          "231"
        ],
        "speed_kts": [
          "149",
          "143",
          "161",
          "182",
          "192",
          "198",
          "207",
          "226",
          "248",
          "267",
          "292",
          "320",
          "341",
          "354",
          "360",
          "360",
          "358",
          "362",
          "368",
          "372",
          "374",
          "377",
          "382",
          "384",
          "386",
          "387",
          "394",
          "392",
          "387",
          "383",
          "386",
          "384",
          "380",
          "379",
          "379",
          "378",
          "380",
          "382",
          "381",
          "382",
          "382",
          "382",
          "380",
          "379",
          "376",
          "375",
          "374",
          "374",
          "374",
          "373",
          "373",
          "373",
          "373",
          "374",
          "374",
          "373",
          "375",
          "375",
          "376",
          "377",
          "378",
          "378",
          "378",
          "377",
          "379",
          "380",
          "379",
          "379",
          "378",
          "378",
          "376",
          "375",
          "376",
          "376",
          "373",
          "372",
          "373",
          "372",
          "372",
          "371",
          "371",
          "372",
          "372",
          "372",
          "373",
          "374",
          "375",
          "376",
          "375",
          "373",
          "373",
          "374",
          "374",
          "373",
          "373",
          "373",
          "373",
          "373",
          "371",
          "372",
          "372",
          "374",
          "373",
          "373",
          "373",
          "372",
          "373",
          "373",
          "373",
          "373",
          "374",
          "374",
          "375",
          "375",
          "376",
          "377",
          "376",
          "378",
          "377",
          "378",
          "378",
          "377",
          "376",
          "376",
          "376",
          "377",
          "378",
          "379",
          "380",
          "380",
          "379",
          "380",
          "381",
          "381",
          "381",
          "380",
          "381",
          "382",
          "382",
          "380",
          "380",
          "379",
          "379",
          "378",
          "380",
          "378",
          "378",
          "378",
          "378",
          "379",
          "378",
          "377",
          "377",
          "378",
          "378",
          "379",
          "378",
          "378",
          "379",
          "378",
          "379",
          "379",
          "379",
          "379",
          "379",
          "378",
          "379",
          "380",
          "381",
          "380",
          "381",
          "382",
          "381",
          "383",
          "382",
          "384",
          "385",
          "386",
          "386",
          "388",
          "386",
          "386",
          "387",
          "388",
          "388",
          "387",
          "387",
          "386",
          "384",
          "384",
          "384",
          "383",
          "383",
          "382",
          "383",
          "382",
          "382",
          "381",
          "383",
          "387",
          "389",
          "390",
          "388",
          "386",
          "385",
          "383",
          "383",
          "382",
          "384",
          "389",
          "388",
          "389",
          "389",
          "390",
          "389",
          "390",
          "391",
          "393",
          "393",
          "392",
          "393",
          "393",
          "394",
          "393",
          "393",
          "393",
          "394",
          "395",
          "394",
          "394",
          "391",
          "391",
          "392",
          "382",
          "380",
          "381",
          "382",
          "374",
          "374",
          "374",
          "378",
          "387",
          "393",
          "394",
          "395",
          "389",
          "388",
          "388",
          "394",
          "402",
          "402",
          "400",
          "399",
          "399",
          "406",
          "421",
          "421",
          "406",
          "398",
          "385",
          "385",
          "384",
          "379",
          "358",
          "340",
          "324",
          "304",
          "290",
          "270",
          "243",
          "237",
          "241",
          "236",
          "222",
          "205",
          "200",
          "219",
          "223",
          "221",
          "232",
          "233",
          "220",
          "211",
          "210",
          "201",
          "204",
          "204",
          "203",
          "201",
          "201",
          "199",
          "188",
          "166",
          "153",
          "157",
          "157",
          "156",
          "139",
          "125",
          "123",
          "117",
          "116",
          "120",
          "122",
          "124",
          "122",
          "107"
        ],
        "speed_mph": [
          "171",
          "165",
          "185",
          "209",
          "221",
          "228",
          "238",
          "260",
          "285",
          "307",
          "336",
          "368",
          "392",
          "407",
          "414",
          "414",
          "412",
          "417",
          "423",
          "428",
          "430",
          "434",
          "440",
          "442",
          "444",
          "445",
          "453",
          "451",
          "445",
          "441",
          "444",
          "442",
          "437",
          "436",
          "436",
          "435",
          "437",
          "440",
          "438",
          "440",
          "440",
          "440",
          "437",
          "436",
          "433",
          "432",
          "430",
          "430",
          "430",
          "429",
          "429",
          "429",
          "429",
          "430",
          "430",
          "429",
          "432",
          "432",
          "433",
          "434",
          "435",
          "435",
          "435",
          "434",
          "436",
          "437",
          "436",
          "436",
          "435",
          "435",
          "433",
          "432",
          "433",
          "433",
          "429",
          "428",
          "429",
          "428",
          "428",
          "427",
          "427",
          "428",
          "428",
          "428",
          "429",
          "430",
          "432",
          "433",
          "432",
          "429",
          "429",
          "430",
          "430",
          "429",
          "429",
          "429",
          "429",
          "429",
          "427",
          "428",
          "428",
          "430",
          "429",
          "429",
          "429",
          "428",
          "429",
          "429",
          "429",
          "429",
          "430",
          "430",
          "432",
          "432",
          "433",
          "434",
          "433",
          "435",
          "434",
          "435",
          "435",
          "434",
          "433",
          "433",
          "433",
          "434",
          "435",
          "436",
          "437",
          "437",
          "436",
          "437",
          "438",
          "438",
          "438",
          "437",
          "438",
          "440",
          "440",
          "437",
          "437",
          "436",
          "436",
          "435",
          "437",
          "435",
          "435",
          "435",
          "435",
          "436",
          "435",
          "434",
          "434",
          "435",
          "435",
          "436",
          "435",
          "435",
          "436",
          "435",
          "436",
          "436",
          "436",
          "436",
          "436",
          "435",
          "436",
          "437",
          "438",
          "437",
          "438",
          "440",
          "438",
          "441",
          "440",
          "442",
          "443",
          "444",
          "444",
          "447",
          "444",
          "444",
          "445",
          "447",
          "447",
          "445",
          "445",
          "444",
          "442",
          "442",
          "442",
          "441",
          "441",
          "440",
          "441",
          "440",
          "440",
          "438",
          "441",
          "445",
          "448",
          "449",
          "447",
          "444",
          "443",
          "441",
          "441",
          "440",
          "442",
          "448",
          "447",
          "448",
          "448",
          "449",
          "448",
          "449",
          "450",
          "452",
          "452",
          "451",
          "452",
          "452",
          "453",
          "452",
          "452",
          "452",
          "453",
          "455",
          "453",
          "453",
          "450",
          "450",
          "451",
          "440",
          "437",
          "438",
          "440",
          "430",
          "430",
          "430",
          "435",
          "445",
          "452",
          "453",
          "455",
          "448",
          "447",
          "447",
          "453",
          "463",
          "463",
          "460",
          "459",
          "459",
          "467",
          "484",
          "484",
          "467",
          "458",
          "443",
          "443",
          "442",
          "436",
          "412",
          "391",
          "373",
          "350",
          "334",
          "311",
          "280",
          "273",
          "277",
          "272",
          "255",
          "236",
          "230",
          "252",
          "257",
          "254",
          "267",
          "268",
          "253",
          "243",
          "242",
          "231",
          "235",
          "235",
          "234",
          "231",
          "231",
          "229",
          "216",
          "191",
          "176",
          "181",
          "181",
          "180",
          "160",
          "144",
          "142",
          "135",
          "133",
          "138",
          "140",
          "143",
          "140",
          "123"
        ],
        "altitude_ft": [
          "1472",
          "2372",
          "2922",
          "3447",
          "4097",
          "4872",
          "5972",
          "7197",
          "8546",
          "9971",
          "11421",
          "12721",
          "14146",
          "15996",
          "17845",
          "19670",
          "21470",
          "23070",
          "24345",
          "24945",
          "26794",
          "27944",
          "29344",
          "30144",
          "31269",
          "32168",
          "32943",
          "33218",
          "33668",
          "33968",
          "34167",
          "34617",
          "35217",
          "35817",
          "36667",
          "37216",
          "37516",
          "37791",
          "37966",
          "38091",
          "38090",
          "38090",
          "38090",
          "38090",
          "38090",
          "38089",
          "38089",
          "38089",
          "38089",
          "38089",
          "38088",
          "38000",
          "38000",
          "38000",
          "38000",
          "38000",
          "38000",
          "38000",
          "38000",
          "38000",
          "38000",
          "38000",
          "38000",
          "38000",
          "38000",
          "38000",
          "38000",
          "38000",
          "38000",
          "38000",
          "38000",
          "38000",
          "38000",
          "38000",
          "38000",
          "38000",
          "38000",
          "38000",
          "38000",
          "38000",
          "38000",
          "38000",
          "38000",
          "38000",
          "38000",
          "38000",
          "38000",
          "38000",
          "38000",
          "38000",
          "38000",
          "38000",
          "38000",
          "38000",
          "38000",
          "38000",
          "38000",
          "38000",
          "38000",
          "38000",
          "38000",
          "38000",
          "38000",
          "38000",
          "38000",
          "38000",
          "38000",
          "38000",
          "38000",
          "38000",
          "38000",
          "38000",
          "38000",
          "38000",
          "38000",
          "38000",
          "38000",
          "38000",
          "38000",
          "38000",
          "38000",
          "38000",
          "38000",
          "38000",
          "38000",
          "38000",
          "38000",
          "38000",
          "38000",
          "38000",
          "38000",
          "38000",
          "38000",
          "38000",
          "38000",
          "38000",
          "38000",
          "38000",
          "38000",
          "38000",
          "38000",
          "38000",
          "38000",
          "38000",
          "38000",
          "38000",
          "38000",
          "38000",
          "38000",
          "38000",
          "38000",
          "38000",
          "38000",
          "38000",
          "38000",
          "38000",
          "38000",
          "38000",
          "38000",
          "38000",
          "38000",
          "38000",
          "38000",
          "38000",
          "38000",
          "38000",
          "38000",
          "38000",
          "38000",
          "38000",
          "38000",
          "38000",
          "38000",
          "38000",
          "38000",
          "38000",
          "38000",
          "38000",
          "38000",
          "38000",
          "38000",
          "38000",
          "38000",
          "38000",
          "38000",
          "38000",
          "38000",
          "38000",
          "38000",
          "38000",
          "38000",
          "38000",
          "38000",
          "38000",
          "38000",
          "38000",
          "38000",
          "38000",
          "38000",
          "38000",
          "38000",
          "38000",
          "38000",
          "38000",
          "38000",
          "38000",
          "38000",
          "38000",
          "38000",
          "38000",
          "38000",
          "38000",
          "38000",
          "38000",
          "38000",
          "38000",
          "38000",
          "38000",
          "38000",
          "38000",
          "38000",
          "38000",
          "38000",
          "38000",
          "38000",
          "38000",
          "38000",
          "38000",
          "38000",
          "37725",
          "37425",
          "36575",
          "36100",
          "35525",
          "34850",
          "34375",
          "33650",
          "33025",
          "32450",
          "31825",
          "31225",
          "30675",
          "30050",
          "29450",
          "28900",
          "28300",
          "27675",
          "27100",
          "26500",
          "25875",
          "25550",
          "25325",
          "25050",
          "25000",
          "24650",
          "24050",
          "23600",
          "22525",
          "22125",
          "21150",
          "20350",
          "19525",
          "18550",
          "17125",
          "15400",
          "13075",
          "11850",
          "11425",
          "11025",
          "10250",
          "10025",
          "9625",
          "8900",
          "8325",
          "8025",
          "7625",
          "6700",
          "5975",
          "5650",
          "5350",
          "5025",
          "4700",
          "4500",
          "4475",
          "4375",
          "4050",
          "3975",
          "3950",
          "3950",
          "3975",
          "3975",
          "3950",
          "3625",
          "3175",
          "2900",
          "2650",
          "2325",
          "2100",
          "1975",
          "1925",
          "1750",
          "1575",
          "1425",
          "1250",
          "1050",
          "875",
          "725"
        ],
        "vertical_rate_fpm": [
          "",
          "2719",
          "2016",
          "2203",
          "2672",
          "3125",
          "2847",
          "2618",
          "2774",
          "2875",
          "2750",
          "2725",
          "3275",
          "3699",
          "3674",
          "3625",
          "3400",
          "2875",
          "1875",
          "2491",
          "3050",
          "2125",
          "1833",
          "1925",
          "1735",
          "1435",
          "1050",
          "725",
          "918",
          "611",
          "649",
          "1050",
          "1200",
          "1176",
          "1134",
          "849",
          "575",
          "450",
          "247",
          "102",
          "-1",
          "",
          "",
          "",
          "-1",
          "-1",
          "",
          "",
          "",
          "-1",
          "-89",
          "-88",
          "",
          "",
          "",
          "",
          "",
          "",
          "",
          "",
          "",
          "",
          "",
          "",
          "",
          "",
          "",
          "",
          "",
          "",
          "",
          "",
          "",
          "",
          "",
          "",
          "",
          "",
          "",
          "",
          "",
          "",
          "",
          "",
          "",
          "",
          "",
          "",
          "",
          "",
          "",
          "",
          "",
          "",
          "",
          "",
          "",
          "",
          "",
          "",
          "",
          "",
          "",
          "",
          "",
          "",
          "",
          "",
          "",
          "",
          "",
          "",
          "",
          "",
          "",
          "",
          "",
          "",
          "",
          "",
          "",
          "",
          "",
          "",
          "",
          "",
          "",
          "",
          "",
          "",
          "",
          "",
          "",
          "",
          "",
          "",
          "",
          "",
          "",
          "",
          "",
          "",
          "",
          "",
          "",
          "",
          "",
          "",
          "",
          "",
          "",
          "",
          "",
          "",
          "",
          "",
          "",
          "",
          "",
          "",
          "",
          "",
          "",
          "",
          "",
          "",
          "",
          "",
          "",
          "",
          "",
          "",
          "",
          "",
          "",
          "",
          "",
          "",
          "",
          "",
          "",
          "",
          "",
          "",
          "",
          "",
          "",
          "",
          "",
          "",
          "",
          "",
          "",
          "",
          "",
          "",
          "",
          "",
          "",
          "",
          "",
          "",
          "",
          "",
          "",
          "",
          "",
          "",
          "",
          "",
          "",
          "",
          "",
          "",
          "",
          "",
          "",
          "",
          "",
          "",
          "",
          "",
          "",
          "",
          "",
          "",
          "",
          "",
          "-243",
          "-704",
          "-1211",
          "-1169",
          "-1050",
          "-1271",
          "-1380",
          "-1412",
          "-1397",
          "-1241",
          "-1200",
          "-1205",
          "-1150",
          "-1195",
          "-1225",
          "-1211",
          "-1211",
          "-1225",
          "-1200",
          "-1175",
          "-1313",
          "-1239",
          "-917",
          "-811",
          "-476",
          "-632",
          "-1295",
          "-1432",
          "-1525",
          "-1526",
          "-1528",
          "-1566",
          "-1625",
          "-1800",
          "-2400",
          "-3150",
          "-3522",
          "-3179",
          "-2250",
          "-1338",
          "-1175",
          "-968",
          "-708",
          "-1125",
          "-1300",
          "-875",
          "-700",
          "-1622",
          "-2676",
          "-1703",
          "-1014",
          "-1042",
          "-1147",
          "-984",
          "-386",
          "-208",
          "-654",
          "-615",
          "-140",
          "-34",
          "42",
          "44",
          "-41",
          "-412",
          "-802",
          "-906",
          "-829",
          "-885",
          "-892",
          "-750",
          "-656",
          "-675",
          "-656",
          "-609",
          "-609",
          "-703",
          "-703",
          "-609",
          "-563"
        ],
        "reporting_facility": [
          "FlightAware ADS-B(KRK / EPKK)",
          "FlightAware ADS-B(KRK / EPKK)",
          "FlightAware ADS-B(KRK / EPKK)",
          "FlightAware ADS-B(KRK / EPKK)",
          "FlightAware ADS-B(KRK / EPKK)",
          "FlightAware ADS-B(KRK / EPKK)",
          "FlightAware ADS-B(EPKP)",
          "FlightAware ADS-B(EPSI)",
          "FlightAware ADS-B(KTW / EPKT)",
          "FlightAware ADS-B(LKHN)",
          "FlightAware ADS-B(OSR / LKMT)",
          "FlightAware ADS-B(EPTM)",
          "FlightAware ADS-B(EPRG)",
          "FlightAware ADS-B(OSR / LKMT)",
          "FlightAware ADS-B(EPKM)",
          "FlightAware ADS-B(EPTM)",
          "FlightAware ADS-B(WRO / EPWR)",
          "FlightAware ADS-B(EPKM)",
          "FlightAware ADS-B(EPRG)",
          "FlightAware ADS-B(LZDB)",
          "FlightAware ADS-B(KTW / EPKT)",
          "FlightAware ADS-B(KRK / EPKK)",
          "FlightAware ADS-B(RDO / EPRA)",
          "FlightAware ADS-B(KTW / EPKT)",
          "FlightAware ADS-B(LZTN)",
          "FlightAware ADS-B(OLO / LKOL)",
          "FlightAware ADS-B(WAW / EPWA)",
          "FlightAware ADS-B(PZY / LZPP)",
          "FlightAware ADS-B(BRQ / LKTB)",
          "FlightAware ADS-B(VIE / LOWW)",
          "FlightAware ADS-B(BRQ / LKTB)",
          "FlightAware ADS-B(LKRK)",
          "FlightAware ADS-B(EPKS)",
          "FlightAware ADS-B(EDBX)",
          "FlightAware ADS-B(WAW / EPWA)",
          "FlightAware ADS-B(WRO / EPWR)",
          "FlightAware ADS-B(EPKS)",
          "FlightAware ADS-B(LKHK)",
          "FlightAware ADS-B(EPML)",
          "FlightAware ADS-B(LKKM)",
          "FlightAware ADS-B(PED / LKPD)",
          "FlightAware ADS-B(LKKR)",
          "FlightAware ADS-B(WAW / EPWA)",
          "FlightAware ADS-B(OSR / LKMT)",
          "FlightAware ADS-B(PED / LKPD)",
          "FlightAware ADS-B(PED / LKPD)",
          "FlightAware ADS-B(LKDK)",
          "FlightAware ADS-B(LKCV)",
          "FlightAware ADS-B(PRG / LKPR)",
          "FlightAware ADS-B(OLO / LKOL)",
          "FlightAware ADS-B(EPTM)",
          "FlightAware ADS-B(EPSI)",
          "FlightAware ADS-B(EPKS)",
          "FlightAware ADS-B(EPRG)",
          "FlightAware ADS-B(LKPN)",
          "FlightAware ADS-B(EDOY)",
          "FlightAware ADS-B(LKHD)",
          "FlightAware ADS-B(LKLT)",
          "FlightAware ADS-B(OSR / LKMT)",
          "FlightAware ADS-B(BER / EDDB)",
          "FlightAware ADS-B(BER / EDDB)",
          "FlightAware ADS-B(BER / EDDB)",
          "FlightAware ADS-B(DRS / EDDC)",
          "FlightAware ADS-B(LKPM)",
          "FlightAware ADS-B(EDAY)",
          "FlightAware ADS-B(EDCI)",
          "FlightAware ADS-B(EDBJ)",
          "FlightAware ADS-B(EDBJ)",
          "FlightAware ADS-B(EDAU)",
          "FlightAware ADS-B(DRS / EDDC)",
          "FlightAware ADS-B(PRG / LKPR)",
          "FlightAware ADS-B(LEJ / EDDP)",
          "FlightAware ADS-B(LKCV)",
          "FlightAware ADS-B(LEJ / EDDP)",
          "FlightAware ADS-B(LKCV)",
          "FlightAware ADS-B(EDPF)",
          "FlightAware ADS-B(LKKB)",
          "FlightAware ADS-B(LKKL)",
          "FlightAware ADS-B(LKCS)",
          "FlightAware ADS-B(EDBF)",
          "FlightAware ADS-B(BER / EDDB)",
          "FlightAware ADS-B(EDAS)",
          "FlightAware ADS-B(KLV / LKKV)",
          "FlightAware ADS-B(HOQ / EDQM)",
          "FlightAware ADS-B(KLV / LKKV)",
          "FlightAware ADS-B(EDOC)",
          "FlightAware ADS-B(BBH / EDBH)",
          "FlightAware ADS-B(EDMW)",
          "FlightAware ADS-B(BER / EDDB)",
          "FlightAware ADS-B(BER / EDDB)",
          "FlightAware ADS-B(AOC / EDAC)",
          "FlightAware ADS-B(DRS / EDDC)",
          "FlightAware ADS-B(BER / EDDB)",
          "FlightAware ADS-B(HAM / EDDH)",
          "FlightAware ADS-B(DRS / EDDC)",
          "FlightAware ADS-B(LEJ / EDDP)",
          "FlightAware ADS-B(EDBJ)",
          "FlightAware ADS-B(EDAQ)",
          "FlightAware ADS-B(EDOY)",
          "FlightAware ADS-B(EDAU)",
          "FlightAware ADS-B(ERF / EDDE)",
          "FlightAware ADS-B(EDQK)",
          "FlightAware ADS-B(HAM / EDDH)",
          "FlightAware ADS-B(EDQL)",
          "FlightAware ADS-B(EDOQ)",
          "FlightAware ADS-B(EDOQ)",
          "FlightAware ADS-B(EDHS)",
          "FlightAware ADS-B(EDPF)",
          "FlightAware ADS-B(EDBJ)",
          "FlightAware ADS-B(EDOY)",
          "FlightAware ADS-B(EDON)",
          "FlightAware ADS-B(BWE / EDVE)",
          "FlightAware ADS-B(LEJ / EDDP)",
          "FlightAware ADS-B(EDAO)",
          "FlightAware ADS-B(IEG / EPZG)",
          "FlightAware ADS-B(CSO / EDBC)",
          "FlightAware ADS-B(BWE / EDVE)",
          "FlightAware ADS-B(ETHB)",
          "FlightAware ADS-B(LKCS)",
          "FlightAware ADS-B(EDVI)",
          "FlightAware ADS-B(ERF / EDDE)",
          "FlightAware ADS-B(EDBY)",
          "FlightAware ADS-B(KSF / EDVK)",
          "FlightAware ADS-B(HAJ / EDDV)",
          "FlightAware ADS-B(EHHO)",
          "FlightAware ADS-B(BWE / EDVE)",
          "FlightAware ADS-B(BWE / EDVE)",
          "FlightAware ADS-B(BWE / EDVE)",
          "FlightAware ADS-B(BWE / EDVE)",
          "FlightAware ADS-B(ZNO / EDVM)",
          "FlightAware ADS-B(EDWO)",
          "FlightAware ADS-B(EDBL)",
          "FlightAware ADS-B(EDLD)",
          "FlightAware ADS-B(EDXI)",
          "FlightAware ADS-B(BWE / EDVE)",
          "FlightAware ADS-B(KSF / EDVK)",
          "FlightAware ADS-B(KEL / EDHK)",
          "FlightAware ADS-B(KSF / EDVK)",
          "FlightAware ADS-B(BRE / EDDW)",
          "FlightAware ADS-B(EDVL)",
          "FlightAware ADS-B(HAJ / EDDV)",
          "FlightAware ADS-B(EDVL)",
          "FlightAware ADS-B(EDLO)",
          "FlightAware ADS-B(EDLI)",
          "FlightAware ADS-B(ETHB)",
          "FlightAware ADS-B(EDLA)",
          "FlightAware ADS-B(BER / EDDB)",
          "FlightAware ADS-B(BER / EDDB)",
          "FlightAware ADS-B(EDLR)",
          "FlightAware ADS-B(DTM / EDLW)",
          "FlightAware ADS-B(EDVG)",
          "FlightAware ADS-B(GRQ / EHGG)",
          "FlightAware ADS-B(EDBM)",
          "FlightAware ADS-B(ETNW)",
          "FlightAware ADS-B(EHDL)",
          "FlightAware ADS-B(EHTE)",
          "FlightAware ADS-B(LEY / EHLE)",
          "FlightAware ADS-B(HAJ / EDDV)",
          "FlightAware ADS-B(HAJ / EDDV)",
          "FlightAware ADS-B(BWE / EDVE)",
          "FlightAware ADS-B(EHTE)",
          "FlightAware ADS-B(DTM / EDLW)",
          "FlightAware ADS-B(GRQ / EHGG)",
          "FlightAware ADS-B(AMS / EHAM)",
          "FlightAware ADS-B(EDKB)",
          "FlightAware ADS-B(GRQ / EHGG)",
          "FlightAware ADS-B(EDEL)",
          "FlightAware ADS-B(BWE / EDVE)",
          "FlightAware ADS-B(GRQ / EHGG)",
          "FlightAware ADS-B(GRQ / EHGG)",
          "FlightAware ADS-B(LEY / EHLE)",
          "FlightAware ADS-B(ZOW / EDWN)",
          "FlightAware ADS-B(HAM / EDDH)",
          "FlightAware ADS-B(ENS / EHTW)",
          "FlightAware ADS-B(EDWQ)",
          "FlightAware ADS-B(DTM / EDLW)",
          "FlightAware ADS-B(LEY / EHLE)",
          "FlightAware ADS-B(HAM / EDDH)",
          "FlightAware ADS-B(ENS / EHTW)",
          "FlightAware ADS-B(EIN / EHEH)",
          "FlightAware ADS-B(UDE / EHVK)",
          "FlightAware ADS-B(EIN / EHEH)",
          "FlightAware ADS-B(ENS / EHTW)",
          "FlightAware ADS-B(GRQ / EHGG)",
          "FlightAware ADS-B(ENS / EHTW)",
          "FlightAware ADS-B(AMS / EHAM)",
          "FlightAware ADS-B(ENS / EHTW)",
          "FlightAware ADS-B(LEY / EHLE)",
          "FlightAware ADS-B(AMS / EHAM)",
          "FlightAware ADS-B(ENS / EHTW)",
          "FlightAware ADS-B(AMS / EHAM)",
          "FlightAware ADS-B(AMS / EHAM)",
          "FlightAware ADS-B(EHDL)",
          "FlightAware ADS-B(EHDL)",
          "FlightAware ADS-B(UTC / EHSB)",
          "FlightAware ADS-B(EHHO)",
          "FlightAware ADS-B(EHTE)",
          "FlightAware ADS-B(EHDL)",
          "FlightAware ADS-B(AMS / EHAM)",
          "FlightAware ADS-B(GRQ / EHGG)",
          "FlightAware ADS-B(EHDR)",
          "FlightAware ADS-B(EHHO)",
          "FlightAware ADS-B(AMS / EHAM)",
          "FlightAware ADS-B(ZOW / EDWN)",
          "FlightAware ADS-B(RTM / EHRD)",
          "FlightAware ADS-B(AMS / EHAM)",
          "FlightAware ADS-B(WOE / EHWO)",
          "FlightAware ADS-B(EDLS)",
          "FlightAware ADS-B(EBGB)",
          "FlightAware ADS-B(AMS / EHAM)",
          "FlightAware ADS-B(AMS / EHAM)",
          "FlightAware ADS-B(OST / EBOS)",
          "FlightAware ADS-B(RTM / EHRD)",
          "FlightAware ADS-B(GLZ / EHGR)",
          "FlightAware ADS-B(EHTE)",
          "FlightAware ADS-B(UTC / EHSB)",
          "FlightAware ADS-B(EGSM)",
          "FlightAware ADS-B(LGW / EGKK)",
          "FlightAware ADS-B(EGTH)",
          "FlightAware ADS-B(LCY / EGLC)",
          "FlightAware ADS-B(EGBO)",
          "FlightAware ADS-B(SEN / EGMC)",
          "FlightAware ADS-B(EGNY)",
          "FlightAware ADS-B(HYC / EGTB)",
          "FlightAware ADS-B(EGSR)",
          "FlightAware ADS-B(EGSJ)",
          "FlightAware ADS-B(EGNU)",
          "FlightAware ADS-B(HUY / EGNJ)",
          "FlightAware ADS-B(EGCL)",
          "FlightAware ADS-B(LFIS)",
          "FlightAware ADS-B(NCL / EGNT)",
          "FlightAware ADS-B(WTN / EGXW)",
          "FlightAware ADS-B(ESH / EGKA)",
          "FlightAware ADS-B(HUY / EGNJ)",
          "FlightAware ADS-B(KNF / EGYM)",
          "FlightAware ADS-B(HUY / EGNJ)",
          "FlightAware ADS-B(EGSW)",
          "FlightAware ADS-B(LBA / EGNM)",
          "FlightAware ADS-B(LHR / EGLL)",
          "FlightAware ADS-B(MHZ / EGUN)",
          "FlightAware ADS-B(GLO / EGBJ)",
          "FlightAware ADS-B(EGYD)",
          "FlightAware ADS-B(WTN / EGXW)",
          "FlightAware ADS-B(EGNG)",
          "FlightAware ADS-B(EGNB)",
          "FlightAware ADS-B(EGSU)",
          "FlightAware ADS-B(NWI / EGSH)",
          "FlightAware ADS-B(EMA / EGNX)",
          "FlightAware ADS-B(NWI / EGSH)",
          "FlightAware ADS-B(CBG / EGSC)",
          "FlightAware ADS-B(EGNO)",
          "FlightAware ADS-B(EGSU)",
          "FlightAware ADS-B(EGSJ)",
          "FlightAware ADS-B(MAN / EGCC)",
          "FlightAware ADS-B(HUY / EGNJ)",
          "FlightAware ADS-B(DSA / EGCN)",
          "FlightAware ADS-B(EGNF)",
          "FlightAware ADS-B(SEN / EGMC)",
          "FlightAware ADS-B(BHX / EGBB)",
          "FlightAware ADS-B(ORM / EGBK)",
          "FlightAware ADS-B(EGBS)",
          "FlightAware ADS-B(BHX / EGBB)",
          "FlightAware ADS-B(LBA / EGNM)",
          "FlightAware ADS-B(EGCF)",
          "FlightAware ADS-B(MAN / EGCC)",
          "FlightAware ADS-B(EGSU)",
          "FlightAware ADS-B(EMA / EGNX)",
          "FlightAware ADS-B(NWI / EGSH)",
          "FlightAware ADS-B(LBA / EGNM)",
          "FlightAware ADS-B(MAN / EGCC)",
          "FlightAware ADS-B(EGNA)",
          "FlightAware ADS-B(QCY / EGXC)",
          "FlightAware ADS-B(EGCJ)",
          "FlightAware ADS-B(EGCW)",
          "FlightAware ADS-B(EGNF)",
          "FlightAware ADS-B(EGCB)",
          "FlightAware ADS-B(MAN / EGCC)",
          "FlightAware ADS-B(LBA / EGNM)",
          "FlightAware ADS-B(EGCB)",
          "FlightAware ADS-B(MAN / EGCC)",
          "FlightAware ADS-B(LBA / EGNM)",
          "FlightAware ADS-B(EGCR)",
          "FlightAware ADS-B(EGNF)",
          "FlightAware ADS-B(MAN / EGCC)",
          "FlightAware ADS-B(MAN / EGCC)",
          "FlightAware ADS-B(EGCM)",
          "FlightAware ADS-B(EGOW)",
          "FlightAware ADS-B(LPL / EGGP)",
          "FlightAware ADS-B(EGCB)",
          "FlightAware ADS-B(MAN / EGCC)",
          "FlightAware ADS-B(EGBD)",
          "FlightAware ADS-B(MAN / EGCC)",
          "FlightAware ADS-B(EGCB)",
          "FlightAware ADS-B(MAN / EGCC)",
          "FlightAware ADS-B(MAN / EGCC)",
          "FlightAware ADS-B(MAN / EGCC)",
          "FlightAware ADS-B(EGCR)",
          "FlightAware ADS-B(MAN / EGCC)",
          "Surface and Near-Surface",
          "FlightAware ADS-B(MAN / EGCC)",
          "FlightAware ADS-B(MAN / EGCC)",
          "FlightAware ADS-B(MAN / EGCC)",
          "FlightAware ADS-B(MAN / EGCC)",
          "FlightAware ADS-B(LPL / EGGP)",
          "FlightAware ADS-B(MAN / EGCC)",
          "FlightAware ADS-B(MAN / EGCC)",
          "FlightAware ADS-B(EGCB)"
        ]
      }
    }
  ]
}