{
  "type": "FeatureCollection",
  "features": [
    {
      "type": "Feature",
      "geometry": {
        "type": "LineString",
        "coordinates": [
          [
            28.7903,
            36.7065
          ],
          [
            28.7858,
            36.6931
          ],
          [
            28.7821,
            36.682
          ],
          [
            28.7773,
            36.6687
          ],
          [
            28.7724,
            36.6552
          ],
          [
            28.7655,
            36.638
          ],
          [
            28.7538,
            36.6284
          ],
          [
            28.7321,
            36.626
          ],
          [
            28.7107,
            36.6333
          ],
          [
            28.6956,
            36.6487
          ],
          [
            28.6767,
            36.6751
          ],
          [
            28.6453,
            36.7177
          ],
          [
            28.6215,
            36.7487
          ],
          [
            28.5983,
            36.7794
          ],
          [
            28.5727,
            36.8129
          ],
          [
            28.5473,
            36.846
          ],
          [
            28.5203,
            36.881
          ],
          [
            28.4922,
            36.9177
          ],
          [
            28.4724,
            36.9377
          ],
          [
            28.4115,
            36.9731
          ],
          [
            28.363,
            36.9987
          ],
          [
            28.3066,
            37.0308
          ],
          [
            28.2549,
            37.0595
          ],
          [
            28.2039,
            37.0881
          ],
          [
            28.15,
            37.1182
          ],
          [
            28.096,
            37.1485
          ],
          [
            28.0407,
            37.179
          ],
          [
            27.9865,
            37.2098
          ],
          [
            27.9195,
            37.2466
          ],
          [
            27.8584,
            37.2807
          ],
          [
            27.8009,
            37.3127
          ],
          [
            27.7419,
            37.3454
          ],
          [
            27.6865,
            37.3762
          ],
          [
            27.6257,
            37.4092
          ],
          [
            27.5698,
            37.4404
          ],
          [
            27.512,
            37.4724
          ],
          [
            27.4715,
            37.5037
          ],
          [
            27.4324,
            37.5525
          ],
          [
            27.4005,
            37.6045
          ],
          [
            27.3707,
            37.6585
          ],
          [
            27.3428,
            37.7101
          ],
          [
            27.3143,
            37.7614
          ],
          [
            27.2849,
            37.8144
          ],
          [
            27.2545,
            37.8697
          ],
          [
            27.2245,
            37.9246
          ],
          [
            27.1967,
            37.975
          ],
          [
            27.1612,
            38.0213
          ],
          [
            27.1189,
            38.0686
          ],
          [
            27.0741,
            38.118
          ],
          [
            27.0299,
            38.1684
          ],
          [
            26.9862,
            38.2174
          ],
          [
            26.9434,
            38.2657
          ],
          [
            26.9001,
            38.3142
          ],
          [
            26.8576,
            38.362
          ],
          [
            26.815,
            38.4096
          ],
          [
            26.7748,
            38.4543
          ],
          [
            26.7318,
            38.5028
          ],
          [
            26.6895,
            38.5499
          ],
          [
            26.6437,
            38.6005
          ],
          [
            26.6033,
            38.6458
          ],
          [
            26.5571,
            38.6967
          ],
          [
            26.5128,
            38.7459
          ],
          [
            26.484,
            38.7746
          ],
          [
            26.3975,
            38.8289
          ],
          [
            26.3355,
            38.8618
          ],
          [
            26.2743,
            38.8949
          ],
          [
            26.2149,
            38.9274
          ],
          [
            26.1514,
            38.9621
          ],
          [
            26.0918,
            38.9943
          ],
          [
            26.0309,
            39.0277
          ],
          [
            25.9676,
            39.0619
          ],
          [
            25.9068,
            39.0948
          ],
          [
            25.848,
            39.1267
          ],
          [
            25.7859,
            39.1603
          ],
          [
            25.7236,
            39.1937
          ],
          [
            25.6615,
            39.2272
          ],
          [
            25.5995,
            39.2603
          ],
          [
            25.5339,
            39.2956
          ],
          [
            25.4718,
            39.3288
          ],
          [
            25.4121,
            39.3608
          ],
          [
            25.3472,
            39.3952
          ],
          [
            25.2856,
            39.428
          ],
          [
            25.2219,
            39.4618
          ],
          [
            25.1593,
            39.4948
          ],
          [
            25.0964,
            39.5283
          ],
          [
            25.0336,
            39.5613
          ],
          [
            24.9688,
            39.5956
          ],
          [
            24.9078,
            39.6274
          ],
          [
            24.8428,
            39.6615
          ],
          [
            24.781,
            39.6938
          ],
          [
            24.7196,
            39.7259
          ],
          [
            24.6566,
            39.7589
          ],
          [
            24.5929,
            39.7918
          ],
          [
            24.5309,
            39.8239
          ],
          [
            24.4695,
            39.856
          ],
          [
            24.4031,
            39.8903
          ],
          [
            24.3417,
            39.9219
          ],
          [
            24.2777,
            39.9549
          ],
          [
            24.213,
            39.9878
          ],
          [
            24.1498,
            40.0206
          ],
          [
            24.0865,
            40.053
          ],
          [
            24.02,
            40.0867
          ],
          [
            23.9562,
            40.1194
          ],
          [
            23.891,
            40.1525
          ],
          [
            23.8279,
            40.1845
          ],
          [
            23.7637,
            40.2171
          ],
          [
            23.6995,
            40.2497
          ],
          [
            23.6355,
            40.2818
          ],
          [
            23.5705,
            40.3146
          ],
          [
            23.5063,
            40.3469
          ],
          [
            23.4401,
            40.38
          ],
          [
            23.3768,
            40.4117
          ],
          [
            23.3141,
            40.4432
          ],
          [
            23.2498,
            40.475
          ],
          [
            23.1834,
            40.508
          ],
          [
            23.1191,
            40.54
          ],
          [
            23.0526,
            40.5731
          ],
          [
            22.9867,
            40.6055
          ],
          [
            22.9222,
            40.6373
          ],
          [
            22.859,
            40.668
          ],
          [
            22.7955,
            40.6999
          ],
          [
            22.7289,
            40.7321
          ],
          [
            22.6661,
            40.763
          ],
          [
            22.6012,
            40.7948
          ],
          [
            22.5395,
            40.8246
          ],
          [
            22.4737,
            40.8565
          ],
          [
            22.411,
            40.887
          ],
          [
            22.3421,
            40.9206
          ],
          [
            22.2783,
            40.951
          ],
          [
            22.2091,
            40.9846
          ],
          [
            22.1448,
            41.0153
          ],
          [
            22.0831,
            41.0452
          ],
          [
            22.0137,
            41.0783
          ],
          [
            21.9514,
            41.108
          ],
          [
            21.8853,
            41.1397
          ],
          [
            21.8202,
            41.1703
          ],
          [
            21.7592,
            41.1994
          ],
          [
            21.689,
            41.2328
          ],
          [
            21.6239,
            41.2637
          ],
          [
            21.5552,
            41.2958
          ],
          [
            21.4918,
            41.3258
          ],
          [
            21.4255,
            41.3569
          ],
          [
            21.3609,
            41.3873
          ],
          [
            21.2973,
            41.4169
          ],
          [
            21.2257,
            41.4502
          ],
          [
            21.1642,
            41.4791
          ],
          [
            21.0963,
            41.5105
          ],
          [
            21.0319,
            41.5403
          ],
          [
            20.9676,
            41.5701
          ],
          [
            20.8978,
            41.6024
          ],
          [
            20.8329,
            41.632
          ],
          [
            20.7677,
            41.6622
          ],
          [
            20.6994,
            41.6934
          ],
          [
            20.6338,
            41.7236
          ],
          [
            20.5686,
            41.7533
          ],
          [
            20.5303,
            41.7693
          ],
          [
            20.4818,
            41.7853
          ],
          [
            20.4316,
            41.7998
          ],
          [
            20.3497,
            41.822
          ],
          [
            20.2769,
            41.8441
          ],
          [
            20.2064,
            41.8689
          ],
          [
            20.1354,
            41.8937
          ],
          [
            20.0669,
            41.9177
          ],
          [
            19.9945,
            41.9424
          ],
          [
            19.9231,
            41.9673
          ],
          [
            19.8562,
            41.9898
          ],
          [
            19.7869,
            42.014
          ],
          [
            19.7173,
            42.0377
          ],
          [
            19.6426,
            42.0629
          ],
          [
            19.5723,
            42.087
          ],
          [
            19.497,
            42.1125
          ],
          [
            19.421,
            42.1383
          ],
          [
            19.3463,
            42.1633
          ],
          [
            19.2355,
            42.1961
          ],
          [
            19.1552,
            42.2174
          ],
          [
            19.0766,
            42.2388
          ],
          [
            18.9998,
            42.2599
          ],
          [
            18.927,
            42.2796
          ],
          [
            18.8536,
            42.2993
          ],
          [
            18.7882,
            42.3172
          ],
          [
            18.7192,
            42.3357
          ],
          [
            18.6524,
            42.3536
          ],
          [
            18.5858,
            42.3714
          ],
          [
            18.5227,
            42.3884
          ],
          [
            18.4643,
            42.4033
          ],
          [
            18.4023,
            42.4204
          ],
          [
            18.3483,
            42.4346
          ],
          [
            18.2937,
            42.4487
          ],
          [
            18.2401,
            42.4632
          ],
          [
            18.1865,
            42.4771
          ],
          [
            18.1329,
            42.491
          ],
          [
            18.0835,
            42.5043
          ],
          [
            18.0465,
            42.5158
          ],
          [
            18.0118,
            42.529
          ],
          [
            17.9698,
            42.5466
          ],
          [
            17.9543,
            42.5584
          ],
          [
            17.9497,
            42.5744
          ],
          [
            17.9527,
            42.5911
          ],
          [
            17.9671,
            42.6178
          ],
          [
            17.9763,
            42.6304
          ],
          [
            17.99,
            42.6474
          ],
          [
            18.008,
            42.6579
          ],
          [
            18.0319,
            42.6562
          ],
          [
            18.0524,
            42.6496
          ],
          [
            18.0798,
            42.6353
          ],
          [
            18.0988,
            42.6281
          ],
          [
            18.1186,
            42.6205
          ],
          [
            18.1489,
            42.6086
          ],
          [
            18.176,
            42.5977
          ],
          [
            18.1845,
            42.5944
          ],
          [
            18.1926,
            42.5913
          ],
          [
            18.2079,
            42.5851
          ],
          [
            18.2232,
            42.5792
          ],
          [
            18.2348,
            42.5746
          ],
          [
            18.2474,
            42.5696
          ]
        ]
      },
      "properties": {
        "time_europe_berlin": [
          "31.10.2025 12:32:43",
          "31.10.2025 12:33:02",
          "31.10.2025 12:33:18",
          "31.10.2025 12:33:34",
          "31.10.2025 12:33:50",
          "31.10.2025 12:34:10",
          "31.10.2025 12:34:26",
          "31.10.2025 12:34:46",
          "31.10.2025 12:35:06",
          "31.10.2025 12:35:26",
          "31.10.2025 12:35:56",
          "31.10.2025 12:36:41",
          "31.10.2025 12:37:13",
          "31.10.2025 12:37:43",
          "31.10.2025 12:38:16",
          "31.10.2025 12:38:46",
          "31.10.2025 12:39:16",
          "31.10.2025 12:39:46",
          "31.10.2025 12:40:04",
          "31.10.2025 12:40:45",
          "31.10.2025 12:41:16",
          "31.10.2025 12:41:52",
          "31.10.2025 12:42:22",
          "31.10.2025 12:42:52",
          "31.10.2025 12:43:22",
          "31.10.2025 12:43:52",
          "31.10.2025 12:44:22",
          "31.10.2025 12:44:52",
          "31.10.2025 12:45:28",
          "31.10.2025 12:46:00",
          "31.10.2025 12:46:30",
          "31.10.2025 12:47:01",
          "31.10.2025 12:47:31",
          "31.10.2025 12:48:01",
          "31.10.2025 12:48:31",
          "31.10.2025 12:49:01",
          "31.10.2025 12:49:26",
          "31.10.2025 12:49:55",
          "31.10.2025 12:50:25",
          "31.10.2025 12:50:55",
          "31.10.2025 12:51:25",
          "31.10.2025 12:51:55",
          "31.10.2025 12:52:25",
          "31.10.2025 12:52:55",
          "31.10.2025 12:53:25",
          "31.10.2025 12:53:53",
          "31.10.2025 12:54:20",
          "31.10.2025 12:54:50",
          "31.10.2025 12:55:20",
          "31.10.2025 12:55:50",
          "31.10.2025 12:56:20",
          "31.10.2025 12:56:50",
          "31.10.2025 12:57:21",
          "31.10.2025 12:57:51",
          "31.10.2025 12:58:21",
          "31.10.2025 12:58:51",
          "31.10.2025 12:59:21",
          "31.10.2025 12:59:51",
          "31.10.2025 13:00:21",
          "31.10.2025 13:00:51",
          "31.10.2025 13:01:21",
          "31.10.2025 13:01:51",
          "31.10.2025 13:02:09",
          "31.10.2025 13:02:53",
          "31.10.2025 13:03:23",
          "31.10.2025 13:03:53",
          "31.10.2025 13:04:23",
          "31.10.2025 13:04:53",
          "31.10.2025 13:05:23",
          "31.10.2025 13:05:53",
          "31.10.2025 13:06:23",
          "31.10.2025 13:06:53",
          "31.10.2025 13:07:23",
          "31.10.2025 13:07:53",
          "31.10.2025 13:08:23",
          "31.10.2025 13:08:54",
          "31.10.2025 13:09:25",
          "31.10.2025 13:09:56",
          "31.10.2025 13:10:26",
          "31.10.2025 13:10:56",
          "31.10.2025 13:11:27",
          "31.10.2025 13:11:57",
          "31.10.2025 13:12:27",
          "31.10.2025 13:12:58",
          "31.10.2025 13:13:28",
          "31.10.2025 13:13:58",
          "31.10.2025 13:14:28",
          "31.10.2025 13:14:59",
          "31.10.2025 13:15:29",
          "31.10.2025 13:15:59",
          "31.10.2025 13:16:29",
          "31.10.2025 13:16:59",
          "31.10.2025 13:17:29",
          "31.10.2025 13:17:59",
          "31.10.2025 13:18:29",
          "31.10.2025 13:19:00",
          "31.10.2025 13:19:30",
          "31.10.2025 13:20:00",
          "31.10.2025 13:20:30",
          "31.10.2025 13:21:00",
          "31.10.2025 13:21:30",
          "31.10.2025 13:22:01",
          "31.10.2025 13:22:33",
          "31.10.2025 13:23:03",
          "31.10.2025 13:23:33",
          "31.10.2025 13:24:03",
          "31.10.2025 13:24:33",
          "31.10.2025 13:25:04",
          "31.10.2025 13:25:34",
          "31.10.2025 13:26:04",
          "31.10.2025 13:26:35",
          "31.10.2025 13:27:05",
          "31.10.2025 13:27:35",
          "31.10.2025 13:28:05",
          "31.10.2025 13:28:35",
          "31.10.2025 13:29:06",
          "31.10.2025 13:29:37",
          "31.10.2025 13:30:07",
          "31.10.2025 13:30:37",
          "31.10.2025 13:31:07",
          "31.10.2025 13:31:37",
          "31.10.2025 13:32:07",
          "31.10.2025 13:32:37",
          "31.10.2025 13:33:07",
          "31.10.2025 13:33:37",
          "31.10.2025 13:34:07",
          "31.10.2025 13:34:37",
          "31.10.2025 13:35:09",
          "31.10.2025 13:35:39",
          "31.10.2025 13:36:10",
          "31.10.2025 13:36:40",
          "31.10.2025 13:37:10",
          "31.10.2025 13:37:42",
          "31.10.2025 13:38:12",
          "31.10.2025 13:38:42",
          "31.10.2025 13:39:12",
          "31.10.2025 13:39:42",
          "31.10.2025 13:40:14",
          "31.10.2025 13:40:45",
          "31.10.2025 13:41:16",
          "31.10.2025 13:41:46",
          "31.10.2025 13:42:16",
          "31.10.2025 13:42:46",
          "31.10.2025 13:43:16",
          "31.10.2025 13:43:47",
          "31.10.2025 13:44:17",
          "31.10.2025 13:44:47",
          "31.10.2025 13:45:17",
          "31.10.2025 13:45:47",
          "31.10.2025 13:46:19",
          "31.10.2025 13:46:49",
          "31.10.2025 13:47:19",
          "31.10.2025 13:47:50",
          "31.10.2025 13:48:21",
          "31.10.2025 13:48:52",
          "31.10.2025 13:49:10",
          "31.10.2025 13:49:31",
          "31.10.2025 13:49:52",
          "31.10.2025 13:50:27",
          "31.10.2025 13:50:57",
          "31.10.2025 13:51:28",
          "31.10.2025 13:51:59",
          "31.10.2025 13:52:29",
          "31.10.2025 13:53:01",
          "31.10.2025 13:53:31",
          "31.10.2025 13:54:01",
          "31.10.2025 13:54:31",
          "31.10.2025 13:55:01",
          "31.10.2025 13:55:33",
          "31.10.2025 13:56:03",
          "31.10.2025 13:56:34",
          "31.10.2025 13:57:04",
          "31.10.2025 13:57:34",
          "31.10.2025 13:58:17",
          "31.10.2025 13:58:49",
          "31.10.2025 13:59:20",
          "31.10.2025 13:59:51",
          "31.10.2025 14:00:21",
          "31.10.2025 14:00:51",
          "31.10.2025 14:01:21",
          "31.10.2025 14:01:51",
          "31.10.2025 14:02:21",
          "31.10.2025 14:02:51",
          "31.10.2025 14:03:21",
          "31.10.2025 14:03:51",
          "31.10.2025 14:04:21",
          "31.10.2025 14:04:51",
          "31.10.2025 14:05:21",
          "31.10.2025 14:05:51",
          "31.10.2025 14:06:21",
          "31.10.2025 14:06:52",
          "31.10.2025 14:07:22",
          "31.10.2025 14:07:47",
          "31.10.2025 14:08:10",
          "31.10.2025 14:08:40",
          "31.10.2025 14:08:56",
          "31.10.2025 14:09:13",
          "31.10.2025 14:09:30",
          "31.10.2025 14:10:00",
          "31.10.2025 14:10:16",
          "31.10.2025 14:10:39",
          "31.10.2025 14:10:59",
          "31.10.2025 14:11:19",
          "31.10.2025 14:11:39",
          "31.10.2025 14:12:09",
          "31.10.2025 14:12:29",
          "31.10.2025 14:12:49",
          "31.10.2025 14:13:20",
          "31.10.2025 14:13:50",
          "31.10.2025 14:14:00",
          "31.10.2025 14:14:10",
          "31.10.2025 14:14:30",
          "31.10.2025 14:14:50",
          "31.10.2025 14:15:06",
          "31.10.2025 14:15:23"
        ],
        "course_deg_clockwise_from_north": [
          195,
          195,
          196,
          196,
          197,
          205,
          244,
          273,
          313,
          328,
          331,
          329,
          329,
          328,
          328,
          329,
          328,
          328,
          313,
          304,
          304,
          306,
          305,
          305,
          305,
          305,
          305,
          305,
          304,
          305,
          304,
          305,
          304,
          305,
          304,
          305,
          322,
          332,
          336,
          337,
          336,
          336,
          336,
          336,
          336,
          334,
          326,
          324,
          325,
          325,
          325,
          325,
          325,
          325,
          325,
          325,
          325,
          325,
          325,
          325,
          325,
          325,
          317,
          305,
          304,
          305,
          306,
          305,
          305,
          305,
          305,
          305,
          305,
          305,
          305,
          305,
          305,
          304,
          304,
          304,
          305,
          305,
          304,
          304,
          304,
          304,
          304,
          304,
          305,
          304,
          304,
          304,
          304,
          304,
          304,
          304,
          304,
          304,
          304,
          303,
          304,
          303,
          304,
          303,
          303,
          304,
          303,
          303,
          303,
          303,
          303,
          303,
          304,
          303,
          303,
          304,
          303,
          303,
          303,
          303,
          302,
          303,
          303,
          302,
          303,
          303,
          303,
          303,
          303,
          303,
          303,
          302,
          302,
          302,
          302,
          302,
          302,
          302,
          302,
          302,
          302,
          302,
          302,
          302,
          302,
          302,
          301,
          302,
          302,
          302,
          301,
          302,
          301,
          302,
          301,
          296,
          292,
          299,
          291,
          294,
          296,
          295,
          295,
          295,
          295,
          294,
          295,
          294,
          295,
          294,
          294,
          294,
          294,
          289,
          290,
          291,
          290,
          290,
          290,
          290,
          290,
          290,
          290,
          289,
          290,
          290,
          289,
          290,
          290,
          290,
          290,
          290,
          296,
          298,
          301,
          333,
          359,
          16,
          26,
          30,
          31,
          79,
          107,
          118,
          119,
          117,
          118,
          119,
          118,
          118,
          118,
          118,
          119,
          118,
          118
        ],
        "speed_kts": [
          151,
          160,
          166,
          181,
          192,
          193,
          193,
          196,
          211,
          215,
          227,
          242,
          252,
          259,
          270,
          287,
          301,
          314,
          313,
          323,
          332,
          346,
          361,
          371,
          377,
          382,
          386,
          391,
          394,
          396,
          399,
          401,
          403,
          405,
          405,
          407,
          411,
          414,
          414,
          415,
          411,
          410,
          419,
          428,
          434,
          433,
          428,
          428,
          430,
          432,
          431,
          425,
          420,
          416,
          412,
          414,
          421,
          426,
          431,
          433,
          434,
          435,
          429,
          422,
          421,
          420,
          420,
          419,
          418,
          419,
          419,
          419,
          419,
          419,
          419,
          418,
          419,
          420,
          420,
          420,
          421,
          420,
          420,
          421,
          420,
          421,
          421,
          421,
          421,
          421,
          421,
          422,
          420,
          421,
          421,
          421,
          421,
          422,
          422,
          422,
          422,
          422,
          422,
          421,
          421,
          420,
          420,
          420,
          421,
          421,
          422,
          422,
          422,
          422,
          422,
          422,
          421,
          420,
          421,
          420,
          420,
          419,
          419,
          417,
          416,
          417,
          417,
          415,
          415,
          416,
          416,
          416,
          414,
          413,
          412,
          412,
          413,
          413,
          414,
          415,
          416,
          417,
          417,
          417,
          418,
          418,
          419,
          418,
          417,
          415,
          411,
          407,
          408,
          402,
          403,
          404,
          407,
          295,
          410,
          411,
          409,
          407,
          407,
          406,
          406,
          406,
          409,
          417,
          425,
          435,
          438,
          440,
          439,
          436,
          433,
          430,
          423,
          413,
          400,
          388,
          381,
          373,
          363,
          355,
          348,
          323,
          305,
          303,
          302,
          299,
          292,
          269,
          265,
          264,
          237,
          223,
          214,
          210,
          199,
          191,
          189,
          188,
          187,
          181,
          170,
          174,
          175,
          167,
          158,
          150,
          141,
          137,
          138,
          136,
          132
        ],
        "speed_mph": [
          174.0,
          184.0,
          191.0,
          208.0,
          221.0,
          222.0,
          222.0,
          226.0,
          243.0,
          247.0,
          261.0,
          278.0,
          290.0,
          298.0,
          311.0,
          330.0,
          346.0,
          361.0,
          360.0,
          372.0,
          382.0,
          398.0,
          415.0,
          427.0,
          434.0,
          440.0,
          444.0,
          450.0,
          453.0,
          456.0,
          459.0,
          461.0,
          464.0,
          466.0,
          466.0,
          468.0,
          473.0,
          476.0,
          476.0,
          478.0,
          473.0,
          472.0,
          482.0,
          493.0,
          499.0,
          498.0,
          493.0,
          493.0,
          495.0,
          497.0,
          496.0,
          489.0,
          483.0,
          479.0,
          474.0,
          476.0,
          484.0,
          490.0,
          496.0,
          498.0,
          499.0,
          501.0,
          494.0,
          486.0,
          484.0,
          483.0,
          483.0,
          482.0,
          481.0,
          482.0,
          482.0,
          482.0,
          482.0,
          482.0,
          482.0,
          481.0,
          482.0,
          483.0,
          483.0,
          483.0,
          484.0,
          483.0,
          483.0,
          484.0,
          483.0,
          484.0,
          484.0,
          484.0,
          484.0,
          484.0,
          484.0,
          486.0,
          483.0,
          484.0,
          484.0,
          484.0,
          484.0,
          486.0,
          486.0,
          486.0,
          486.0,
          486.0,
          486.0,
          484.0,
          484.0,
          483.0,
          483.0,
          483.0,
          484.0,
          484.0,
          486.0,
          486.0,
          486.0,
          486.0,
          486.0,
          486.0,
          484.0,
          483.0,
          484.0,
          483.0,
          483.0,
          482.0,
          482.0,
          480.0,
          479.0,
          480.0,
          480.0,
          478.0,
          478.0,
          479.0,
          479.0,
          479.0,
          476.0,
          475.0,
          474.0,
          474.0,
          475.0,
          475.0,
          476.0,
          478.0,
          479.0,
          480.0,
          480.0,
          480.0,
          481.0,
          481.0,
          482.0,
          481.0,
          480.0,
          478.0,
          473.0,
          468.0,
          470.0,
          463.0,
          464.0,
          465.0,
          468.0,
          339.0,
          472.0,
          473.0,
          471.0,
          468.0,
          468.0,
          467.0,
          467.0,
          467.0,
          471.0,
          480.0,
          489.0,
          501.0,
          504.0,
          506.0,
          505.0,
          502.0,
          498.0,
          495.0,
          487.0,
          475.0,
          460.0,
          447.0,
          438.0,
          429.0,
          418.0,
          409.0,
          400.0,
          372.0,
          351.0,
          349.0,
          348.0,
          344.0,
          336.0,
          310.0,
          305.0,
          304.0,
          273.0,
          257.0,
          246.0,
          242.0,
          229.0,
          220.0,
          217.0,
          216.0,
          215.0,
          208.0,
          196.0,
          200.0,
          201.0,
          192.0,
          182.0,
          173.0,
          162.0,
          158.0,
          159.0,
          157.0,
          152.0
        ],
        "altitude_ft": [
          325,
          1175,
          1925,
          2625,
          3275,
          4275,
          5000,
          5975,
          6650,
          7600,
          8875,
          10775,
          12075,
          13300,
          14475,
          15475,
          16475,
          17500,
          18050,
          19425,
          20425,
          21450,
          22225,
          22950,
          23700,
          24425,
          25150,
          25875,
          26750,
          27525,
          28275,
          29025,
          29725,
          30475,
          31175,
          31875,
          32500,
          33250,
          33975,
          34700,
          35425,
          35950,
          36000,
          36000,
          36000,
          36000,
          36175,
          36575,
          37000,
          37400,
          37800,
          38275,
          38775,
          39275,
          39750,
          40000,
          40000,
          40000,
          40000,
          40000,
          40000,
          40000,
          40000,
          40000,
          40000,
          40000,
          40000,
          40000,
          40000,
          40000,
          40000,
          40000,
          40000,
          40000,
          40000,
          40000,
          40000,
          40000,
          40000,
          40000,
          40000,
          40000,
          40000,
          40000,
          40000,
          40000,
          40000,
          40000,
          40000,
          40000,
          40000,
          40000,
          40000,
          40000,
          40000,
          40000,
          40000,
          40000,
          40000,
          40000,
          40000,
          40000,
          40000,
          40000,
          40000,
          40000,
          40000,
          40000,
          40000,
          40000,
          40000,
          40000,
          40000,
          40000,
          40000,
          40000,
          40000,
          40000,
          40000,
          40000,
          40000,
          40000,
          40000,
          40000,
          40000,
          40000,
          40000,
          40000,
          40000,
          40000,
          40000,
          40000,
          40000,
          40000,
          40000,
          40000,
          40000,
          40000,
          40000,
          40000,
          40000,
          40000,
          40000,
          40000,
          40000,
          40000,
          40000,
          39725,
          39275,
          38775,
          37850,
          36850,
          36075,
          36000,
          36000,
          36000,
          36000,
          36000,
          36000,
          36000,
          36000,
          36000,
          36000,
          36000,
          35350,
          34650,
          33875,
          32950,
          31900,
          30925,
          29800,
          28625,
          27550,
          25950,
          24800,
          23675,
          22550,
          21450,
          20350,
          19300,
          18200,
          17075,
          15975,
          14875,
          13850,
          12675,
          11650,
          10525,
          9425,
          8325,
          7250,
          6350,
          5800,
          5300,
          4900,
          4800,
          4500,
          4125,
          3675,
          3650,
          3650,
          3375,
          3000,
          2775,
          2475,
          2475,
          2450,
          2025,
          1550,
          1425,
          1300,
          1075,
          825,
          650,
          450
        ],
        "vertical_rate_fpm": [
          0.0,
          2743.0,
          2719.0,
          2531.0,
          2750.0,
          2875.0,
          2833.0,
          2475.0,
          2438.0,
          2670.0,
          2540.0,
          2494.0,
          2444.0,
          2286.0,
          2071.0,
          2000.0,
          2025.0,
          1969.0,
          1958.0,
          1979.0,
          1813.0,
          1636.0,
          1500.0,
          1475.0,
          1475.0,
          1450.0,
          1450.0,
          1455.0,
          1456.0,
          1476.0,
          1475.0,
          1426.0,
          1450.0,
          1450.0,
          1400.0,
          1445.0,
          1528.0,
          1500.0,
          1450.0,
          1450.0,
          1250.0,
          575.0,
          50.0,
          0.0,
          0.0,
          191.0,
          605.0,
          825.0,
          825.0,
          800.0,
          875.0,
          959.0,
          984.0,
          975.0,
          725.0,
          250.0,
          0.0,
          0.0,
          0.0,
          0.0,
          0.0,
          0.0,
          0.0,
          0.0,
          0.0,
          0.0,
          0.0,
          0.0,
          0.0,
          0.0,
          0.0,
          0.0,
          0.0,
          0.0,
          0.0,
          0.0,
          0.0,
          0.0,
          0.0,
          0.0,
          0.0,
          0.0,
          0.0,
          0.0,
          0.0,
          0.0,
          0.0,
          0.0,
          0.0,
          0.0,
          0.0,
          0.0,
          0.0,
          0.0,
          0.0,
          0.0,
          0.0,
          0.0,
          0.0,
          0.0,
          0.0,
          0.0,
          0.0,
          0.0,
          0.0,
          0.0,
          0.0,
          0.0,
          0.0,
          0.0,
          0.0,
          0.0,
          0.0,
          0.0,
          0.0,
          0.0,
          0.0,
          0.0,
          0.0,
          0.0,
          0.0,
          0.0,
          0.0,
          0.0,
          0.0,
          0.0,
          0.0,
          0.0,
          0.0,
          0.0,
          0.0,
          0.0,
          0.0,
          0.0,
          0.0,
          0.0,
          0.0,
          0.0,
          0.0,
          0.0,
          0.0,
          0.0,
          0.0,
          0.0,
          0.0,
          0.0,
          -275.0,
          -725.0,
          -919.0,
          -1379.0,
          -1925.0,
          -1746.0,
          -823.0,
          -73.0,
          0.0,
          0.0,
          0.0,
          0.0,
          0.0,
          0.0,
          0.0,
          0.0,
          0.0,
          -629.0,
          -1350.0,
          -1475.0,
          -1700.0,
          -1911.0,
          -1960.0,
          -2066.0,
          -2262.0,
          -2250.0,
          -2199.0,
          -2200.0,
          -2167.0,
          -2177.0,
          -2189.0,
          -2200.0,
          -2150.0,
          -2150.0,
          -2225.0,
          -2225.0,
          -2200.0,
          -2125.0,
          -2200.0,
          -2200.0,
          -2150.0,
          -2225.0,
          -2200.0,
          -2139.0,
          -1943.0,
          -1582.0,
          -1313.0,
          -1019.0,
          -652.0,
          -727.0,
          -1191.0,
          -1053.0,
          -620.0,
          -38.0,
          -384.0,
          -975.0,
          -900.0,
          -630.0,
          -360.0,
          -38.0,
          -529.0,
          -885.0,
          -900.0,
          -750.0,
          -700.0,
          -713.0,
          -708.0,
          -682.0,
          -706.0
        ]
      }
    }
  ]
}