{
  "type": "FeatureCollection",
  "features": [
    {
      "type": "Feature",
      "geometry": {
        "type": "LineString",
        "coordinates": [
          [
            4.7798,
            52.2978
          ],
          [
            4.7718,
            52.287
          ],
          [
            4.7769,
            52.2719
          ],
          [
            4.7961,
            52.2602
          ],
          [
            4.825,
            52.2532
          ],
          [
            4.8568,
            52.2501
          ],
          [
            4.8882,
            52.2497
          ],
          [
            4.9173,
            52.2499
          ],
          [
            4.9483,
            52.2502
          ],
          [
            4.9878,
            52.2504
          ],
          [
            5.0453,
            52.2494
          ],
          [
            5.1006,
            52.2482
          ],
          [
            5.1674,
            52.2469
          ],
          [
            5.2508,
            52.2447
          ],
          [
            5.3393,
            52.2405
          ],
          [
            5.437,
            52.2346
          ],
          [
            5.5078,
            52.2305
          ],
          [
            5.569,
            52.2208
          ],
          [
            5.6283,
            52.2037
          ],
          [
            5.6783,
            52.1735
          ],
          [
            5.7577,
            52.1014
          ],
          [
            5.8342,
            52.0279
          ],
          [
            5.8671,
            51.9974
          ],
          [
            5.9482,
            51.9224
          ],
          [
            5.9887,
            51.8879
          ],
          [
            6.0348,
            51.856
          ],
          [
            6.1192,
            51.8023
          ],
          [
            6.1635,
            51.7732
          ],
          [
            6.2258,
            51.7321
          ],
          [
            6.2941,
            51.6887
          ],
          [
            6.3629,
            51.6455
          ],
          [
            6.4298,
            51.603
          ],
          [
            6.4996,
            51.5585
          ],
          [
            6.5683,
            51.514
          ],
          [
            6.6331,
            51.4721
          ],
          [
            6.7013,
            51.4278
          ],
          [
            6.7593,
            51.3901
          ],
          [
            6.8109,
            51.3566
          ],
          [
            6.8685,
            51.319
          ],
          [
            6.9218,
            51.2845
          ],
          [
            6.9566,
            51.262
          ],
          [
            7.0028,
            51.2318
          ],
          [
            7.0525,
            51.199
          ],
          [
            7.0983,
            51.1688
          ],
          [
            7.1465,
            51.1371
          ],
          [
            7.1912,
            51.1076
          ],
          [
            7.2392,
            51.0758
          ],
          [
            7.2806,
            51.0483
          ],
          [
            7.3222,
            51.0208
          ],
          [
            7.3453,
            51.0055
          ],
          [
            7.3699,
            50.9886
          ],
          [
            7.3797,
            50.9678
          ],
          [
            7.369,
            50.9498
          ],
          [
            7.3496,
            50.9352
          ],
          [
            7.33,
            50.9223
          ],
          [
            7.3099,
            50.9139
          ],
          [
            7.2868,
            50.9077
          ],
          [
            7.2695,
            50.9037
          ],
          [
            7.2459,
            50.8972
          ],
          [
            7.2352,
            50.8939
          ],
          [
            7.2218,
            50.8898
          ],
          [
            7.2111,
            50.8866
          ],
          [
            7.1981,
            50.8826
          ],
          [
            7.1864,
            50.8791
          ],
          [
            7.1725,
            50.875
          ],
          [
            7.1592,
            50.8709
          ]
        ]
      },
      "properties": {
        "time_europe_berlin": [
          "27.10.2025 16:16:53",
          "27.10.2025 16:17:09",
          "27.10.2025 16:17:25",
          "27.10.2025 16:17:41",
          "27.10.2025 16:17:57",
          "27.10.2025 16:18:15",
          "27.10.2025 16:18:32",
          "27.10.2025 16:18:48",
          "27.10.2025 16:19:04",
          "27.10.2025 16:19:24",
          "27.10.2025 16:19:49",
          "27.10.2025 16:20:14",
          "27.10.2025 16:20:39",
          "27.10.2025 16:21:09",
          "27.10.2025 16:21:39",
          "27.10.2025 16:22:09",
          "27.10.2025 16:22:31",
          "27.10.2025 16:22:49",
          "27.10.2025 16:23:08",
          "27.10.2025 16:23:28",
          "27.10.2025 16:24:07",
          "27.10.2025 16:24:47",
          "27.10.2025 16:25:05",
          "27.10.2025 16:25:49",
          "27.10.2025 16:26:10",
          "27.10.2025 16:26:31",
          "27.10.2025 16:27:10",
          "27.10.2025 16:27:31",
          "27.10.2025 16:28:01",
          "27.10.2025 16:28:31",
          "27.10.2025 16:29:01",
          "27.10.2025 16:29:31",
          "27.10.2025 16:30:01",
          "27.10.2025 16:30:31",
          "27.10.2025 16:31:01",
          "27.10.2025 16:31:31",
          "27.10.2025 16:32:01",
          "27.10.2025 16:32:26",
          "27.10.2025 16:32:56",
          "27.10.2025 16:33:26",
          "27.10.2025 16:33:46",
          "27.10.2025 16:34:16",
          "27.10.2025 16:34:46",
          "27.10.2025 16:35:16",
          "27.10.2025 16:35:46",
          "27.10.2025 16:36:16",
          "27.10.2025 16:36:46",
          "27.10.2025 16:37:16",
          "27.10.2025 16:37:46",
          "27.10.2025 16:38:02",
          "27.10.2025 16:38:21",
          "27.10.2025 16:38:39",
          "27.10.2025 16:38:58",
          "27.10.2025 16:39:18",
          "27.10.2025 16:39:38",
          "27.10.2025 16:39:56",
          "27.10.2025 16:40:17",
          "27.10.2025 16:40:35",
          "27.10.2025 16:41:02",
          "27.10.2025 16:41:17",
          "27.10.2025 16:41:33",
          "27.10.2025 16:41:49",
          "27.10.2025 16:42:05",
          "27.10.2025 16:42:21",
          "27.10.2025 16:42:38",
          "27.10.2025 16:42:54"
        ],
        "course_deg_clockwise_from_north": [
          222,
          185,
          153,
          122,
          105,
          94,
          90,
          89,
          89,
          90,
          92,
          92,
          92,
          93,
          96,
          95,
          97,
          109,
          126,
          141,
          148,
          147,
          146,
          147,
          140,
          137,
          136,
          137,
          136,
          135,
          136,
          136,
          136,
          136,
          136,
          136,
          136,
          136,
          136,
          136,
          136,
          136,
          137,
          136,
          137,
          137,
          136,
          136,
          136,
          136,
          143,
          182,
          212,
          224,
          229,
          242,
          250,
          249,
          244,
          244,
          245,
          245,
          244,
          245,
          244,
          245
        ],
        "speed_kts": [
          155,
          190,
          221,
          240,
          246,
          243,
          243,
          253,
          262,
          275,
          298,
          322,
          353,
          390,
          422,
          436,
          448,
          456,
          474,
          480,
          475,
          461,
          454,
          439,
          432,
          427,
          416,
          418,
          422,
          424,
          439,
          443,
          444,
          436,
          427,
          417,
          402,
          376,
          357,
          333,
          326,
          319,
          314,
          309,
          305,
          303,
          296,
          279,
          272,
          272,
          271,
          249,
          215,
          198,
          187,
          179,
          152,
          131,
          121,
          113,
          116,
          112,
          114,
          124,
          117,
          121
        ],
        "speed_mph": [
          178.0,
          219.0,
          254.0,
          276.0,
          283.0,
          280.0,
          280.0,
          291.0,
          302.0,
          316.0,
          343.0,
          371.0,
          406.0,
          449.0,
          486.0,
          502.0,
          516.0,
          525.0,
          545.0,
          552.0,
          547.0,
          531.0,
          522.0,
          505.0,
          497.0,
          491.0,
          479.0,
          481.0,
          486.0,
          488.0,
          505.0,
          510.0,
          511.0,
          502.0,
          491.0,
          480.0,
          463.0,
          433.0,
          411.0,
          383.0,
          375.0,
          367.0,
          361.0,
          356.0,
          351.0,
          349.0,
          341.0,
          321.0,
          313.0,
          313.0,
          312.0,
          287.0,
          247.0,
          228.0,
          215.0,
          206.0,
          175.0,
          151.0,
          139.0,
          130.0,
          133.0,
          129.0,
          131.0,
          143.0,
          135.0,
          139.0
        ],
        "altitude_ft": [
          1100,
          2050,
          2850,
          3575,
          4575,
          5875,
          7150,
          8075,
          8900,
          9925,
          11250,
          12475,
          13800,
          15300,
          16800,
          18300,
          19400,
          20325,
          20775,
          20975,
          21000,
          21000,
          21000,
          21000,
          21000,
          20800,
          20150,
          19800,
          19325,
          18800,
          18300,
          17800,
          17125,
          16150,
          15150,
          14075,
          13150,
          12300,
          11250,
          10450,
          10025,
          9300,
          8600,
          7900,
          7175,
          6500,
          5875,
          5600,
          5250,
          4975,
          4675,
          4325,
          3900,
          3400,
          2975,
          2650,
          2325,
          2125,
          1825,
          1675,
          1475,
          1325,
          1150,
          975,
          800,
          625
        ],
        "vertical_rate_fpm": [
          0.0,
          3281.0,
          2859.0,
          3234.0,
          4059.0,
          4414.0,
          4000.0,
          3281.0,
          3083.0,
          3133.0,
          3060.0,
          3060.0,
          3082.0,
          3000.0,
          3000.0,
          3000.0,
          3038.0,
          2230.0,
          1000.0,
          229.0,
          19.0,
          0.0,
          0.0,
          0.0,
          -286.0,
          -850.0,
          -1000.0,
          -971.0,
          -1000.0,
          -1025.0,
          -1000.0,
          -1175.0,
          -1650.0,
          -1975.0,
          -2075.0,
          -2000.0,
          -1936.0,
          -2073.0,
          -1850.0,
          -1470.0,
          -1380.0,
          -1425.0,
          -1400.0,
          -1425.0,
          -1400.0,
          -1300.0,
          -900.0,
          -625.0,
          -815.0,
          -986.0,
          -1054.0,
          -1257.0,
          -1423.0,
          -1388.0,
          -1184.0,
          -1000.0,
          -808.0,
          -667.0,
          -643.0,
          -677.0,
          -656.0,
          -609.0,
          -656.0,
          -636.0,
          -636.0,
          -656.0
        ]
      }
    }
  ]
}