{
  "type": "FeatureCollection",
  "features": [
    {
      "type": "Feature",
      "geometry": {
        "type": "LineString",
        "coordinates": [
          [
            -0.7624,
            51.2802
          ],
          [
            -0.7464,
            51.2851
          ],
          [
            -0.7258,
            51.2913
          ],
          [
            -0.708,
            51.2973
          ],
          [
            -0.6859,
            51.3023
          ],
          [
            -0.6606,
            51.2947
          ],
          [
            -0.6324,
            51.2631
          ],
          [
            -0.6412,
            51.2471
          ],
          [
            -0.6624,
            51.2348
          ],
          [
            -0.6826,
            51.227
          ],
          [
            -0.7051,
            51.2197
          ],
          [
            -0.7294,
            51.2124
          ],
          [
            -0.7543,
            51.2035
          ],
          [
            -0.7767,
            51.1943
          ],
          [
            -0.799,
            51.1842
          ],
          [
            -0.839,
            51.1652
          ],
          [
            -0.8808,
            51.1468
          ],
          [
            -0.9218,
            51.1287
          ],
          [
            -0.9572,
            51.1203
          ],
          [
            -0.9917,
            51.1144
          ],
          [
            -1.0413,
            51.1057
          ],
          [
            -1.0889,
            51.0974
          ],
          [
            -1.1224,
            51.0916
          ],
          [
            -1.1547,
            51.0928
          ],
          [
            -1.1723,
            51.107
          ],
          [
            -1.1681,
            51.1246
          ],
          [
            -1.1488,
            51.1482
          ],
          [
            -1.1275,
            51.173
          ],
          [
            -1.1126,
            51.1888
          ],
          [
            -1.0781,
            51.2073
          ],
          [
            -1.0452,
            51.2209
          ],
          [
            -1.0028,
            51.238
          ],
          [
            -0.9702,
            51.2506
          ],
          [
            -0.9295,
            51.2718
          ],
          [
            -0.8687,
            51.3069
          ],
          [
            -0.8042,
            51.3436
          ],
          [
            -0.7652,
            51.3649
          ],
          [
            -0.7157,
            51.3916
          ],
          [
            -0.6773,
            51.4108
          ],
          [
            -0.5914,
            51.4393
          ],
          [
            -0.4065,
            51.4944
          ],
          [
            -0.3349,
            51.5166
          ],
          [
            -0.2507,
            51.542
          ],
          [
            -0.1662,
            51.5677
          ],
          [
            -0.0801,
            51.5937
          ],
          [
            0.0045,
            51.6193
          ],
          [
            0.0916,
            51.6457
          ],
          [
            0.1774,
            51.6712
          ],
          [
            0.2676,
            51.698
          ],
          [
            0.3603,
            51.7255
          ],
          [
            0.4211,
            51.7396
          ],
          [
            0.4714,
            51.7498
          ],
          [
            0.5914,
            51.7751
          ],
          [
            0.6826,
            51.7946
          ],
          [
            0.7782,
            51.8148
          ],
          [
            0.8687,
            51.8338
          ],
          [
            0.96,
            51.8529
          ],
          [
            1.0539,
            51.8724
          ],
          [
            1.146,
            51.8912
          ],
          [
            1.2353,
            51.9102
          ],
          [
            1.2878,
            51.9225
          ],
          [
            1.3807,
            51.9448
          ],
          [
            1.503,
            51.9733
          ],
          [
            1.5934,
            51.9943
          ],
          [
            1.6826,
            52.0149
          ],
          [
            1.7744,
            52.036
          ],
          [
            1.8669,
            52.0571
          ],
          [
            1.957,
            52.0775
          ],
          [
            2.0507,
            52.0988
          ],
          [
            2.1433,
            52.1196
          ],
          [
            2.2327,
            52.1397
          ],
          [
            2.3216,
            52.1596
          ],
          [
            2.4149,
            52.1803
          ],
          [
            2.5061,
            52.2005
          ],
          [
            2.5958,
            52.2202
          ],
          [
            2.6903,
            52.2409
          ],
          [
            2.7809,
            52.2612
          ],
          [
            2.8735,
            52.2807
          ],
          [
            2.963,
            52.3004
          ],
          [
            3.0537,
            52.32
          ],
          [
            3.1503,
            52.3406
          ],
          [
            3.2423,
            52.3604
          ],
          [
            3.3336,
            52.3797
          ],
          [
            3.4257,
            52.3994
          ],
          [
            3.5166,
            52.4184
          ],
          [
            3.6043,
            52.437
          ],
          [
            3.696,
            52.4559
          ],
          [
            3.7856,
            52.4748
          ],
          [
            3.8755,
            52.4933
          ],
          [
            3.9696,
            52.5125
          ],
          [
            4.0521,
            52.5297
          ],
          [
            4.1383,
            52.5472
          ],
          [
            4.2261,
            52.5649
          ],
          [
            4.3118,
            52.5827
          ],
          [
            4.3947,
            52.5991
          ],
          [
            4.4809,
            52.6163
          ],
          [
            4.5651,
            52.6335
          ],
          [
            4.6489,
            52.6499
          ],
          [
            4.7343,
            52.6672
          ],
          [
            4.8046,
            52.6807
          ],
          [
            4.8881,
            52.6971
          ],
          [
            4.9687,
            52.7131
          ],
          [
            5.0477,
            52.7284
          ],
          [
            5.1272,
            52.7438
          ],
          [
            5.195,
            52.757
          ],
          [
            5.2568,
            52.7691
          ],
          [
            5.2916,
            52.7757
          ],
          [
            5.3509,
            52.787
          ],
          [
            5.4025,
            52.7968
          ],
          [
            5.4353,
            52.7987
          ],
          [
            5.4735,
            52.7858
          ],
          [
            5.4971,
            52.7611
          ],
          [
            5.5256,
            52.7262
          ],
          [
            5.5548,
            52.6912
          ],
          [
            5.584,
            52.6577
          ],
          [
            5.6128,
            52.6247
          ],
          [
            5.6394,
            52.5931
          ],
          [
            5.6569,
            52.5725
          ],
          [
            5.6612,
            52.555
          ],
          [
            5.6454,
            52.5394
          ],
          [
            5.6232,
            52.528
          ],
          [
            5.5975,
            52.5241
          ],
          [
            5.583,
            52.5241
          ],
          [
            5.5712,
            52.5241
          ],
          [
            5.5492,
            52.519
          ],
          [
            5.5308,
            52.5107
          ],
          [
            5.5109,
            52.5011
          ],
          [
            5.4934,
            52.4926
          ],
          [
            5.4736,
            52.483
          ],
          [
            5.4565,
            52.4746
          ],
          [
            5.4383,
            52.4655
          ],
          [
            5.4227,
            52.4559
          ],
          [
            5.3947,
            52.4367
          ],
          [
            5.3752,
            52.4234
          ],
          [
            5.3676,
            52.4098
          ],
          [
            5.3754,
            52.3946
          ],
          [
            5.3881,
            52.377
          ],
          [
            5.4061,
            52.353
          ],
          [
            5.4246,
            52.3286
          ],
          [
            5.4423,
            52.305
          ],
          [
            5.461,
            52.281
          ],
          [
            5.4797,
            52.2571
          ],
          [
            5.4898,
            52.2449
          ],
          [
            5.5115,
            52.2369
          ],
          [
            5.5334,
            52.2421
          ],
          [
            5.5422,
            52.2558
          ],
          [
            5.5319,
            52.2702
          ],
          [
            5.5199,
            52.2826
          ],
          [
            5.4991,
            52.3026
          ],
          [
            5.477,
            52.3233
          ],
          [
            5.4585,
            52.3411
          ],
          [
            5.4458,
            52.3533
          ],
          [
            5.4348,
            52.3644
          ],
          [
            5.4315,
            52.3777
          ],
          [
            5.4321,
            52.3887
          ],
          [
            5.4369,
            52.3997
          ],
          [
            5.4443,
            52.4088
          ],
          [
            5.4509,
            52.4147
          ],
          [
            5.4597,
            52.4211
          ],
          [
            5.4696,
            52.4276
          ],
          [
            5.4805,
            52.4341
          ],
          [
            5.4907,
            52.4398
          ],
          [
            5.5068,
            52.4489
          ]
        ]
      },
      "properties": {
        "time_europe_berlin": [
          "15.10.2025 17:03:35",
          "15.10.2025 17:03:51",
          "15.10.2025 17:04:07",
          "15.10.2025 17:04:23",
          "15.10.2025 17:04:39",
          "15.10.2025 17:04:58",
          "15.10.2025 17:05:35",
          "15.10.2025 17:05:53",
          "15.10.2025 17:06:12",
          "15.10.2025 17:06:28",
          "15.10.2025 17:06:44",
          "15.10.2025 17:07:00",
          "15.10.2025 17:07:17",
          "15.10.2025 17:07:33",
          "15.10.2025 17:07:49",
          "15.10.2025 17:08:20",
          "15.10.2025 17:08:50",
          "15.10.2025 17:09:19",
          "15.10.2025 17:09:42",
          "15.10.2025 17:10:04",
          "15.10.2025 17:10:31",
          "15.10.2025 17:10:59",
          "15.10.2025 17:11:19",
          "15.10.2025 17:11:37",
          "15.10.2025 17:11:55",
          "15.10.2025 17:12:14",
          "15.10.2025 17:12:41",
          "15.10.2025 17:13:05",
          "15.10.2025 17:13:22",
          "15.10.2025 17:13:44",
          "15.10.2025 17:14:02",
          "15.10.2025 17:14:21",
          "15.10.2025 17:14:38",
          "15.10.2025 17:14:57",
          "15.10.2025 17:15:27",
          "15.10.2025 17:15:57",
          "15.10.2025 17:16:15",
          "15.10.2025 17:16:36",
          "15.10.2025 17:16:53",
          "15.10.2025 17:17:23",
          "15.10.2025 17:18:28",
          "15.10.2025 17:18:54",
          "15.10.2025 17:19:24",
          "15.10.2025 17:19:54",
          "15.10.2025 17:20:24",
          "15.10.2025 17:20:54",
          "15.10.2025 17:21:24",
          "15.10.2025 17:21:54",
          "15.10.2025 17:22:24",
          "15.10.2025 17:22:54",
          "15.10.2025 17:23:14",
          "15.10.2025 17:23:31",
          "15.10.2025 17:24:11",
          "15.10.2025 17:24:41",
          "15.10.2025 17:25:11",
          "15.10.2025 17:25:41",
          "15.10.2025 17:26:11",
          "15.10.2025 17:26:41",
          "15.10.2025 17:27:11",
          "15.10.2025 17:27:41",
          "15.10.2025 17:27:59",
          "15.10.2025 17:28:29",
          "15.10.2025 17:29:09",
          "15.10.2025 17:29:39",
          "15.10.2025 17:30:09",
          "15.10.2025 17:30:39",
          "15.10.2025 17:31:09",
          "15.10.2025 17:31:39",
          "15.10.2025 17:32:09",
          "15.10.2025 17:32:39",
          "15.10.2025 17:33:09",
          "15.10.2025 17:33:39",
          "15.10.2025 17:34:09",
          "15.10.2025 17:34:39",
          "15.10.2025 17:35:09",
          "15.10.2025 17:35:39",
          "15.10.2025 17:36:09",
          "15.10.2025 17:36:39",
          "15.10.2025 17:37:09",
          "15.10.2025 17:37:39",
          "15.10.2025 17:38:09",
          "15.10.2025 17:38:39",
          "15.10.2025 17:39:09",
          "15.10.2025 17:39:39",
          "15.10.2025 17:40:09",
          "15.10.2025 17:40:39",
          "15.10.2025 17:41:09",
          "15.10.2025 17:41:39",
          "15.10.2025 17:42:09",
          "15.10.2025 17:42:39",
          "15.10.2025 17:43:09",
          "15.10.2025 17:43:39",
          "15.10.2025 17:44:09",
          "15.10.2025 17:44:39",
          "15.10.2025 17:45:09",
          "15.10.2025 17:45:39",
          "15.10.2025 17:46:09",
          "15.10.2025 17:46:39",
          "15.10.2025 17:47:09",
          "15.10.2025 17:47:34",
          "15.10.2025 17:48:04",
          "15.10.2025 17:48:34",
          "15.10.2025 17:49:04",
          "15.10.2025 17:49:34",
          "15.10.2025 17:50:04",
          "15.10.2025 17:50:34",
          "15.10.2025 17:50:50",
          "15.10.2025 17:51:20",
          "15.10.2025 17:51:43",
          "15.10.2025 17:51:59",
          "15.10.2025 17:52:18",
          "15.10.2025 17:52:38",
          "15.10.2025 17:53:08",
          "15.10.2025 17:53:38",
          "15.10.2025 17:54:08",
          "15.10.2025 17:54:38",
          "15.10.2025 17:55:08",
          "15.10.2025 17:55:28",
          "15.10.2025 17:55:44",
          "15.10.2025 17:56:02",
          "15.10.2025 17:56:19",
          "15.10.2025 17:56:37",
          "15.10.2025 17:56:47",
          "15.10.2025 17:56:53",
          "15.10.2025 17:57:09",
          "15.10.2025 17:57:25",
          "15.10.2025 17:57:41",
          "15.10.2025 17:57:57",
          "15.10.2025 17:58:13",
          "15.10.2025 17:58:29",
          "15.10.2025 17:58:45",
          "15.10.2025 17:59:01",
          "15.10.2025 17:59:29",
          "15.10.2025 17:59:49",
          "15.10.2025 18:00:06",
          "15.10.2025 18:00:24",
          "15.10.2025 18:00:45",
          "15.10.2025 18:01:15",
          "15.10.2025 18:01:45",
          "15.10.2025 18:02:15",
          "15.10.2025 18:02:45",
          "15.10.2025 18:03:15",
          "15.10.2025 18:03:31",
          "15.10.2025 18:03:49",
          "15.10.2025 18:04:07",
          "15.10.2025 18:04:25",
          "15.10.2025 18:04:46",
          "15.10.2025 18:05:04",
          "15.10.2025 18:05:34",
          "15.10.2025 18:06:04",
          "15.10.2025 18:06:34",
          "15.10.2025 18:06:54",
          "15.10.2025 18:07:12",
          "15.10.2025 18:07:32",
          "15.10.2025 18:07:49",
          "15.10.2025 18:08:08",
          "15.10.2025 18:08:26",
          "15.10.2025 18:08:40",
          "15.10.2025 18:08:56",
          "15.10.2025 18:09:12",
          "15.10.2025 18:09:28",
          "15.10.2025 18:09:44",
          "15.10.2025 18:10:08"
        ],
        "course_deg_clockwise_from_north": [
          "62",
          "65",
          "63",
          "60",
          "88",
          "132",
          "175",
          "217",
          "235",
          "240",
          "244",
          "244",
          "238",
          "236",
          "234",
          "234",
          "235",
          "237",
          "254",
          "255",
          "254",
          "255",
          "256",
          "293",
          "345",
          "24",
          "28",
          "29",
          "37",
          "56",
          "57",
          "59",
          "55",
          "48",
          "47",
          "49",
          "49",
          "49",
          "57",
          "65",
          "63",
          "64",
          "64",
          "64",
          "64",
          "64",
          "64",
          "65",
          "64",
          "64",
          "73",
          "72",
          "71",
          "71",
          "71",
          "71",
          "71",
          "72",
          "72",
          "70",
          "69",
          "69",
          "70",
          "69",
          "70",
          "70",
          "70",
          "70",
          "70",
          "70",
          "70",
          "70",
          "70",
          "71",
          "71",
          "70",
          "70",
          "71",
          "70",
          "71",
          "71",
          "71",
          "71",
          "71",
          "71",
          "71",
          "72",
          "71",
          "72",
          "71",
          "72",
          "72",
          "72",
          "72",
          "72",
          "72",
          "72",
          "72",
          "72",
          "72",
          "72",
          "72",
          "72",
          "73",
          "72",
          "73",
          "72",
          "73",
          "74",
          "96",
          "138",
          "153",
          "153",
          "153",
          "152",
          "153",
          "153",
          "155",
          "188",
          "226",
          "233",
          "268",
          "271",
          "269",
          "237",
          "232",
          "231",
          "231",
          "231",
          "231",
          "228",
          "223",
          "222",
          "221",
          "180",
          "158",
          "155",
          "155",
          "155",
          "155",
          "154",
          "155",
          "147",
          "97",
          "48",
          "358",
          "331",
          "329",
          "327",
          "327",
          "328",
          "327",
          "333",
          "356",
          "7",
          "20",
          "31",
          "38",
          "42",
          "44",
          "48",
          "47",
          "48"
        ],
        "speed_kts": [
          "156",
          "169",
          "187",
          "188",
          "195",
          "210",
          "215",
          "216",
          "206",
          "211",
          "222",
          "219",
          "225",
          "229",
          "230",
          "225",
          "229",
          "222",
          "234",
          "238",
          "246",
          "247",
          "244",
          "232",
          "219",
          "216",
          "227",
          "245",
          "270",
          "284",
          "307",
          "340",
          "357",
          "372",
          "384",
          "393",
          "401",
          "415",
          "423",
          "429",
          "425",
          "425",
          "424",
          "424",
          "424",
          "427",
          "435",
          "439",
          "439",
          "439",
          "441",
          "438",
          "436",
          "434",
          "434",
          "434",
          "434",
          "433",
          "433",
          "433",
          "432",
          "433",
          "434",
          "433",
          "434",
          "433",
          "433",
          "433",
          "433",
          "432",
          "431",
          "431",
          "431",
          "431",
          "431",
          "430",
          "430",
          "430",
          "429",
          "433",
          "435",
          "432",
          "429",
          "428",
          "426",
          "422",
          "420",
          "417",
          "414",
          "410",
          "407",
          "400",
          "397",
          "394",
          "392",
          "389",
          "388",
          "389",
          "390",
          "387",
          "377",
          "374",
          "373",
          "327",
          "294",
          "289",
          "288",
          "290",
          "292",
          "298",
          "297",
          "293",
          "286",
          "280",
          "275",
          "267",
          "247",
          "248",
          "243",
          "224",
          "209",
          "199",
          "199",
          "199",
          "203",
          "203",
          "200",
          "196",
          "194",
          "192",
          "191",
          "190",
          "195",
          "188",
          "191",
          "194",
          "194",
          "191",
          "192",
          "193",
          "192",
          "193",
          "193",
          "185",
          "176",
          "170",
          "172",
          "174",
          "176",
          "166",
          "153",
          "152",
          "152",
          "148",
          "139",
          "122",
          "114",
          "116",
          "119",
          "120",
          "118",
          "123",
          "113"
        ],
        "speed_mph": [
          "180",
          "194",
          "215",
          "216",
          "224",
          "242",
          "247",
          "249",
          "237",
          "243",
          "255",
          "252",
          "259",
          "264",
          "265",
          "259",
          "264",
          "255",
          "269",
          "274",
          "283",
          "284",
          "281",
          "267",
          "252",
          "249",
          "261",
          "282",
          "311",
          "327",
          "353",
          "391",
          "411",
          "428",
          "442",
          "452",
          "461",
          "478",
          "487",
          "494",
          "489",
          "489",
          "488",
          "488",
          "488",
          "491",
          "501",
          "505",
          "505",
          "505",
          "507",
          "504",
          "502",
          "499",
          "499",
          "499",
          "499",
          "498",
          "498",
          "498",
          "497",
          "498",
          "499",
          "498",
          "499",
          "498",
          "498",
          "498",
          "498",
          "497",
          "496",
          "496",
          "496",
          "496",
          "496",
          "495",
          "495",
          "495",
          "494",
          "498",
          "501",
          "497",
          "494",
          "493",
          "490",
          "486",
          "483",
          "480",
          "476",
          "472",
          "468",
          "460",
          "457",
          "453",
          "451",
          "448",
          "447",
          "448",
          "449",
          "445",
          "434",
          "430",
          "429",
          "376",
          "338",
          "333",
          "331",
          "334",
          "336",
          "343",
          "342",
          "337",
          "329",
          "322",
          "316",
          "307",
          "284",
          "285",
          "280",
          "258",
          "241",
          "229",
          "229",
          "229",
          "234",
          "234",
          "230",
          "226",
          "223",
          "221",
          "220",
          "219",
          "224",
          "216",
          "220",
          "223",
          "223",
          "220",
          "221",
          "222",
          "221",
          "222",
          "222",
          "213",
          "203",
          "196",
          "198",
          "200",
          "203",
          "191",
          "176",
          "175",
          "175",
          "170",
          "160",
          "140",
          "131",
          "133",
          "137",
          "138",
          "136",
          "142",
          "130"
        ],
        "altitude_ft": [
          "475",
          "1375",
          "1875",
          "2225",
          "2500",
          "2575",
          "2550",
          "2575",
          "2900",
          "3400",
          "3800",
          "4225",
          "4500",
          "4550",
          "4575",
          "4575",
          "4575",
          "4825",
          "5400",
          "6000",
          "6775",
          "7000",
          "7000",
          "7025",
          "7500",
          "8150",
          "9425",
          "11100",
          "11925",
          "13450",
          "14575",
          "15350",
          "16125",
          "17175",
          "18975",
          "20625",
          "21425",
          "22125",
          "22525",
          "22975",
          "23000",
          "23000",
          "23000",
          "23000",
          "23000",
          "23000",
          "23000",
          "23000",
          "23000",
          "23000",
          "23000",
          "23000",
          "23000",
          "23000",
          "23000",
          "23000",
          "23000",
          "23000",
          "23000",
          "23000",
          "23000",
          "23000",
          "23000",
          "23000",
          "23000",
          "23000",
          "23000",
          "23000",
          "23000",
          "23000",
          "23000",
          "23000",
          "23000",
          "23000",
          "23000",
          "23000",
          "23000",
          "23000",
          "22550",
          "22050",
          "21525",
          "21025",
          "20525",
          "20025",
          "19525",
          "19050",
          "18550",
          "18050",
          "17550",
          "17025",
          "16550",
          "16075",
          "15550",
          "15050",
          "14575",
          "14075",
          "14000",
          "14000",
          "14000",
          "13400",
          "12800",
          "12325",
          "11825",
          "11300",
          "10775",
          "10300",
          "9975",
          "9525",
          "9100",
          "8650",
          "8000",
          "7300",
          "6325",
          "5325",
          "4325",
          "3300",
          "2575",
          "2050",
          "1750",
          "1650",
          "1650",
          "1650",
          "1650",
          "1650",
          "1650",
          "1650",
          "1650",
          "1650",
          "1650",
          "1650",
          "1650",
          "1650",
          "1650",
          "1650",
          "1650",
          "1650",
          "1650",
          "1650",
          "1650",
          "1650",
          "1650",
          "1650",
          "1650",
          "1650",
          "1650",
          "1650",
          "1650",
          "1650",
          "1650",
          "1600",
          "1400",
          "1350",
          "1325",
          "1175",
          "1050",
          "875",
          "700",
          "575",
          "475",
          "275",
          "100",
          "",
          ""
        ],
        "vertical_rate_fpm": [
          "",
          "2625",
          "1594",
          "1172",
          "600",
          "54",
          "",
          "568",
          "1414",
          "1688",
          "1547",
          "1273",
          "591",
          "141",
          "32",
          "",
          "254",
          "952",
          "1567",
          "1684",
          "1091",
          "281",
          "39",
          "833",
          "1824",
          "2511",
          "3471",
          "3659",
          "3615",
          "3975",
          "3081",
          "2583",
          "3042",
          "3490",
          "3450",
          "3063",
          "2308",
          "1737",
          "1085",
          "300",
          "16",
          "",
          "",
          "",
          "",
          "",
          "",
          "",
          "",
          "",
          "",
          "",
          "",
          "",
          "",
          "",
          "",
          "",
          "",
          "",
          "",
          "",
          "",
          "",
          "",
          "",
          "",
          "",
          "",
          "",
          "",
          "",
          "",
          "",
          "",
          "",
          "",
          "-450",
          "-950",
          "-1025",
          "-1025",
          "-1000",
          "-1000",
          "-1000",
          "-975",
          "-975",
          "-1000",
          "-1000",
          "-1025",
          "-1000",
          "-950",
          "-1000",
          "-1025",
          "-975",
          "-975",
          "-575",
          "-75",
          "",
          "-655",
          "-1309",
          "-1075",
          "-975",
          "-1025",
          "-1050",
          "-1000",
          "-1043",
          "-1011",
          "-991",
          "-1346",
          "-1886",
          "-2077",
          "-2010",
          "-1975",
          "-2000",
          "-2025",
          "-1750",
          "-1500",
          "-1375",
          "-706",
          "-171",
          "",
          "",
          "",
          "",
          "",
          "",
          "",
          "",
          "",
          "",
          "",
          "",
          "",
          "",
          "",
          "",
          "",
          "",
          "",
          "",
          "",
          "",
          "",
          "",
          "",
          "",
          "",
          "",
          "-50",
          "-250",
          "-300",
          "-118",
          "-276",
          "-446",
          "-500",
          "-568",
          "-563",
          "-450",
          "-563",
          "-703",
          "-703",
          "-750",
          ""
        ],
        "reporting_facility": [
          "FlightAware ADS-B(BBS / EGLK)",
          "FlightAware ADS-B(LHR / EGLL)",
          "FlightAware ADS-B(HYC / EGTB)",
          "FlightAware ADS-B(FAB / EGLF)",
          "FlightAware ADS-B(FAB / EGLF)",
          "FlightAware ADS-B(FAB / EGLF)",
          "FlightAware ADS-B(BBS / EGLK)",
          "FlightAware ADS-B(FAB / EGLF)",
          "FlightAware ADS-B(EGTF)",
          "FlightAware ADS-B(FAB / EGLF)",
          "FlightAware ADS-B(LGW / EGKK)",
          "FlightAware ADS-B(CVT / EGBE)",
          "FlightAware ADS-B(BBS / EGLK)",
          "FlightAware ADS-B(LTN / EGGW)",
          "FlightAware ADS-B(SOU / EGHI)",
          "FlightAware ADS-B(EGHO)",
          "FlightAware ADS-B(FAB / EGLF)",
          "FlightAware ADS-B(EGLM)",
          "FlightAware ADS-B(SEN / EGMC)",
          "FlightAware ADS-B(FAB / EGLF)",
          "FlightAware ADS-B(SOU / EGHI)",
          "FlightAware ADS-B(BEX / EGUB)",
          "FlightAware ADS-B(STN / EGSS)",
          "FlightAware ADS-B(SOU / EGHI)",
          "FlightAware ADS-B(BBS / EGLK)",
          "FlightAware ADS-B(FAB / EGLF)",
          "FlightAware ADS-B(QLA / EGHL)",
          "FlightAware ADS-B(EGUO)",
          "FlightAware ADS-B(BRS / EGGD)",
          "FlightAware ADS-B(BBP / EGHJ)",
          "FlightAware ADS-B(LHR / EGLL)",
          "FlightAware ADS-B(YEO / EGDY)",
          "FlightAware ADS-B(CVT / EGBE)",
          "FlightAware ADS-B(BHX / EGBB)",
          "FlightAware ADS-B(EGSP)",
          "FlightAware ADS-B(LTN / EGGW)",
          "FlightAware ADS-B(LCY / EGLC)",
          "FlightAware ADS-B(NWI / EGSH)",
          "FlightAware ADS-B(NWI / EGSH)",
          "FlightAware ADS-B(RCS / EGTO)",
          "FlightAware ADS-B(FAB / EGLF)",
          "FlightAware ADS-B(EGNY)",
          "FlightAware ADS-B(LGW / EGKK)",
          "FlightAware ADS-B(EGTR)",
          "FlightAware ADS-B(EGBD)",
          "FlightAware ADS-B(SEN / EGMC)",
          "FlightAware ADS-B(MAN / EGCC)",
          "FlightAware ADS-B(LTN / EGGW)",
          "FlightAware ADS-B(EGSR)",
          "FlightAware ADS-B(EGTC)",
          "FlightAware ADS-B(LCY / EGLC)",
          "FlightAware ADS-B(EGSM)",
          "FlightAware ADS-B(EGUD)",
          "FlightAware ADS-B(MSE / EGMH)",
          "FlightAware ADS-B(FAB / EGLF)",
          "FlightAware ADS-B(EGCL)",
          "FlightAware ADS-B(EGBW)",
          "FlightAware ADS-B(LCY / EGLC)",
          "FlightAware ADS-B(EGCL)",
          "FlightAware ADS-B(EGSL)",
          "FlightAware ADS-B(FZO / EGTG)",
          "FlightAware ADS-B(EGSW)",
          "FlightAware ADS-B(EBSJ)",
          "FlightAware ADS-B(WOE / EHWO)",
          "FlightAware ADS-B(RTM / EHRD)",
          "FlightAware ADS-B(EGVP)",
          "FlightAware ADS-B(EBBY)",
          "FlightAware ADS-B(EHVB)",
          "FlightAware ADS-B(EGUW)",
          "FlightAware ADS-B(EGUW)",
          "FlightAware ADS-B(EGSL)",
          "FlightAware ADS-B(EGSL)",
          "FlightAware ADS-B(LCY / EGLC)",
          "FlightAware ADS-B(NWI / EGSH)",
          "FlightAware ADS-B(MHZ / EGUN)",
          "FlightAware ADS-B(CVT / EGBE)",
          "FlightAware ADS-B(EGCL)",
          "FlightAware ADS-B(EGHB)",
          "FlightAware ADS-B(OST / EBOS)",
          "FlightAware ADS-B(EGSL)",
          "FlightAware ADS-B(EGLW)",
          "FlightAware ADS-B(UTC / EHSB)",
          "FlightAware ADS-B(EGTC)",
          "FlightAware ADS-B(AMS / EHAM)",
          "FlightAware ADS-B(DHR / EHKD)",
          "FlightAware ADS-B(MSE / EGMH)",
          "FlightAware ADS-B(EGUW)",
          "FlightAware ADS-B(AMS / EHAM)",
          "FlightAware ADS-B(AMS / EHAM)",
          "FlightAware ADS-B(EHTL)",
          "FlightAware ADS-B(EDLG)",
          "FlightAware ADS-B(EHTE)",
          "FlightAware ADS-B(EHHV)",
          "FlightAware ADS-B(NRN / EDLV)",
          "FlightAware ADS-B(UDE / EHVK)",
          "FlightAware ADS-B(EHLW)",
          "FlightAware ADS-B(EHVB)",
          "FlightAware ADS-B(RTM / EHRD)",
          "FlightAware ADS-B(OST / EBOS)",
          "FlightAware ADS-B(LEY / EHLE)",
          "FlightAware ADS-B(AMS / EHAM)",
          "FlightAware ADS-B(EHLW)",
          "FlightAware ADS-B(AMS / EHAM)",
          "FlightAware ADS-B(AMS / EHAM)",
          "FlightAware ADS-B(AMS / EHAM)",
          "FlightAware ADS-B(AMS / EHAM)",
          "FlightAware ADS-B(AMS / EHAM)",
          "FlightAware ADS-B(GLZ / EHGR)",
          "FlightAware ADS-B(EHTE)",
          "FlightAware ADS-B(UTC / EHSB)",
          "FlightAware ADS-B(AMS / EHAM)",
          "FlightAware ADS-B(EHHO)",
          "FlightAware ADS-B(EHDR)",
          "FlightAware ADS-B(DHR / EHKD)",
          "FlightAware ADS-B(EHDR)",
          "FlightAware ADS-B(LEY / EHLE)",
          "FlightAware ADS-B(LEY / EHLE)",
          "FlightAware ADS-B(AMS / EHAM)",
          "FlightAware ADS-B(LEY / EHLE)",
          "FlightAware ADS-B(UTC / EHSB)",
          "FlightAware ADS-B(GRQ / EHGG)",
          "FlightAware ADS-B(AMS / EHAM)",
          "Surface and Near-Surface",
          "FlightAware ADS-B(LEY / EHLE)",
          "FlightAware ADS-B(LEY / EHLE)",
          "FlightAware ADS-B(LEY / EHLE)",
          "FlightAware ADS-B(EHTE)",
          "FlightAware ADS-B(LEY / EHLE)",
          "FlightAware ADS-B(EHTE)",
          "FlightAware ADS-B(LEY / EHLE)",
          "FlightAware ADS-B(LEY / EHLE)",
          "FlightAware ADS-B(LEY / EHLE)",
          "FlightAware ADS-B(UTC / EHSB)",
          "FlightAware ADS-B(EHTE)",
          "FlightAware ADS-B(AMS / EHAM)",
          "FlightAware ADS-B(EHDB)",
          "FlightAware ADS-B(EHTE)",
          "FlightAware ADS-B(EHTE)",
          "FlightAware ADS-B(EHTE)",
          "FlightAware ADS-B(UTC / EHSB)",
          "FlightAware ADS-B(EHHV)",
          "FlightAware ADS-B(UTC / EHSB)",
          "FlightAware ADS-B(EHDB)",
          "FlightAware ADS-B(EHHV)",
          "FlightAware ADS-B(EHTL)",
          "FlightAware ADS-B(DHR / EHKD)",
          "FlightAware ADS-B(GLZ / EHGR)",
          "FlightAware ADS-B(LEY / EHLE)",
          "FlightAware ADS-B(EHTE)",
          "FlightAware ADS-B(EHTE)",
          "FlightAware ADS-B(RTM / EHRD)",
          "FlightAware ADS-B(LEY / EHLE)",
          "FlightAware ADS-B(EHDB)",
          "FlightAware ADS-B(LEY / EHLE)",
          "FlightAware ADS-B(EHHV)",
          "FlightAware ADS-B(AMS / EHAM)",
          "Surface and Near-Surface",
          "FlightAware ADS-B(UTC / EHSB)",
          "FlightAware ADS-B(UTC / EHSB)",
          "FlightAware ADS-B(LEY / EHLE)",
          "FlightAware ADS-B(AMS / EHAM)",
          "FlightAware ADS-B(LEY / EHLE)",
          "FlightAware ADS-B(LEY / EHLE)"
        ]
      }
    }
  ]
}