{
  "type": "FeatureCollection",
  "features": [
    {
      "type": "Feature",
      "geometry": {
        "type": "LineString",
        "coordinates": [
          [
            8.0917,
            50.7032
          ],
          [
            8.1056,
            50.6963
          ],
          [
            8.1198,
            50.688
          ],
          [
            8.1338,
            50.6787
          ],
          [
            8.1495,
            50.6685
          ],
          [
            8.1722,
            50.6551
          ],
          [
            8.1915,
            50.645
          ],
          [
            8.2182,
            50.6326
          ],
          [
            8.262,
            50.6138
          ],
          [
            8.2864,
            50.6016
          ],
          [
            8.3518,
            50.5596
          ],
          [
            8.4042,
            50.5267
          ],
          [
            8.4617,
            50.4909
          ],
          [
            8.52,
            50.454
          ],
          [
            8.5851,
            50.4131
          ],
          [
            8.6495,
            50.3724
          ],
          [
            8.7163,
            50.3299
          ],
          [
            8.7552,
            50.3051
          ],
          [
            8.8213,
            50.2633
          ],
          [
            8.8907,
            50.2189
          ],
          [
            8.9579,
            50.1759
          ],
          [
            9.0317,
            50.1285
          ],
          [
            9.0926,
            50.0893
          ],
          [
            9.1652,
            50.0424
          ],
          [
            9.2379,
            49.9955
          ],
          [
            9.3105,
            49.9483
          ],
          [
            9.386,
            49.8989
          ],
          [
            9.4586,
            49.8517
          ],
          [
            9.5329,
            49.8032
          ],
          [
            9.6104,
            49.7521
          ],
          [
            9.6865,
            49.7021
          ],
          [
            9.7626,
            49.6514
          ],
          [
            9.8391,
            49.6009
          ],
          [
            9.9154,
            49.5504
          ],
          [
            9.9895,
            49.5006
          ],
          [
            10.0621,
            49.4521
          ],
          [
            10.1347,
            49.4035
          ],
          [
            10.209,
            49.3535
          ],
          [
            10.3323,
            49.2703
          ],
          [
            10.4142,
            49.2146
          ],
          [
            10.4643,
            49.182
          ],
          [
            10.5746,
            49.1288
          ],
          [
            10.6838,
            49.0827
          ],
          [
            10.7694,
            49.0459
          ],
          [
            10.8575,
            49.0074
          ],
          [
            10.9434,
            48.9698
          ],
          [
            11.0277,
            48.9328
          ],
          [
            11.1143,
            48.8945
          ],
          [
            11.2002,
            48.8564
          ],
          [
            11.2872,
            48.8178
          ],
          [
            11.3747,
            48.7788
          ],
          [
            11.459,
            48.7409
          ],
          [
            11.5486,
            48.7008
          ],
          [
            11.6317,
            48.6633
          ],
          [
            11.7173,
            48.6246
          ],
          [
            11.8001,
            48.5871
          ],
          [
            11.8856,
            48.5483
          ],
          [
            11.9624,
            48.5132
          ],
          [
            12.0918,
            48.454
          ],
          [
            12.1574,
            48.4237
          ],
          [
            12.2436,
            48.3843
          ],
          [
            12.3276,
            48.3453
          ],
          [
            12.4138,
            48.3053
          ],
          [
            12.4986,
            48.2659
          ],
          [
            12.582,
            48.2269
          ],
          [
            12.6672,
            48.187
          ],
          [
            12.7496,
            48.1485
          ],
          [
            12.8335,
            48.1089
          ],
          [
            12.9414,
            48.0578
          ],
          [
            13.0274,
            48.017
          ],
          [
            13.1079,
            47.979
          ],
          [
            13.1899,
            47.9395
          ],
          [
            13.2725,
            47.8999
          ],
          [
            13.4123,
            47.833
          ],
          [
            13.4978,
            47.7916
          ],
          [
            13.5773,
            47.7532
          ],
          [
            13.6601,
            47.713
          ],
          [
            13.7417,
            47.6732
          ],
          [
            13.8239,
            47.6332
          ],
          [
            13.9035,
            47.5941
          ],
          [
            13.9851,
            47.5541
          ],
          [
            14.067,
            47.5136
          ],
          [
            14.1472,
            47.474
          ],
          [
            14.2293,
            47.4334
          ],
          [
            14.3055,
            47.3955
          ],
          [
            14.3878,
            47.3545
          ],
          [
            14.4702,
            47.3133
          ],
          [
            14.5482,
            47.2741
          ],
          [
            14.6314,
            47.2324
          ],
          [
            14.7095,
            47.1928
          ],
          [
            14.7825,
            47.1561
          ],
          [
            14.8701,
            47.1117
          ],
          [
            14.9489,
            47.0714
          ],
          [
            15.0284,
            47.031
          ],
          [
            15.1113,
            46.9885
          ],
          [
            15.1843,
            46.9509
          ],
          [
            15.2657,
            46.9092
          ],
          [
            15.3489,
            46.8662
          ],
          [
            15.4338,
            46.8222
          ],
          [
            15.5145,
            46.7803
          ],
          [
            15.5911,
            46.7404
          ],
          [
            15.6605,
            46.7045
          ],
          [
            15.778,
            46.6506
          ],
          [
            15.8586,
            46.6147
          ],
          [
            15.9372,
            46.5777
          ],
          [
            16.0196,
            46.5394
          ],
          [
            16.0999,
            46.5019
          ],
          [
            16.1805,
            46.4642
          ],
          [
            16.2603,
            46.4269
          ],
          [
            16.3397,
            46.3893
          ],
          [
            16.4183,
            46.3523
          ],
          [
            16.4979,
            46.3147
          ],
          [
            16.5828,
            46.2743
          ],
          [
            16.6603,
            46.2374
          ],
          [
            16.7395,
            46.1996
          ],
          [
            16.8163,
            46.1628
          ],
          [
            16.8973,
            46.124
          ],
          [
            16.9762,
            46.0858
          ],
          [
            17.0566,
            46.0472
          ],
          [
            17.1361,
            46.0086
          ],
          [
            17.2146,
            45.9705
          ],
          [
            17.2934,
            45.9321
          ],
          [
            17.3728,
            45.8933
          ],
          [
            17.4512,
            45.855
          ],
          [
            17.5343,
            45.8142
          ],
          [
            17.6125,
            45.7755
          ],
          [
            17.692,
            45.7364
          ],
          [
            17.7723,
            45.6966
          ],
          [
            17.8513,
            45.6573
          ],
          [
            17.9283,
            45.619
          ],
          [
            18.0097,
            45.5782
          ],
          [
            18.0911,
            45.5376
          ],
          [
            18.1707,
            45.4974
          ],
          [
            18.2546,
            45.4552
          ],
          [
            18.3301,
            45.417
          ],
          [
            18.4119,
            45.3756
          ],
          [
            18.4911,
            45.3355
          ],
          [
            18.568,
            45.2963
          ],
          [
            18.6489,
            45.255
          ],
          [
            18.7264,
            45.2152
          ],
          [
            18.8062,
            45.1745
          ],
          [
            18.889,
            45.1317
          ],
          [
            18.9643,
            45.0927
          ],
          [
            19.0457,
            45.0506
          ],
          [
            19.1227,
            45.0105
          ],
          [
            19.2014,
            44.9697
          ],
          [
            19.2777,
            44.9298
          ],
          [
            19.357,
            44.8881
          ],
          [
            19.4335,
            44.8481
          ],
          [
            19.5094,
            44.8082
          ],
          [
            19.5836,
            44.7688
          ],
          [
            19.6627,
            44.7271
          ],
          [
            19.7437,
            44.684
          ],
          [
            19.823,
            44.6417
          ],
          [
            19.8951,
            44.6034
          ],
          [
            19.9714,
            44.5626
          ],
          [
            20.0476,
            44.5216
          ],
          [
            20.1232,
            44.481
          ],
          [
            20.1986,
            44.4405
          ],
          [
            20.2753,
            44.3988
          ],
          [
            20.3588,
            44.3536
          ],
          [
            20.5081,
            44.2723
          ],
          [
            20.5796,
            44.2333
          ],
          [
            20.6553,
            44.1918
          ],
          [
            20.7311,
            44.1503
          ],
          [
            20.8037,
            44.1103
          ],
          [
            20.8755,
            44.0705
          ],
          [
            20.9504,
            44.029
          ],
          [
            21.0246,
            43.988
          ],
          [
            21.0961,
            43.9481
          ],
          [
            21.1685,
            43.9078
          ],
          [
            21.2409,
            43.8673
          ],
          [
            21.3156,
            43.8255
          ],
          [
            21.3871,
            43.7852
          ],
          [
            21.4587,
            43.745
          ],
          [
            21.5311,
            43.7041
          ],
          [
            21.6043,
            43.6625
          ],
          [
            21.6774,
            43.6213
          ],
          [
            21.7512,
            43.5792
          ],
          [
            21.83,
            43.5342
          ],
          [
            21.902,
            43.493
          ],
          [
            21.9755,
            43.4509
          ],
          [
            22.0464,
            43.4101
          ],
          [
            22.1184,
            43.3689
          ],
          [
            22.1929,
            43.3255
          ],
          [
            22.2663,
            43.2833
          ],
          [
            22.3422,
            43.2391
          ],
          [
            22.4148,
            43.1969
          ],
          [
            22.4814,
            43.158
          ],
          [
            22.5521,
            43.1166
          ],
          [
            22.6256,
            43.0736
          ],
          [
            22.6946,
            43.033
          ],
          [
            22.7688,
            42.9894
          ],
          [
            22.8121,
            42.9605
          ],
          [
            22.8761,
            42.9105
          ],
          [
            22.9415,
            42.8594
          ],
          [
            23.0036,
            42.8118
          ],
          [
            23.0721,
            42.7583
          ],
          [
            23.1329,
            42.7102
          ],
          [
            23.1948,
            42.6611
          ],
          [
            23.2539,
            42.6144
          ],
          [
            23.3169,
            42.5641
          ],
          [
            23.3755,
            42.5175
          ],
          [
            23.436,
            42.4697
          ],
          [
            23.4998,
            42.4186
          ],
          [
            23.5578,
            42.372
          ],
          [
            23.6181,
            42.324
          ],
          [
            23.6782,
            42.2752
          ],
          [
            23.7392,
            42.2247
          ],
          [
            23.7984,
            42.1762
          ],
          [
            23.8589,
            42.1267
          ],
          [
            23.9179,
            42.0778
          ],
          [
            23.9768,
            42.0289
          ],
          [
            24.0367,
            41.9794
          ],
          [
            24.0981,
            41.9282
          ],
          [
            24.1571,
            41.879
          ],
          [
            24.2165,
            41.8297
          ],
          [
            24.275,
            41.7802
          ],
          [
            24.335,
            41.7301
          ],
          [
            24.3936,
            41.681
          ],
          [
            24.4509,
            41.6324
          ],
          [
            24.5105,
            41.5825
          ],
          [
            24.5672,
            41.5344
          ],
          [
            24.6308,
            41.483
          ],
          [
            24.6981,
            41.4318
          ],
          [
            24.7668,
            41.3793
          ],
          [
            24.8288,
            41.331
          ],
          [
            24.9086,
            41.2693
          ],
          [
            24.9708,
            41.221
          ],
          [
            25.035,
            41.1708
          ],
          [
            25.0958,
            41.1236
          ],
          [
            25.1548,
            41.0774
          ],
          [
            25.2164,
            41.029
          ],
          [
            25.2781,
            40.9805
          ],
          [
            25.3363,
            40.9348
          ],
          [
            25.3973,
            40.8866
          ],
          [
            25.4581,
            40.8387
          ],
          [
            25.5178,
            40.7912
          ],
          [
            25.5782,
            40.7434
          ],
          [
            25.6375,
            40.696
          ],
          [
            25.6984,
            40.6477
          ],
          [
            25.7602,
            40.5982
          ],
          [
            25.8209,
            40.5498
          ],
          [
            25.8822,
            40.501
          ],
          [
            25.9292,
            40.4672
          ],
          [
            25.9932,
            40.4244
          ],
          [
            26.0817,
            40.3676
          ],
          [
            26.1483,
            40.3231
          ],
          [
            26.2135,
            40.279
          ],
          [
            26.2788,
            40.2348
          ],
          [
            26.347,
            40.1885
          ],
          [
            26.414,
            40.143
          ],
          [
            26.4907,
            40.0842
          ],
          [
            26.5488,
            40.0382
          ],
          [
            26.6159,
            39.9869
          ],
          [
            26.6761,
            39.9402
          ],
          [
            26.7386,
            39.8911
          ],
          [
            26.798,
            39.8444
          ],
          [
            26.8586,
            39.7968
          ],
          [
            26.9193,
            39.7487
          ],
          [
            26.98,
            39.6985
          ],
          [
            27.0376,
            39.6514
          ],
          [
            27.0987,
            39.602
          ],
          [
            27.159,
            39.5521
          ],
          [
            27.2169,
            39.504
          ],
          [
            27.2761,
            39.4551
          ],
          [
            27.3391,
            39.4029
          ],
          [
            27.3993,
            39.353
          ],
          [
            27.4572,
            39.3046
          ],
          [
            27.5164,
            39.2556
          ],
          [
            27.575,
            39.2069
          ],
          [
            27.6357,
            39.1557
          ],
          [
            27.6943,
            39.1066
          ],
          [
            27.7527,
            39.0573
          ],
          [
            27.8093,
            39.0096
          ],
          [
            27.8691,
            38.9592
          ],
          [
            27.9251,
            38.9117
          ],
          [
            27.9851,
            38.8611
          ],
          [
            28.0439,
            38.8112
          ],
          [
            28.1012,
            38.7621
          ],
          [
            28.1594,
            38.7128
          ],
          [
            28.2147,
            38.6654
          ],
          [
            28.2737,
            38.6148
          ],
          [
            28.3312,
            38.5656
          ],
          [
            28.3866,
            38.5181
          ],
          [
            28.4464,
            38.4665
          ],
          [
            28.5025,
            38.4182
          ],
          [
            28.5592,
            38.3693
          ],
          [
            28.6158,
            38.3204
          ],
          [
            28.6749,
            38.2688
          ],
          [
            28.7353,
            38.2164
          ],
          [
            28.7887,
            38.1699
          ],
          [
            28.8475,
            38.1185
          ],
          [
            28.904,
            38.0692
          ],
          [
            28.9565,
            38.0233
          ],
          [
            29.0093,
            37.9769
          ],
          [
            29.0588,
            37.9333
          ],
          [
            29.1085,
            37.8896
          ],
          [
            29.1562,
            37.8475
          ],
          [
            29.2063,
            37.8031
          ],
          [
            29.2597,
            37.756
          ],
          [
            29.3133,
            37.7085
          ],
          [
            29.3668,
            37.661
          ],
          [
            29.4171,
            37.6162
          ],
          [
            29.4694,
            37.5695
          ],
          [
            29.5217,
            37.5226
          ],
          [
            29.5748,
            37.475
          ],
          [
            29.6288,
            37.4267
          ],
          [
            29.68,
            37.3807
          ],
          [
            29.7067,
            37.3564
          ],
          [
            29.7434,
            37.3055
          ],
          [
            29.7814,
            37.2265
          ],
          [
            29.7996,
            37.1992
          ],
          [
            29.8441,
            37.1717
          ],
          [
            29.9023,
            37.1644
          ],
          [
            29.9402,
            37.1678
          ],
          [
            29.9924,
            37.1914
          ],
          [
            30.0463,
            37.2279
          ],
          [
            30.099,
            37.2649
          ],
          [
            30.1497,
            37.3013
          ],
          [
            30.2,
            37.3362
          ],
          [
            30.2317,
            37.3453
          ],
          [
            30.3502,
            37.3532
          ],
          [
            30.423,
            37.3585
          ],
          [
            30.4664,
            37.3584
          ],
          [
            30.497,
            37.3436
          ],
          [
            30.5177,
            37.3104
          ],
          [
            30.5236,
            37.2826
          ],
          [
            30.5182,
            37.2396
          ],
          [
            30.51,
            37.197
          ],
          [
            30.5043,
            37.1581
          ],
          [
            30.5016,
            37.1131
          ],
          [
            30.5181,
            37.0937
          ],
          [
            30.5466,
            37.0826
          ],
          [
            30.5914,
            37.076
          ],
          [
            30.6216,
            37.0828
          ],
          [
            30.6363,
            37.0966
          ],
          [
            30.6464,
            37.1159
          ],
          [
            30.654,
            37.1489
          ],
          [
            30.6583,
            37.1892
          ],
          [
            30.6655,
            37.2313
          ],
          [
            30.671,
            37.2622
          ],
          [
            30.6767,
            37.2924
          ],
          [
            30.6831,
            37.3251
          ],
          [
            30.6869,
            37.3422
          ],
          [
            30.7118,
            37.366
          ],
          [
            30.7375,
            37.3844
          ],
          [
            30.7593,
            37.3922
          ],
          [
            30.7801,
            37.3917
          ],
          [
            30.8087,
            37.3855
          ],
          [
            30.8277,
            37.3628
          ],
          [
            30.837,
            37.3485
          ],
          [
            30.8445,
            37.318
          ],
          [
            30.8454,
            37.2865
          ],
          [
            30.8428,
            37.2609
          ],
          [
            30.8387,
            37.2318
          ],
          [
            30.8344,
            37.2038
          ],
          [
            30.8306,
            37.1773
          ],
          [
            30.8269,
            37.1501
          ],
          [
            30.823,
            37.1224
          ],
          [
            30.8195,
            37.096
          ],
          [
            30.8175,
            37.082
          ],
          [
            30.8141,
            37.0579
          ],
          [
            30.811,
            37.0346
          ],
          [
            30.8077,
            37.0104
          ],
          [
            30.8047,
            36.9891
          ],
          [
            30.8033,
            36.9783
          ],
          [
            30.802,
            36.9683
          ],
          [
            30.8008,
            36.959
          ],
          [
            30.7995,
            36.9495
          ],
          [
            30.7982,
            36.9408
          ],
          [
            30.797,
            36.9321
          ],
          [
            30.7958,
            36.9232
          ],
          [
            30.7947,
            36.9156
          ]
        ]
      },
      "properties": {
        "time_europe_berlin": [
          "18.10.2025 11:18:39",
          "18.10.2025 11:18:55",
          "18.10.2025 11:19:11",
          "18.10.2025 11:19:27",
          "18.10.2025 11:19:43",
          "18.10.2025 11:20:04",
          "18.10.2025 11:20:20",
          "18.10.2025 11:20:41",
          "18.10.2025 11:21:11",
          "18.10.2025 11:21:27",
          "18.10.2025 11:22:12",
          "18.10.2025 11:22:42",
          "18.10.2025 11:23:12",
          "18.10.2025 11:23:42",
          "18.10.2025 11:24:12",
          "18.10.2025 11:24:42",
          "18.10.2025 11:25:12",
          "18.10.2025 11:25:29",
          "18.10.2025 11:25:59",
          "18.10.2025 11:26:29",
          "18.10.2025 11:26:59",
          "18.10.2025 11:27:29",
          "18.10.2025 11:27:54",
          "18.10.2025 11:28:24",
          "18.10.2025 11:28:54",
          "18.10.2025 11:29:24",
          "18.10.2025 11:29:54",
          "18.10.2025 11:30:24",
          "18.10.2025 11:30:54",
          "18.10.2025 11:31:24",
          "18.10.2025 11:31:54",
          "18.10.2025 11:32:24",
          "18.10.2025 11:32:54",
          "18.10.2025 11:33:24",
          "18.10.2025 11:33:54",
          "18.10.2025 11:34:24",
          "18.10.2025 11:34:54",
          "18.10.2025 11:35:24",
          "18.10.2025 11:36:16",
          "18.10.2025 11:36:51",
          "18.10.2025 11:37:12",
          "18.10.2025 11:37:52",
          "18.10.2025 11:38:32",
          "18.10.2025 11:39:02",
          "18.10.2025 11:39:32",
          "18.10.2025 11:40:02",
          "18.10.2025 11:40:32",
          "18.10.2025 11:41:02",
          "18.10.2025 11:41:32",
          "18.10.2025 11:42:02",
          "18.10.2025 11:42:32",
          "18.10.2025 11:43:02",
          "18.10.2025 11:43:32",
          "18.10.2025 11:44:02",
          "18.10.2025 11:44:32",
          "18.10.2025 11:45:01",
          "18.10.2025 11:45:31",
          "18.10.2025 11:45:58",
          "18.10.2025 11:46:43",
          "18.10.2025 11:47:07",
          "18.10.2025 11:47:37",
          "18.10.2025 11:48:07",
          "18.10.2025 11:48:38",
          "18.10.2025 11:49:08",
          "18.10.2025 11:49:38",
          "18.10.2025 11:50:08",
          "18.10.2025 11:50:38",
          "18.10.2025 11:51:08",
          "18.10.2025 11:51:46",
          "18.10.2025 11:52:16",
          "18.10.2025 11:52:46",
          "18.10.2025 11:53:16",
          "18.10.2025 11:53:46",
          "18.10.2025 11:54:37",
          "18.10.2025 11:55:07",
          "18.10.2025 11:55:37",
          "18.10.2025 11:56:07",
          "18.10.2025 11:56:37",
          "18.10.2025 11:57:07",
          "18.10.2025 11:57:37",
          "18.10.2025 11:58:07",
          "18.10.2025 11:58:37",
          "18.10.2025 11:59:07",
          "18.10.2025 11:59:37",
          "18.10.2025 12:00:07",
          "18.10.2025 12:00:37",
          "18.10.2025 12:01:07",
          "18.10.2025 12:01:37",
          "18.10.2025 12:02:07",
          "18.10.2025 12:02:37",
          "18.10.2025 12:03:07",
          "18.10.2025 12:03:37",
          "18.10.2025 12:04:08",
          "18.10.2025 12:04:38",
          "18.10.2025 12:05:08",
          "18.10.2025 12:05:38",
          "18.10.2025 12:06:08",
          "18.10.2025 12:06:40",
          "18.10.2025 12:07:13",
          "18.10.2025 12:07:43",
          "18.10.2025 12:08:13",
          "18.10.2025 12:08:39",
          "18.10.2025 12:09:23",
          "18.10.2025 12:09:53",
          "18.10.2025 12:10:23",
          "18.10.2025 12:10:53",
          "18.10.2025 12:11:23",
          "18.10.2025 12:11:53",
          "18.10.2025 12:12:23",
          "18.10.2025 12:12:53",
          "18.10.2025 12:13:23",
          "18.10.2025 12:13:53",
          "18.10.2025 12:14:24",
          "18.10.2025 12:14:54",
          "18.10.2025 12:15:24",
          "18.10.2025 12:15:54",
          "18.10.2025 12:16:24",
          "18.10.2025 12:16:54",
          "18.10.2025 12:17:24",
          "18.10.2025 12:17:54",
          "18.10.2025 12:18:24",
          "18.10.2025 12:18:54",
          "18.10.2025 12:19:24",
          "18.10.2025 12:19:55",
          "18.10.2025 12:20:25",
          "18.10.2025 12:20:56",
          "18.10.2025 12:21:26",
          "18.10.2025 12:21:56",
          "18.10.2025 12:22:26",
          "18.10.2025 12:22:56",
          "18.10.2025 12:23:27",
          "18.10.2025 12:23:58",
          "18.10.2025 12:24:30",
          "18.10.2025 12:25:01",
          "18.10.2025 12:25:31",
          "18.10.2025 12:26:01",
          "18.10.2025 12:26:32",
          "18.10.2025 12:27:02",
          "18.10.2025 12:27:32",
          "18.10.2025 12:28:03",
          "18.10.2025 12:28:34",
          "18.10.2025 12:29:05",
          "18.10.2025 12:29:36",
          "18.10.2025 12:30:07",
          "18.10.2025 12:30:37",
          "18.10.2025 12:31:08",
          "18.10.2025 12:31:38",
          "18.10.2025 12:32:09",
          "18.10.2025 12:32:39",
          "18.10.2025 12:33:09",
          "18.10.2025 12:33:39",
          "18.10.2025 12:34:10",
          "18.10.2025 12:34:41",
          "18.10.2025 12:35:12",
          "18.10.2025 12:35:42",
          "18.10.2025 12:36:12",
          "18.10.2025 12:36:42",
          "18.10.2025 12:37:12",
          "18.10.2025 12:37:43",
          "18.10.2025 12:38:14",
          "18.10.2025 12:38:46",
          "18.10.2025 12:39:48",
          "18.10.2025 12:40:18",
          "18.10.2025 12:40:48",
          "18.10.2025 12:41:19",
          "18.10.2025 12:41:49",
          "18.10.2025 12:42:19",
          "18.10.2025 12:42:50",
          "18.10.2025 12:43:20",
          "18.10.2025 12:43:50",
          "18.10.2025 12:44:20",
          "18.10.2025 12:44:51",
          "18.10.2025 12:45:22",
          "18.10.2025 12:45:52",
          "18.10.2025 12:46:22",
          "18.10.2025 12:46:53",
          "18.10.2025 12:47:24",
          "18.10.2025 12:47:54",
          "18.10.2025 12:48:25",
          "18.10.2025 12:48:58",
          "18.10.2025 12:49:28",
          "18.10.2025 12:49:59",
          "18.10.2025 12:50:29",
          "18.10.2025 12:50:59",
          "18.10.2025 12:51:31",
          "18.10.2025 12:52:03",
          "18.10.2025 12:52:34",
          "18.10.2025 12:53:04",
          "18.10.2025 12:53:34",
          "18.10.2025 12:54:04",
          "18.10.2025 12:54:35",
          "18.10.2025 12:55:05",
          "18.10.2025 12:55:35",
          "18.10.2025 12:55:56",
          "18.10.2025 12:56:27",
          "18.10.2025 12:57:00",
          "18.10.2025 12:57:30",
          "18.10.2025 12:58:03",
          "18.10.2025 12:58:35",
          "18.10.2025 12:59:05",
          "18.10.2025 12:59:35",
          "18.10.2025 13:00:05",
          "18.10.2025 13:00:35",
          "18.10.2025 13:01:05",
          "18.10.2025 13:01:36",
          "18.10.2025 13:02:06",
          "18.10.2025 13:02:36",
          "18.10.2025 13:03:06",
          "18.10.2025 13:03:37",
          "18.10.2025 13:04:07",
          "18.10.2025 13:04:37",
          "18.10.2025 13:05:07",
          "18.10.2025 13:05:37",
          "18.10.2025 13:06:07",
          "18.10.2025 13:06:39",
          "18.10.2025 13:07:09",
          "18.10.2025 13:07:39",
          "18.10.2025 13:08:09",
          "18.10.2025 13:08:40",
          "18.10.2025 13:09:10",
          "18.10.2025 13:09:40",
          "18.10.2025 13:10:10",
          "18.10.2025 13:10:41",
          "18.10.2025 13:11:12",
          "18.10.2025 13:11:45",
          "18.10.2025 13:12:18",
          "18.10.2025 13:12:50",
          "18.10.2025 13:13:29",
          "18.10.2025 13:14:00",
          "18.10.2025 13:14:32",
          "18.10.2025 13:15:02",
          "18.10.2025 13:15:32",
          "18.10.2025 13:16:02",
          "18.10.2025 13:16:33",
          "18.10.2025 13:17:03",
          "18.10.2025 13:17:33",
          "18.10.2025 13:18:03",
          "18.10.2025 13:18:33",
          "18.10.2025 13:19:03",
          "18.10.2025 13:19:33",
          "18.10.2025 13:20:03",
          "18.10.2025 13:20:34",
          "18.10.2025 13:21:04",
          "18.10.2025 13:21:35",
          "18.10.2025 13:21:56",
          "18.10.2025 13:22:26",
          "18.10.2025 13:23:05",
          "18.10.2025 13:23:35",
          "18.10.2025 13:24:06",
          "18.10.2025 13:24:36",
          "18.10.2025 13:25:07",
          "18.10.2025 13:25:38",
          "18.10.2025 13:26:15",
          "18.10.2025 13:26:45",
          "18.10.2025 13:27:17",
          "18.10.2025 13:27:47",
          "18.10.2025 13:28:17",
          "18.10.2025 13:28:47",
          "18.10.2025 13:29:17",
          "18.10.2025 13:29:48",
          "18.10.2025 13:30:18",
          "18.10.2025 13:30:48",
          "18.10.2025 13:31:18",
          "18.10.2025 13:31:49",
          "18.10.2025 13:32:19",
          "18.10.2025 13:32:50",
          "18.10.2025 13:33:22",
          "18.10.2025 13:33:52",
          "18.10.2025 13:34:22",
          "18.10.2025 13:34:52",
          "18.10.2025 13:35:22",
          "18.10.2025 13:35:54",
          "18.10.2025 13:36:24",
          "18.10.2025 13:36:54",
          "18.10.2025 13:37:24",
          "18.10.2025 13:37:55",
          "18.10.2025 13:38:25",
          "18.10.2025 13:38:55",
          "18.10.2025 13:39:25",
          "18.10.2025 13:39:55",
          "18.10.2025 13:40:25",
          "18.10.2025 13:40:56",
          "18.10.2025 13:41:26",
          "18.10.2025 13:41:56",
          "18.10.2025 13:42:27",
          "18.10.2025 13:42:57",
          "18.10.2025 13:43:27",
          "18.10.2025 13:43:57",
          "18.10.2025 13:44:27",
          "18.10.2025 13:44:59",
          "18.10.2025 13:45:30",
          "18.10.2025 13:46:00",
          "18.10.2025 13:46:31",
          "18.10.2025 13:47:01",
          "18.10.2025 13:47:31",
          "18.10.2025 13:48:02",
          "18.10.2025 13:48:32",
          "18.10.2025 13:49:02",
          "18.10.2025 13:49:32",
          "18.10.2025 13:50:02",
          "18.10.2025 13:50:32",
          "18.10.2025 13:51:02",
          "18.10.2025 13:51:32",
          "18.10.2025 13:52:02",
          "18.10.2025 13:52:33",
          "18.10.2025 13:53:03",
          "18.10.2025 13:53:33",
          "18.10.2025 13:54:06",
          "18.10.2025 13:54:37",
          "18.10.2025 13:54:54",
          "18.10.2025 13:55:22",
          "18.10.2025 13:56:07",
          "18.10.2025 13:56:23",
          "18.10.2025 13:56:48",
          "18.10.2025 13:57:11",
          "18.10.2025 13:57:29",
          "18.10.2025 13:57:53",
          "18.10.2025 13:58:23",
          "18.10.2025 13:58:54",
          "18.10.2025 13:59:24",
          "18.10.2025 13:59:54",
          "18.10.2025 14:00:10",
          "18.10.2025 14:01:03",
          "18.10.2025 14:01:39",
          "18.10.2025 14:02:01",
          "18.10.2025 14:02:19",
          "18.10.2025 14:02:43",
          "18.10.2025 14:03:03",
          "18.10.2025 14:03:33",
          "18.10.2025 14:04:07",
          "18.10.2025 14:04:38",
          "18.10.2025 14:05:14",
          "18.10.2025 14:05:34",
          "18.10.2025 14:05:54",
          "18.10.2025 14:06:25",
          "18.10.2025 14:06:45",
          "18.10.2025 14:07:02",
          "18.10.2025 14:07:22",
          "18.10.2025 14:07:54",
          "18.10.2025 14:08:33",
          "18.10.2025 14:09:13",
          "18.10.2025 14:09:43",
          "18.10.2025 14:10:14",
          "18.10.2025 14:10:46",
          "18.10.2025 14:11:02",
          "18.10.2025 14:11:33",
          "18.10.2025 14:11:59",
          "18.10.2025 14:12:16",
          "18.10.2025 14:12:32",
          "18.10.2025 14:12:52",
          "18.10.2025 14:13:17",
          "18.10.2025 14:13:33",
          "18.10.2025 14:14:03",
          "18.10.2025 14:14:33",
          "18.10.2025 14:14:58",
          "18.10.2025 14:15:29",
          "18.10.2025 14:15:59",
          "18.10.2025 14:16:29",
          "18.10.2025 14:16:59",
          "18.10.2025 14:17:30",
          "18.10.2025 14:18:00",
          "18.10.2025 14:18:16",
          "18.10.2025 14:18:46",
          "18.10.2025 14:19:16",
          "18.10.2025 14:19:46",
          "18.10.2025 14:20:16",
          "18.10.2025 14:20:32",
          "18.10.2025 14:20:50",
          "18.10.2025 14:21:07",
          "18.10.2025 14:21:23",
          "18.10.2025 14:21:39",
          "18.10.2025 14:21:55",
          "18.10.2025 14:22:11",
          "18.10.2025 14:22:27"
        ],
        "course_deg_clockwise_from_north": [
          "128",
          "129",
          "135",
          "137",
          "134",
          "131",
          "128",
          "125",
          "124",
          "132",
          "135",
          "134",
          "135",
          "135",
          "134",
          "135",
          "135",
          "135",
          "135",
          "135",
          "135",
          "135",
          "135",
          "135",
          "135",
          "135",
          "135",
          "135",
          "136",
          "135",
          "136",
          "136",
          "135",
          "136",
          "136",
          "136",
          "136",
          "136",
          "136",
          "136",
          "132",
          "124",
          "123",
          "124",
          "124",
          "124",
          "124",
          "124",
          "124",
          "124",
          "124",
          "124",
          "124",
          "125",
          "124",
          "124",
          "125",
          "125",
          "125",
          "125",
          "125",
          "125",
          "125",
          "125",
          "125",
          "125",
          "125",
          "125",
          "125",
          "125",
          "126",
          "126",
          "125",
          "126",
          "126",
          "126",
          "126",
          "126",
          "126",
          "126",
          "126",
          "126",
          "126",
          "126",
          "126",
          "126",
          "126",
          "126",
          "127",
          "127",
          "127",
          "127",
          "126",
          "127",
          "127",
          "127",
          "127",
          "127",
          "127",
          "127",
          "127",
          "125",
          "123",
          "124",
          "124",
          "124",
          "124",
          "124",
          "124",
          "125",
          "124",
          "124",
          "125",
          "124",
          "125",
          "125",
          "125",
          "125",
          "125",
          "125",
          "125",
          "125",
          "125",
          "125",
          "125",
          "125",
          "125",
          "125",
          "125",
          "126",
          "125",
          "125",
          "126",
          "125",
          "126",
          "126",
          "126",
          "126",
          "126",
          "126",
          "126",
          "126",
          "126",
          "126",
          "126",
          "126",
          "127",
          "127",
          "126",
          "127",
          "127",
          "127",
          "127",
          "127",
          "127",
          "127",
          "127",
          "127",
          "127",
          "127",
          "127",
          "127",
          "127",
          "127",
          "128",
          "127",
          "127",
          "128",
          "128",
          "128",
          "128",
          "128",
          "128",
          "128",
          "128",
          "128",
          "128",
          "128",
          "128",
          "128",
          "128",
          "128",
          "128",
          "128",
          "128",
          "129",
          "129",
          "129",
          "129",
          "129",
          "129",
          "129",
          "129",
          "135",
          "137",
          "136",
          "137",
          "137",
          "137",
          "137",
          "137",
          "138",
          "137",
          "137",
          "137",
          "137",
          "138",
          "138",
          "138",
          "138",
          "138",
          "138",
          "138",
          "138",
          "138",
          "138",
          "138",
          "138",
          "138",
          "139",
          "138",
          "138",
          "138",
          "136",
          "135",
          "136",
          "136",
          "136",
          "136",
          "136",
          "136",
          "136",
          "136",
          "136",
          "136",
          "136",
          "136",
          "136",
          "136",
          "136",
          "136",
          "137",
          "136",
          "135",
          "132",
          "130",
          "130",
          "132",
          "132",
          "131",
          "132",
          "132",
          "136",
          "135",
          "135",
          "135",
          "136",
          "135",
          "135",
          "136",
          "137",
          "136",
          "137",
          "137",
          "137",
          "137",
          "137",
          "137",
          "137",
          "137",
          "137",
          "138",
          "137",
          "137",
          "137",
          "137",
          "137",
          "138",
          "137",
          "137",
          "137",
          "137",
          "138",
          "138",
          "138",
          "138",
          "138",
          "138",
          "138",
          "138",
          "138",
          "138",
          "138",
          "138",
          "138",
          "138",
          "138",
          "138",
          "138",
          "138",
          "138",
          "138",
          "138",
          "138",
          "138",
          "138",
          "139",
          "138",
          "139",
          "141",
          "155",
          "160",
          "142",
          "115",
          "89",
          "75",
          "51",
          "49",
          "48",
          "48",
          "57",
          "82",
          "85",
          "85",
          "101",
          "136",
          "162",
          "180",
          "189",
          "188",
          "186",
          "167",
          "128",
          "107",
          "96",
          "53",
          "30",
          "17",
          "7",
          "4",
          "9",
          "8",
          "9",
          "9",
          "12",
          "48",
          "49",
          "84",
          "95",
          "123",
          "152",
          "153",
          "177",
          "181",
          "186",
          "187",
          "187",
          "186",
          "187",
          "186",
          "186",
          "186",
          "186",
          "186",
          "187",
          "186",
          "186",
          "186",
          "186",
          "186",
          "187",
          "187",
          "186",
          "186"
        ],
        "speed_kts": [
          "145",
          "157",
          "166",
          "180",
          "200",
          "211",
          "218",
          "227",
          "250",
          "265",
          "313",
          "347",
          "378",
          "401",
          "417",
          "428",
          "435",
          "437",
          "439",
          "450",
          "463",
          "472",
          "479",
          "483",
          "487",
          "487",
          "489",
          "496",
          "504",
          "508",
          "512",
          "507",
          "502",
          "501",
          "500",
          "498",
          "496",
          "490",
          "483",
          "479",
          "477",
          "474",
          "478",
          "485",
          "491",
          "495",
          "495",
          "496",
          "496",
          "496",
          "497",
          "497",
          "497",
          "496",
          "495",
          "497",
          "496",
          "496",
          "496",
          "496",
          "496",
          "495",
          "494",
          "494",
          "495",
          "496",
          "496",
          "495",
          "494",
          "494",
          "493",
          "492",
          "492",
          "492",
          "492",
          "492",
          "492",
          "492",
          "491",
          "490",
          "489",
          "489",
          "488",
          "488",
          "488",
          "489",
          "490",
          "487",
          "489",
          "488",
          "489",
          "488",
          "488",
          "489",
          "488",
          "487",
          "485",
          "484",
          "485",
          "486",
          "486",
          "486",
          "484",
          "484",
          "482",
          "481",
          "479",
          "480",
          "480",
          "480",
          "481",
          "482",
          "483",
          "484",
          "484",
          "484",
          "483",
          "483",
          "484",
          "485",
          "484",
          "484",
          "485",
          "486",
          "486",
          "487",
          "488",
          "488",
          "487",
          "487",
          "487",
          "488",
          "488",
          "488",
          "489",
          "489",
          "490",
          "489",
          "489",
          "489",
          "488",
          "486",
          "486",
          "485",
          "486",
          "486",
          "486",
          "486",
          "487",
          "488",
          "488",
          "489",
          "487",
          "486",
          "485",
          "485",
          "486",
          "486",
          "483",
          "481",
          "479",
          "478",
          "478",
          "478",
          "478",
          "477",
          "477",
          "474",
          "473",
          "474",
          "474",
          "474",
          "474",
          "473",
          "473",
          "474",
          "475",
          "476",
          "476",
          "475",
          "475",
          "475",
          "475",
          "476",
          "476",
          "477",
          "477",
          "475",
          "474",
          "475",
          "475",
          "475",
          "475",
          "472",
          "471",
          "470",
          "471",
          "471",
          "471",
          "471",
          "471",
          "471",
          "473",
          "473",
          "473",
          "473",
          "474",
          "474",
          "474",
          "476",
          "477",
          "477",
          "477",
          "477",
          "477",
          "476",
          "475",
          "472",
          "472",
          "471",
          "471",
          "470",
          "470",
          "472",
          "472",
          "472",
          "472",
          "472",
          "473",
          "472",
          "472",
          "472",
          "472",
          "473",
          "475",
          "476",
          "477",
          "477",
          "478",
          "479",
          "480",
          "480",
          "479",
          "479",
          "480",
          "483",
          "483",
          "480",
          "481",
          "481",
          "482",
          "482",
          "477",
          "479",
          "480",
          "481",
          "480",
          "482",
          "482",
          "480",
          "479",
          "480",
          "480",
          "480",
          "480",
          "480",
          "480",
          "480",
          "478",
          "478",
          "477",
          "476",
          "478",
          "478",
          "478",
          "478",
          "478",
          "479",
          "480",
          "481",
          "480",
          "479",
          "478",
          "477",
          "478",
          "478",
          "477",
          "477",
          "477",
          "475",
          "475",
          "474",
          "470",
          "452",
          "440",
          "431",
          "426",
          "422",
          "426",
          "443",
          "455",
          "451",
          "445",
          "434",
          "452",
          "443",
          "445",
          "430",
          "432",
          "430",
          "420",
          "406",
          "410",
          "415",
          "414",
          "412",
          "405",
          "401",
          "389",
          "389",
          "390",
          "389",
          "372",
          "352",
          "343",
          "328",
          "316",
          "307",
          "298",
          "281",
          "265",
          "258",
          "267",
          "277",
          "264",
          "253",
          "240",
          "230",
          "222",
          "224",
          "228",
          "219",
          "222",
          "222",
          "220",
          "227",
          "232",
          "242",
          "249",
          "240",
          "234",
          "231",
          "221",
          "220",
          "214",
          "202",
          "202",
          "198",
          "195",
          "192",
          "187",
          "178",
          "173",
          "175",
          "165",
          "146",
          "134",
          "124",
          "120",
          "122",
          "119",
          "118",
          "122",
          "117"
        ],
        "speed_mph": [
          "167",
          "181",
          "191",
          "207",
          "230",
          "243",
          "251",
          "261",
          "288",
          "305",
          "360",
          "399",
          "435",
          "461",
          "480",
          "493",
          "501",
          "503",
          "505",
          "518",
          "533",
          "543",
          "551",
          "556",
          "560",
          "560",
          "563",
          "571",
          "580",
          "585",
          "589",
          "583",
          "578",
          "577",
          "575",
          "573",
          "571",
          "564",
          "556",
          "551",
          "549",
          "545",
          "550",
          "558",
          "565",
          "570",
          "570",
          "571",
          "571",
          "571",
          "572",
          "572",
          "572",
          "571",
          "570",
          "572",
          "571",
          "571",
          "571",
          "571",
          "571",
          "570",
          "568",
          "568",
          "570",
          "571",
          "571",
          "570",
          "568",
          "568",
          "567",
          "566",
          "566",
          "566",
          "566",
          "566",
          "566",
          "566",
          "565",
          "564",
          "563",
          "563",
          "562",
          "562",
          "562",
          "563",
          "564",
          "560",
          "563",
          "562",
          "563",
          "562",
          "562",
          "563",
          "562",
          "560",
          "558",
          "557",
          "558",
          "559",
          "559",
          "559",
          "557",
          "557",
          "555",
          "554",
          "551",
          "552",
          "552",
          "552",
          "554",
          "555",
          "556",
          "557",
          "557",
          "557",
          "556",
          "556",
          "557",
          "558",
          "557",
          "557",
          "558",
          "559",
          "559",
          "560",
          "562",
          "562",
          "560",
          "560",
          "560",
          "562",
          "562",
          "562",
          "563",
          "563",
          "564",
          "563",
          "563",
          "563",
          "562",
          "559",
          "559",
          "558",
          "559",
          "559",
          "559",
          "559",
          "560",
          "562",
          "562",
          "563",
          "560",
          "559",
          "558",
          "558",
          "559",
          "559",
          "556",
          "554",
          "551",
          "550",
          "550",
          "550",
          "550",
          "549",
          "549",
          "545",
          "544",
          "545",
          "545",
          "545",
          "545",
          "544",
          "544",
          "545",
          "547",
          "548",
          "548",
          "547",
          "547",
          "547",
          "547",
          "548",
          "548",
          "549",
          "549",
          "547",
          "545",
          "547",
          "547",
          "547",
          "547",
          "543",
          "542",
          "541",
          "542",
          "542",
          "542",
          "542",
          "542",
          "542",
          "544",
          "544",
          "544",
          "544",
          "545",
          "545",
          "545",
          "548",
          "549",
          "549",
          "549",
          "549",
          "549",
          "548",
          "547",
          "543",
          "543",
          "542",
          "542",
          "541",
          "541",
          "543",
          "543",
          "543",
          "543",
          "543",
          "544",
          "543",
          "543",
          "543",
          "543",
          "544",
          "547",
          "548",
          "549",
          "549",
          "550",
          "551",
          "552",
          "552",
          "551",
          "551",
          "552",
          "556",
          "556",
          "552",
          "554",
          "554",
          "555",
          "555",
          "549",
          "551",
          "552",
          "554",
          "552",
          "555",
          "555",
          "552",
          "551",
          "552",
          "552",
          "552",
          "552",
          "552",
          "552",
          "552",
          "550",
          "550",
          "549",
          "548",
          "550",
          "550",
          "550",
          "550",
          "550",
          "551",
          "552",
          "554",
          "552",
          "551",
          "550",
          "549",
          "550",
          "550",
          "549",
          "549",
          "549",
          "547",
          "547",
          "545",
          "541",
          "520",
          "506",
          "496",
          "490",
          "486",
          "490",
          "510",
          "524",
          "519",
          "512",
          "499",
          "520",
          "510",
          "512",
          "495",
          "497",
          "495",
          "483",
          "467",
          "472",
          "478",
          "476",
          "474",
          "466",
          "461",
          "448",
          "448",
          "449",
          "448",
          "428",
          "405",
          "395",
          "377",
          "364",
          "353",
          "343",
          "323",
          "305",
          "297",
          "307",
          "319",
          "304",
          "291",
          "276",
          "265",
          "255",
          "258",
          "262",
          "252",
          "255",
          "255",
          "253",
          "261",
          "267",
          "278",
          "287",
          "276",
          "269",
          "266",
          "254",
          "253",
          "246",
          "232",
          "232",
          "228",
          "224",
          "221",
          "215",
          "205",
          "199",
          "201",
          "190",
          "168",
          "154",
          "143",
          "138",
          "140",
          "137",
          "136",
          "140",
          "135"
        ],
        "altitude_ft": [
          "2194",
          "2919",
          "3694",
          "4419",
          "5019",
          "5969",
          "6844",
          "7994",
          "9519",
          "10369",
          "12644",
          "14218",
          "15718",
          "17318",
          "18968",
          "20493",
          "22193",
          "23093",
          "24617",
          "25867",
          "26817",
          "27842",
          "28717",
          "29717",
          "30668",
          "31668",
          "32593",
          "33068",
          "33368",
          "33394",
          "33394",
          "33794",
          "34469",
          "34969",
          "35695",
          "36320",
          "37070",
          "37820",
          "38996",
          "39721",
          "40096",
          "40871",
          "41272",
          "41272",
          "41272",
          "41272",
          "41273",
          "41273",
          "41273",
          "41299",
          "41274",
          "41274",
          "41274",
          "41275",
          "41275",
          "41275",
          "41276",
          "41276",
          "41276",
          "41276",
          "41276",
          "41276",
          "41276",
          "41276",
          "41275",
          "41275",
          "41250",
          "41250",
          "41275",
          "41275",
          "41250",
          "41250",
          "41250",
          "41250",
          "41250",
          "41275",
          "41249",
          "41274",
          "41274",
          "41274",
          "41274",
          "41274",
          "41274",
          "41274",
          "41274",
          "41274",
          "41249",
          "41299",
          "41274",
          "41273",
          "41273",
          "41273",
          "41273",
          "41273",
          "41273",
          "41273",
          "41274",
          "41274",
          "41274",
          "41274",
          "41274",
          "41274",
          "41275",
          "41275",
          "41275",
          "41275",
          "41275",
          "41275",
          "41275",
          "41000",
          "41000",
          "41000",
          "41000",
          "41000",
          "41000",
          "41000",
          "41000",
          "41000",
          "41000",
          "41000",
          "41000",
          "41000",
          "41000",
          "41000",
          "41000",
          "41000",
          "41000",
          "41000",
          "41000",
          "41000",
          "41000",
          "41000",
          "41000",
          "41000",
          "41000",
          "41000",
          "41000",
          "41000",
          "41000",
          "41000",
          "41000",
          "41000",
          "41000",
          "41000",
          "41000",
          "41000",
          "41000",
          "41000",
          "41000",
          "41000",
          "41000",
          "41000",
          "41000",
          "41000",
          "41000",
          "41000",
          "41000",
          "41000",
          "41000",
          "41000",
          "41000",
          "41000",
          "41000",
          "41000",
          "41000",
          "41000",
          "41000",
          "41000",
          "41000",
          "41000",
          "41000",
          "41000",
          "41000",
          "41000",
          "41000",
          "41000",
          "41000",
          "41000",
          "41000",
          "41000",
          "41000",
          "41000",
          "41000",
          "41000",
          "41000",
          "41000",
          "41000",
          "41000",
          "41000",
          "41000",
          "41000",
          "41000",
          "41000",
          "41000",
          "41000",
          "41000",
          "41000",
          "41000",
          "41000",
          "41000",
          "41000",
          "41000",
          "41000",
          "41000",
          "41000",
          "41000",
          "41000",
          "41000",
          "41000",
          "41000",
          "41000",
          "41000",
          "41000",
          "41000",
          "41000",
          "41000",
          "41000",
          "41000",
          "41000",
          "41000",
          "41000",
          "41000",
          "41000",
          "41000",
          "41000",
          "41000",
          "41000",
          "41000",
          "41000",
          "41000",
          "41000",
          "41000",
          "41000",
          "41000",
          "41000",
          "41000",
          "41000",
          "41000",
          "41000",
          "41000",
          "41000",
          "41000",
          "41000",
          "41000",
          "41000",
          "41000",
          "41000",
          "41000",
          "41000",
          "41000",
          "41000",
          "41000",
          "41000",
          "41000",
          "41000",
          "41000",
          "41000",
          "41000",
          "41000",
          "41000",
          "41000",
          "41000",
          "41000",
          "41000",
          "41000",
          "41000",
          "41000",
          "41000",
          "41000",
          "41000",
          "41000",
          "41000",
          "41000",
          "41000",
          "41000",
          "41000",
          "41000",
          "41000",
          "41000",
          "41000",
          "41000",
          "41000",
          "41000",
          "41000",
          "41000",
          "41000",
          "41000",
          "41000",
          "41000",
          "41000",
          "40975",
          "40375",
          "39425",
          "38450",
          "37425",
          "36375",
          "35325",
          "34225",
          "33200",
          "32150",
          "31050",
          "29950",
          "28850",
          "28025",
          "27200",
          "26525",
          "26075",
          "25375",
          "24600",
          "24200",
          "23475",
          "22350",
          "21900",
          "21150",
          "20375",
          "19800",
          "18975",
          "17900",
          "16775",
          "15675",
          "14625",
          "14200",
          "13875",
          "13875",
          "13850",
          "13850",
          "13725",
          "13250",
          "12475",
          "11675",
          "10975",
          "10850",
          "10875",
          "10875",
          "10850",
          "10850",
          "10850",
          "10850",
          "10875",
          "10875",
          "10875",
          "10850",
          "10825",
          "10275",
          "9975",
          "9875",
          "9800",
          "9450",
          "9075",
          "8700",
          "8250",
          "8000",
          "7475",
          "6950",
          "6525",
          "6225",
          "5725",
          "5150",
          "4625",
          "4075",
          "3550",
          "3300",
          "2825",
          "2375",
          "1875",
          "1475",
          "1300",
          "1075",
          "925",
          "725",
          "575",
          "425",
          "250",
          "100"
        ],
        "vertical_rate_fpm": [
          "",
          "2813",
          "2813",
          "2484",
          "2514",
          "2959",
          "3284",
          "3147",
          "3098",
          "3074",
          "3079",
          "3074",
          "3100",
          "3250",
          "3175",
          "3225",
          "3319",
          "3094",
          "2774",
          "2200",
          "1975",
          "2073",
          "2045",
          "1951",
          "1951",
          "1925",
          "1400",
          "775",
          "326",
          "26",
          "400",
          "1075",
          "1175",
          "1226",
          "1351",
          "1375",
          "1500",
          "1409",
          "1311",
          "1179",
          "1131",
          "882",
          "344",
          "",
          "",
          "1",
          "1",
          "",
          "26",
          "1",
          "-25",
          "",
          "1",
          "1",
          "",
          "1",
          "1",
          "",
          "",
          "",
          "",
          "",
          "",
          "-1",
          "-1",
          "-25",
          "-25",
          "22",
          "22",
          "-25",
          "-25",
          "",
          "",
          "",
          "25",
          "-1",
          "-1",
          "25",
          "",
          "",
          "",
          "",
          "",
          "",
          "",
          "-25",
          "25",
          "25",
          "-26",
          "-1",
          "",
          "",
          "",
          "",
          "",
          "1",
          "1",
          "",
          "",
          "",
          "",
          "1",
          "1",
          "",
          "",
          "",
          "",
          "",
          "-275",
          "-275",
          "",
          "",
          "",
          "",
          "",
          "",
          "",
          "",
          "",
          "",
          "",
          "",
          "",
          "",
          "",
          "",
          "",
          "",
          "",
          "",
          "",
          "",
          "",
          "",
          "",
          "",
          "",
          "",
          "",
          "",
          "",
          "",
          "",
          "",
          "",
          "",
          "",
          "",
          "",
          "",
          "",
          "",
          "",
          "",
          "",
          "",
          "",
          "",
          "",
          "",
          "",
          "",
          "",
          "",
          "",
          "",
          "",
          "",
          "",
          "",
          "",
          "",
          "",
          "",
          "",
          "",
          "",
          "",
          "",
          "",
          "",
          "",
          "",
          "",
          "",
          "",
          "",
          "",
          "",
          "",
          "",
          "",
          "",
          "",
          "",
          "",
          "",
          "",
          "",
          "",
          "",
          "",
          "",
          "",
          "",
          "",
          "",
          "",
          "",
          "",
          "",
          "",
          "",
          "",
          "",
          "",
          "",
          "",
          "",
          "",
          "",
          "",
          "",
          "",
          "",
          "",
          "",
          "",
          "",
          "",
          "",
          "",
          "",
          "",
          "",
          "",
          "",
          "",
          "",
          "",
          "",
          "",
          "",
          "",
          "",
          "",
          "",
          "",
          "",
          "",
          "",
          "",
          "",
          "",
          "",
          "",
          "",
          "",
          "",
          "",
          "",
          "",
          "",
          "",
          "",
          "",
          "",
          "",
          "",
          "",
          "",
          "",
          "",
          "",
          "",
          "",
          "",
          "",
          "",
          "",
          "",
          "",
          "",
          "",
          "",
          "",
          "",
          "",
          "",
          "-24",
          "-615",
          "-1525",
          "-1893",
          "-2000",
          "-2041",
          "-2066",
          "-2150",
          "-2125",
          "-2075",
          "-2150",
          "-2200",
          "-2200",
          "-1925",
          "-1623",
          "-1475",
          "-1125",
          "-1095",
          "-1383",
          "-1469",
          "-1500",
          "-1521",
          "-1549",
          "-1756",
          "-1906",
          "-1976",
          "-2000",
          "-2111",
          "-2164",
          "-2189",
          "-2150",
          "-1924",
          "-652",
          "-219",
          "-26",
          "-38",
          "-179",
          "-818",
          "-1500",
          "-1477",
          "-1385",
          "-739",
          "-107",
          "38",
          "-29",
          "-29",
          "",
          "",
          "29",
          "21",
          "",
          "-21",
          "-49",
          "-548",
          "-1063",
          "-511",
          "-184",
          "-593",
          "-1318",
          "-1250",
          "-1100",
          "-1024",
          "-1011",
          "-1050",
          "-1036",
          "-777",
          "-787",
          "-1075",
          "-1100",
          "-1057",
          "-1057",
          "-1011",
          "-946",
          "-925",
          "-950",
          "-900",
          "-750",
          "-706",
          "-643",
          "-636",
          "-656",
          "-563",
          "-609",
          "-609",
          "-563"
        ],
        "reporting_facility": [
          "FlightAware ADS-B(EDKF)",
          "FlightAware ADS-B(EDKF)",
          "FlightAware ADS-B(EDGB)",
          "FlightAware ADS-B(EDKF)",
          "FlightAware ADS-B(EDKF)",
          "FlightAware ADS-B(EDFY)",
          "FlightAware ADS-B(EDKB)",
          "FlightAware ADS-B(CGN / EDDK)",
          "FlightAware ADS-B(FRA / EDDF)",
          "FlightAware ADS-B(FRA / EDDF)",
          "FlightAware ADS-B(EDRK)",
          "FlightAware ADS-B(EDFZ)",
          "FlightAware ADS-B(FRA / EDDF)",
          "FlightAware ADS-B(EDGA)",
          "FlightAware ADS-B(FRZ / ETHF)",
          "FlightAware ADS-B(EDGP)",
          "FlightAware ADS-B(EDLF)",
          "FlightAware ADS-B(EDFZ)",
          "FlightAware ADS-B(FRA / EDDF)",
          "FlightAware ADS-B(CGN / EDDK)",
          "FlightAware ADS-B(FRA / EDDF)",
          "FlightAware ADS-B(FRA / EDDF)",
          "FlightAware ADS-B(EDEF)",
          "FlightAware ADS-B(EDFB)",
          "FlightAware ADS-B(ETOU)",
          "FlightAware ADS-B(QEF / EDFE)",
          "FlightAware ADS-B(EDEL)",
          "FlightAware ADS-B(MHG / EDFM)",
          "FlightAware ADS-B(GKE / ETNG)",
          "FlightAware ADS-B(GKE / ETNG)",
          "FlightAware ADS-B(STR / EDDS)",
          "FlightAware ADS-B(EDQC)",
          "FlightAware ADS-B(CGN / EDDK)",
          "FlightAware ADS-B(EDSH)",
          "FlightAware ADS-B(EDFW)",
          "FlightAware ADS-B(FRA / EDDF)",
          "FlightAware ADS-B(ETED)",
          "FlightAware ADS-B(STR / EDDS)",
          "FlightAware ADS-B(ETEB)",
          "FlightAware ADS-B(EDMQ)",
          "FlightAware ADS-B(QEF / EDFE)",
          "FlightAware ADS-B(HOQ / EDQM)",
          "FlightAware ADS-B(EDTY)",
          "FlightAware ADS-B(EDMI)",
          "FlightAware ADS-B(ETSE)",
          "FlightAware ADS-B(EDTY)",
          "FlightAware ADS-B(EDTC)",
          "FlightAware ADS-B(EDMR)",
          "FlightAware ADS-B(EDQA)",
          "FlightAware ADS-B(EDMR)",
          "FlightAware ADS-B(EDNQ)",
          "FlightAware ADS-B(EDNX)",
          "FlightAware ADS-B(LEJ / EDDP)",
          "FlightAware ADS-B(MUC / EDDM)",
          "FlightAware ADS-B(ACH / LSZR)",
          "FlightAware ADS-B(EDTM)",
          "FlightAware ADS-B(ETSE)",
          "FlightAware ADS-B(IGS / ETSI)",
          "FlightAware ADS-B(MUC / EDDM)",
          "FlightAware ADS-B(OBF / EDMO)",
          "FlightAware ADS-B(MUC / EDDM)",
          "FlightAware ADS-B(NUE / EDDN)",
          "FlightAware ADS-B(MUC / EDDM)",
          "FlightAware ADS-B(LOLS)",
          "FlightAware ADS-B(SZG / LOWS)",
          "FlightAware ADS-B(EDNK)",
          "FlightAware ADS-B(MUC / EDDM)",
          "FlightAware ADS-B(EDNR)",
          "FlightAware ADS-B(EDMV)",
          "FlightAware ADS-B(EDNQ)",
          "FlightAware ADS-B(EDMY)",
          "FlightAware ADS-B(LKHK)",
          "FlightAware ADS-B(EDMJ)",
          "FlightAware ADS-B(EDNV)",
          "FlightAware ADS-B(LOLW)",
          "FlightAware ADS-B(LOLU)",
          "FlightAware ADS-B(LIPF)",
          "FlightAware ADS-B(OBF / EDMO)",
          "FlightAware ADS-B(ETSE)",
          "FlightAware ADS-B(AVB / LIPA)",
          "FlightAware ADS-B(LOAG)",
          "FlightAware ADS-B(EDPR)",
          "FlightAware ADS-B(KLV / LKKV)",
          "FlightAware ADS-B(LNZ / LOWL)",
          "FlightAware ADS-B(LKMB)",
          "FlightAware ADS-B(LOGK)",
          "FlightAware ADS-B(PZY / LZPP)",
          "FlightAware ADS-B(ETSE)",
          "FlightAware ADS-B(BRQ / LKTB)",
          "FlightAware ADS-B(VIE / LOWW)",
          "FlightAware ADS-B(LIDH)",
          "FlightAware ADS-B(GRZ / LOWG)",
          "FlightAware ADS-B(LJSK)",
          "FlightAware ADS-B(LIDH)",
          "FlightAware ADS-B(BTS / LZIB)",
          "FlightAware ADS-B(LIDH)",
          "FlightAware ADS-B(MBX / LJMB)",
          "FlightAware ADS-B(LKHB)",
          "FlightAware ADS-B(OSR / LKMT)",
          "FlightAware ADS-B(GRZ / LOWG)",
          "FlightAware ADS-B(LKHB)",
          "FlightAware ADS-B(ZAG / LDZA)",
          "FlightAware ADS-B(LODL)",
          "FlightAware ADS-B(BTS / LZIB)",
          "FlightAware ADS-B(BTS / LZIB)",
          "FlightAware ADS-B(LOGH)",
          "FlightAware ADS-B(LOGF)",
          "FlightAware ADS-B(LOGA)",
          "FlightAware ADS-B(LHBS)",
          "FlightAware ADS-B(SOB / LHSM)",
          "FlightAware ADS-B(GRZ / LOWG)",
          "FlightAware ADS-B(GRZ / LOWG)",
          "FlightAware ADS-B(LOAS)",
          "FlightAware ADS-B(BTS / LZIB)",
          "FlightAware ADS-B(GRZ / LOWG)",
          "FlightAware ADS-B(LHSY)",
          "FlightAware ADS-B(LJSK)",
          "FlightAware ADS-B(LJSK)",
          "FlightAware ADS-B(LHSY)",
          "FlightAware ADS-B(LHUD)",
          "FlightAware ADS-B(LHSY)",
          "FlightAware ADS-B(GRZ / LOWG)",
          "FlightAware ADS-B(LHSK)",
          "FlightAware ADS-B(LHSK)",
          "FlightAware ADS-B(LOAN)",
          "FlightAware ADS-B(BUD / LHBP)",
          "FlightAware ADS-B(LJSK)",
          "FlightAware ADS-B(LHSY)",
          "FlightAware ADS-B(BTS / LZIB)",
          "FlightAware ADS-B(BUD / LHBP)",
          "FlightAware ADS-B(LHSY)",
          "FlightAware ADS-B(BUD / LHBP)",
          "FlightAware ADS-B(LHUD)",
          "FlightAware ADS-B(PEV / LHPP)",
          "FlightAware ADS-B(LHUD)",
          "FlightAware ADS-B(PEV / LHPP)",
          "FlightAware ADS-B(PEV / LHPP)",
          "FlightAware ADS-B(VIE / LOWW)",
          "FlightAware ADS-B(AOI / LIPY)",
          "FlightAware ADS-B(BTS / LZIB)",
          "FlightAware ADS-B(BTS / LZIB)",
          "FlightAware ADS-B(BTS / LZIB)",
          "FlightAware ADS-B(BTS / LZIB)",
          "FlightAware ADS-B(LHDK)",
          "FlightAware ADS-B(LHDK)",
          "FlightAware ADS-B(TSR / LRTR)",
          "FlightAware ADS-B(LHTL)",
          "FlightAware ADS-B(BEG / LYBE)",
          "FlightAware ADS-B(BEG / LYBE)",
          "FlightAware ADS-B(BEG / LYBE)",
          "FlightAware ADS-B(TSR / LRTR)",
          "FlightAware ADS-B(TSR / LRTR)",
          "FlightAware ADS-B(TSR / LRTR)",
          "FlightAware ADS-B(BTS / LZIB)",
          "FlightAware ADS-B(TSR / LRTR)",
          "FlightAware ADS-B(TSR / LRTR)",
          "FlightAware ADS-B(QBG / LYPA)",
          "FlightAware ADS-B(SOF / LBSF)",
          "FlightAware ADS-B(TSR / LRTR)",
          "FlightAware ADS-B(SOF / LBSF)",
          "FlightAware ADS-B(TZL / LQTZ)",
          "FlightAware ADS-B(BEG / LYBE)",
          "FlightAware ADS-B(QBG / LYPA)",
          "FlightAware ADS-B(BEG / LYBE)",
          "FlightAware ADS-B(SJJ / LQSA)",
          "FlightAware ADS-B(SJJ / LQSA)",
          "FlightAware ADS-B(SJJ / LQSA)",
          "FlightAware ADS-B(SOF / LBSF)",
          "FlightAware ADS-B(SOF / LBSF)",
          "FlightAware ADS-B(SOF / LBSF)",
          "FlightAware ADS-B(INI / LYNI)",
          "FlightAware ADS-B(SKP / LWSK)",
          "FlightAware ADS-B(SOF / LBSF)",
          "FlightAware ADS-B(SOF / LBSF)",
          "FlightAware ADS-B(SKP / LWSK)",
          "FlightAware ADS-B(SOF / LBSF)",
          "FlightAware ADS-B(SOF / LBSF)",
          "FlightAware ADS-B(SOF / LBSF)",
          "FlightAware ADS-B(SOF / LBSF)",
          "FlightAware ADS-B(LBSD)",
          "FlightAware ADS-B(LBSD)",
          "FlightAware ADS-B(BEG / LYBE)",
          "FlightAware ADS-B(LBSD)",
          "FlightAware ADS-B(BEG / LYBE)",
          "FlightAware ADS-B(LBLS)",
          "FlightAware ADS-B(CRA / LRCV)",
          "FlightAware ADS-B(SOF / LBSF)",
          "FlightAware ADS-B(SOF / LBSF)",
          "FlightAware ADS-B(CRA / LRCV)",
          "FlightAware ADS-B(CRA / LRCV)",
          "FlightAware ADS-B(SOF / LBSF)",
          "FlightAware ADS-B(CRA / LRCV)",
          "FlightAware ADS-B(SOF / LBSF)",
          "FlightAware ADS-B(PDV / LBPD)",
          "FlightAware ADS-B(LBLS)",
          "FlightAware ADS-B(LBPL)",
          "FlightAware ADS-B(PDV / LBPD)",
          "FlightAware ADS-B(BBU / LRBS)",
          "FlightAware ADS-B(CRA / LRCV)",
          "FlightAware ADS-B(SOF / LBSF)",
          "FlightAware ADS-B(BBU / LRBS)",
          "FlightAware ADS-B(SOF / LBSF)",
          "FlightAware ADS-B(PDV / LBPD)",
          "FlightAware ADS-B(PDV / LBPD)",
          "FlightAware ADS-B(SOF / LBSF)",
          "FlightAware ADS-B(LBPK)",
          "FlightAware ADS-B(PDV / LBPD)",
          "FlightAware ADS-B(SOF / LBSF)",
          "FlightAware ADS-B(LBPK)",
          "FlightAware ADS-B(LBPK)",
          "FlightAware ADS-B(LBPK)",
          "FlightAware ADS-B(LBPK)",
          "FlightAware ADS-B(LBPK)",
          "FlightAware ADS-B(SKP / LWSK)",
          "FlightAware ADS-B(PDV / LBPD)",
          "FlightAware ADS-B(PDV / LBPD)",
          "FlightAware ADS-B(SKP / LWSK)",
          "FlightAware ADS-B(PDV / LBPD)",
          "FlightAware ADS-B(PDV / LBPD)",
          "FlightAware ADS-B(PDV / LBPD)",
          "FlightAware ADS-B(SKP / LWSK)",
          "FlightAware ADS-B(PDV / LBPD)",
          "FlightAware ADS-B(SKP / LWSK)",
          "FlightAware ADS-B(PDV / LBPD)",
          "FlightAware ADS-B(LGAX)",
          "FlightAware ADS-B(JAM / LBIA)",
          "FlightAware ADS-B(VAR / LBWN)",
          "FlightAware ADS-B(AXD / LGAL)",
          "FlightAware ADS-B(BBU / LRBS)",
          "FlightAware ADS-B(AXD / LGAL)",
          "FlightAware ADS-B(AXD / LGAL)",
          "FlightAware ADS-B(JAM / LBIA)",
          "FlightAware ADS-B(JAM / LBIA)",
          "FlightAware ADS-B(KVA / LGKV)",
          "FlightAware ADS-B(JAM / LBIA)",
          "FlightAware ADS-B(AXD / LGAL)",
          "FlightAware ADS-B(JAM / LBIA)",
          "FlightAware ADS-B(JAM / LBIA)",
          "FlightAware ADS-B(AXD / LGAL)",
          "FlightAware ADS-B(AXD / LGAL)",
          "FlightAware ADS-B(AXD / LGAL)",
          "FlightAware ADS-B(JAM / LBIA)",
          "FlightAware ADS-B(LBLS)",
          "FlightAware ADS-B(AXD / LGAL)",
          "FlightAware ADS-B(LGTT)",
          "FlightAware ADS-B(LBWB)",
          "FlightAware ADS-B(BOJ / LBBG)",
          "FlightAware ADS-B(PDV / LBPD)",
          "FlightAware ADS-B(BOJ / LBBG)",
          "FlightAware ADS-B(PDV / LBPD)",
          "FlightAware ADS-B(PDV / LBPD)",
          "FlightAware ADS-B(ADB / LTBJ)",
          "FlightAware ADS-B(LBWC)",
          "FlightAware ADS-B(MJT / LGMT)",
          "FlightAware ADS-B(AXD / LGAL)",
          "FlightAware ADS-B(LXS / LGLM)",
          "FlightAware ADS-B(AXD / LGAL)",
          "FlightAware ADS-B(LXS / LGLM)",
          "FlightAware ADS-B(AXD / LGAL)",
          "FlightAware ADS-B(RHO / LGRP)",
          "FlightAware ADS-B(KVA / LGKV)",
          "FlightAware ADS-B(ADB / LTBJ)",
          "FlightAware ADS-B(RHO / LGRP)",
          "FlightAware ADS-B(AXD / LGAL)",
          "FlightAware ADS-B(RHO / LGRP)",
          "FlightAware ADS-B(MJT / LGMT)",
          "FlightAware ADS-B(ADB / LTBJ)",
          "FlightAware ADS-B(ADB / LTBJ)",
          "FlightAware ADS-B(ADB / LTBJ)",
          "FlightAware ADS-B(ADB / LTBJ)",
          "FlightAware ADS-B(ADB / LTBJ)",
          "FlightAware ADS-B(USQ / LTBO)",
          "FlightAware ADS-B(MJT / LGMT)",
          "FlightAware ADS-B(MJT / LGMT)",
          "FlightAware ADS-B(USQ / LTBO)",
          "FlightAware ADS-B(USQ / LTBO)",
          "FlightAware ADS-B(USQ / LTBO)",
          "FlightAware ADS-B(MJT / LGMT)",
          "FlightAware ADS-B(MJT / LGMT)",
          "FlightAware ADS-B(MJT / LGMT)",
          "FlightAware ADS-B(MJT / LGMT)",
          "FlightAware ADS-B(USQ / LTBO)",
          "FlightAware ADS-B(MJT / LGMT)",
          "FlightAware ADS-B(SKG / LGTS)",
          "FlightAware ADS-B(USQ / LTBO)",
          "FlightAware ADS-B(MJT / LGMT)",
          "FlightAware ADS-B(USQ / LTBO)",
          "FlightAware ADS-B(USQ / LTBO)",
          "FlightAware ADS-B(USQ / LTBO)",
          "FlightAware ADS-B(JKH / LGHI)",
          "FlightAware ADS-B(RHO / LGRP)",
          "FlightAware ADS-B(JKH / LGHI)",
          "FlightAware ADS-B(LTFN)",
          "FlightAware ADS-B(JKH / LGHI)",
          "FlightAware ADS-B(JKH / LGHI)",
          "FlightAware ADS-B(RHO / LGRP)",
          "FlightAware ADS-B(JKH / LGHI)",
          "FlightAware ADS-B(JKH / LGHI)",
          "FlightAware ADS-B(KGS / LGKO)",
          "FlightAware ADS-B(JKH / LGHI)",
          "FlightAware ADS-B(KGS / LGKO)",
          "FlightAware ADS-B(KGS / LGKO)",
          "FlightAware ADS-B(AYT / LTAI)",
          "FlightAware ADS-B(AYT / LTAI)",
          "FlightAware ADS-B(USQ / LTBO)",
          "FlightAware ADS-B(USQ / LTBO)",
          "FlightAware ADS-B(USQ / LTBO)",
          "FlightAware ADS-B(USQ / LTBO)",
          "FlightAware ADS-B(GZP / LTFG)",
          "FlightAware ADS-B(LTBD)",
          "FlightAware ADS-B(AYT / LTAI)",
          "FlightAware ADS-B(AYT / LTAI)",
          "FlightAware ADS-B(AYT / LTAI)",
          "FlightAware ADS-B(GZP / LTFG)",
          "FlightAware ADS-B(AYT / LTAI)",
          "FlightAware ADS-B(NIC / LCNC)",
          "FlightAware ADS-B(AYT / LTAI)",
          "FlightAware ADS-B(AYT / LTAI)",
          "FlightAware ADS-B(AYT / LTAI)",
          "FlightAware ADS-B(AYT / LTAI)",
          "FlightAware ADS-B(AYT / LTAI)",
          "FlightAware ADS-B(GZP / LTFG)",
          "FlightAware ADS-B(GZP / LTFG)",
          "FlightAware ADS-B(GZP / LTFG)",
          "FlightAware ADS-B(NIC / LCNC)",
          "FlightAware ADS-B(GZP / LTFG)",
          "FlightAware ADS-B(AYT / LTAI)",
          "FlightAware ADS-B(AYT / LTAI)",
          "FlightAware ADS-B(AYT / LTAI)",
          "FlightAware ADS-B(AYT / LTAI)",
          "FlightAware ADS-B(AYT / LTAI)",
          "FlightAware ADS-B(AYT / LTAI)",
          "FlightAware ADS-B(AYT / LTAI)",
          "FlightAware ADS-B(AYT / LTAI)",
          "FlightAware ADS-B(GZP / LTFG)",
          "FlightAware ADS-B(AYT / LTAI)",
          "FlightAware ADS-B(GZP / LTFG)",
          "FlightAware ADS-B(NIC / LCNC)",
          "FlightAware ADS-B(NIC / LCNC)",
          "FlightAware ADS-B(AYT / LTAI)",
          "FlightAware ADS-B(AYT / LTAI)",
          "FlightAware ADS-B(AYT / LTAI)",
          "FlightAware ADS-B(NIC / LCNC)",
          "FlightAware ADS-B(AYT / LTAI)",
          "FlightAware ADS-B(AYT / LTAI)",
          "FlightAware ADS-B(AYT / LTAI)",
          "FlightAware ADS-B(AYT / LTAI)",
          "FlightAware ADS-B(AYT / LTAI)",
          "FlightAware ADS-B(AYT / LTAI)",
          "FlightAware ADS-B(AYT / LTAI)",
          "FlightAware ADS-B(AYT / LTAI)",
          "FlightAware ADS-B(AYT / LTAI)",
          "FlightAware ADS-B(AYT / LTAI)",
          "FlightAware ADS-B(AYT / LTAI)",
          "FlightAware ADS-B(AYT / LTAI)",
          "FlightAware ADS-B(AYT / LTAI)",
          "FlightAware ADS-B(AYT / LTAI)",
          "FlightAware ADS-B(AYT / LTAI)",
          "FlightAware ADS-B(AYT / LTAI)",
          "FlightAware ADS-B(AYT / LTAI)",
          "FlightAware ADS-B(AYT / LTAI)",
          "FlightAware ADS-B(AYT / LTAI)",
          "FlightAware ADS-B(AYT / LTAI)",
          "FlightAware ADS-B(AYT / LTAI)",
          "FlightAware ADS-B(AYT / LTAI)",
          "FlightAware ADS-B(AYT / LTAI)",
          "Surface and Near-Surface",
          "FlightAware ADS-B(AYT / LTAI)",
          "FlightAware ADS-B(AYT / LTAI)",
          "FlightAware ADS-B(AYT / LTAI)",
          "FlightAware ADS-B(AYT / LTAI)",
          "FlightAware ADS-B(AYT / LTAI)",
          "FlightAware ADS-B(AYT / LTAI)",
          "FlightAware ADS-B(AYT / LTAI)"
        ]
      }
    }
  ]
}