{
  "type": "FeatureCollection",
  "features": [
    {
      "type": "Feature",
      "geometry": {
        "type": "LineString",
        "coordinates": [
          [
            -2.9738,
            53.1808
          ],
          [
            -2.9865,
            53.172
          ],
          [
            -2.9957,
            53.1655
          ],
          [
            -3.0083,
            53.1574
          ],
          [
            -3.0223,
            53.1495
          ],
          [
            -3.0365,
            53.1408
          ],
          [
            -3.0402,
            53.1276
          ],
          [
            -3.0283,
            53.1163
          ],
          [
            -3.0049,
            53.1097
          ],
          [
            -2.968,
            53.1029
          ],
          [
            -2.9107,
            53.0936
          ],
          [
            -2.8537,
            53.0845
          ],
          [
            -2.7921,
            53.0747
          ],
          [
            -2.7198,
            53.0637
          ],
          [
            -2.5945,
            53.0443
          ],
          [
            -2.4899,
            53.0268
          ],
          [
            -2.4278,
            53.0133
          ],
          [
            -2.3329,
            52.9855
          ],
          [
            -2.2561,
            52.9626
          ],
          [
            -2.1797,
            52.939
          ],
          [
            -2.0873,
            52.9096
          ],
          [
            -1.9947,
            52.8798
          ],
          [
            -1.9184,
            52.8547
          ],
          [
            -1.8736,
            52.831
          ],
          [
            -1.8009,
            52.7591
          ],
          [
            -1.7532,
            52.7138
          ],
          [
            -1.7028,
            52.6665
          ],
          [
            -1.6501,
            52.6166
          ],
          [
            -1.5972,
            52.568
          ],
          [
            -1.544,
            52.5168
          ],
          [
            -1.4895,
            52.4648
          ],
          [
            -1.4463,
            52.4245
          ],
          [
            -1.4147,
            52.3953
          ],
          [
            -1.3602,
            52.3448
          ],
          [
            -1.3299,
            52.314
          ],
          [
            -1.3013,
            52.2814
          ],
          [
            -1.2656,
            52.2406
          ],
          [
            -1.2433,
            52.2147
          ],
          [
            -1.1994,
            52.1652
          ],
          [
            -1.154,
            52.1125
          ],
          [
            -1.125,
            52.0794
          ],
          [
            -1.0861,
            52.0346
          ],
          [
            -1.0474,
            51.9915
          ],
          [
            -0.9801,
            51.9136
          ],
          [
            -0.9365,
            51.8644
          ],
          [
            -0.892,
            51.8139
          ],
          [
            -0.8471,
            51.763
          ],
          [
            -0.8172,
            51.7297
          ],
          [
            -0.7737,
            51.695
          ],
          [
            -0.6981,
            51.6519
          ],
          [
            -0.6116,
            51.6049
          ],
          [
            -0.5655,
            51.5801
          ],
          [
            -0.4623,
            51.524
          ],
          [
            -0.4098,
            51.4946
          ],
          [
            -0.3648,
            51.4728
          ],
          [
            -0.2661,
            51.4389
          ],
          [
            -0.1395,
            51.4044
          ],
          [
            -0.0605,
            51.3843
          ],
          [
            0.0283,
            51.3603
          ],
          [
            0.1738,
            51.3203
          ],
          [
            0.2714,
            51.294
          ],
          [
            0.3696,
            51.2669
          ],
          [
            0.4504,
            51.2444
          ],
          [
            0.5461,
            51.2176
          ],
          [
            0.6469,
            51.178
          ],
          [
            0.7274,
            51.1421
          ],
          [
            0.8098,
            51.1056
          ],
          [
            0.8909,
            51.0699
          ],
          [
            0.9672,
            51.0364
          ],
          [
            1.056,
            50.997
          ],
          [
            1.1414,
            50.9592
          ],
          [
            1.2242,
            50.9219
          ],
          [
            1.3898,
            50.8482
          ],
          [
            1.4767,
            50.8092
          ],
          [
            1.586,
            50.7598
          ],
          [
            1.6715,
            50.7215
          ],
          [
            1.7526,
            50.6847
          ],
          [
            1.8364,
            50.6461
          ],
          [
            1.9191,
            50.6087
          ],
          [
            2.0008,
            50.5708
          ],
          [
            2.0843,
            50.5328
          ],
          [
            2.135,
            50.5092
          ],
          [
            2.2164,
            50.4716
          ],
          [
            2.295,
            50.4353
          ],
          [
            2.3774,
            50.3967
          ],
          [
            2.4596,
            50.3585
          ],
          [
            2.5428,
            50.3196
          ],
          [
            2.6205,
            50.2831
          ],
          [
            2.7004,
            50.2462
          ],
          [
            2.774,
            50.2108
          ],
          [
            2.8499,
            50.1748
          ],
          [
            2.9228,
            50.1404
          ],
          [
            2.9978,
            50.1045
          ],
          [
            3.0677,
            50.0711
          ],
          [
            3.1387,
            50.0372
          ],
          [
            3.2126,
            50.0017
          ],
          [
            3.2861,
            49.9664
          ],
          [
            3.3841,
            49.9193
          ],
          [
            3.4579,
            49.8831
          ],
          [
            3.5324,
            49.847
          ],
          [
            3.6079,
            49.8101
          ],
          [
            3.6846,
            49.773
          ],
          [
            3.7606,
            49.7353
          ],
          [
            3.8444,
            49.6947
          ],
          [
            3.921,
            49.6566
          ],
          [
            4.0018,
            49.6168
          ],
          [
            4.0767,
            49.5796
          ],
          [
            4.1559,
            49.5403
          ],
          [
            4.2619,
            49.4874
          ],
          [
            4.3372,
            49.4495
          ],
          [
            4.4087,
            49.4136
          ],
          [
            4.4859,
            49.3748
          ],
          [
            4.5626,
            49.336
          ],
          [
            4.6367,
            49.2987
          ],
          [
            4.6935,
            49.2694
          ],
          [
            4.7665,
            49.2324
          ],
          [
            4.8413,
            49.1944
          ],
          [
            4.8974,
            49.1658
          ],
          [
            4.9705,
            49.1283
          ],
          [
            5.0455,
            49.0893
          ],
          [
            5.1141,
            49.0544
          ],
          [
            5.2047,
            49.0074
          ],
          [
            5.2747,
            48.971
          ],
          [
            5.3477,
            48.9333
          ],
          [
            5.4168,
            48.8968
          ],
          [
            5.4867,
            48.8606
          ],
          [
            5.5593,
            48.8224
          ],
          [
            5.6084,
            48.7961
          ],
          [
            5.677,
            48.7604
          ],
          [
            5.7521,
            48.7208
          ],
          [
            5.8209,
            48.6842
          ],
          [
            5.8919,
            48.6468
          ],
          [
            5.9436,
            48.6189
          ],
          [
            5.9804,
            48.5995
          ],
          [
            6.0552,
            48.5594
          ],
          [
            6.127,
            48.5214
          ],
          [
            6.1973,
            48.483
          ],
          [
            6.272,
            48.4433
          ],
          [
            6.3359,
            48.4083
          ],
          [
            6.383,
            48.3833
          ],
          [
            6.4564,
            48.3431
          ],
          [
            6.4987,
            48.3203
          ],
          [
            6.5719,
            48.2805
          ],
          [
            6.642,
            48.2422
          ],
          [
            6.7134,
            48.2033
          ],
          [
            6.7852,
            48.1637
          ],
          [
            6.8571,
            48.1241
          ],
          [
            6.9206,
            48.0888
          ],
          [
            6.9901,
            48.0509
          ],
          [
            7.0412,
            48.0221
          ],
          [
            7.1105,
            47.9838
          ],
          [
            7.1657,
            47.953
          ],
          [
            7.2727,
            47.8932
          ],
          [
            7.3469,
            47.852
          ],
          [
            7.4184,
            47.8113
          ],
          [
            7.4903,
            47.7713
          ],
          [
            7.543,
            47.7413
          ],
          [
            7.6634,
            47.6804
          ],
          [
            7.7146,
            47.656
          ],
          [
            7.7958,
            47.6157
          ],
          [
            7.8711,
            47.5783
          ],
          [
            7.9452,
            47.5416
          ],
          [
            8.0171,
            47.5049
          ],
          [
            8.093,
            47.4672
          ],
          [
            8.1683,
            47.4288
          ],
          [
            8.2402,
            47.392
          ],
          [
            8.3485,
            47.3374
          ],
          [
            8.4243,
            47.2991
          ],
          [
            8.5027,
            47.2585
          ],
          [
            8.5544,
            47.2327
          ],
          [
            8.6584,
            47.1822
          ],
          [
            8.7385,
            47.1421
          ],
          [
            8.8088,
            47.1072
          ],
          [
            8.8886,
            47.0675
          ],
          [
            8.9648,
            47.0294
          ],
          [
            9.0372,
            46.993
          ],
          [
            9.1102,
            46.9562
          ],
          [
            9.1588,
            46.9312
          ],
          [
            9.237,
            46.8924
          ],
          [
            9.2825,
            46.8697
          ],
          [
            9.3881,
            46.8155
          ],
          [
            9.4643,
            46.7767
          ],
          [
            9.5387,
            46.7387
          ],
          [
            9.6124,
            46.7011
          ],
          [
            9.6864,
            46.6629
          ],
          [
            9.7651,
            46.6227
          ],
          [
            9.9079,
            46.5487
          ],
          [
            9.9814,
            46.5103
          ],
          [
            10.0258,
            46.4865
          ],
          [
            10.0749,
            46.4515
          ],
          [
            10.1346,
            46.402
          ],
          [
            10.1774,
            46.371
          ],
          [
            10.2231,
            46.3483
          ],
          [
            10.3164,
            46.3123
          ],
          [
            10.427,
            46.2727
          ],
          [
            10.5108,
            46.2411
          ],
          [
            10.5926,
            46.2107
          ],
          [
            10.6793,
            46.178
          ],
          [
            10.8068,
            46.1295
          ],
          [
            10.8903,
            46.0975
          ],
          [
            10.9767,
            46.0647
          ],
          [
            11.0602,
            46.0327
          ],
          [
            11.1399,
            46.0019
          ],
          [
            11.222,
            45.9703
          ],
          [
            11.3067,
            45.9373
          ],
          [
            11.386,
            45.9067
          ],
          [
            11.4724,
            45.8732
          ],
          [
            11.5443,
            45.8448
          ],
          [
            11.5999,
            45.8234
          ],
          [
            11.6802,
            45.7917
          ],
          [
            11.7662,
            45.758
          ],
          [
            11.85,
            45.7249
          ],
          [
            11.9084,
            45.7018
          ],
          [
            11.9883,
            45.67
          ],
          [
            12.0643,
            45.6398
          ],
          [
            12.1561,
            45.6035
          ],
          [
            12.2391,
            45.5694
          ],
          [
            12.3231,
            45.5345
          ],
          [
            12.3807,
            45.5112
          ],
          [
            12.4663,
            45.4756
          ],
          [
            12.5582,
            45.4369
          ],
          [
            12.6409,
            45.4018
          ],
          [
            12.7269,
            45.3653
          ],
          [
            12.8102,
            45.3298
          ],
          [
            12.8911,
            45.295
          ],
          [
            12.959,
            45.2658
          ],
          [
            13.0373,
            45.2259
          ],
          [
            13.1189,
            45.1823
          ],
          [
            13.1965,
            45.1425
          ],
          [
            13.2779,
            45.0989
          ],
          [
            13.3558,
            45.0585
          ],
          [
            13.431,
            45.0182
          ],
          [
            13.5163,
            44.9733
          ],
          [
            13.5954,
            44.9313
          ],
          [
            13.6732,
            44.8898
          ],
          [
            13.7483,
            44.8499
          ],
          [
            13.823,
            44.8097
          ],
          [
            13.9005,
            44.7684
          ],
          [
            13.9741,
            44.7287
          ],
          [
            14.051,
            44.6871
          ],
          [
            14.1262,
            44.6464
          ],
          [
            14.1975,
            44.6078
          ],
          [
            14.2712,
            44.5677
          ],
          [
            14.3473,
            44.5265
          ],
          [
            14.418,
            44.4873
          ],
          [
            14.492,
            44.4472
          ],
          [
            14.5662,
            44.4064
          ],
          [
            14.6394,
            44.3663
          ],
          [
            14.7091,
            44.3277
          ],
          [
            14.7843,
            44.2856
          ],
          [
            14.8616,
            44.2433
          ],
          [
            14.9319,
            44.2039
          ],
          [
            15.0061,
            44.1628
          ],
          [
            15.0746,
            44.1243
          ],
          [
            15.1422,
            44.0866
          ],
          [
            15.2132,
            44.0464
          ],
          [
            15.282,
            44.0077
          ],
          [
            15.3538,
            43.9674
          ],
          [
            15.4238,
            43.9275
          ],
          [
            15.4912,
            43.8896
          ],
          [
            15.5641,
            43.8481
          ],
          [
            15.6342,
            43.8079
          ],
          [
            15.7044,
            43.7681
          ],
          [
            15.779,
            43.7253
          ],
          [
            15.8451,
            43.6871
          ],
          [
            15.9083,
            43.6511
          ],
          [
            15.9812,
            43.6087
          ],
          [
            16.0511,
            43.5685
          ],
          [
            16.1244,
            43.5259
          ],
          [
            16.1936,
            43.4859
          ],
          [
            16.2623,
            43.446
          ],
          [
            16.3316,
            43.4052
          ],
          [
            16.4027,
            43.3637
          ],
          [
            16.4714,
            43.3236
          ],
          [
            16.5424,
            43.2816
          ],
          [
            16.6091,
            43.2428
          ],
          [
            16.6781,
            43.2015
          ],
          [
            16.7468,
            43.1608
          ],
          [
            16.8265,
            43.114
          ],
          [
            16.8949,
            43.0725
          ],
          [
            16.965,
            43.0316
          ],
          [
            17.0321,
            42.9907
          ],
          [
            17.1018,
            42.9496
          ],
          [
            17.1693,
            42.9088
          ],
          [
            17.2373,
            42.8678
          ],
          [
            17.3075,
            42.8252
          ],
          [
            17.3721,
            42.7867
          ],
          [
            17.4381,
            42.7472
          ],
          [
            17.5033,
            42.707
          ],
          [
            17.5676,
            42.6675
          ],
          [
            17.6373,
            42.6252
          ],
          [
            17.7101,
            42.5807
          ],
          [
            17.7778,
            42.5392
          ],
          [
            17.8425,
            42.4992
          ],
          [
            17.9165,
            42.4536
          ],
          [
            17.9794,
            42.4151
          ],
          [
            18.0455,
            42.3742
          ],
          [
            18.1092,
            42.3343
          ],
          [
            18.1733,
            42.2947
          ],
          [
            18.2429,
            42.2515
          ],
          [
            18.3023,
            42.214
          ],
          [
            18.3665,
            42.1741
          ],
          [
            18.4306,
            42.1341
          ],
          [
            18.4954,
            42.093
          ],
          [
            18.5588,
            42.0532
          ],
          [
            18.6248,
            42.0118
          ],
          [
            18.6849,
            41.9703
          ],
          [
            18.7475,
            41.9237
          ],
          [
            18.8098,
            41.879
          ],
          [
            18.8752,
            41.8308
          ],
          [
            18.9339,
            41.7886
          ],
          [
            19.0014,
            41.7387
          ],
          [
            19.0629,
            41.6936
          ],
          [
            19.1253,
            41.6481
          ],
          [
            19.1852,
            41.6037
          ],
          [
            19.2479,
            41.5575
          ],
          [
            19.3098,
            41.5117
          ],
          [
            19.3729,
            41.4649
          ],
          [
            19.4333,
            41.4198
          ],
          [
            19.4949,
            41.3745
          ],
          [
            19.5543,
            41.33
          ],
          [
            19.6179,
            41.2822
          ],
          [
            19.6808,
            41.2356
          ],
          [
            19.7429,
            41.1883
          ],
          [
            19.8206,
            41.1308
          ],
          [
            19.8791,
            41.0857
          ],
          [
            19.9382,
            41.0414
          ],
          [
            19.9989,
            40.9954
          ],
          [
            20.0587,
            40.9504
          ],
          [
            20.116,
            40.9065
          ],
          [
            20.1723,
            40.8636
          ],
          [
            20.2273,
            40.8222
          ],
          [
            20.2842,
            40.7783
          ],
          [
            20.3382,
            40.7366
          ],
          [
            20.394,
            40.6943
          ],
          [
            20.452,
            40.6491
          ],
          [
            20.5089,
            40.6056
          ],
          [
            20.5631,
            40.5639
          ],
          [
            20.6195,
            40.52
          ],
          [
            20.6755,
            40.477
          ],
          [
            20.7325,
            40.4326
          ],
          [
            20.7891,
            40.3884
          ],
          [
            20.8551,
            40.3372
          ],
          [
            20.9119,
            40.2926
          ],
          [
            20.9673,
            40.249
          ],
          [
            21.024,
            40.2046
          ],
          [
            21.0826,
            40.1592
          ],
          [
            21.1381,
            40.1149
          ],
          [
            21.1947,
            40.0703
          ],
          [
            21.2516,
            40.0254
          ],
          [
            21.3075,
            39.981
          ],
          [
            21.3659,
            39.935
          ],
          [
            21.4201,
            39.8914
          ],
          [
            21.477,
            39.8466
          ],
          [
            21.5327,
            39.8018
          ],
          [
            21.589,
            39.7571
          ],
          [
            21.6468,
            39.7105
          ],
          [
            21.701,
            39.667
          ],
          [
            21.7568,
            39.6225
          ],
          [
            21.8161,
            39.5743
          ],
          [
            21.871,
            39.5304
          ],
          [
            21.9294,
            39.4825
          ],
          [
            21.9847,
            39.4384
          ],
          [
            22.0402,
            39.3933
          ],
          [
            22.0972,
            39.3465
          ],
          [
            22.1519,
            39.3022
          ],
          [
            22.2073,
            39.2568
          ],
          [
            22.2611,
            39.2128
          ],
          [
            22.3177,
            39.1667
          ],
          [
            22.3706,
            39.1228
          ],
          [
            22.4217,
            39.081
          ],
          [
            22.4706,
            39.0408
          ],
          [
            22.5279,
            38.9935
          ],
          [
            22.5817,
            38.9487
          ],
          [
            22.6317,
            38.9079
          ],
          [
            22.6821,
            38.8657
          ],
          [
            22.7334,
            38.8229
          ],
          [
            22.7866,
            38.7789
          ],
          [
            22.836,
            38.7378
          ],
          [
            22.8865,
            38.6954
          ],
          [
            22.9398,
            38.6509
          ],
          [
            22.9907,
            38.6083
          ],
          [
            23.0408,
            38.5658
          ],
          [
            23.0916,
            38.5233
          ],
          [
            23.1418,
            38.4811
          ],
          [
            23.1785,
            38.4459
          ],
          [
            23.2302,
            38.3802
          ],
          [
            23.2677,
            38.3302
          ],
          [
            23.3038,
            38.2834
          ],
          [
            23.3431,
            38.2329
          ],
          [
            23.3773,
            38.1876
          ],
          [
            23.4132,
            38.1399
          ],
          [
            23.4473,
            38.0932
          ],
          [
            23.4801,
            38.0477
          ],
          [
            23.4899,
            38.0219
          ],
          [
            23.4969,
            37.9543
          ],
          [
            23.5009,
            37.9095
          ],
          [
            23.5042,
            37.88
          ],
          [
            23.5355,
            37.8399
          ],
          [
            23.5741,
            37.7988
          ],
          [
            23.5984,
            37.7753
          ],
          [
            23.6361,
            37.7579
          ],
          [
            23.6699,
            37.7469
          ],
          [
            23.7177,
            37.7316
          ],
          [
            23.747,
            37.7276
          ],
          [
            23.7743,
            37.7364
          ],
          [
            23.797,
            37.7593
          ],
          [
            23.8102,
            37.7766
          ],
          [
            23.8308,
            37.8047
          ],
          [
            23.8504,
            37.8259
          ],
          [
            23.8711,
            37.8476
          ],
          [
            23.8872,
            37.8645
          ],
          [
            23.894,
            37.8717
          ],
          [
            23.8975,
            37.8755
          ],
          [
            23.9021,
            37.8803
          ],
          [
            23.9085,
            37.8871
          ],
          [
            23.9165,
            37.8955
          ],
          [
            23.9235,
            37.9029
          ],
          [
            23.9294,
            37.9092
          ],
          [
            23.9362,
            37.9163
          ],
          [
            23.9432,
            37.9236
          ]
        ]
      },
      "properties": {
        "time_europe_berlin": [
          "01.11.2025 10:33:45",
          "01.11.2025 10:34:04",
          "01.11.2025 10:34:17",
          "01.11.2025 10:34:33",
          "01.11.2025 10:34:49",
          "01.11.2025 10:35:05",
          "01.11.2025 10:35:21",
          "01.11.2025 10:35:37",
          "01.11.2025 10:35:53",
          "01.11.2025 10:36:15",
          "01.11.2025 10:36:45",
          "01.11.2025 10:37:15",
          "01.11.2025 10:37:45",
          "01.11.2025 10:38:15",
          "01.11.2025 10:39:04",
          "01.11.2025 10:39:41",
          "01.11.2025 10:40:03",
          "01.11.2025 10:40:36",
          "01.11.2025 10:41:02",
          "01.11.2025 10:41:29",
          "01.11.2025 10:41:59",
          "01.11.2025 10:42:29",
          "01.11.2025 10:42:53",
          "01.11.2025 10:43:12",
          "01.11.2025 10:43:56",
          "01.11.2025 10:44:24",
          "01.11.2025 10:44:54",
          "01.11.2025 10:45:24",
          "01.11.2025 10:45:54",
          "01.11.2025 10:46:24",
          "01.11.2025 10:46:54",
          "01.11.2025 10:47:19",
          "01.11.2025 10:47:37",
          "01.11.2025 10:48:07",
          "01.11.2025 10:48:26",
          "01.11.2025 10:48:45",
          "01.11.2025 10:49:07",
          "01.11.2025 10:49:23",
          "01.11.2025 10:49:53",
          "01.11.2025 10:50:23",
          "01.11.2025 10:50:43",
          "01.11.2025 10:51:10",
          "01.11.2025 10:51:36",
          "01.11.2025 10:52:21",
          "01.11.2025 10:52:51",
          "01.11.2025 10:53:21",
          "01.11.2025 10:53:51",
          "01.11.2025 10:54:11",
          "01.11.2025 10:54:33",
          "01.11.2025 10:55:04",
          "01.11.2025 10:55:38",
          "01.11.2025 10:55:57",
          "01.11.2025 10:56:37",
          "01.11.2025 10:56:59",
          "01.11.2025 10:57:16",
          "01.11.2025 10:57:48",
          "01.11.2025 10:58:28",
          "01.11.2025 10:58:50",
          "01.11.2025 10:59:18",
          "01.11.2025 11:00:03",
          "01.11.2025 11:00:33",
          "01.11.2025 11:01:03",
          "01.11.2025 11:01:29",
          "01.11.2025 11:01:59",
          "01.11.2025 11:02:33",
          "01.11.2025 11:03:03",
          "01.11.2025 11:03:33",
          "01.11.2025 11:04:02",
          "01.11.2025 11:04:32",
          "01.11.2025 11:05:02",
          "01.11.2025 11:05:32",
          "01.11.2025 11:06:02",
          "01.11.2025 11:07:02",
          "01.11.2025 11:07:32",
          "01.11.2025 11:08:14",
          "01.11.2025 11:08:44",
          "01.11.2025 11:09:14",
          "01.11.2025 11:09:44",
          "01.11.2025 11:10:14",
          "01.11.2025 11:10:44",
          "01.11.2025 11:11:14",
          "01.11.2025 11:11:32",
          "01.11.2025 11:12:02",
          "01.11.2025 11:12:32",
          "01.11.2025 11:13:02",
          "01.11.2025 11:13:32",
          "01.11.2025 11:14:02",
          "01.11.2025 11:14:32",
          "01.11.2025 11:15:02",
          "01.11.2025 11:15:32",
          "01.11.2025 11:16:02",
          "01.11.2025 11:16:32",
          "01.11.2025 11:17:02",
          "01.11.2025 11:17:32",
          "01.11.2025 11:18:02",
          "01.11.2025 11:18:32",
          "01.11.2025 11:19:02",
          "01.11.2025 11:19:43",
          "01.11.2025 11:20:13",
          "01.11.2025 11:20:43",
          "01.11.2025 11:21:13",
          "01.11.2025 11:21:43",
          "01.11.2025 11:22:13",
          "01.11.2025 11:22:45",
          "01.11.2025 11:23:15",
          "01.11.2025 11:23:46",
          "01.11.2025 11:24:16",
          "01.11.2025 11:24:46",
          "01.11.2025 11:25:30",
          "01.11.2025 11:26:00",
          "01.11.2025 11:26:30",
          "01.11.2025 11:27:00",
          "01.11.2025 11:27:31",
          "01.11.2025 11:28:01",
          "01.11.2025 11:28:24",
          "01.11.2025 11:28:54",
          "01.11.2025 11:29:24",
          "01.11.2025 11:29:46",
          "01.11.2025 11:30:16",
          "01.11.2025 11:30:46",
          "01.11.2025 11:31:16",
          "01.11.2025 11:31:54",
          "01.11.2025 11:32:24",
          "01.11.2025 11:32:54",
          "01.11.2025 11:33:24",
          "01.11.2025 11:33:54",
          "01.11.2025 11:34:24",
          "01.11.2025 11:34:44",
          "01.11.2025 11:35:14",
          "01.11.2025 11:35:44",
          "01.11.2025 11:36:14",
          "01.11.2025 11:36:44",
          "01.11.2025 11:37:05",
          "01.11.2025 11:37:21",
          "01.11.2025 11:37:51",
          "01.11.2025 11:38:21",
          "01.11.2025 11:38:51",
          "01.11.2025 11:39:21",
          "01.11.2025 11:39:48",
          "01.11.2025 11:40:08",
          "01.11.2025 11:40:38",
          "01.11.2025 11:40:56",
          "01.11.2025 11:41:26",
          "01.11.2025 11:41:56",
          "01.11.2025 11:42:26",
          "01.11.2025 11:42:56",
          "01.11.2025 11:43:26",
          "01.11.2025 11:43:52",
          "01.11.2025 11:44:22",
          "01.11.2025 11:44:43",
          "01.11.2025 11:45:13",
          "01.11.2025 11:45:36",
          "01.11.2025 11:46:21",
          "01.11.2025 11:46:51",
          "01.11.2025 11:47:21",
          "01.11.2025 11:47:51",
          "01.11.2025 11:48:12",
          "01.11.2025 11:49:01",
          "01.11.2025 11:49:22",
          "01.11.2025 11:49:52",
          "01.11.2025 11:50:22",
          "01.11.2025 11:50:52",
          "01.11.2025 11:51:22",
          "01.11.2025 11:51:52",
          "01.11.2025 11:52:22",
          "01.11.2025 11:52:51",
          "01.11.2025 11:53:33",
          "01.11.2025 11:54:03",
          "01.11.2025 11:54:33",
          "01.11.2025 11:54:55",
          "01.11.2025 11:55:35",
          "01.11.2025 11:56:05",
          "01.11.2025 11:56:35",
          "01.11.2025 11:57:05",
          "01.11.2025 11:57:35",
          "01.11.2025 11:58:05",
          "01.11.2025 11:58:33",
          "01.11.2025 11:58:54",
          "01.11.2025 11:59:24",
          "01.11.2025 11:59:42",
          "01.11.2025 12:00:26",
          "01.11.2025 12:00:56",
          "01.11.2025 12:01:26",
          "01.11.2025 12:01:56",
          "01.11.2025 12:02:26",
          "01.11.2025 12:02:58",
          "01.11.2025 12:03:53",
          "01.11.2025 12:04:24",
          "01.11.2025 12:04:42",
          "01.11.2025 12:05:05",
          "01.11.2025 12:05:35",
          "01.11.2025 12:05:56",
          "01.11.2025 12:06:13",
          "01.11.2025 12:06:47",
          "01.11.2025 12:07:26",
          "01.11.2025 12:07:56",
          "01.11.2025 12:08:26",
          "01.11.2025 12:08:57",
          "01.11.2025 12:09:42",
          "01.11.2025 12:10:12",
          "01.11.2025 12:10:42",
          "01.11.2025 12:11:12",
          "01.11.2025 12:11:42",
          "01.11.2025 12:12:12",
          "01.11.2025 12:12:42",
          "01.11.2025 12:13:12",
          "01.11.2025 12:13:42",
          "01.11.2025 12:14:08",
          "01.11.2025 12:14:28",
          "01.11.2025 12:14:58",
          "01.11.2025 12:15:28",
          "01.11.2025 12:15:58",
          "01.11.2025 12:16:19",
          "01.11.2025 12:16:49",
          "01.11.2025 12:17:19",
          "01.11.2025 12:17:49",
          "01.11.2025 12:18:19",
          "01.11.2025 12:18:49",
          "01.11.2025 12:19:11",
          "01.11.2025 12:19:41",
          "01.11.2025 12:20:14",
          "01.11.2025 12:20:44",
          "01.11.2025 12:21:15",
          "01.11.2025 12:21:46",
          "01.11.2025 12:22:16",
          "01.11.2025 12:22:42",
          "01.11.2025 12:23:12",
          "01.11.2025 12:23:42",
          "01.11.2025 12:24:12",
          "01.11.2025 12:24:44",
          "01.11.2025 12:25:14",
          "01.11.2025 12:25:44",
          "01.11.2025 12:26:18",
          "01.11.2025 12:26:48",
          "01.11.2025 12:27:19",
          "01.11.2025 12:27:49",
          "01.11.2025 12:28:19",
          "01.11.2025 12:28:49",
          "01.11.2025 12:29:19",
          "01.11.2025 12:29:49",
          "01.11.2025 12:30:19",
          "01.11.2025 12:30:49",
          "01.11.2025 12:31:19",
          "01.11.2025 12:31:49",
          "01.11.2025 12:32:19",
          "01.11.2025 12:32:49",
          "01.11.2025 12:33:19",
          "01.11.2025 12:33:49",
          "01.11.2025 12:34:19",
          "01.11.2025 12:34:50",
          "01.11.2025 12:35:22",
          "01.11.2025 12:35:53",
          "01.11.2025 12:36:24",
          "01.11.2025 12:36:54",
          "01.11.2025 12:37:24",
          "01.11.2025 12:37:54",
          "01.11.2025 12:38:24",
          "01.11.2025 12:38:54",
          "01.11.2025 12:39:24",
          "01.11.2025 12:39:54",
          "01.11.2025 12:40:24",
          "01.11.2025 12:40:54",
          "01.11.2025 12:41:24",
          "01.11.2025 12:41:55",
          "01.11.2025 12:42:25",
          "01.11.2025 12:42:51",
          "01.11.2025 12:43:22",
          "01.11.2025 12:43:52",
          "01.11.2025 12:44:23",
          "01.11.2025 12:44:53",
          "01.11.2025 12:45:23",
          "01.11.2025 12:45:53",
          "01.11.2025 12:46:23",
          "01.11.2025 12:46:53",
          "01.11.2025 12:47:23",
          "01.11.2025 12:47:53",
          "01.11.2025 12:48:23",
          "01.11.2025 12:48:53",
          "01.11.2025 12:49:28",
          "01.11.2025 12:49:58",
          "01.11.2025 12:50:29",
          "01.11.2025 12:50:59",
          "01.11.2025 12:51:29",
          "01.11.2025 12:51:59",
          "01.11.2025 12:52:29",
          "01.11.2025 12:53:01",
          "01.11.2025 12:53:31",
          "01.11.2025 12:54:01",
          "01.11.2025 12:54:31",
          "01.11.2025 12:55:01",
          "01.11.2025 12:55:32",
          "01.11.2025 12:56:06",
          "01.11.2025 12:56:38",
          "01.11.2025 12:57:08",
          "01.11.2025 12:57:42",
          "01.11.2025 12:58:13",
          "01.11.2025 12:58:43",
          "01.11.2025 12:59:13",
          "01.11.2025 12:59:43",
          "01.11.2025 13:00:14",
          "01.11.2025 13:00:44",
          "01.11.2025 13:01:14",
          "01.11.2025 13:01:44",
          "01.11.2025 13:02:14",
          "01.11.2025 13:02:44",
          "01.11.2025 13:03:14",
          "01.11.2025 13:03:44",
          "01.11.2025 13:04:14",
          "01.11.2025 13:04:44",
          "01.11.2025 13:05:14",
          "01.11.2025 13:05:44",
          "01.11.2025 13:06:16",
          "01.11.2025 13:06:46",
          "01.11.2025 13:07:16",
          "01.11.2025 13:07:46",
          "01.11.2025 13:08:16",
          "01.11.2025 13:08:46",
          "01.11.2025 13:09:16",
          "01.11.2025 13:09:46",
          "01.11.2025 13:10:16",
          "01.11.2025 13:10:46",
          "01.11.2025 13:11:17",
          "01.11.2025 13:11:49",
          "01.11.2025 13:12:19",
          "01.11.2025 13:12:57",
          "01.11.2025 13:13:28",
          "01.11.2025 13:13:58",
          "01.11.2025 13:14:28",
          "01.11.2025 13:14:58",
          "01.11.2025 13:15:28",
          "01.11.2025 13:15:58",
          "01.11.2025 13:16:28",
          "01.11.2025 13:16:58",
          "01.11.2025 13:17:28",
          "01.11.2025 13:17:58",
          "01.11.2025 13:18:28",
          "01.11.2025 13:18:58",
          "01.11.2025 13:19:28",
          "01.11.2025 13:19:58",
          "01.11.2025 13:20:28",
          "01.11.2025 13:20:58",
          "01.11.2025 13:21:29",
          "01.11.2025 13:22:04",
          "01.11.2025 13:22:34",
          "01.11.2025 13:23:04",
          "01.11.2025 13:23:34",
          "01.11.2025 13:24:04",
          "01.11.2025 13:24:34",
          "01.11.2025 13:25:04",
          "01.11.2025 13:25:34",
          "01.11.2025 13:26:04",
          "01.11.2025 13:26:34",
          "01.11.2025 13:27:04",
          "01.11.2025 13:27:34",
          "01.11.2025 13:28:04",
          "01.11.2025 13:28:34",
          "01.11.2025 13:29:04",
          "01.11.2025 13:29:34",
          "01.11.2025 13:30:04",
          "01.11.2025 13:30:35",
          "01.11.2025 13:31:05",
          "01.11.2025 13:31:36",
          "01.11.2025 13:32:06",
          "01.11.2025 13:32:37",
          "01.11.2025 13:33:08",
          "01.11.2025 13:33:38",
          "01.11.2025 13:34:08",
          "01.11.2025 13:34:38",
          "01.11.2025 13:35:08",
          "01.11.2025 13:35:38",
          "01.11.2025 13:36:08",
          "01.11.2025 13:36:38",
          "01.11.2025 13:37:09",
          "01.11.2025 13:37:39",
          "01.11.2025 13:38:09",
          "01.11.2025 13:38:40",
          "01.11.2025 13:39:10",
          "01.11.2025 13:39:40",
          "01.11.2025 13:40:10",
          "01.11.2025 13:40:40",
          "01.11.2025 13:41:11",
          "01.11.2025 13:41:41",
          "01.11.2025 13:42:11",
          "01.11.2025 13:42:41",
          "01.11.2025 13:43:11",
          "01.11.2025 13:43:35",
          "01.11.2025 13:44:15",
          "01.11.2025 13:44:46",
          "01.11.2025 13:45:16",
          "01.11.2025 13:45:46",
          "01.11.2025 13:46:16",
          "01.11.2025 13:46:46",
          "01.11.2025 13:47:16",
          "01.11.2025 13:47:45",
          "01.11.2025 13:48:01",
          "01.11.2025 13:48:43",
          "01.11.2025 13:49:13",
          "01.11.2025 13:49:33",
          "01.11.2025 13:50:07",
          "01.11.2025 13:50:40",
          "01.11.2025 13:51:01",
          "01.11.2025 13:51:25",
          "01.11.2025 13:51:45",
          "01.11.2025 13:52:15",
          "01.11.2025 13:52:33",
          "01.11.2025 13:52:50",
          "01.11.2025 13:53:12",
          "01.11.2025 13:53:28",
          "01.11.2025 13:53:55",
          "01.11.2025 13:54:25",
          "01.11.2025 13:54:55",
          "01.11.2025 13:55:25",
          "01.11.2025 13:55:41",
          "01.11.2025 13:55:49",
          "01.11.2025 13:55:59",
          "01.11.2025 13:56:16",
          "01.11.2025 13:56:34",
          "01.11.2025 13:56:51",
          "01.11.2025 13:57:07",
          "01.11.2025 13:57:23",
          "01.11.2025 13:57:41"
        ],
        "course_deg_clockwise_from_north": [
          "221",
          "221",
          "221",
          "224",
          "227",
          "220",
          "168",
          "131",
          "108",
          "106",
          "105",
          "105",
          "104",
          "105",
          "105",
          "106",
          "115",
          "116",
          "117",
          "117",
          "118",
          "118",
          "120",
          "144",
          "148",
          "147",
          "148",
          "147",
          "147",
          "148",
          "146",
          "146",
          "147",
          "146",
          "152",
          "152",
          "152",
          "153",
          "152",
          "152",
          "152",
          "151",
          "152",
          "151",
          "151",
          "152",
          "152",
          "150",
          "136",
          "131",
          "131",
          "130",
          "131",
          "132",
          "123",
          "115",
          "112",
          "113",
          "113",
          "114",
          "114",
          "114",
          "114",
          "117",
          "125",
          "125",
          "125",
          "125",
          "125",
          "125",
          "125",
          "125",
          "125",
          "125",
          "126",
          "126",
          "126",
          "126",
          "126",
          "126",
          "126",
          "126",
          "126",
          "126",
          "126",
          "126",
          "126",
          "126",
          "126",
          "127",
          "126",
          "127",
          "127",
          "126",
          "127",
          "127",
          "126",
          "127",
          "127",
          "126",
          "128",
          "126",
          "128",
          "127",
          "128",
          "127",
          "128",
          "127",
          "127",
          "127",
          "128",
          "127",
          "128",
          "129",
          "127",
          "128",
          "127",
          "128",
          "128",
          "128",
          "128",
          "128",
          "128",
          "129",
          "128",
          "128",
          "130",
          "128",
          "129",
          "128",
          "129",
          "128",
          "129",
          "128",
          "129",
          "129",
          "129",
          "129",
          "129",
          "128",
          "130",
          "129",
          "130",
          "129",
          "129",
          "129",
          "130",
          "129",
          "130",
          "130",
          "130",
          "130",
          "130",
          "130",
          "130",
          "130",
          "130",
          "125",
          "126",
          "126",
          "127",
          "127",
          "127",
          "127",
          "127",
          "127",
          "127",
          "126",
          "128",
          "125",
          "126",
          "126",
          "127",
          "126",
          "127",
          "126",
          "127",
          "126",
          "126",
          "127",
          "127",
          "126",
          "127",
          "126",
          "127",
          "126",
          "126",
          "127",
          "130",
          "138",
          "141",
          "130",
          "123",
          "117",
          "118",
          "119",
          "118",
          "118",
          "118",
          "119",
          "119",
          "118",
          "120",
          "119",
          "119",
          "119",
          "120",
          "119",
          "120",
          "119",
          "120",
          "119",
          "120",
          "119",
          "120",
          "120",
          "120",
          "120",
          "121",
          "121",
          "121",
          "121",
          "121",
          "122",
          "122",
          "122",
          "127",
          "127",
          "127",
          "127",
          "127",
          "127",
          "127",
          "126",
          "127",
          "127",
          "126",
          "127",
          "127",
          "127",
          "127",
          "127",
          "128",
          "127",
          "128",
          "127",
          "128",
          "127",
          "127",
          "128",
          "127",
          "128",
          "127",
          "128",
          "128",
          "128",
          "129",
          "128",
          "128",
          "128",
          "129",
          "128",
          "128",
          "128",
          "129",
          "128",
          "129",
          "128",
          "129",
          "129",
          "129",
          "128",
          "129",
          "129",
          "129",
          "129",
          "129",
          "129",
          "130",
          "129",
          "129",
          "130",
          "129",
          "130",
          "129",
          "130",
          "129",
          "130",
          "129",
          "130",
          "129",
          "130",
          "130",
          "129",
          "130",
          "130",
          "129",
          "130",
          "130",
          "130",
          "130",
          "131",
          "130",
          "130",
          "131",
          "130",
          "134",
          "135",
          "134",
          "135",
          "134",
          "134",
          "135",
          "134",
          "135",
          "134",
          "134",
          "135",
          "135",
          "135",
          "134",
          "135",
          "135",
          "135",
          "136",
          "135",
          "136",
          "135",
          "135",
          "135",
          "135",
          "135",
          "135",
          "135",
          "135",
          "135",
          "136",
          "135",
          "136",
          "135",
          "135",
          "136",
          "135",
          "136",
          "136",
          "135",
          "136",
          "135",
          "136",
          "136",
          "136",
          "136",
          "137",
          "135",
          "136",
          "136",
          "137",
          "136",
          "136",
          "136",
          "137",
          "136",
          "137",
          "136",
          "136",
          "136",
          "136",
          "137",
          "136",
          "137",
          "137",
          "137",
          "137",
          "136",
          "136",
          "137",
          "137",
          "136",
          "137",
          "137",
          "137",
          "137",
          "137",
          "137",
          "137",
          "146",
          "149",
          "150",
          "149",
          "148",
          "148",
          "149",
          "151",
          "154",
          "173",
          "177",
          "177",
          "166",
          "145",
          "144",
          "136",
          "113",
          "112",
          "112",
          "83",
          "55",
          "32",
          "30",
          "33",
          "37",
          "37",
          "37",
          "36",
          "36",
          "37",
          "37",
          "37",
          "36",
          "37",
          "37",
          "36"
        ],
        "speed_kts": [
          "103",
          "140",
          "145",
          "145",
          "160",
          "168",
          "194",
          "210",
          "219",
          "238",
          "259",
          "264",
          "297",
          "328",
          "369",
          "391",
          "398",
          "411",
          "433",
          "448",
          "455",
          "450",
          "445",
          "426",
          "420",
          "417",
          "415",
          "423",
          "431",
          "434",
          "434",
          "430",
          "427",
          "427",
          "421",
          "421",
          "421",
          "420",
          "420",
          "418",
          "417",
          "414",
          "410",
          "419",
          "419",
          "416",
          "416",
          "418",
          "439",
          "447",
          "451",
          "452",
          "452",
          "451",
          "464",
          "481",
          "485",
          "484",
          "482",
          "479",
          "477",
          "476",
          "476",
          "473",
          "462",
          "461",
          "460",
          "459",
          "460",
          "462",
          "463",
          "466",
          "467",
          "466",
          "466",
          "467",
          "465",
          "466",
          "465",
          "465",
          "464",
          "466",
          "466",
          "466",
          "466",
          "466",
          "466",
          "465",
          "438",
          "426",
          "422",
          "419",
          "419",
          "419",
          "419",
          "420",
          "423",
          "429",
          "434",
          "441",
          "444",
          "451",
          "451",
          "453",
          "452",
          "455",
          "450",
          "448",
          "444",
          "442",
          "441",
          "442",
          "443",
          "443",
          "447",
          "446",
          "444",
          "439",
          "439",
          "435",
          "434",
          "432",
          "432",
          "429",
          "430",
          "431",
          "429",
          "434",
          "435",
          "441",
          "440",
          "443",
          "444",
          "446",
          "445",
          "447",
          "446",
          "446",
          "447",
          "448",
          "445",
          "446",
          "445",
          "447",
          "447",
          "447",
          "447",
          "449",
          "448",
          "450",
          "449",
          "451",
          "453",
          "453",
          "454",
          "455",
          "455",
          "461",
          "459",
          "459",
          "459",
          "459",
          "459",
          "459",
          "460",
          "460",
          "462",
          "465",
          "466",
          "469",
          "468",
          "466",
          "465",
          "465",
          "462",
          "461",
          "460",
          "459",
          "459",
          "458",
          "458",
          "459",
          "461",
          "463",
          "462",
          "464",
          "466",
          "467",
          "466",
          "461",
          "460",
          "469",
          "474",
          "477",
          "478",
          "477",
          "478",
          "478",
          "478",
          "478",
          "479",
          "479",
          "478",
          "479",
          "479",
          "478",
          "479",
          "481",
          "481",
          "482",
          "482",
          "483",
          "483",
          "485",
          "484",
          "484",
          "484",
          "486",
          "485",
          "485",
          "486",
          "488",
          "488",
          "489",
          "490",
          "491",
          "491",
          "491",
          "491",
          "492",
          "493",
          "492",
          "490",
          "490",
          "488",
          "487",
          "486",
          "486",
          "486",
          "483",
          "482",
          "479",
          "476",
          "477",
          "478",
          "475",
          "472",
          "469",
          "467",
          "465",
          "463",
          "462",
          "461",
          "460",
          "460",
          "460",
          "461",
          "461",
          "463",
          "465",
          "467",
          "467",
          "469",
          "470",
          "471",
          "471",
          "471",
          "470",
          "470",
          "470",
          "470",
          "470",
          "470",
          "470",
          "469",
          "468",
          "467",
          "465",
          "464",
          "463",
          "462",
          "462",
          "462",
          "459",
          "456",
          "454",
          "453",
          "452",
          "452",
          "451",
          "450",
          "449",
          "447",
          "446",
          "445",
          "445",
          "445",
          "447",
          "446",
          "447",
          "448",
          "450",
          "449",
          "451",
          "453",
          "457",
          "462",
          "465",
          "466",
          "467",
          "468",
          "468",
          "468",
          "468",
          "467",
          "466",
          "470",
          "472",
          "470",
          "466",
          "463",
          "464",
          "465",
          "465",
          "464",
          "462",
          "459",
          "458",
          "451",
          "441",
          "434",
          "433",
          "434",
          "434",
          "436",
          "436",
          "438",
          "439",
          "441",
          "441",
          "443",
          "443",
          "446",
          "447",
          "448",
          "448",
          "449",
          "449",
          "450",
          "448",
          "448",
          "449",
          "450",
          "449",
          "450",
          "450",
          "451",
          "450",
          "450",
          "450",
          "449",
          "447",
          "446",
          "447",
          "446",
          "445",
          "444",
          "444",
          "438",
          "439",
          "426",
          "422",
          "425",
          "422",
          "417",
          "421",
          "424",
          "421",
          "418",
          "420",
          "421",
          "420",
          "419",
          "417",
          "416",
          "411",
          "408",
          "406",
          "405",
          "401",
          "397",
          "393",
          "386",
          "377",
          "372",
          "335",
          "311",
          "298",
          "320",
          "328",
          "312",
          "306",
          "303",
          "293",
          "301",
          "299",
          "289",
          "269",
          "222",
          "190",
          "168",
          "137",
          "127",
          "121",
          "117",
          "119",
          "117",
          "117",
          "115",
          "113",
          "117"
        ],
        "speed_mph": [
          "119",
          "161",
          "167",
          "167",
          "184",
          "193",
          "223",
          "242",
          "252",
          "274",
          "298",
          "304",
          "342",
          "377",
          "425",
          "450",
          "458",
          "473",
          "498",
          "516",
          "524",
          "518",
          "512",
          "490",
          "483",
          "480",
          "478",
          "487",
          "496",
          "499",
          "499",
          "495",
          "491",
          "491",
          "484",
          "484",
          "484",
          "483",
          "483",
          "481",
          "480",
          "476",
          "472",
          "482",
          "482",
          "479",
          "479",
          "481",
          "505",
          "514",
          "519",
          "520",
          "520",
          "519",
          "534",
          "554",
          "558",
          "557",
          "555",
          "551",
          "549",
          "548",
          "548",
          "544",
          "532",
          "531",
          "529",
          "528",
          "529",
          "532",
          "533",
          "536",
          "537",
          "536",
          "536",
          "537",
          "535",
          "536",
          "535",
          "535",
          "534",
          "536",
          "536",
          "536",
          "536",
          "536",
          "536",
          "535",
          "504",
          "490",
          "486",
          "482",
          "482",
          "482",
          "482",
          "483",
          "487",
          "494",
          "499",
          "507",
          "511",
          "519",
          "519",
          "521",
          "520",
          "524",
          "518",
          "516",
          "511",
          "509",
          "507",
          "509",
          "510",
          "510",
          "514",
          "513",
          "511",
          "505",
          "505",
          "501",
          "499",
          "497",
          "497",
          "494",
          "495",
          "496",
          "494",
          "499",
          "501",
          "507",
          "506",
          "510",
          "511",
          "513",
          "512",
          "514",
          "513",
          "513",
          "514",
          "516",
          "512",
          "513",
          "512",
          "514",
          "514",
          "514",
          "514",
          "517",
          "516",
          "518",
          "517",
          "519",
          "521",
          "521",
          "522",
          "524",
          "524",
          "531",
          "528",
          "528",
          "528",
          "528",
          "528",
          "528",
          "529",
          "529",
          "532",
          "535",
          "536",
          "540",
          "539",
          "536",
          "535",
          "535",
          "532",
          "531",
          "529",
          "528",
          "528",
          "527",
          "527",
          "528",
          "531",
          "533",
          "532",
          "534",
          "536",
          "537",
          "536",
          "531",
          "529",
          "540",
          "545",
          "549",
          "550",
          "549",
          "550",
          "550",
          "550",
          "550",
          "551",
          "551",
          "550",
          "551",
          "551",
          "550",
          "551",
          "554",
          "554",
          "555",
          "555",
          "556",
          "556",
          "558",
          "557",
          "557",
          "557",
          "559",
          "558",
          "558",
          "559",
          "562",
          "562",
          "563",
          "564",
          "565",
          "565",
          "565",
          "565",
          "566",
          "567",
          "566",
          "564",
          "564",
          "562",
          "560",
          "559",
          "559",
          "559",
          "556",
          "555",
          "551",
          "548",
          "549",
          "550",
          "547",
          "543",
          "540",
          "537",
          "535",
          "533",
          "532",
          "531",
          "529",
          "529",
          "529",
          "531",
          "531",
          "533",
          "535",
          "537",
          "537",
          "540",
          "541",
          "542",
          "542",
          "542",
          "541",
          "541",
          "541",
          "541",
          "541",
          "541",
          "541",
          "540",
          "539",
          "537",
          "535",
          "534",
          "533",
          "532",
          "532",
          "532",
          "528",
          "525",
          "522",
          "521",
          "520",
          "520",
          "519",
          "518",
          "517",
          "514",
          "513",
          "512",
          "512",
          "512",
          "514",
          "513",
          "514",
          "516",
          "518",
          "517",
          "519",
          "521",
          "526",
          "532",
          "535",
          "536",
          "537",
          "539",
          "539",
          "539",
          "539",
          "537",
          "536",
          "541",
          "543",
          "541",
          "536",
          "533",
          "534",
          "535",
          "535",
          "534",
          "532",
          "528",
          "527",
          "519",
          "507",
          "499",
          "498",
          "499",
          "499",
          "502",
          "502",
          "504",
          "505",
          "507",
          "507",
          "510",
          "510",
          "513",
          "514",
          "516",
          "516",
          "517",
          "517",
          "518",
          "516",
          "516",
          "517",
          "518",
          "517",
          "518",
          "518",
          "519",
          "518",
          "518",
          "518",
          "517",
          "514",
          "513",
          "514",
          "513",
          "512",
          "511",
          "511",
          "504",
          "505",
          "490",
          "486",
          "489",
          "486",
          "480",
          "484",
          "488",
          "484",
          "481",
          "483",
          "484",
          "483",
          "482",
          "480",
          "479",
          "473",
          "470",
          "467",
          "466",
          "461",
          "457",
          "452",
          "444",
          "434",
          "428",
          "386",
          "358",
          "343",
          "368",
          "377",
          "359",
          "352",
          "349",
          "337",
          "346",
          "344",
          "333",
          "310",
          "255",
          "219",
          "193",
          "158",
          "146",
          "139",
          "135",
          "137",
          "135",
          "135",
          "132",
          "130",
          "135"
        ],
        "altitude_ft": [
          "525",
          "950",
          "1525",
          "2325",
          "2900",
          "3625",
          "4425",
          "5150",
          "6050",
          "6875",
          "8200",
          "9800",
          "11125",
          "12450",
          "14500",
          "16075",
          "17000",
          "18375",
          "19050",
          "19725",
          "20750",
          "21750",
          "22600",
          "23200",
          "24700",
          "25750",
          "26725",
          "27700",
          "28400",
          "29000",
          "29700",
          "30250",
          "30525",
          "31050",
          "31400",
          "31675",
          "32075",
          "32325",
          "32800",
          "33300",
          "33675",
          "34250",
          "34725",
          "35000",
          "35100",
          "35575",
          "36000",
          "36250",
          "36475",
          "36800",
          "37075",
          "37200",
          "37600",
          "37800",
          "37950",
          "38075",
          "38375",
          "38550",
          "38775",
          "39000",
          "39000",
          "39000",
          "39000",
          "39000",
          "39000",
          "39000",
          "39000",
          "39000",
          "39000",
          "39000",
          "39000",
          "39000",
          "39000",
          "39000",
          "39000",
          "39000",
          "39000",
          "39000",
          "39000",
          "39000",
          "39000",
          "39000",
          "39000",
          "39000",
          "39000",
          "39000",
          "39000",
          "39025",
          "39000",
          "39000",
          "39000",
          "39000",
          "39000",
          "39300",
          "39675",
          "40000",
          "40350",
          "40525",
          "40675",
          "40800",
          "40975",
          "41000",
          "41000",
          "41000",
          "41000",
          "41000",
          "41000",
          "41000",
          "41000",
          "41000",
          "41000",
          "41000",
          "41000",
          "41000",
          "41000",
          "41000",
          "41000",
          "41000",
          "41000",
          "41000",
          "41000",
          "41000",
          "41000",
          "41000",
          "41000",
          "41000",
          "41000",
          "41000",
          "41000",
          "41000",
          "41000",
          "41000",
          "41000",
          "41000",
          "41000",
          "41000",
          "41000",
          "41000",
          "41000",
          "41000",
          "41000",
          "41000",
          "41000",
          "41000",
          "41000",
          "41000",
          "41000",
          "41000",
          "41000",
          "41000",
          "41000",
          "41000",
          "41000",
          "41000",
          "41000",
          "41000",
          "41000",
          "41000",
          "41000",
          "41000",
          "41000",
          "41000",
          "41000",
          "41000",
          "41000",
          "41000",
          "41000",
          "41000",
          "41000",
          "41000",
          "41000",
          "41000",
          "41000",
          "41000",
          "41000",
          "41000",
          "41000",
          "41000",
          "41000",
          "41000",
          "41000",
          "41000",
          "41000",
          "41000",
          "41000",
          "41000",
          "41000",
          "41000",
          "41000",
          "41000",
          "41000",
          "41000",
          "41000",
          "41000",
          "41000",
          "41000",
          "41000",
          "41000",
          "41000",
          "41000",
          "41000",
          "41000",
          "41000",
          "41000",
          "41000",
          "41000",
          "41000",
          "41000",
          "41000",
          "41000",
          "41000",
          "41000",
          "41000",
          "41000",
          "41000",
          "41000",
          "41000",
          "41000",
          "41000",
          "41000",
          "41000",
          "41000",
          "41000",
          "41000",
          "41000",
          "41000",
          "41000",
          "41000",
          "41000",
          "41000",
          "41000",
          "41000",
          "41000",
          "41000",
          "41000",
          "41000",
          "41000",
          "41000",
          "41000",
          "41000",
          "41000",
          "41000",
          "41000",
          "41000",
          "41000",
          "41000",
          "41000",
          "41000",
          "41000",
          "41000",
          "41000",
          "41000",
          "41000",
          "41000",
          "41000",
          "41000",
          "41000",
          "41000",
          "41000",
          "41000",
          "41000",
          "41000",
          "41000",
          "41000",
          "41000",
          "41000",
          "41000",
          "41000",
          "41000",
          "41000",
          "41000",
          "41000",
          "41000",
          "41000",
          "41000",
          "41000",
          "41000",
          "41000",
          "41000",
          "41000",
          "41000",
          "41000",
          "41000",
          "41000",
          "41000",
          "41000",
          "41000",
          "41000",
          "41000",
          "41000",
          "41000",
          "41000",
          "41000",
          "41000",
          "41000",
          "41000",
          "41000",
          "41000",
          "41000",
          "41000",
          "41000",
          "41000",
          "41000",
          "41000",
          "41000",
          "41000",
          "41000",
          "41000",
          "41000",
          "41000",
          "41000",
          "41000",
          "41000",
          "41000",
          "41050",
          "41275",
          "41500",
          "41725",
          "42075",
          "42450",
          "42825",
          "43000",
          "43000",
          "43000",
          "43000",
          "43000",
          "43000",
          "43000",
          "43000",
          "43000",
          "43000",
          "43000",
          "43000",
          "43000",
          "43000",
          "43000",
          "43000",
          "43000",
          "43000",
          "43000",
          "43000",
          "43000",
          "43000",
          "43000",
          "43000",
          "43000",
          "43000",
          "43000",
          "43000",
          "43000",
          "43000",
          "43000",
          "43000",
          "43000",
          "43000",
          "43000",
          "43000",
          "43000",
          "43000",
          "43000",
          "43000",
          "43000",
          "43000",
          "43000",
          "43000",
          "43000",
          "43000",
          "43000",
          "42800",
          "42025",
          "41225",
          "40200",
          "38975",
          "37875",
          "36750",
          "35625",
          "34525",
          "33375",
          "32300",
          "31200",
          "30050",
          "28925",
          "27825",
          "26650",
          "25600",
          "24700",
          "23200",
          "22050",
          "20975",
          "19800",
          "18750",
          "17625",
          "16675",
          "15925",
          "15525",
          "14050",
          "12950",
          "12225",
          "11150",
          "9975",
          "9275",
          "8400",
          "7550",
          "6525",
          "5775",
          "5075",
          "4175",
          "3475",
          "2850",
          "2750",
          "2175",
          "1725",
          "1550",
          "1450",
          "1325",
          "1150",
          "900",
          "700",
          "550",
          "375",
          "175"
        ],
        "vertical_rate_fpm": [
          "",
          "1875",
          "2845",
          "2578",
          "2438",
          "2859",
          "2859",
          "3047",
          "2724",
          "2481",
          "2925",
          "2925",
          "2650",
          "2563",
          "2529",
          "2542",
          "2509",
          "2085",
          "1528",
          "1789",
          "2025",
          "2056",
          "2023",
          "2000",
          "2125",
          "2095",
          "1950",
          "1675",
          "1300",
          "1300",
          "1364",
          "1151",
          "1000",
          "1071",
          "987",
          "988",
          "1026",
          "946",
          "975",
          "1050",
          "1213",
          "1189",
          "634",
          "300",
          "575",
          "900",
          "810",
          "679",
          "623",
          "554",
          "453",
          "534",
          "581",
          "538",
          "337",
          "354",
          "460",
          "480",
          "370",
          "180",
          "",
          "",
          "",
          "",
          "",
          "",
          "",
          "",
          "",
          "",
          "",
          "",
          "",
          "",
          "",
          "",
          "",
          "",
          "",
          "",
          "",
          "",
          "",
          "",
          "",
          "",
          "25",
          "",
          "-25",
          "",
          "",
          "",
          "300",
          "675",
          "700",
          "675",
          "444",
          "275",
          "275",
          "300",
          "200",
          "25",
          "",
          "",
          "",
          "",
          "",
          "",
          "",
          "",
          "",
          "",
          "",
          "",
          "",
          "",
          "",
          "",
          "",
          "",
          "",
          "",
          "",
          "",
          "",
          "",
          "",
          "",
          "",
          "",
          "",
          "",
          "",
          "",
          "",
          "",
          "",
          "",
          "",
          "",
          "",
          "",
          "",
          "",
          "",
          "",
          "",
          "",
          "",
          "",
          "",
          "",
          "",
          "",
          "",
          "",
          "",
          "",
          "",
          "",
          "",
          "",
          "",
          "",
          "",
          "",
          "",
          "",
          "",
          "",
          "",
          "",
          "",
          "",
          "",
          "",
          "",
          "",
          "",
          "",
          "",
          "",
          "",
          "",
          "",
          "",
          "",
          "",
          "",
          "",
          "",
          "",
          "",
          "",
          "",
          "",
          "",
          "",
          "",
          "",
          "",
          "",
          "",
          "",
          "",
          "",
          "",
          "",
          "",
          "",
          "",
          "",
          "",
          "",
          "",
          "",
          "",
          "",
          "",
          "",
          "",
          "",
          "",
          "",
          "",
          "",
          "",
          "",
          "",
          "",
          "",
          "",
          "",
          "",
          "",
          "",
          "",
          "",
          "",
          "",
          "",
          "",
          "",
          "",
          "",
          "",
          "",
          "",
          "",
          "",
          "",
          "",
          "",
          "",
          "",
          "",
          "",
          "",
          "",
          "",
          "",
          "",
          "",
          "",
          "",
          "",
          "",
          "",
          "",
          "",
          "",
          "",
          "",
          "",
          "",
          "",
          "",
          "",
          "",
          "",
          "",
          "",
          "",
          "",
          "",
          "",
          "",
          "",
          "",
          "",
          "",
          "",
          "",
          "",
          "",
          "",
          "",
          "",
          "",
          "",
          "",
          "",
          "",
          "",
          "",
          "",
          "",
          "",
          "",
          "",
          "",
          "",
          "",
          "50",
          "275",
          "450",
          "450",
          "575",
          "725",
          "750",
          "541",
          "167",
          "",
          "",
          "",
          "",
          "",
          "",
          "",
          "",
          "",
          "",
          "",
          "",
          "",
          "",
          "",
          "",
          "",
          "",
          "",
          "",
          "",
          "",
          "",
          "",
          "",
          "",
          "",
          "",
          "",
          "",
          "",
          "",
          "",
          "",
          "",
          "",
          "",
          "",
          "",
          "",
          "",
          "",
          "",
          "",
          "",
          "-200",
          "-975",
          "-1575",
          "-1825",
          "-2213",
          "-2287",
          "-2225",
          "-2213",
          "-2189",
          "-2250",
          "-2225",
          "-2175",
          "-2213",
          "-2238",
          "-2225",
          "-2275",
          "-2225",
          "-2167",
          "-2250",
          "-2239",
          "-2189",
          "-2250",
          "-2225",
          "-2175",
          "-2075",
          "-1729",
          "-1533",
          "-1940",
          "-2146",
          "-2190",
          "-2000",
          "-2015",
          "-2083",
          "-2100",
          "-2352",
          "-2250",
          "-2219",
          "-2486",
          "-2462",
          "-2526",
          "-1849",
          "-763",
          "-675",
          "-1025",
          "-815",
          "-688",
          "-750",
          "-667",
          "-729",
          "-771",
          "-636",
          "-609",
          "-662",
          "-667"
        ],
        "reporting_facility": [
          "FlightAware ADS-B(CEG / EGNR)",
          "Surface and Near-Surface",
          "FlightAware ADS-B(EGOW)",
          "FlightAware ADS-B(MAN / EGCC)",
          "FlightAware ADS-B(VLY / EGOV)",
          "FlightAware ADS-B(MAN / EGCC)",
          "FlightAware ADS-B(EGBO)",
          "FlightAware ADS-B(CEG / EGNR)",
          "FlightAware ADS-B(EGOQ)",
          "FlightAware ADS-B(WTN / EGXW)",
          "FlightAware ADS-B(BHX / EGBB)",
          "FlightAware ADS-B(CEG / EGNR)",
          "FlightAware ADS-B(EGBM)",
          "FlightAware ADS-B(EGBO)",
          "FlightAware ADS-B(LPL / EGGP)",
          "FlightAware ADS-B(EGBD)",
          "FlightAware ADS-B(DSA / EGCN)",
          "FlightAware ADS-B(ORM / EGBK)",
          "FlightAware ADS-B(GLO / EGBJ)",
          "FlightAware ADS-B(EMA / EGNX)",
          "FlightAware ADS-B(DUB / EIDW)",
          "FlightAware ADS-B(EGXE)",
          "FlightAware ADS-B(GLO / EGBJ)",
          "FlightAware ADS-B(EGNF)",
          "FlightAware ADS-B(MAN / EGCC)",
          "FlightAware ADS-B(LBA / EGNM)",
          "FlightAware ADS-B(BRS / EGGD)",
          "FlightAware ADS-B(MAN / EGCC)",
          "FlightAware ADS-B(EGCJ)",
          "FlightAware ADS-B(EGBD)",
          "FlightAware ADS-B(EGBG)",
          "FlightAware ADS-B(LBA / EGNM)",
          "FlightAware ADS-B(QCY / EGXC)",
          "FlightAware ADS-B(MAN / EGCC)",
          "FlightAware ADS-B(LGW / EGKK)",
          "FlightAware ADS-B(GLO / EGBJ)",
          "FlightAware ADS-B(MME / EGNV)",
          "FlightAware ADS-B(GLO / EGBJ)",
          "FlightAware ADS-B(LTN / EGGW)",
          "FlightAware ADS-B(LTN / EGGW)",
          "FlightAware ADS-B(BHX / EGBB)",
          "FlightAware ADS-B(ORM / EGBK)",
          "FlightAware ADS-B(BZZ / EGVN)",
          "FlightAware ADS-B(GLO / EGBJ)",
          "FlightAware ADS-B(KNF / EGYM)",
          "FlightAware ADS-B(EGTF)",
          "FlightAware ADS-B(FAB / EGLF)",
          "FlightAware ADS-B(FZO / EGTG)",
          "FlightAware ADS-B(HUY / EGNJ)",
          "FlightAware ADS-B(RCS / EGTO)",
          "FlightAware ADS-B(NWI / EGSH)",
          "FlightAware ADS-B(BEX / EGUB)",
          "FlightAware ADS-B(MHZ / EGUN)",
          "FlightAware ADS-B(SOU / EGHI)",
          "FlightAware ADS-B(EGLW)",
          "FlightAware ADS-B(ESH / EGKA)",
          "FlightAware ADS-B(EGCJ)",
          "FlightAware ADS-B(EGLM)",
          "FlightAware ADS-B(UPV / EGDJ)",
          "FlightAware ADS-B(LHR / EGLL)",
          "FlightAware ADS-B(EGLW)",
          "FlightAware ADS-B(EGSU)",
          "FlightAware ADS-B(HUY / EGNJ)",
          "FlightAware ADS-B(EGBT)",
          "FlightAware ADS-B(LPL / EGGP)",
          "FlightAware ADS-B(BRS / EGGD)",
          "FlightAware ADS-B(SOU / EGHI)",
          "FlightAware ADS-B(RCS / EGTO)",
          "FlightAware ADS-B(HRT / EGXU)",
          "FlightAware ADS-B",
          "FlightAware ADS-B(AMS / EHAM)",
          "FlightAware ADS-B(EGBT)",
          "FlightAware ADS-B(BRS / EGGD)",
          "FlightAware ADS-B(MSE / EGMH)",
          "FlightAware ADS-B(BHX / EGBB)",
          "FlightAware ADS-B(KNF / EGYM)",
          "FlightAware ADS-B(STN / EGSS)",
          "FlightAware ADS-B(EGBF)",
          "FlightAware ADS-B(OST / EBOS)",
          "FlightAware ADS-B(NWI / EGSH)",
          "FlightAware ADS-B(HUY / EGNJ)",
          "FlightAware ADS-B(WOE / EHWO)",
          "FlightAware ADS-B(EGSQ)",
          "FlightAware ADS-B(EGKE)",
          "FlightAware ADS-B(CBG / EGSC)",
          "FlightAware ADS-B(ESH / EGKA)",
          "FlightAware ADS-B(EGHF)",
          "FlightAware ADS-B(EBUL)",
          "FlightAware ADS-B(LFOW)",
          "FlightAware ADS-B(EBUL)",
          "FlightAware ADS-B(LIL / LFQQ)",
          "FlightAware ADS-B(EBUL)",
          "FlightAware ADS-B(LGW / EGKK)",
          "FlightAware ADS-B(BQH / EGKB)",
          "FlightAware ADS-B(ANR / EBAW)",
          "FlightAware ADS-B(OBL / EBZR)",
          "FlightAware ADS-B(ENS / EHTW)",
          "FlightAware ADS-B(HYC / EGTB)",
          "FlightAware ADS-B(LUX / ELLX)",
          "FlightAware ADS-B(BRU / EBBR)",
          "FlightAware ADS-B(LFPM)",
          "FlightAware ADS-B(AAH / EDKA)",
          "FlightAware ADS-B(LFPH)",
          "FlightAware ADS-B(ANR / EBAW)",
          "FlightAware ADS-B(EBSG)",
          "FlightAware ADS-B(EBHN)",
          "FlightAware ADS-B(EBBZ)",
          "FlightAware ADS-B(GNE / EBGT)",
          "FlightAware ADS-B(LFON)",
          "FlightAware ADS-B(EBBY)",
          "FlightAware ADS-B(BRU / EBBR)",
          "FlightAware ADS-B(ANR / EBAW)",
          "FlightAware ADS-B(BRU / EBBR)",
          "FlightAware ADS-B(LFPM)",
          "FlightAware ADS-B(EHMZ)",
          "FlightAware ADS-B(URO / LFOP)",
          "FlightAware ADS-B(KJK / EBKT)",
          "FlightAware ADS-B(MST / EHBK)",
          "FlightAware ADS-B(CGN / EDDK)",
          "FlightAware ADS-B(RMS / ETAR)",
          "FlightAware ADS-B(CRL / EBCI)",
          "FlightAware ADS-B(EHBD)",
          "FlightAware ADS-B(ORY / LFPO)",
          "FlightAware ADS-B(GKE / ETNG)",
          "FlightAware ADS-B(TNF / LFPN)",
          "FlightAware ADS-B(EDFZ)",
          "FlightAware ADS-B(BRN / LSZB)",
          "FlightAware ADS-B(LUX / ELLX)",
          "FlightAware ADS-B(EBSG)",
          "FlightAware ADS-B(LFPY)",
          "FlightAware ADS-B(EAP / LFSB)",
          "FlightAware ADS-B(DUS / EDDL)",
          "FlightAware ADS-B(EDTO)",
          "FlightAware ADS-B(BRN / LSZB)",
          "FlightAware ADS-B(EDKV)",
          "FlightAware ADS-B(EAP / LFSB)",
          "FlightAware ADS-B(LSPH)",
          "FlightAware ADS-B(BXO / LSZC)",
          "FlightAware ADS-B(EDNX)",
          "FlightAware ADS-B(SCN / EDDR)",
          "FlightAware ADS-B(EAP / LFSB)",
          "FlightAware ADS-B(EBBL)",
          "FlightAware ADS-B(LFSH)",
          "FlightAware ADS-B(BXO / LSZC)",
          "FlightAware ADS-B(BXO / LSZC)",
          "FlightAware ADS-B(ZRH / LSZH)",
          "FlightAware ADS-B(ZRH / LSZH)",
          "FlightAware ADS-B(STR / EDDS)",
          "FlightAware ADS-B(LSPH)",
          "FlightAware ADS-B(LSPL)",
          "FlightAware ADS-B(LSZU)",
          "FlightAware ADS-B(LUX / ELLX)",
          "FlightAware ADS-B(VIP / LSMP)",
          "FlightAware ADS-B(EDTF)",
          "FlightAware ADS-B(EAP / LFSB)",
          "FlightAware ADS-B(STR / EDDS)",
          "FlightAware ADS-B(SXB / LFST)",
          "FlightAware ADS-B(SCN / EDDR)",
          "FlightAware ADS-B(ACH / LSZR)",
          "FlightAware ADS-B(LSGN)",
          "FlightAware ADS-B(SCN / EDDR)",
          "FlightAware ADS-B(LSZN)",
          "FlightAware ADS-B(BRN / LSZB)",
          "FlightAware ADS-B(BRN / LSZB)",
          "FlightAware ADS-B(QEF / EDFE)",
          "FlightAware ADS-B(ETSA)",
          "FlightAware ADS-B(LSZK)",
          "FlightAware ADS-B(LSZK)",
          "FlightAware ADS-B(BXO / LSZC)",
          "FlightAware ADS-B(LILE)",
          "FlightAware ADS-B(LSZF)",
          "FlightAware ADS-B(LSPL)",
          "FlightAware ADS-B(ZRH / LSZH)",
          "FlightAware ADS-B(LFLM)",
          "FlightAware ADS-B(STR / EDDS)",
          "FlightAware ADS-B(ACH / LSZR)",
          "FlightAware ADS-B(EAP / LFSB)",
          "FlightAware ADS-B(STR / EDDS)",
          "FlightAware ADS-B(ZRH / LSZH)",
          "FlightAware ADS-B(LIMA)",
          "FlightAware ADS-B(HOH / LOIH)",
          "FlightAware ADS-B(HOH / LOIH)",
          "FlightAware ADS-B(HOH / LOIH)",
          "FlightAware ADS-B(LSZP)",
          "FlightAware ADS-B(LSZP)",
          "FlightAware ADS-B(ETHA)",
          "FlightAware ADS-B(LIVV)",
          "FlightAware ADS-B(LSZG)",
          "FlightAware ADS-B(EDML)",
          "FlightAware ADS-B(LSZE)",
          "FlightAware ADS-B(LIMB)",
          "FlightAware ADS-B(LIMA)",
          "FlightAware ADS-B(TRN / LIMF)",
          "FlightAware ADS-B(LSZN)",
          "FlightAware ADS-B(MXP / LIMC)",
          "FlightAware ADS-B(LIDT)",
          "FlightAware ADS-B(OBF / EDMO)",
          "FlightAware ADS-B(LIPF)",
          "FlightAware ADS-B(LIPM)",
          "FlightAware ADS-B(LIPM)",
          "FlightAware ADS-B(EDPR)",
          "FlightAware ADS-B(EDPR)",
          "FlightAware ADS-B(EDCS)",
          "FlightAware ADS-B(EDCS)",
          "FlightAware ADS-B(BZO / LIPB)",
          "FlightAware ADS-B(OBF / EDMO)",
          "FlightAware ADS-B(LIDT)",
          "FlightAware ADS-B(LILC)",
          "FlightAware ADS-B(LIMB)",
          "FlightAware ADS-B(LIDA)",
          "FlightAware ADS-B(LIDA)",
          "FlightAware ADS-B(FLR / LIRQ)",
          "FlightAware ADS-B(UDN / LIPD)",
          "FlightAware ADS-B(GRZ / LOWG)",
          "FlightAware ADS-B(GRZ / LOWG)",
          "FlightAware ADS-B(LIPU)",
          "FlightAware ADS-B(FLR / LIRQ)",
          "FlightAware ADS-B(LIPU)",
          "FlightAware ADS-B(LIDU)",
          "FlightAware ADS-B(EBA / LIRJ)",
          "FlightAware ADS-B(LIMS)",
          "FlightAware ADS-B(LIN / LIML)",
          "FlightAware ADS-B(VCE / LIPZ)",
          "FlightAware ADS-B(PSR / LIBP)",
          "FlightAware ADS-B(LIPM)",
          "FlightAware ADS-B(LOGH)",
          "FlightAware ADS-B(LDOR)",
          "FlightAware ADS-B(AVB / LIPA)",
          "FlightAware ADS-B(PUY / LDPL)",
          "FlightAware ADS-B(PSR / LIBP)",
          "FlightAware ADS-B(PSR / LIBP)",
          "FlightAware ADS-B(PSR / LIBP)",
          "FlightAware ADS-B(LIPF)",
          "FlightAware ADS-B(RMI / LIPR)",
          "FlightAware ADS-B(GRZ / LOWG)",
          "FlightAware ADS-B(LIDF)",
          "FlightAware ADS-B(VCE / LIPZ)",
          "FlightAware ADS-B(BLQ / LIPE)",
          "FlightAware ADS-B(AOI / LIPY)",
          "FlightAware ADS-B(PSR / LIBP)",
          "FlightAware ADS-B(AOI / LIPY)",
          "FlightAware ADS-B(RJK / LDRI)",
          "FlightAware ADS-B(LIDF)",
          "FlightAware ADS-B(LJNM)",
          "FlightAware ADS-B(RJK / LDRI)",
          "FlightAware ADS-B(LIDU)",
          "FlightAware ADS-B(VCE / LIPZ)",
          "FlightAware ADS-B(VCE / LIPZ)",
          "FlightAware ADS-B(LIPI)",
          "FlightAware ADS-B(LIPS)",
          "FlightAware ADS-B(LIKE)",
          "FlightAware ADS-B(FCO / LIRF)",
          "FlightAware ADS-B(LIDU)",
          "FlightAware ADS-B(FOG / LIBF)",
          "FlightAware ADS-B(RMI / LIPR)",
          "FlightAware ADS-B(TQR / LINI)",
          "FlightAware ADS-B(TQR / LINI)",
          "FlightAware ADS-B(TQR / LINI)",
          "FlightAware ADS-B(TQR / LINI)",
          "FlightAware ADS-B(LJU / LJLJ)",
          "FlightAware ADS-B(QRT / LIQN)",
          "FlightAware ADS-B(RMI / LIPR)",
          "FlightAware ADS-B(TQR / LINI)",
          "FlightAware ADS-B(LINA)",
          "FlightAware ADS-B(AOI / LIPY)",
          "FlightAware ADS-B(BDS / LIBR)",
          "FlightAware ADS-B(TZL / LQTZ)",
          "FlightAware ADS-B(BWK / LDSB)",
          "FlightAware ADS-B(LIPI)",
          "FlightAware ADS-B(BWK / LDSB)",
          "FlightAware ADS-B(BDS / LIBR)",
          "FlightAware ADS-B(BDS / LIBR)",
          "FlightAware ADS-B(BWK / LDSB)",
          "FlightAware ADS-B(BDS / LIBR)",
          "FlightAware ADS-B(BDS / LIBR)",
          "FlightAware ADS-B(BDS / LIBR)",
          "FlightAware ADS-B(LHSY)",
          "FlightAware ADS-B(LCC / LIBN)",
          "FlightAware ADS-B(BWK / LDSB)",
          "FlightAware ADS-B(FOG / LIBF)",
          "FlightAware ADS-B(BWK / LDSB)",
          "FlightAware ADS-B(QWV / LYVA)",
          "FlightAware ADS-B(BWK / LDSB)",
          "FlightAware ADS-B(ZAD / LDZD)",
          "FlightAware ADS-B(ZAD / LDZD)",
          "FlightAware ADS-B(DBV / LDDU)",
          "FlightAware ADS-B(FOG / LIBF)",
          "FlightAware ADS-B(TQR / LINI)",
          "FlightAware ADS-B(TQR / LINI)",
          "FlightAware ADS-B(TQR / LINI)",
          "FlightAware ADS-B(DBV / LDDU)",
          "FlightAware ADS-B(PSR / LIBP)",
          "FlightAware ADS-B(BRI / LIBD)",
          "FlightAware ADS-B(BRI / LIBD)",
          "FlightAware ADS-B(BDS / LIBR)",
          "FlightAware ADS-B(BDS / LIBR)",
          "FlightAware ADS-B(BDS / LIBR)",
          "FlightAware ADS-B(BDS / LIBR)",
          "FlightAware ADS-B(LCC / LIBN)",
          "FlightAware ADS-B(BDS / LIBR)",
          "FlightAware ADS-B(BDS / LIBR)",
          "FlightAware ADS-B(LCC / LIBN)",
          "FlightAware ADS-B(LCC / LIBN)",
          "FlightAware ADS-B(LCC / LIBN)",
          "FlightAware ADS-B(LCC / LIBN)",
          "FlightAware ADS-B(LCC / LIBN)",
          "FlightAware ADS-B(LIBX)",
          "FlightAware ADS-B(LIBX)",
          "FlightAware ADS-B(IOA / LGIO)",
          "FlightAware ADS-B(TGD / LYPG)",
          "FlightAware ADS-B(TQR / LINI)",
          "FlightAware ADS-B(BDS / LIBR)",
          "FlightAware ADS-B(TGD / LYPG)",
          "FlightAware ADS-B(TGD / LYPG)",
          "FlightAware ADS-B(LCC / LIBN)",
          "FlightAware ADS-B(LINA)",
          "FlightAware ADS-B(LCC / LIBN)",
          "FlightAware ADS-B(LINA)",
          "FlightAware ADS-B(LCC / LIBN)",
          "FlightAware ADS-B(LCC / LIBN)",
          "FlightAware ADS-B(BDS / LIBR)",
          "FlightAware ADS-B(PSR / LIBP)",
          "FlightAware ADS-B(LCC / LIBN)",
          "FlightAware ADS-B(OHD / LWOH)",
          "FlightAware ADS-B(IOA / LGIO)",
          "FlightAware ADS-B(LCC / LIBN)",
          "FlightAware ADS-B(BDS / LIBR)",
          "FlightAware ADS-B(BRI / LIBD)",
          "FlightAware ADS-B(LCC / LIBN)",
          "FlightAware ADS-B(LINB)",
          "FlightAware ADS-B(LINB)",
          "FlightAware ADS-B(LCC / LIBN)",
          "FlightAware ADS-B(LINB)",
          "FlightAware ADS-B(LINB)",
          "FlightAware ADS-B(LINB)",
          "FlightAware ADS-B(BDS / LIBR)",
          "FlightAware ADS-B(BDS / LIBR)",
          "FlightAware ADS-B(LINB)",
          "FlightAware ADS-B(LINB)",
          "FlightAware ADS-B(LCC / LIBN)",
          "FlightAware ADS-B(LCC / LIBN)",
          "FlightAware ADS-B(SKG / LGTS)",
          "FlightAware ADS-B(LCC / LIBN)",
          "FlightAware ADS-B(LCC / LIBN)",
          "FlightAware ADS-B(LCC / LIBN)",
          "FlightAware ADS-B(LCC / LIBN)",
          "FlightAware ADS-B(SKP / LWSK)",
          "FlightAware ADS-B(LCC / LIBN)",
          "FlightAware ADS-B(LCC / LIBN)",
          "FlightAware ADS-B(LCC / LIBN)",
          "FlightAware ADS-B(GPA / LGRX)",
          "FlightAware ADS-B(CFU / LGKR)",
          "FlightAware ADS-B(LCC / LIBN)",
          "FlightAware ADS-B(LCC / LIBN)",
          "FlightAware ADS-B(LCC / LIBN)",
          "FlightAware ADS-B(LCC / LIBN)",
          "FlightAware ADS-B(LCC / LIBN)",
          "FlightAware ADS-B(LCC / LIBN)",
          "FlightAware ADS-B(LCC / LIBN)",
          "FlightAware ADS-B(LCC / LIBN)",
          "FlightAware ADS-B(AGQ / LGAG)",
          "FlightAware ADS-B(LCC / LIBN)",
          "FlightAware ADS-B(LCC / LIBN)",
          "FlightAware ADS-B(LCC / LIBN)",
          "FlightAware ADS-B(BDS / LIBR)",
          "FlightAware ADS-B(AGQ / LGAG)",
          "FlightAware ADS-B(BDS / LIBR)",
          "FlightAware ADS-B(IOA / LGIO)",
          "FlightAware ADS-B(IOA / LGIO)",
          "FlightAware ADS-B(IOA / LGIO)",
          "FlightAware ADS-B(SKU / LGSY)",
          "FlightAware ADS-B(ATH / LGAV)",
          "FlightAware ADS-B(GPA / LGRX)",
          "FlightAware ADS-B(JSI / LGSK)",
          "FlightAware ADS-B(CFU / LGKR)",
          "FlightAware ADS-B(SKG / LGTS)",
          "FlightAware ADS-B(LGTT)",
          "FlightAware ADS-B(CHQ / LGSA)",
          "FlightAware ADS-B(CHQ / LGSA)",
          "FlightAware ADS-B(ATH / LGAV)",
          "FlightAware ADS-B(ATH / LGAV)",
          "FlightAware ADS-B(ATH / LGAV)",
          "FlightAware ADS-B(ATH / LGAV)",
          "FlightAware ADS-B(ATH / LGAV)",
          "FlightAware ADS-B(ATH / LGAV)",
          "FlightAware ADS-B(VOL / LGBL)",
          "FlightAware ADS-B(LGTT)",
          "FlightAware ADS-B(LGTP)",
          "FlightAware ADS-B(LGTT)",
          "FlightAware ADS-B(LGTP)",
          "FlightAware ADS-B(VOL / LGBL)",
          "FlightAware ADS-B(LGTT)",
          "FlightAware ADS-B(LGTT)",
          "FlightAware ADS-B(ATH / LGAV)",
          "FlightAware ADS-B(ATH / LGAV)",
          "FlightAware ADS-B(ATH / LGAV)",
          "FlightAware ADS-B(ATH / LGAV)",
          "FlightAware ADS-B(ATH / LGAV)",
          "FlightAware ADS-B(LGTT)",
          "FlightAware ADS-B(ATH / LGAV)",
          "FlightAware ADS-B(ATH / LGAV)",
          "FlightAware ADS-B(ATH / LGAV)",
          "FlightAware ADS-B(ATH / LGAV)",
          "FlightAware ADS-B(ATH / LGAV)",
          "FlightAware ADS-B(LGEL)",
          "FlightAware ADS-B(ATH / LGAV)",
          "FlightAware ADS-B(LGTT)",
          "FlightAware ADS-B(ATH / LGAV)",
          "FlightAware ADS-B(LGEL)",
          "FlightAware ADS-B(ATH / LGAV)",
          "FlightAware ADS-B(ATH / LGAV)",
          "FlightAware ADS-B(ATH / LGAV)",
          "FlightAware ADS-B(ATH / LGAV)",
          "Surface and Near-Surface",
          "FlightAware ADS-B(ATH / LGAV)",
          "FlightAware ADS-B(ATH / LGAV)",
          "FlightAware ADS-B(ATH / LGAV)",
          "FlightAware ADS-B(ATH / LGAV)",
          "FlightAware ADS-B(ATH / LGAV)",
          "FlightAware ADS-B(ATH / LGAV)",
          "FlightAware ADS-B(ATH / LGAV)"
        ]
      }
    }
  ]
}