{
  "type": "FeatureCollection",
  "features": [
    {
      "type": "Feature",
      "geometry": {
        "type": "LineString",
        "coordinates": [
          [
            12.2204,
            51.4318
          ],
          [
            12.206,
            51.4318
          ],
          [
            12.1896,
            51.4313
          ],
          [
            12.1743,
            51.4303
          ],
          [
            12.1567,
            51.4291
          ],
          [
            12.1298,
            51.4275
          ],
          [
            12.0824,
            51.4254
          ],
          [
            12.0289,
            51.4226
          ],
          [
            11.983,
            51.4202
          ],
          [
            11.9335,
            51.4226
          ],
          [
            11.8565,
            51.4313
          ],
          [
            11.792,
            51.4375
          ],
          [
            11.7217,
            51.4436
          ],
          [
            11.6467,
            51.4503
          ],
          [
            11.5623,
            51.458
          ],
          [
            11.4751,
            51.466
          ],
          [
            11.3886,
            51.4736
          ],
          [
            11.2956,
            51.4817
          ],
          [
            11.2052,
            51.4896
          ],
          [
            11.1159,
            51.4974
          ],
          [
            11.024,
            51.5053
          ],
          [
            10.9323,
            51.5128
          ],
          [
            10.8416,
            51.5207
          ],
          [
            10.7149,
            51.5311
          ],
          [
            10.6452,
            51.5365
          ],
          [
            10.5296,
            51.5387
          ],
          [
            10.4333,
            51.5368
          ],
          [
            10.3435,
            51.5338
          ],
          [
            10.2534,
            51.5313
          ],
          [
            10.1602,
            51.5292
          ],
          [
            10.0728,
            51.5278
          ],
          [
            10.0239,
            51.5268
          ],
          [
            9.9733,
            51.5218
          ],
          [
            9.906,
            51.51
          ],
          [
            9.8169,
            51.4914
          ],
          [
            9.7278,
            51.4723
          ],
          [
            9.6379,
            51.4534
          ],
          [
            9.5477,
            51.4349
          ],
          [
            9.456,
            51.4159
          ],
          [
            9.37,
            51.3984
          ],
          [
            9.2783,
            51.3793
          ],
          [
            9.1892,
            51.3609
          ],
          [
            9.0995,
            51.3422
          ],
          [
            9.0107,
            51.3236
          ],
          [
            8.9189,
            51.3045
          ],
          [
            8.8569,
            51.2914
          ],
          [
            8.7683,
            51.2726
          ],
          [
            8.6801,
            51.2539
          ],
          [
            8.5973,
            51.2363
          ],
          [
            8.5155,
            51.2186
          ],
          [
            8.4305,
            51.2007
          ],
          [
            8.3551,
            51.1844
          ],
          [
            8.2807,
            51.1683
          ],
          [
            8.2045,
            51.1516
          ],
          [
            8.1375,
            51.137
          ],
          [
            8.0934,
            51.127
          ],
          [
            8.0632,
            51.1122
          ],
          [
            8.0159,
            51.0783
          ],
          [
            7.9793,
            51.0513
          ],
          [
            7.9432,
            51.0242
          ],
          [
            7.9097,
            50.9991
          ],
          [
            7.8801,
            50.9748
          ],
          [
            7.8502,
            50.9498
          ],
          [
            7.8297,
            50.9327
          ],
          [
            7.8015,
            50.9086
          ],
          [
            7.7746,
            50.8852
          ],
          [
            7.7479,
            50.8622
          ],
          [
            7.7213,
            50.8389
          ],
          [
            7.7044,
            50.8261
          ],
          [
            7.6799,
            50.8246
          ],
          [
            7.6656,
            50.8368
          ],
          [
            7.655,
            50.8591
          ],
          [
            7.6418,
            50.8891
          ],
          [
            7.6292,
            50.9175
          ],
          [
            7.6213,
            50.9347
          ],
          [
            7.6121,
            50.955
          ],
          [
            7.6051,
            50.968
          ],
          [
            7.5856,
            50.9763
          ],
          [
            7.5621,
            50.979
          ],
          [
            7.5386,
            50.9781
          ],
          [
            7.5124,
            50.9749
          ],
          [
            7.4912,
            50.9712
          ],
          [
            7.4657,
            50.9645
          ],
          [
            7.4311,
            50.9534
          ],
          [
            7.3992,
            50.9435
          ],
          [
            7.3671,
            50.9337
          ],
          [
            7.3348,
            50.9239
          ],
          [
            7.3049,
            50.9149
          ],
          [
            7.2775,
            50.9066
          ],
          [
            7.2519,
            50.8989
          ],
          [
            7.2459,
            50.897
          ],
          [
            7.2379,
            50.8946
          ],
          [
            7.226,
            50.8909
          ],
          [
            7.2153,
            50.8878
          ],
          [
            7.2044,
            50.8845
          ],
          [
            7.1932,
            50.8811
          ],
          [
            7.1809,
            50.8775
          ],
          [
            7.1681,
            50.8736
          ],
          [
            7.1553,
            50.8697
          ]
        ]
      },
      "properties": {
        "time_europe_berlin": [
          "24.10.2025 13:16:02",
          "24.10.2025 13:16:18",
          "24.10.2025 13:16:34",
          "24.10.2025 13:16:50",
          "24.10.2025 13:17:06",
          "24.10.2025 13:17:26",
          "24.10.2025 13:17:56",
          "24.10.2025 13:18:26",
          "24.10.2025 13:18:49",
          "24.10.2025 13:19:15",
          "24.10.2025 13:19:49",
          "24.10.2025 13:20:19",
          "24.10.2025 13:20:49",
          "24.10.2025 13:21:19",
          "24.10.2025 13:21:49",
          "24.10.2025 13:22:19",
          "24.10.2025 13:22:49",
          "24.10.2025 13:23:20",
          "24.10.2025 13:23:50",
          "24.10.2025 13:24:20",
          "24.10.2025 13:24:50",
          "24.10.2025 13:25:20",
          "24.10.2025 13:25:50",
          "24.10.2025 13:26:31",
          "24.10.2025 13:26:53",
          "24.10.2025 13:27:32",
          "24.10.2025 13:28:02",
          "24.10.2025 13:28:32",
          "24.10.2025 13:29:02",
          "24.10.2025 13:29:32",
          "24.10.2025 13:30:02",
          "24.10.2025 13:30:18",
          "24.10.2025 13:30:35",
          "24.10.2025 13:30:57",
          "24.10.2025 13:31:27",
          "24.10.2025 13:31:57",
          "24.10.2025 13:32:28",
          "24.10.2025 13:32:59",
          "24.10.2025 13:33:30",
          "24.10.2025 13:34:00",
          "24.10.2025 13:34:30",
          "24.10.2025 13:35:00",
          "24.10.2025 13:35:31",
          "24.10.2025 13:36:01",
          "24.10.2025 13:36:31",
          "24.10.2025 13:36:53",
          "24.10.2025 13:37:23",
          "24.10.2025 13:37:53",
          "24.10.2025 13:38:23",
          "24.10.2025 13:38:53",
          "24.10.2025 13:39:23",
          "24.10.2025 13:39:53",
          "24.10.2025 13:40:23",
          "24.10.2025 13:40:53",
          "24.10.2025 13:41:23",
          "24.10.2025 13:41:44",
          "24.10.2025 13:42:02",
          "24.10.2025 13:42:39",
          "24.10.2025 13:43:09",
          "24.10.2025 13:43:39",
          "24.10.2025 13:44:06",
          "24.10.2025 13:44:36",
          "24.10.2025 13:45:06",
          "24.10.2025 13:45:27",
          "24.10.2025 13:45:57",
          "24.10.2025 13:46:27",
          "24.10.2025 13:46:57",
          "24.10.2025 13:47:27",
          "24.10.2025 13:47:46",
          "24.10.2025 13:48:04",
          "24.10.2025 13:48:22",
          "24.10.2025 13:48:47",
          "24.10.2025 13:49:17",
          "24.10.2025 13:49:47",
          "24.10.2025 13:50:06",
          "24.10.2025 13:50:31",
          "24.10.2025 13:50:47",
          "24.10.2025 13:51:05",
          "24.10.2025 13:51:26",
          "24.10.2025 13:51:46",
          "24.10.2025 13:52:09",
          "24.10.2025 13:52:25",
          "24.10.2025 13:52:48",
          "24.10.2025 13:53:18",
          "24.10.2025 13:53:49",
          "24.10.2025 13:54:19",
          "24.10.2025 13:54:49",
          "24.10.2025 13:55:19",
          "24.10.2025 13:55:49",
          "24.10.2025 13:56:18",
          "24.10.2025 13:56:24",
          "24.10.2025 13:56:34",
          "24.10.2025 13:56:50",
          "24.10.2025 13:57:06",
          "24.10.2025 13:57:22",
          "24.10.2025 13:57:38",
          "24.10.2025 13:57:54",
          "24.10.2025 13:58:10",
          "24.10.2025 13:58:26"
        ],
        "course_deg_clockwise_from_north": [
          "269",
          "269",
          "266",
          "264",
          "264",
          "265",
          "266",
          "265",
          "266",
          "279",
          "280",
          "278",
          "278",
          "278",
          "278",
          "278",
          "278",
          "278",
          "278",
          "278",
          "278",
          "277",
          "278",
          "277",
          "276",
          "269",
          "267",
          "267",
          "267",
          "268",
          "268",
          "267",
          "257",
          "253",
          "251",
          "251",
          "252",
          "252",
          "252",
          "252",
          "251",
          "252",
          "252",
          "251",
          "251",
          "252",
          "251",
          "251",
          "251",
          "252",
          "251",
          "251",
          "251",
          "251",
          "251",
          "247",
          "224",
          "221",
          "220",
          "220",
          "219",
          "217",
          "217",
          "217",
          "217",
          "216",
          "216",
          "216",
          "231",
          "290",
          "340",
          "344",
          "344",
          "345",
          "343",
          "344",
          "332",
          "285",
          "276",
          "261",
          "257",
          "251",
          "244",
          "244",
          "244",
          "245",
          "244",
          "245",
          "243",
          "244",
          "245",
          "243",
          "246",
          "245",
          "245",
          "246",
          "246",
          "244",
          "245"
        ],
        "speed_kts": [
          "129",
          "122",
          "135",
          "146",
          "157",
          "191",
          "238",
          "250",
          "258",
          "280",
          "308",
          "317",
          "328",
          "358",
          "398",
          "401",
          "401",
          "410",
          "412",
          "412",
          "413",
          "414",
          "415",
          "415",
          "416",
          "416",
          "417",
          "415",
          "408",
          "404",
          "411",
          "415",
          "419",
          "424",
          "427",
          "417",
          "414",
          "419",
          "419",
          "420",
          "420",
          "422",
          "422",
          "424",
          "423",
          "423",
          "411",
          "402",
          "407",
          "391",
          "383",
          "375",
          "369",
          "339",
          "310",
          "289",
          "279",
          "266",
          "254",
          "253",
          "235",
          "230",
          "225",
          "219",
          "212",
          "209",
          "205",
          "200",
          "192",
          "184",
          "196",
          "215",
          "221",
          "203",
          "193",
          "187",
          "188",
          "161",
          "159",
          "163",
          "168",
          "171",
          "173",
          "168",
          "157",
          "162",
          "166",
          "147",
          "136",
          "130",
          "126",
          "122",
          "110",
          "103",
          "103",
          "111",
          "119",
          "119",
          "116"
        ],
        "speed_mph": [
          "148",
          "140",
          "155",
          "168",
          "181",
          "220",
          "274",
          "288",
          "297",
          "322",
          "354",
          "365",
          "377",
          "412",
          "458",
          "461",
          "461",
          "472",
          "474",
          "474",
          "475",
          "476",
          "478",
          "478",
          "479",
          "479",
          "480",
          "478",
          "470",
          "465",
          "473",
          "478",
          "482",
          "488",
          "491",
          "480",
          "476",
          "482",
          "482",
          "483",
          "483",
          "486",
          "486",
          "488",
          "487",
          "487",
          "473",
          "463",
          "468",
          "450",
          "441",
          "432",
          "425",
          "390",
          "357",
          "333",
          "321",
          "306",
          "292",
          "291",
          "270",
          "265",
          "259",
          "252",
          "244",
          "241",
          "236",
          "230",
          "221",
          "212",
          "226",
          "247",
          "254",
          "234",
          "222",
          "215",
          "216",
          "185",
          "183",
          "188",
          "193",
          "197",
          "199",
          "193",
          "181",
          "186",
          "191",
          "169",
          "157",
          "150",
          "145",
          "140",
          "127",
          "119",
          "119",
          "128",
          "137",
          "137",
          "133"
        ],
        "altitude_ft": [
          "1575",
          "2750",
          "3550",
          "4450",
          "5375",
          "6225",
          "6925",
          "8550",
          "10300",
          "12050",
          "14675",
          "17125",
          "19375",
          "20950",
          "21700",
          "21975",
          "22025",
          "22000",
          "22000",
          "22000",
          "22000",
          "22000",
          "22000",
          "22000",
          "22000",
          "22000",
          "22000",
          "22000",
          "22000",
          "22000",
          "22000",
          "22000",
          "22000",
          "22000",
          "22000",
          "22000",
          "22000",
          "22000",
          "22000",
          "22000",
          "22000",
          "22000",
          "22000",
          "22000",
          "22000",
          "22000",
          "22000",
          "21525",
          "20275",
          "19125",
          "17925",
          "16850",
          "15800",
          "14725",
          "13775",
          "13150",
          "12600",
          "12025",
          "12000",
          "12000",
          "11700",
          "11275",
          "10775",
          "10325",
          "9650",
          "9025",
          "8375",
          "7650",
          "7300",
          "7050",
          "7000",
          "7000",
          "6275",
          "5500",
          "5325",
          "5275",
          "5275",
          "5275",
          "5275",
          "5000",
          "4525",
          "4200",
          "3725",
          "3300",
          "3275",
          "3275",
          "3125",
          "2675",
          "2300",
          "1925",
          "1850",
          "1725",
          "1575",
          "1425",
          "1275",
          "1125",
          "975",
          "825",
          "600"
        ],
        "vertical_rate_fpm": [
          "",
          "3703",
          "3188",
          "3422",
          "2958",
          "1860",
          "2325",
          "3821",
          "4286",
          "4375",
          "4758",
          "4700",
          "3825",
          "2325",
          "1025",
          "325",
          "25",
          "-25",
          "",
          "",
          "",
          "",
          "",
          "",
          "",
          "",
          "",
          "",
          "",
          "",
          "",
          "",
          "",
          "",
          "",
          "",
          "",
          "",
          "",
          "",
          "",
          "",
          "",
          "",
          "",
          "",
          "-475",
          "-1725",
          "-2400",
          "-2350",
          "-2275",
          "-2125",
          "-2125",
          "-2025",
          "-1853",
          "-1808",
          "-1227",
          "-537",
          "-25",
          "-316",
          "-763",
          "-925",
          "-1118",
          "-1324",
          "-1300",
          "-1275",
          "-1375",
          "-1316",
          "-973",
          "-500",
          "-70",
          "-791",
          "-1500",
          "-1163",
          "-307",
          "-73",
          "",
          "",
          "-402",
          "-1047",
          "-1231",
          "-1231",
          "-1019",
          "-443",
          "-25",
          "-150",
          "-600",
          "-825",
          "-763",
          "-771",
          "-750",
          "-635",
          "-563",
          "-563",
          "-563",
          "-563",
          "-563",
          "-703",
          "-844"
        ],
        "reporting_facility": [
          "FlightAware ADS-B(LEJ / EDDP)",
          "FlightAware ADS-B(LEJ / EDDP)",
          "FlightAware ADS-B(EDAD)",
          "FlightAware ADS-B(LEJ / EDDP)",
          "FlightAware ADS-B(LEJ / EDDP)",
          "FlightAware ADS-B(LEJ / EDDP)",
          "FlightAware ADS-B(LEJ / EDDP)",
          "FlightAware ADS-B(EDAD)",
          "FlightAware ADS-B(LEJ / EDDP)",
          "FlightAware ADS-B(LEJ / EDDP)",
          "FlightAware ADS-B(BER / EDDB)",
          "FlightAware ADS-B(LKKT)",
          "FlightAware ADS-B(BWE / EDVE)",
          "FlightAware ADS-B(ERF / EDDE)",
          "FlightAware ADS-B(ERF / EDDE)",
          "FlightAware ADS-B(BWE / EDVE)",
          "FlightAware ADS-B(EDOD)",
          "FlightAware ADS-B(AOC / EDAC)",
          "FlightAware ADS-B(EDBF)",
          "FlightAware ADS-B(EDHG)",
          "FlightAware ADS-B(EDBK)",
          "FlightAware ADS-B(EDHD)",
          "FlightAware ADS-B(FMO / EDDG)",
          "FlightAware ADS-B(EDAQ)",
          "FlightAware ADS-B(ERF / EDDE)",
          "FlightAware ADS-B(EDAQ)",
          "FlightAware ADS-B(EDLO)",
          "FlightAware ADS-B(EDAQ)",
          "FlightAware ADS-B(CSO / EDBC)",
          "FlightAware ADS-B(BWE / EDVE)",
          "FlightAware ADS-B(GRQ / EHGG)",
          "FlightAware ADS-B(EDVG)",
          "FlightAware ADS-B(HAJ / EDDV)",
          "FlightAware ADS-B(ZNO / EDVM)",
          "FlightAware ADS-B(EDHD)",
          "FlightAware ADS-B(HAJ / EDDV)",
          "FlightAware ADS-B(EDLZ)",
          "FlightAware ADS-B(EDLB)",
          "FlightAware ADS-B(EDLR)",
          "FlightAware ADS-B(EDQS)",
          "FlightAware ADS-B(EDQS)",
          "FlightAware ADS-B(EDLZ)",
          "FlightAware ADS-B(EDLZ)",
          "FlightAware ADS-B(ETHE)",
          "FlightAware ADS-B(EDLR)",
          "FlightAware ADS-B(GRQ / EHGG)",
          "FlightAware ADS-B(BWE / EDVE)",
          "FlightAware ADS-B(EDFG)",
          "FlightAware ADS-B(EDLO)",
          "FlightAware ADS-B(BWE / EDVE)",
          "FlightAware ADS-B(SGE / EDGS)",
          "FlightAware ADS-B(ETWM)",
          "FlightAware ADS-B(DTM / EDLW)",
          "FlightAware ADS-B(EDEB)",
          "FlightAware ADS-B(EDKR)",
          "FlightAware ADS-B(ETNN)",
          "FlightAware ADS-B(MGL / EDLN)",
          "FlightAware ADS-B(CGN / EDDK)",
          "FlightAware ADS-B(EDEP)",
          "FlightAware ADS-B(DUS / EDDL)",
          "FlightAware ADS-B(SGE / EDGS)",
          "FlightAware ADS-B(EDKL)",
          "FlightAware ADS-B(GKE / ETNG)",
          "FlightAware ADS-B(EDKN)",
          "FlightAware ADS-B(DTM / EDLW)",
          "FlightAware ADS-B(CGN / EDDK)",
          "FlightAware ADS-B(EDKL)",
          "FlightAware ADS-B(EDKF)",
          "FlightAware ADS-B(EDRA)",
          "FlightAware ADS-B(CGN / EDDK)",
          "FlightAware ADS-B(ETOU)",
          "FlightAware ADS-B(AAH / EDKA)",
          "FlightAware ADS-B(DUS / EDDL)",
          "FlightAware ADS-B(EDKB)",
          "FlightAware ADS-B(EDKN)",
          "FlightAware ADS-B(CGN / EDDK)",
          "FlightAware ADS-B(EDGA)",
          "FlightAware ADS-B(CGN / EDDK)",
          "FlightAware ADS-B(EDKF)",
          "FlightAware ADS-B(EDKB)",
          "FlightAware ADS-B(SGE / EDGS)",
          "FlightAware ADS-B(EDKF)",
          "FlightAware ADS-B(CGN / EDDK)",
          "FlightAware ADS-B(CGN / EDDK)",
          "FlightAware ADS-B(EDRK)",
          "FlightAware ADS-B(CGN / EDDK)",
          "FlightAware ADS-B(CGN / EDDK)",
          "FlightAware ADS-B(CGN / EDDK)",
          "FlightAware ADS-B(CGN / EDDK)",
          "FlightAware ADS-B(CGN / EDDK)",
          "Surface and Near-Surface",
          "FlightAware ADS-B(EDKN)",
          "FlightAware ADS-B(CGN / EDDK)",
          "FlightAware ADS-B(CGN / EDDK)",
          "FlightAware ADS-B(EDKB)",
          "FlightAware ADS-B(CGN / EDDK)",
          "FlightAware ADS-B(EDKB)",
          "FlightAware ADS-B(CGN / EDDK)",
          "FlightAware ADS-B(CGN / EDDK)"
        ]
      }
    }
  ]
}