{
  "type": "FeatureCollection",
  "features": [
    {
      "type": "Feature",
      "geometry": {
        "type": "LineString",
        "coordinates": [
          [
            10.3966,
            43.6859
          ],
          [
            10.4067,
            43.6949
          ],
          [
            10.4182,
            43.7053
          ],
          [
            10.4286,
            43.7165
          ],
          [
            10.4366,
            43.729
          ],
          [
            10.4313,
            43.7425
          ],
          [
            10.4155,
            43.7495
          ],
          [
            10.391,
            43.7451
          ],
          [
            10.3756,
            43.7374
          ],
          [
            10.3533,
            43.7342
          ],
          [
            10.3194,
            43.7359
          ],
          [
            10.2697,
            43.7408
          ],
          [
            10.2142,
            43.7447
          ],
          [
            10.1279,
            43.7495
          ],
          [
            10.0668,
            43.7531
          ],
          [
            9.9995,
            43.7565
          ],
          [
            9.9291,
            43.76
          ],
          [
            9.8621,
            43.7635
          ],
          [
            9.7927,
            43.7668
          ],
          [
            9.7451,
            43.7694
          ],
          [
            9.7095,
            43.7776
          ],
          [
            9.671,
            43.7994
          ],
          [
            9.632,
            43.8309
          ],
          [
            9.5877,
            43.8716
          ],
          [
            9.5419,
            43.9141
          ],
          [
            9.4938,
            43.9569
          ],
          [
            9.4473,
            43.9987
          ],
          [
            9.4001,
            44.0412
          ],
          [
            9.3503,
            44.085
          ],
          [
            9.3247,
            44.1114
          ],
          [
            9.2762,
            44.1731
          ],
          [
            9.2368,
            44.2256
          ],
          [
            9.1968,
            44.2779
          ],
          [
            9.1581,
            44.3289
          ],
          [
            9.1163,
            44.3843
          ],
          [
            9.0784,
            44.4354
          ],
          [
            9.0374,
            44.4914
          ],
          [
            8.9984,
            44.5432
          ],
          [
            8.9564,
            44.5962
          ],
          [
            8.9147,
            44.6481
          ],
          [
            8.8734,
            44.7001
          ],
          [
            8.8307,
            44.7545
          ],
          [
            8.7901,
            44.8041
          ],
          [
            8.7463,
            44.8569
          ],
          [
            8.7043,
            44.9073
          ],
          [
            8.6608,
            44.9595
          ],
          [
            8.6181,
            45.0099
          ],
          [
            8.5738,
            45.0613
          ],
          [
            8.5306,
            45.1118
          ],
          [
            8.4861,
            45.1652
          ],
          [
            8.4445,
            45.2173
          ],
          [
            8.4031,
            45.2704
          ],
          [
            8.3772,
            45.2956
          ],
          [
            8.3405,
            45.3207
          ],
          [
            8.2794,
            45.352
          ],
          [
            8.2067,
            45.3856
          ],
          [
            8.1353,
            45.4192
          ],
          [
            8.0607,
            45.4554
          ],
          [
            7.9872,
            45.4902
          ],
          [
            7.9123,
            45.5265
          ],
          [
            7.8411,
            45.5609
          ],
          [
            7.8014,
            45.5839
          ],
          [
            7.7595,
            45.6137
          ],
          [
            7.6766,
            45.677
          ],
          [
            7.6172,
            45.7216
          ],
          [
            7.5526,
            45.7692
          ],
          [
            7.494,
            45.8127
          ],
          [
            7.4601,
            45.8377
          ],
          [
            7.3983,
            45.8834
          ],
          [
            7.3355,
            45.9295
          ],
          [
            7.2705,
            45.9769
          ],
          [
            7.2078,
            46.023
          ],
          [
            7.146,
            46.068
          ],
          [
            7.0849,
            46.1123
          ],
          [
            6.9988,
            46.175
          ],
          [
            6.958,
            46.2043
          ],
          [
            6.8975,
            46.2483
          ],
          [
            6.8347,
            46.2932
          ],
          [
            6.7753,
            46.3361
          ],
          [
            6.7182,
            46.3768
          ],
          [
            6.6562,
            46.4213
          ],
          [
            6.596,
            46.4641
          ],
          [
            6.5333,
            46.5089
          ],
          [
            6.4731,
            46.5518
          ],
          [
            6.4109,
            46.5958
          ],
          [
            6.3317,
            46.652
          ],
          [
            6.2702,
            46.6947
          ],
          [
            6.2111,
            46.7368
          ],
          [
            6.1499,
            46.7796
          ],
          [
            6.1065,
            46.8102
          ],
          [
            6.0262,
            46.8788
          ],
          [
            5.9852,
            46.9154
          ],
          [
            5.9039,
            46.9859
          ],
          [
            5.8236,
            47.0554
          ],
          [
            5.7718,
            47.0997
          ],
          [
            5.7172,
            47.1468
          ],
          [
            5.6611,
            47.1948
          ],
          [
            5.6042,
            47.2433
          ],
          [
            5.5482,
            47.2909
          ],
          [
            5.4903,
            47.3404
          ],
          [
            5.4345,
            47.3875
          ],
          [
            5.3795,
            47.4341
          ],
          [
            5.3205,
            47.484
          ],
          [
            5.2692,
            47.5269
          ],
          [
            5.2033,
            47.5825
          ],
          [
            5.1484,
            47.6284
          ],
          [
            5.0909,
            47.6765
          ],
          [
            5.0332,
            47.7247
          ],
          [
            4.9763,
            47.7721
          ],
          [
            4.9184,
            47.8196
          ],
          [
            4.8613,
            47.8671
          ],
          [
            4.8045,
            47.9142
          ],
          [
            4.7467,
            47.9617
          ],
          [
            4.6889,
            48.0092
          ],
          [
            4.6309,
            48.0565
          ],
          [
            4.5728,
            48.1041
          ],
          [
            4.5153,
            48.1511
          ],
          [
            4.4578,
            48.198
          ],
          [
            4.3997,
            48.2448
          ],
          [
            4.3439,
            48.2902
          ],
          [
            4.2834,
            48.3389
          ],
          [
            4.2269,
            48.3845
          ],
          [
            4.1676,
            48.4322
          ],
          [
            4.1071,
            48.4803
          ],
          [
            4.0511,
            48.5255
          ],
          [
            3.9906,
            48.5739
          ],
          [
            3.9323,
            48.6199
          ],
          [
            3.8742,
            48.6661
          ],
          [
            3.8167,
            48.7119
          ],
          [
            3.7577,
            48.7584
          ],
          [
            3.6997,
            48.8039
          ],
          [
            3.637,
            48.853
          ],
          [
            3.5792,
            48.8988
          ],
          [
            3.5183,
            48.9456
          ],
          [
            3.4602,
            48.9918
          ],
          [
            3.3998,
            49.0386
          ],
          [
            3.3404,
            49.0845
          ],
          [
            3.2802,
            49.1309
          ],
          [
            3.2191,
            49.1782
          ],
          [
            3.1591,
            49.2246
          ],
          [
            3.1244,
            49.2512
          ],
          [
            3.0692,
            49.3051
          ],
          [
            2.994,
            49.3859
          ],
          [
            2.9671,
            49.4141
          ],
          [
            2.9191,
            49.4642
          ],
          [
            2.8703,
            49.5146
          ],
          [
            2.8193,
            49.568
          ],
          [
            2.7694,
            49.6197
          ],
          [
            2.7202,
            49.6703
          ],
          [
            2.6694,
            49.7223
          ],
          [
            2.6283,
            49.7646
          ],
          [
            2.5782,
            49.8159
          ],
          [
            2.5258,
            49.8694
          ],
          [
            2.4767,
            49.9197
          ],
          [
            2.4245,
            49.9723
          ],
          [
            2.374,
            50.0236
          ],
          [
            2.3212,
            50.0768
          ],
          [
            2.2714,
            50.1273
          ],
          [
            2.2203,
            50.1787
          ],
          [
            2.1705,
            50.2283
          ],
          [
            2.1183,
            50.2809
          ],
          [
            2.0669,
            50.3319
          ],
          [
            2.0324,
            50.3651
          ],
          [
            1.9967,
            50.3948
          ],
          [
            1.9376,
            50.4372
          ],
          [
            1.8679,
            50.4832
          ],
          [
            1.8003,
            50.5281
          ],
          [
            1.7361,
            50.5717
          ],
          [
            1.6725,
            50.614
          ],
          [
            1.6187,
            50.6498
          ],
          [
            1.5511,
            50.6951
          ],
          [
            1.4872,
            50.737
          ],
          [
            1.421,
            50.7815
          ],
          [
            1.3316,
            50.8402
          ],
          [
            1.2678,
            50.8825
          ],
          [
            1.2022,
            50.9251
          ],
          [
            1.1618,
            50.9517
          ],
          [
            1.0991,
            50.993
          ],
          [
            1.0553,
            51.0212
          ],
          [
            1.0001,
            51.0571
          ],
          [
            0.9515,
            51.0889
          ],
          [
            0.8857,
            51.1311
          ],
          [
            0.8203,
            51.1737
          ],
          [
            0.7556,
            51.2155
          ],
          [
            0.6583,
            51.2779
          ],
          [
            0.5933,
            51.3194
          ],
          [
            0.5264,
            51.362
          ],
          [
            0.4606,
            51.404
          ],
          [
            0.3963,
            51.4448
          ],
          [
            0.3299,
            51.4869
          ],
          [
            0.266,
            51.5274
          ],
          [
            0.1998,
            51.5689
          ],
          [
            0.1383,
            51.6076
          ],
          [
            0.0716,
            51.6495
          ],
          [
            0.007,
            51.6895
          ],
          [
            -0.0587,
            51.7309
          ],
          [
            -0.1246,
            51.7716
          ],
          [
            -0.1936,
            51.8143
          ],
          [
            -0.2592,
            51.8552
          ],
          [
            -0.3266,
            51.8964
          ],
          [
            -0.3901,
            51.9355
          ],
          [
            -0.4257,
            51.9574
          ],
          [
            -0.4952,
            51.9998
          ],
          [
            -0.5608,
            52.04
          ],
          [
            -0.6279,
            52.0808
          ],
          [
            -0.6983,
            52.1234
          ],
          [
            -0.7639,
            52.1633
          ],
          [
            -0.8294,
            52.2028
          ],
          [
            -0.8976,
            52.2439
          ],
          [
            -0.9669,
            52.2854
          ],
          [
            -1.0337,
            52.3252
          ],
          [
            -1.1018,
            52.3662
          ],
          [
            -1.1687,
            52.4059
          ],
          [
            -1.2376,
            52.4466
          ],
          [
            -1.3041,
            52.4863
          ],
          [
            -1.3735,
            52.5271
          ],
          [
            -1.442,
            52.5675
          ],
          [
            -1.511,
            52.6079
          ],
          [
            -1.5795,
            52.6479
          ],
          [
            -1.6291,
            52.6773
          ],
          [
            -1.6997,
            52.7182
          ],
          [
            -1.7683,
            52.758
          ],
          [
            -1.8381,
            52.7983
          ],
          [
            -1.9057,
            52.8374
          ],
          [
            -1.9738,
            52.8766
          ],
          [
            -2.0444,
            52.9173
          ],
          [
            -2.1128,
            52.9564
          ],
          [
            -2.1838,
            52.9969
          ],
          [
            -2.2511,
            53.0354
          ],
          [
            -2.3208,
            53.0749
          ],
          [
            -2.3915,
            53.1149
          ],
          [
            -2.4604,
            53.1538
          ],
          [
            -2.4954,
            53.1737
          ],
          [
            -2.5681,
            53.2142
          ],
          [
            -2.6369,
            53.2531
          ],
          [
            -2.7094,
            53.2934
          ],
          [
            -2.8051,
            53.3464
          ],
          [
            -2.8749,
            53.3851
          ],
          [
            -2.9282,
            53.4148
          ],
          [
            -3.0009,
            53.455
          ],
          [
            -3.073,
            53.4952
          ],
          [
            -3.1463,
            53.5348
          ],
          [
            -3.2067,
            53.5679
          ],
          [
            -3.2786,
            53.6072
          ],
          [
            -3.3513,
            53.6471
          ],
          [
            -3.4244,
            53.6867
          ],
          [
            -3.4966,
            53.7255
          ],
          [
            -3.5867,
            53.7744
          ],
          [
            -3.6582,
            53.8135
          ],
          [
            -3.7294,
            53.8525
          ],
          [
            -3.7799,
            53.8811
          ],
          [
            -3.8181,
            53.9034
          ],
          [
            -3.8831,
            53.9406
          ],
          [
            -3.9268,
            53.9653
          ],
          [
            -3.9733,
            53.987
          ],
          [
            -4.0616,
            54.0231
          ],
          [
            -4.1324,
            54.0526
          ],
          [
            -4.227,
            54.0931
          ],
          [
            -4.3019,
            54.1242
          ],
          [
            -4.3742,
            54.1555
          ],
          [
            -4.447,
            54.186
          ],
          [
            -4.5214,
            54.2171
          ],
          [
            -4.5967,
            54.249
          ],
          [
            -4.6788,
            54.2832
          ],
          [
            -4.7385,
            54.3098
          ],
          [
            -4.8085,
            54.3461
          ],
          [
            -4.887,
            54.3854
          ],
          [
            -4.9568,
            54.4193
          ],
          [
            -5.0036,
            54.4424
          ],
          [
            -5.0659,
            54.4757
          ],
          [
            -5.1347,
            54.5116
          ],
          [
            -5.2086,
            54.5414
          ],
          [
            -5.2802,
            54.5692
          ],
          [
            -5.3408,
            54.5969
          ],
          [
            -5.3937,
            54.6225
          ],
          [
            -5.4422,
            54.6462
          ],
          [
            -5.4928,
            54.6704
          ],
          [
            -5.5405,
            54.693
          ],
          [
            -5.5853,
            54.7152
          ],
          [
            -5.6289,
            54.7371
          ],
          [
            -5.657,
            54.7493
          ],
          [
            -5.6925,
            54.7494
          ],
          [
            -5.7174,
            54.7437
          ],
          [
            -5.7358,
            54.7313
          ],
          [
            -5.7589,
            54.7127
          ],
          [
            -5.7845,
            54.6917
          ],
          [
            -5.8022,
            54.6768
          ],
          [
            -5.8137,
            54.6672
          ],
          [
            -5.8232,
            54.6593
          ],
          [
            -5.8334,
            54.6508
          ],
          [
            -5.8436,
            54.6423
          ],
          [
            -5.8519,
            54.6353
          ],
          [
            -5.8609,
            54.6278
          ]
        ]
      },
      "properties": {
        "time_europe_berlin": [
          "10.10.2025 13:39:32",
          "10.10.2025 13:39:48",
          "10.10.2025 13:40:05",
          "10.10.2025 13:40:21",
          "10.10.2025 13:40:37",
          "10.10.2025 13:40:53",
          "10.10.2025 13:41:09",
          "10.10.2025 13:41:27",
          "10.10.2025 13:41:43",
          "10.10.2025 13:42:00",
          "10.10.2025 13:42:20",
          "10.10.2025 13:42:50",
          "10.10.2025 13:43:20",
          "10.10.2025 13:44:05",
          "10.10.2025 13:44:35",
          "10.10.2025 13:45:05",
          "10.10.2025 13:45:36",
          "10.10.2025 13:46:06",
          "10.10.2025 13:46:36",
          "10.10.2025 13:46:55",
          "10.10.2025 13:47:11",
          "10.10.2025 13:47:30",
          "10.10.2025 13:47:55",
          "10.10.2025 13:48:25",
          "10.10.2025 13:48:55",
          "10.10.2025 13:49:25",
          "10.10.2025 13:49:55",
          "10.10.2025 13:50:25",
          "10.10.2025 13:50:55",
          "10.10.2025 13:51:14",
          "10.10.2025 13:51:50",
          "10.10.2025 13:52:20",
          "10.10.2025 13:52:50",
          "10.10.2025 13:53:20",
          "10.10.2025 13:53:50",
          "10.10.2025 13:54:20",
          "10.10.2025 13:54:50",
          "10.10.2025 13:55:20",
          "10.10.2025 13:55:50",
          "10.10.2025 13:56:20",
          "10.10.2025 13:56:50",
          "10.10.2025 13:57:20",
          "10.10.2025 13:57:50",
          "10.10.2025 13:58:20",
          "10.10.2025 13:58:50",
          "10.10.2025 13:59:20",
          "10.10.2025 13:59:50",
          "10.10.2025 14:00:20",
          "10.10.2025 14:00:50",
          "10.10.2025 14:01:20",
          "10.10.2025 14:01:50",
          "10.10.2025 14:02:20",
          "10.10.2025 14:02:36",
          "10.10.2025 14:02:55",
          "10.10.2025 14:03:20",
          "10.10.2025 14:03:50",
          "10.10.2025 14:04:20",
          "10.10.2025 14:04:50",
          "10.10.2025 14:05:20",
          "10.10.2025 14:05:50",
          "10.10.2025 14:06:20",
          "10.10.2025 14:06:37",
          "10.10.2025 14:06:57",
          "10.10.2025 14:07:38",
          "10.10.2025 14:08:08",
          "10.10.2025 14:08:38",
          "10.10.2025 14:09:08",
          "10.10.2025 14:09:25",
          "10.10.2025 14:09:55",
          "10.10.2025 14:10:25",
          "10.10.2025 14:10:56",
          "10.10.2025 14:11:26",
          "10.10.2025 14:11:56",
          "10.10.2025 14:12:26",
          "10.10.2025 14:13:08",
          "10.10.2025 14:13:27",
          "10.10.2025 14:13:57",
          "10.10.2025 14:14:27",
          "10.10.2025 14:14:57",
          "10.10.2025 14:15:25",
          "10.10.2025 14:15:55",
          "10.10.2025 14:16:25",
          "10.10.2025 14:16:55",
          "10.10.2025 14:17:25",
          "10.10.2025 14:17:56",
          "10.10.2025 14:18:33",
          "10.10.2025 14:19:03",
          "10.10.2025 14:19:33",
          "10.10.2025 14:20:03",
          "10.10.2025 14:20:24",
          "10.10.2025 14:21:08",
          "10.10.2025 14:21:32",
          "10.10.2025 14:22:16",
          "10.10.2025 14:22:59",
          "10.10.2025 14:23:29",
          "10.10.2025 14:23:59",
          "10.10.2025 14:24:29",
          "10.10.2025 14:24:59",
          "10.10.2025 14:25:29",
          "10.10.2025 14:26:00",
          "10.10.2025 14:26:30",
          "10.10.2025 14:27:00",
          "10.10.2025 14:27:31",
          "10.10.2025 14:28:03",
          "10.10.2025 14:28:33",
          "10.10.2025 14:29:03",
          "10.10.2025 14:29:33",
          "10.10.2025 14:30:03",
          "10.10.2025 14:30:33",
          "10.10.2025 14:31:03",
          "10.10.2025 14:31:33",
          "10.10.2025 14:32:03",
          "10.10.2025 14:32:33",
          "10.10.2025 14:33:03",
          "10.10.2025 14:33:33",
          "10.10.2025 14:34:04",
          "10.10.2025 14:34:34",
          "10.10.2025 14:35:04",
          "10.10.2025 14:35:34",
          "10.10.2025 14:36:04",
          "10.10.2025 14:36:34",
          "10.10.2025 14:37:04",
          "10.10.2025 14:37:34",
          "10.10.2025 14:38:05",
          "10.10.2025 14:38:35",
          "10.10.2025 14:39:05",
          "10.10.2025 14:39:35",
          "10.10.2025 14:40:05",
          "10.10.2025 14:40:35",
          "10.10.2025 14:41:05",
          "10.10.2025 14:41:35",
          "10.10.2025 14:42:05",
          "10.10.2025 14:42:35",
          "10.10.2025 14:43:05",
          "10.10.2025 14:43:35",
          "10.10.2025 14:44:05",
          "10.10.2025 14:44:35",
          "10.10.2025 14:45:05",
          "10.10.2025 14:45:35",
          "10.10.2025 14:46:05",
          "10.10.2025 14:46:22",
          "10.10.2025 14:46:55",
          "10.10.2025 14:47:40",
          "10.10.2025 14:47:57",
          "10.10.2025 14:48:27",
          "10.10.2025 14:48:57",
          "10.10.2025 14:49:27",
          "10.10.2025 14:49:57",
          "10.10.2025 14:50:27",
          "10.10.2025 14:50:57",
          "10.10.2025 14:51:22",
          "10.10.2025 14:51:52",
          "10.10.2025 14:52:22",
          "10.10.2025 14:52:52",
          "10.10.2025 14:53:22",
          "10.10.2025 14:53:52",
          "10.10.2025 14:54:22",
          "10.10.2025 14:54:52",
          "10.10.2025 14:55:22",
          "10.10.2025 14:55:52",
          "10.10.2025 14:56:22",
          "10.10.2025 14:56:52",
          "10.10.2025 14:57:12",
          "10.10.2025 14:57:29",
          "10.10.2025 14:57:59",
          "10.10.2025 14:58:29",
          "10.10.2025 14:58:59",
          "10.10.2025 14:59:29",
          "10.10.2025 14:59:59",
          "10.10.2025 15:00:23",
          "10.10.2025 15:00:53",
          "10.10.2025 15:01:23",
          "10.10.2025 15:01:53",
          "10.10.2025 15:02:33",
          "10.10.2025 15:03:03",
          "10.10.2025 15:03:33",
          "10.10.2025 15:03:51",
          "10.10.2025 15:04:20",
          "10.10.2025 15:04:39",
          "10.10.2025 15:05:07",
          "10.10.2025 15:05:26",
          "10.10.2025 15:05:56",
          "10.10.2025 15:06:26",
          "10.10.2025 15:06:55",
          "10.10.2025 15:07:39",
          "10.10.2025 15:08:09",
          "10.10.2025 15:08:39",
          "10.10.2025 15:09:09",
          "10.10.2025 15:09:39",
          "10.10.2025 15:10:09",
          "10.10.2025 15:10:39",
          "10.10.2025 15:11:09",
          "10.10.2025 15:11:37",
          "10.10.2025 15:12:07",
          "10.10.2025 15:12:37",
          "10.10.2025 15:13:07",
          "10.10.2025 15:13:37",
          "10.10.2025 15:14:07",
          "10.10.2025 15:14:37",
          "10.10.2025 15:15:07",
          "10.10.2025 15:15:37",
          "10.10.2025 15:15:54",
          "10.10.2025 15:16:24",
          "10.10.2025 15:16:54",
          "10.10.2025 15:17:24",
          "10.10.2025 15:17:54",
          "10.10.2025 15:18:24",
          "10.10.2025 15:18:54",
          "10.10.2025 15:19:24",
          "10.10.2025 15:19:54",
          "10.10.2025 15:20:24",
          "10.10.2025 15:20:54",
          "10.10.2025 15:21:24",
          "10.10.2025 15:21:54",
          "10.10.2025 15:22:24",
          "10.10.2025 15:22:54",
          "10.10.2025 15:23:24",
          "10.10.2025 15:23:54",
          "10.10.2025 15:24:24",
          "10.10.2025 15:24:46",
          "10.10.2025 15:25:16",
          "10.10.2025 15:25:46",
          "10.10.2025 15:26:16",
          "10.10.2025 15:26:46",
          "10.10.2025 15:27:16",
          "10.10.2025 15:27:46",
          "10.10.2025 15:28:16",
          "10.10.2025 15:28:46",
          "10.10.2025 15:29:16",
          "10.10.2025 15:29:46",
          "10.10.2025 15:30:16",
          "10.10.2025 15:30:46",
          "10.10.2025 15:31:02",
          "10.10.2025 15:31:32",
          "10.10.2025 15:32:02",
          "10.10.2025 15:32:32",
          "10.10.2025 15:33:13",
          "10.10.2025 15:33:42",
          "10.10.2025 15:34:05",
          "10.10.2025 15:34:35",
          "10.10.2025 15:35:05",
          "10.10.2025 15:35:35",
          "10.10.2025 15:36:00",
          "10.10.2025 15:36:30",
          "10.10.2025 15:37:00",
          "10.10.2025 15:37:30",
          "10.10.2025 15:38:00",
          "10.10.2025 15:38:37",
          "10.10.2025 15:39:07",
          "10.10.2025 15:39:37",
          "10.10.2025 15:39:58",
          "10.10.2025 15:40:15",
          "10.10.2025 15:40:45",
          "10.10.2025 15:41:04",
          "10.10.2025 15:41:23",
          "10.10.2025 15:41:56",
          "10.10.2025 15:42:26",
          "10.10.2025 15:43:06",
          "10.10.2025 15:43:36",
          "10.10.2025 15:44:06",
          "10.10.2025 15:44:36",
          "10.10.2025 15:45:06",
          "10.10.2025 15:45:36",
          "10.10.2025 15:46:08",
          "10.10.2025 15:46:33",
          "10.10.2025 15:47:08",
          "10.10.2025 15:47:38",
          "10.10.2025 15:48:08",
          "10.10.2025 15:48:29",
          "10.10.2025 15:48:57",
          "10.10.2025 15:49:29",
          "10.10.2025 15:49:59",
          "10.10.2025 15:50:29",
          "10.10.2025 15:50:59",
          "10.10.2025 15:51:29",
          "10.10.2025 15:51:59",
          "10.10.2025 15:52:29",
          "10.10.2025 15:52:56",
          "10.10.2025 15:53:26",
          "10.10.2025 15:53:56",
          "10.10.2025 15:54:14",
          "10.10.2025 15:54:37",
          "10.10.2025 15:54:53",
          "10.10.2025 15:55:11",
          "10.10.2025 15:55:38",
          "10.10.2025 15:56:08",
          "10.10.2025 15:56:32",
          "10.10.2025 15:56:48",
          "10.10.2025 15:57:04",
          "10.10.2025 15:57:20",
          "10.10.2025 15:57:36",
          "10.10.2025 15:57:52",
          "10.10.2025 15:58:08"
        ],
        "course_deg_clockwise_from_north": [
          39,
          40,
          37,
          32,
          7,
          324,
          282,
          236,
          244,
          269,
          277,
          277,
          274,
          274,
          275,
          274,
          274,
          275,
          274,
          277,
          300,
          314,
          321,
          322,
          321,
          321,
          321,
          321,
          321,
          328,
          332,
          332,
          331,
          332,
          332,
          332,
          332,
          331,
          330,
          331,
          331,
          331,
          329,
          329,
          330,
          329,
          329,
          329,
          329,
          330,
          331,
          329,
          320,
          311,
          304,
          303,
          305,
          304,
          304,
          305,
          305,
          313,
          317,
          317,
          316,
          316,
          317,
          316,
          317,
          316,
          316,
          317,
          317,
          316,
          316,
          316,
          316,
          316,
          316,
          316,
          316,
          315,
          316,
          315,
          316,
          316,
          316,
          316,
          316,
          318,
          322,
          322,
          323,
          323,
          321,
          322,
          321,
          321,
          322,
          321,
          321,
          322,
          320,
          322,
          322,
          321,
          321,
          321,
          321,
          321,
          321,
          321,
          321,
          321,
          321,
          321,
          321,
          321,
          320,
          321,
          320,
          321,
          320,
          321,
          320,
          320,
          321,
          320,
          320,
          320,
          320,
          320,
          320,
          320,
          320,
          319,
          320,
          320,
          319,
          319,
          322,
          329,
          329,
          328,
          328,
          328,
          328,
          327,
          328,
          327,
          328,
          328,
          327,
          328,
          328,
          327,
          328,
          327,
          328,
          327,
          327,
          327,
          324,
          321,
          317,
          316,
          317,
          316,
          316,
          317,
          317,
          316,
          316,
          316,
          317,
          316,
          316,
          316,
          316,
          316,
          316,
          316,
          316,
          316,
          316,
          316,
          315,
          316,
          315,
          316,
          316,
          315,
          315,
          315,
          315,
          315,
          314,
          315,
          315,
          315,
          315,
          315,
          315,
          315,
          315,
          314,
          314,
          314,
          314,
          315,
          314,
          315,
          314,
          314,
          314,
          314,
          314,
          314,
          314,
          314,
          314,
          314,
          314,
          314,
          314,
          313,
          314,
          313,
          314,
          313,
          313,
          314,
          314,
          313,
          313,
          313,
          313,
          313,
          313,
          314,
          312,
          312,
          313,
          312,
          312,
          312,
          312,
          313,
          313,
          313,
          316,
          315,
          314,
          312,
          307,
          305,
          305,
          306,
          308,
          306,
          305,
          306,
          305,
          306,
          310,
          311,
          310,
          310,
          311,
          315,
          307,
          304,
          306,
          309,
          310,
          310,
          309,
          310,
          311,
          310,
          293,
          260,
          229,
          216,
          216,
          215,
          215,
          215,
          215,
          214,
          214,
          215,
          215
        ],
        "speed_kts": [
          147,
          164,
          178,
          185,
          192,
          194,
          200,
          204,
          213,
          229,
          250,
          281,
          300,
          312,
          334,
          348,
          352,
          368,
          377,
          378,
          378,
          375,
          376,
          383,
          387,
          394,
          395,
          396,
          404,
          408,
          419,
          429,
          431,
          432,
          435,
          437,
          437,
          436,
          435,
          434,
          433,
          432,
          431,
          429,
          426,
          429,
          436,
          437,
          438,
          436,
          434,
          431,
          433,
          436,
          438,
          446,
          450,
          452,
          453,
          452,
          454,
          449,
          448,
          451,
          453,
          453,
          452,
          453,
          452,
          453,
          453,
          452,
          452,
          451,
          448,
          446,
          444,
          442,
          441,
          441,
          440,
          438,
          437,
          437,
          437,
          437,
          436,
          436,
          436,
          435,
          433,
          433,
          434,
          435,
          436,
          437,
          438,
          438,
          438,
          440,
          439,
          440,
          441,
          441,
          440,
          441,
          440,
          441,
          441,
          441,
          441,
          440,
          440,
          439,
          438,
          438,
          438,
          439,
          439,
          439,
          438,
          438,
          439,
          437,
          437,
          436,
          437,
          438,
          438,
          438,
          438,
          438,
          439,
          439,
          440,
          440,
          440,
          441,
          442,
          441,
          441,
          438,
          437,
          438,
          439,
          441,
          441,
          442,
          441,
          441,
          440,
          441,
          441,
          441,
          442,
          441,
          440,
          440,
          441,
          441,
          441,
          441,
          442,
          441,
          441,
          440,
          439,
          439,
          439,
          437,
          436,
          435,
          434,
          435,
          435,
          435,
          435,
          436,
          435,
          436,
          435,
          434,
          432,
          430,
          429,
          426,
          424,
          422,
          421,
          420,
          419,
          419,
          419,
          419,
          420,
          420,
          418,
          419,
          418,
          419,
          418,
          418,
          418,
          419,
          419,
          419,
          420,
          420,
          419,
          419,
          419,
          419,
          419,
          419,
          419,
          419,
          418,
          418,
          417,
          418,
          419,
          419,
          419,
          419,
          419,
          417,
          416,
          415,
          415,
          415,
          416,
          417,
          417,
          418,
          420,
          419,
          420,
          420,
          422,
          423,
          423,
          424,
          424,
          423,
          424,
          424,
          423,
          420,
          413,
          413,
          408,
          403,
          403,
          401,
          397,
          392,
          387,
          375,
          374,
          382,
          390,
          395,
          392,
          388,
          386,
          381,
          379,
          378,
          375,
          377,
          374,
          368,
          342,
          308,
          275,
          268,
          272,
          268,
          250,
          236,
          223,
          210,
          200,
          196,
          176,
          175,
          162,
          147,
          140,
          130,
          126,
          125,
          124
        ],
        "speed_mph": [
          169.0,
          189.0,
          205.0,
          213.0,
          221.0,
          223.0,
          230.0,
          235.0,
          245.0,
          264.0,
          288.0,
          323.0,
          345.0,
          359.0,
          384.0,
          400.0,
          405.0,
          423.0,
          434.0,
          435.0,
          435.0,
          432.0,
          433.0,
          441.0,
          445.0,
          453.0,
          455.0,
          456.0,
          465.0,
          470.0,
          482.0,
          494.0,
          496.0,
          497.0,
          501.0,
          503.0,
          503.0,
          502.0,
          501.0,
          499.0,
          498.0,
          497.0,
          496.0,
          494.0,
          490.0,
          494.0,
          502.0,
          503.0,
          504.0,
          502.0,
          499.0,
          496.0,
          498.0,
          502.0,
          504.0,
          513.0,
          518.0,
          520.0,
          521.0,
          520.0,
          522.0,
          517.0,
          516.0,
          519.0,
          521.0,
          521.0,
          520.0,
          521.0,
          520.0,
          521.0,
          521.0,
          520.0,
          520.0,
          519.0,
          516.0,
          513.0,
          511.0,
          509.0,
          507.0,
          507.0,
          506.0,
          504.0,
          503.0,
          503.0,
          503.0,
          503.0,
          502.0,
          502.0,
          502.0,
          501.0,
          498.0,
          498.0,
          499.0,
          501.0,
          502.0,
          503.0,
          504.0,
          504.0,
          504.0,
          506.0,
          505.0,
          506.0,
          507.0,
          507.0,
          506.0,
          507.0,
          506.0,
          507.0,
          507.0,
          507.0,
          507.0,
          506.0,
          506.0,
          505.0,
          504.0,
          504.0,
          504.0,
          505.0,
          505.0,
          505.0,
          504.0,
          504.0,
          505.0,
          503.0,
          503.0,
          502.0,
          503.0,
          504.0,
          504.0,
          504.0,
          504.0,
          504.0,
          505.0,
          505.0,
          506.0,
          506.0,
          506.0,
          507.0,
          509.0,
          507.0,
          507.0,
          504.0,
          503.0,
          504.0,
          505.0,
          507.0,
          507.0,
          509.0,
          507.0,
          507.0,
          506.0,
          507.0,
          507.0,
          507.0,
          509.0,
          507.0,
          506.0,
          506.0,
          507.0,
          507.0,
          507.0,
          507.0,
          509.0,
          507.0,
          507.0,
          506.0,
          505.0,
          505.0,
          505.0,
          503.0,
          502.0,
          501.0,
          499.0,
          501.0,
          501.0,
          501.0,
          501.0,
          502.0,
          501.0,
          502.0,
          501.0,
          499.0,
          497.0,
          495.0,
          494.0,
          490.0,
          488.0,
          486.0,
          484.0,
          483.0,
          482.0,
          482.0,
          482.0,
          482.0,
          483.0,
          483.0,
          481.0,
          482.0,
          481.0,
          482.0,
          481.0,
          481.0,
          481.0,
          482.0,
          482.0,
          482.0,
          483.0,
          483.0,
          482.0,
          482.0,
          482.0,
          482.0,
          482.0,
          482.0,
          482.0,
          482.0,
          481.0,
          481.0,
          480.0,
          481.0,
          482.0,
          482.0,
          482.0,
          482.0,
          482.0,
          480.0,
          479.0,
          478.0,
          478.0,
          478.0,
          479.0,
          480.0,
          480.0,
          481.0,
          483.0,
          482.0,
          483.0,
          483.0,
          486.0,
          487.0,
          487.0,
          488.0,
          488.0,
          487.0,
          488.0,
          488.0,
          487.0,
          483.0,
          475.0,
          475.0,
          470.0,
          464.0,
          464.0,
          461.0,
          457.0,
          451.0,
          445.0,
          432.0,
          430.0,
          440.0,
          449.0,
          455.0,
          451.0,
          447.0,
          444.0,
          438.0,
          436.0,
          435.0,
          432.0,
          434.0,
          430.0,
          423.0,
          394.0,
          354.0,
          316.0,
          308.0,
          313.0,
          308.0,
          288.0,
          272.0,
          257.0,
          242.0,
          230.0,
          226.0,
          203.0,
          201.0,
          186.0,
          169.0,
          161.0,
          150.0,
          145.0,
          144.0,
          143.0
        ],
        "altitude_ft": [
          0,
          425,
          1150,
          1825,
          2475,
          3225,
          3950,
          4900,
          5550,
          6125,
          6900,
          7925,
          9100,
          11225,
          12100,
          13150,
          14475,
          15250,
          16150,
          16825,
          17300,
          17950,
          18950,
          19675,
          20625,
          21450,
          22450,
          23425,
          24200,
          24550,
          25175,
          25675,
          26425,
          27150,
          27925,
          28625,
          29400,
          30175,
          30925,
          31650,
          32400,
          33150,
          33875,
          34650,
          35375,
          35950,
          36275,
          36725,
          37225,
          37775,
          38350,
          38950,
          39250,
          39575,
          39950,
          40000,
          40000,
          40000,
          40000,
          40000,
          40000,
          40000,
          40000,
          40000,
          40000,
          40000,
          40000,
          40000,
          40000,
          40000,
          40000,
          40000,
          40000,
          40000,
          40000,
          40000,
          40000,
          40000,
          40000,
          40000,
          40000,
          40000,
          40000,
          40000,
          40000,
          40000,
          40000,
          40000,
          40000,
          40000,
          40000,
          40000,
          40000,
          40000,
          40000,
          40000,
          40000,
          40000,
          40000,
          40000,
          40000,
          40000,
          40000,
          40000,
          40000,
          40000,
          40000,
          40000,
          40000,
          40000,
          40000,
          40000,
          40000,
          40000,
          40000,
          40000,
          40000,
          40000,
          40000,
          40000,
          40000,
          40000,
          40000,
          40000,
          40000,
          40000,
          40000,
          40000,
          40000,
          40000,
          40000,
          40000,
          40000,
          40000,
          40000,
          40000,
          40000,
          40000,
          40000,
          40000,
          40000,
          40000,
          40000,
          40000,
          40000,
          40000,
          40000,
          40000,
          40000,
          40000,
          40000,
          40000,
          40000,
          40000,
          40000,
          40000,
          40000,
          40000,
          40000,
          40000,
          40000,
          40000,
          40000,
          40000,
          40000,
          40000,
          40000,
          40000,
          40000,
          40000,
          40000,
          40000,
          40000,
          40000,
          40000,
          40000,
          40000,
          40000,
          40000,
          40000,
          40000,
          40000,
          40000,
          40000,
          40000,
          40000,
          40000,
          40000,
          40000,
          40000,
          40000,
          40000,
          40000,
          40000,
          40000,
          40000,
          40000,
          40000,
          40000,
          40000,
          40000,
          40000,
          40000,
          40000,
          40000,
          40000,
          40000,
          40000,
          40000,
          40000,
          40000,
          40000,
          40000,
          40000,
          40000,
          40000,
          40000,
          40000,
          40000,
          40000,
          40000,
          40000,
          40000,
          40000,
          40000,
          40000,
          40000,
          40000,
          40000,
          40000,
          40000,
          40000,
          40000,
          40000,
          40000,
          40000,
          40000,
          40000,
          40000,
          40000,
          40000,
          40000,
          40000,
          40000,
          40000,
          40000,
          40000,
          39850,
          38575,
          37100,
          36050,
          35200,
          33700,
          32725,
          31925,
          30450,
          29275,
          27800,
          26800,
          25425,
          23975,
          22475,
          21150,
          19775,
          18725,
          17250,
          16000,
          14775,
          13875,
          12550,
          11225,
          10125,
          9275,
          8475,
          7975,
          7225,
          5900,
          4625,
          3725,
          2900,
          2500,
          2125,
          1850,
          1525,
          1425,
          1125,
          750,
          525,
          300,
          100,
          0,
          0,
          0
        ],
        "vertical_rate_fpm": [
          0.0,
          2273.0,
          2545.0,
          2484.0,
          2625.0,
          2766.0,
          2956.0,
          2824.0,
          2227.0,
          2189.0,
          2160.0,
          2200.0,
          2640.0,
          2400.0,
          1925.0,
          2336.0,
          2066.0,
          1675.0,
          1929.0,
          1971.0,
          1929.0,
          2250.0,
          1882.0,
          1675.0,
          1775.0,
          1825.0,
          1975.0,
          1750.0,
          1378.0,
          1064.0,
          1023.0,
          1250.0,
          1475.0,
          1500.0,
          1475.0,
          1475.0,
          1550.0,
          1525.0,
          1475.0,
          1475.0,
          1500.0,
          1475.0,
          1500.0,
          1500.0,
          1300.0,
          900.0,
          775.0,
          950.0,
          1050.0,
          1125.0,
          1175.0,
          1174.0,
          1071.0,
          955.0,
          464.0,
          50.0,
          0.0,
          0.0,
          0.0,
          0.0,
          0.0,
          0.0,
          0.0,
          0.0,
          0.0,
          0.0,
          0.0,
          0.0,
          0.0,
          0.0,
          0.0,
          0.0,
          0.0,
          0.0,
          0.0,
          0.0,
          0.0,
          0.0,
          0.0,
          0.0,
          0.0,
          0.0,
          0.0,
          0.0,
          0.0,
          0.0,
          0.0,
          0.0,
          0.0,
          0.0,
          0.0,
          0.0,
          0.0,
          0.0,
          0.0,
          0.0,
          0.0,
          0.0,
          0.0,
          0.0,
          0.0,
          0.0,
          0.0,
          0.0,
          0.0,
          0.0,
          0.0,
          0.0,
          0.0,
          0.0,
          0.0,
          0.0,
          0.0,
          0.0,
          0.0,
          0.0,
          0.0,
          0.0,
          0.0,
          0.0,
          0.0,
          0.0,
          0.0,
          0.0,
          0.0,
          0.0,
          0.0,
          0.0,
          0.0,
          0.0,
          0.0,
          0.0,
          0.0,
          0.0,
          0.0,
          0.0,
          0.0,
          0.0,
          0.0,
          0.0,
          0.0,
          0.0,
          0.0,
          0.0,
          0.0,
          0.0,
          0.0,
          0.0,
          0.0,
          0.0,
          0.0,
          0.0,
          0.0,
          0.0,
          0.0,
          0.0,
          0.0,
          0.0,
          0.0,
          0.0,
          0.0,
          0.0,
          0.0,
          0.0,
          0.0,
          0.0,
          0.0,
          0.0,
          0.0,
          0.0,
          0.0,
          0.0,
          0.0,
          0.0,
          0.0,
          0.0,
          0.0,
          0.0,
          0.0,
          0.0,
          0.0,
          0.0,
          0.0,
          0.0,
          0.0,
          0.0,
          0.0,
          0.0,
          0.0,
          0.0,
          0.0,
          0.0,
          0.0,
          0.0,
          0.0,
          0.0,
          0.0,
          0.0,
          0.0,
          0.0,
          0.0,
          0.0,
          0.0,
          0.0,
          0.0,
          0.0,
          0.0,
          0.0,
          0.0,
          0.0,
          0.0,
          0.0,
          0.0,
          0.0,
          0.0,
          0.0,
          0.0,
          0.0,
          0.0,
          0.0,
          0.0,
          0.0,
          0.0,
          0.0,
          0.0,
          0.0,
          0.0,
          0.0,
          0.0,
          0.0,
          0.0,
          0.0,
          0.0,
          0.0,
          0.0,
          0.0,
          0.0,
          0.0,
          0.0,
          0.0,
          0.0,
          0.0,
          0.0,
          0.0,
          0.0,
          0.0,
          -134.0,
          -1276.0,
          -2750.0,
          -2971.0,
          -3000.0,
          -3000.0,
          -3031.0,
          -2803.0,
          -2625.0,
          -2524.0,
          -2271.0,
          -2121.0,
          -2375.0,
          -2825.0,
          -2950.0,
          -2825.0,
          -2613.0,
          -2553.0,
          -2525.0,
          -2515.0,
          -2475.0,
          -2500.0,
          -2724.0,
          -2650.0,
          -2347.0,
          -1950.0,
          -1650.0,
          -1300.0,
          -1250.0,
          -2075.0,
          -2737.0,
          -2289.0,
          -1725.0,
          -1531.0,
          -1134.0,
          -1000.0,
          -1059.0,
          -567.0,
          -421.0,
          -750.0,
          -900.0,
          -844.0,
          -797.0,
          -750.0,
          -750.0,
          0.0,
          0.0
        ]
      }
    }
  ]
}