{
  "type": "FeatureCollection",
  "features": [
    {
      "type": "Feature",
      "geometry": {
        "type": "LineString",
        "coordinates": [
          [
            7.1643,
            50.8561
          ],
          [
            7.1754,
            50.8481
          ],
          [
            7.1874,
            50.8391
          ],
          [
            7.1972,
            50.8315
          ],
          [
            7.2121,
            50.8204
          ],
          [
            7.2291,
            50.8119
          ],
          [
            7.2501,
            50.8074
          ],
          [
            7.2744,
            50.8059
          ],
          [
            7.3038,
            50.805
          ],
          [
            7.3312,
            50.8041
          ],
          [
            7.3612,
            50.8024
          ],
          [
            7.3908,
            50.7959
          ],
          [
            7.4199,
            50.7844
          ],
          [
            7.4747,
            50.758
          ],
          [
            7.5473,
            50.7288
          ],
          [
            7.5996,
            50.7095
          ],
          [
            7.6525,
            50.69
          ],
          [
            7.7107,
            50.6669
          ],
          [
            7.7706,
            50.6432
          ],
          [
            7.8317,
            50.6195
          ],
          [
            7.8972,
            50.5926
          ],
          [
            7.9628,
            50.5666
          ],
          [
            8.0295,
            50.54
          ],
          [
            8.0977,
            50.5125
          ],
          [
            8.1704,
            50.4831
          ],
          [
            8.2408,
            50.4547
          ],
          [
            8.3139,
            50.4252
          ],
          [
            8.3886,
            50.3946
          ],
          [
            8.44,
            50.3733
          ],
          [
            8.4866,
            50.349
          ],
          [
            8.5497,
            50.3119
          ],
          [
            8.6083,
            50.2781
          ],
          [
            8.6722,
            50.2423
          ],
          [
            8.724,
            50.2124
          ],
          [
            8.7905,
            50.1749
          ],
          [
            8.8917,
            50.1165
          ],
          [
            8.9606,
            50.0774
          ],
          [
            9.0312,
            50.0359
          ],
          [
            9.1031,
            49.9955
          ],
          [
            9.1441,
            49.9743
          ],
          [
            9.196,
            49.9487
          ],
          [
            9.3077,
            49.8954
          ],
          [
            9.3873,
            49.8564
          ],
          [
            9.4446,
            49.8279
          ],
          [
            9.5205,
            49.7906
          ],
          [
            9.6024,
            49.7503
          ],
          [
            9.6788,
            49.7121
          ],
          [
            9.7333,
            49.6847
          ],
          [
            9.8138,
            49.6446
          ],
          [
            9.8898,
            49.6065
          ],
          [
            9.9757,
            49.5632
          ],
          [
            10.0581,
            49.5217
          ],
          [
            10.1337,
            49.4833
          ],
          [
            10.2134,
            49.4427
          ],
          [
            10.2922,
            49.4028
          ],
          [
            10.3686,
            49.3637
          ],
          [
            10.4494,
            49.3222
          ],
          [
            10.5962,
            49.2468
          ],
          [
            10.6713,
            49.2078
          ],
          [
            10.7474,
            49.1685
          ],
          [
            10.8257,
            49.1276
          ],
          [
            10.9022,
            49.0879
          ],
          [
            10.9787,
            49.048
          ],
          [
            11.0441,
            49.0136
          ],
          [
            11.1664,
            48.9489
          ],
          [
            11.2392,
            48.9109
          ],
          [
            11.3153,
            48.8703
          ],
          [
            11.3933,
            48.8291
          ],
          [
            11.5025,
            48.7708
          ],
          [
            11.5786,
            48.73
          ],
          [
            11.6752,
            48.6784
          ],
          [
            11.7291,
            48.6492
          ],
          [
            11.7764,
            48.6239
          ],
          [
            11.8252,
            48.5978
          ],
          [
            11.9352,
            48.538
          ],
          [
            12.0095,
            48.4974
          ],
          [
            12.0885,
            48.4547
          ],
          [
            12.1619,
            48.4143
          ],
          [
            12.2336,
            48.3751
          ],
          [
            12.3073,
            48.3346
          ],
          [
            12.3796,
            48.2947
          ],
          [
            12.4516,
            48.2549
          ],
          [
            12.5241,
            48.2149
          ],
          [
            12.5955,
            48.175
          ],
          [
            12.6673,
            48.1351
          ],
          [
            12.7409,
            48.094
          ],
          [
            12.8096,
            48.0555
          ],
          [
            12.8806,
            48.0157
          ],
          [
            12.9496,
            47.9768
          ],
          [
            13.0219,
            47.9361
          ],
          [
            13.094,
            47.8954
          ],
          [
            13.1625,
            47.8562
          ],
          [
            13.2311,
            47.8175
          ],
          [
            13.3,
            47.7779
          ],
          [
            13.3718,
            47.737
          ],
          [
            13.4383,
            47.6988
          ],
          [
            13.5118,
            47.6565
          ],
          [
            13.582,
            47.6161
          ],
          [
            13.648,
            47.5782
          ],
          [
            13.7184,
            47.5371
          ],
          [
            13.791,
            47.4952
          ],
          [
            13.8582,
            47.4561
          ],
          [
            13.9271,
            47.4159
          ],
          [
            13.9964,
            47.3755
          ],
          [
            14.0662,
            47.3349
          ],
          [
            14.1369,
            47.2933
          ],
          [
            14.2039,
            47.2539
          ],
          [
            14.2744,
            47.2125
          ],
          [
            14.347,
            47.1697
          ],
          [
            14.4166,
            47.1285
          ],
          [
            14.4855,
            47.0876
          ],
          [
            14.5513,
            47.0485
          ],
          [
            14.6205,
            47.0073
          ],
          [
            14.6876,
            46.967
          ],
          [
            14.7537,
            46.9276
          ],
          [
            14.824,
            46.8854
          ],
          [
            14.8908,
            46.845
          ],
          [
            14.9574,
            46.8051
          ],
          [
            15.024,
            46.7646
          ],
          [
            15.0913,
            46.7239
          ],
          [
            15.1612,
            46.6814
          ],
          [
            15.2269,
            46.6415
          ],
          [
            15.2918,
            46.6016
          ],
          [
            15.3577,
            46.5614
          ],
          [
            15.4249,
            46.5199
          ],
          [
            15.4913,
            46.4793
          ],
          [
            15.5574,
            46.4385
          ],
          [
            15.6239,
            46.3973
          ],
          [
            15.692,
            46.3555
          ],
          [
            15.757,
            46.3147
          ],
          [
            15.8204,
            46.2751
          ],
          [
            15.8867,
            46.2338
          ],
          [
            15.9524,
            46.1927
          ],
          [
            16.0167,
            46.1521
          ],
          [
            16.1049,
            46.0968
          ],
          [
            16.1678,
            46.057
          ],
          [
            16.2328,
            46.0159
          ],
          [
            16.2975,
            45.9752
          ],
          [
            16.3602,
            45.9347
          ],
          [
            16.4252,
            45.8943
          ],
          [
            16.5076,
            45.8408
          ],
          [
            16.5734,
            45.799
          ],
          [
            16.6374,
            45.7582
          ],
          [
            16.6995,
            45.7177
          ],
          [
            16.7635,
            45.6768
          ],
          [
            16.8301,
            45.6336
          ],
          [
            16.8931,
            45.5927
          ],
          [
            16.9571,
            45.5513
          ],
          [
            17.0214,
            45.5093
          ],
          [
            17.0847,
            45.4681
          ],
          [
            17.1465,
            45.4277
          ],
          [
            17.2125,
            45.3841
          ],
          [
            17.2755,
            45.3432
          ],
          [
            17.3391,
            45.3011
          ],
          [
            17.408,
            45.2554
          ],
          [
            17.4721,
            45.2132
          ],
          [
            17.5348,
            45.1713
          ],
          [
            17.5966,
            45.1305
          ],
          [
            17.6608,
            45.0876
          ],
          [
            17.7224,
            45.0463
          ],
          [
            17.7852,
            45.0047
          ],
          [
            17.8502,
            44.9608
          ],
          [
            17.9122,
            44.9193
          ],
          [
            17.9788,
            44.8743
          ],
          [
            18.0429,
            44.8311
          ],
          [
            18.1109,
            44.785
          ],
          [
            18.1711,
            44.744
          ],
          [
            18.2333,
            44.7017
          ],
          [
            18.2941,
            44.6602
          ],
          [
            18.3565,
            44.6177
          ],
          [
            18.4184,
            44.5749
          ],
          [
            18.4796,
            44.5332
          ],
          [
            18.5415,
            44.4907
          ],
          [
            18.6041,
            44.4473
          ],
          [
            18.6612,
            44.408
          ],
          [
            18.7244,
            44.3641
          ],
          [
            18.7856,
            44.3217
          ],
          [
            18.8432,
            44.2816
          ],
          [
            18.9029,
            44.24
          ],
          [
            18.9654,
            44.1964
          ],
          [
            19.0265,
            44.1534
          ],
          [
            19.084,
            44.1132
          ],
          [
            19.1426,
            44.072
          ],
          [
            19.2029,
            44.0295
          ],
          [
            19.2643,
            43.9862
          ],
          [
            19.324,
            43.9438
          ],
          [
            19.3831,
            43.9016
          ],
          [
            19.454,
            43.8516
          ],
          [
            19.5143,
            43.8085
          ],
          [
            19.5742,
            43.7655
          ],
          [
            19.6343,
            43.7227
          ],
          [
            19.6941,
            43.6795
          ],
          [
            19.7569,
            43.6347
          ],
          [
            19.8174,
            43.5911
          ],
          [
            19.8807,
            43.5452
          ],
          [
            19.9414,
            43.5012
          ],
          [
            20.0136,
            43.449
          ],
          [
            20.0774,
            43.4024
          ],
          [
            20.1406,
            43.3565
          ],
          [
            20.2039,
            43.3103
          ],
          [
            20.2727,
            43.2599
          ],
          [
            20.3352,
            43.2138
          ],
          [
            20.3979,
            43.168
          ],
          [
            20.4597,
            43.122
          ],
          [
            20.5226,
            43.0755
          ],
          [
            20.5855,
            43.0294
          ],
          [
            20.6468,
            42.983
          ],
          [
            20.7071,
            42.937
          ],
          [
            20.7692,
            42.8895
          ],
          [
            20.8307,
            42.8427
          ],
          [
            20.892,
            42.7954
          ],
          [
            20.9532,
            42.748
          ],
          [
            21.0138,
            42.7012
          ],
          [
            21.0757,
            42.6537
          ],
          [
            21.1325,
            42.6092
          ],
          [
            21.1964,
            42.5596
          ],
          [
            21.2608,
            42.5093
          ],
          [
            21.319,
            42.4639
          ],
          [
            21.3798,
            42.4162
          ],
          [
            21.4401,
            42.3691
          ],
          [
            21.5006,
            42.3216
          ],
          [
            21.534,
            42.2964
          ],
          [
            21.5987,
            42.2529
          ],
          [
            21.6732,
            42.2058
          ],
          [
            21.7357,
            42.1645
          ],
          [
            21.8019,
            42.1208
          ],
          [
            21.8677,
            42.0778
          ],
          [
            21.9351,
            42.0331
          ],
          [
            21.9993,
            41.9908
          ],
          [
            22.0653,
            41.9474
          ],
          [
            22.1428,
            41.8954
          ],
          [
            22.2062,
            41.8538
          ],
          [
            22.2748,
            41.8081
          ],
          [
            22.3371,
            41.7663
          ],
          [
            22.4308,
            41.7037
          ],
          [
            22.4967,
            41.6592
          ],
          [
            22.5613,
            41.6163
          ],
          [
            22.6219,
            41.5753
          ],
          [
            22.6891,
            41.5296
          ],
          [
            22.7538,
            41.4863
          ],
          [
            22.8166,
            41.4433
          ],
          [
            22.8823,
            41.3986
          ],
          [
            22.9456,
            41.3555
          ],
          [
            23.0102,
            41.3115
          ],
          [
            23.0739,
            41.2679
          ],
          [
            23.1373,
            41.2242
          ],
          [
            23.1985,
            41.1827
          ],
          [
            23.2639,
            41.1375
          ],
          [
            23.3277,
            41.0929
          ],
          [
            23.393,
            41.0482
          ],
          [
            23.455,
            41.0052
          ],
          [
            23.5165,
            40.9626
          ],
          [
            23.5839,
            40.9155
          ],
          [
            23.6464,
            40.8721
          ],
          [
            23.7068,
            40.8298
          ],
          [
            23.7701,
            40.7855
          ],
          [
            23.8335,
            40.7409
          ],
          [
            23.897,
            40.6959
          ],
          [
            23.9581,
            40.6535
          ],
          [
            24.0217,
            40.6084
          ],
          [
            24.0831,
            40.5647
          ],
          [
            24.1452,
            40.5207
          ],
          [
            24.2055,
            40.478
          ],
          [
            24.2677,
            40.4333
          ],
          [
            24.3312,
            40.3882
          ],
          [
            24.3926,
            40.3443
          ],
          [
            24.4539,
            40.3005
          ],
          [
            24.5159,
            40.2561
          ],
          [
            24.577,
            40.2119
          ],
          [
            24.6392,
            40.167
          ],
          [
            24.6998,
            40.1234
          ],
          [
            24.757,
            40.0817
          ],
          [
            24.816,
            40.039
          ],
          [
            24.8775,
            39.9944
          ],
          [
            24.9438,
            39.9459
          ],
          [
            25.0017,
            39.9038
          ],
          [
            25.0621,
            39.8598
          ],
          [
            25.125,
            39.8133
          ],
          [
            25.1848,
            39.7698
          ],
          [
            25.2438,
            39.7262
          ],
          [
            25.3041,
            39.6818
          ],
          [
            25.3648,
            39.6369
          ],
          [
            25.4216,
            39.5951
          ],
          [
            25.4822,
            39.55
          ],
          [
            25.5419,
            39.5056
          ],
          [
            25.6015,
            39.4611
          ],
          [
            25.6609,
            39.417
          ],
          [
            25.7205,
            39.3725
          ],
          [
            25.7788,
            39.3289
          ],
          [
            25.8396,
            39.2831
          ],
          [
            25.8981,
            39.2391
          ],
          [
            25.9586,
            39.1938
          ],
          [
            26.0159,
            39.1503
          ],
          [
            26.075,
            39.1057
          ],
          [
            26.1342,
            39.0607
          ],
          [
            26.1931,
            39.0161
          ],
          [
            26.2498,
            38.973
          ],
          [
            26.309,
            38.928
          ],
          [
            26.3669,
            38.8837
          ],
          [
            26.4499,
            38.8413
          ],
          [
            26.5134,
            38.8258
          ],
          [
            26.5934,
            38.8143
          ],
          [
            26.6428,
            38.8089
          ],
          [
            26.7259,
            38.8007
          ],
          [
            26.8157,
            38.79
          ],
          [
            26.8962,
            38.7796
          ],
          [
            27.1079,
            38.6866
          ],
          [
            27.18,
            38.644
          ],
          [
            27.2447,
            38.6039
          ],
          [
            27.2933,
            38.5739
          ],
          [
            27.3504,
            38.525
          ],
          [
            27.4114,
            38.4706
          ],
          [
            27.4681,
            38.4191
          ],
          [
            27.5269,
            38.3683
          ],
          [
            27.5838,
            38.3165
          ],
          [
            27.6392,
            38.2673
          ],
          [
            27.6937,
            38.2185
          ],
          [
            27.7485,
            38.1697
          ],
          [
            27.8031,
            38.121
          ],
          [
            27.8598,
            38.0697
          ],
          [
            27.9148,
            38.0206
          ],
          [
            27.9739,
            37.9676
          ],
          [
            28.027,
            37.9193
          ],
          [
            28.0796,
            37.8717
          ],
          [
            28.1322,
            37.8245
          ],
          [
            28.1846,
            37.7771
          ],
          [
            28.2351,
            37.7308
          ],
          [
            28.2869,
            37.6843
          ],
          [
            28.3398,
            37.636
          ],
          [
            28.3881,
            37.5915
          ],
          [
            28.4491,
            37.5361
          ],
          [
            28.4773,
            37.5099
          ],
          [
            28.511,
            37.4556
          ],
          [
            28.5298,
            37.4035
          ],
          [
            28.5448,
            37.3529
          ],
          [
            28.5578,
            37.3052
          ],
          [
            28.5715,
            37.2586
          ],
          [
            28.5849,
            37.2149
          ],
          [
            28.5981,
            37.173
          ],
          [
            28.6096,
            37.1471
          ],
          [
            28.6475,
            37.1285
          ],
          [
            28.7241,
            37.129
          ],
          [
            28.7803,
            37.1372
          ],
          [
            28.8333,
            37.145
          ],
          [
            28.8851,
            37.1518
          ],
          [
            28.9205,
            37.157
          ],
          [
            28.9506,
            37.1539
          ],
          [
            28.9743,
            37.1422
          ],
          [
            29.0085,
            37.1152
          ],
          [
            29.037,
            37.0879
          ],
          [
            29.0505,
            37.0717
          ],
          [
            29.0508,
            37.049
          ],
          [
            29.0347,
            37.0174
          ],
          [
            29.0135,
            36.9889
          ],
          [
            28.9907,
            36.9603
          ],
          [
            28.975,
            36.9398
          ],
          [
            28.9479,
            36.9138
          ],
          [
            28.919,
            36.8868
          ],
          [
            28.9062,
            36.8745
          ],
          [
            28.8884,
            36.8575
          ],
          [
            28.8785,
            36.8446
          ],
          [
            28.8613,
            36.821
          ],
          [
            28.8457,
            36.7997
          ],
          [
            28.8316,
            36.78
          ],
          [
            28.8293,
            36.7771
          ],
          [
            28.8229,
            36.7685
          ],
          [
            28.8171,
            36.7605
          ],
          [
            28.81,
            36.7508
          ],
          [
            28.8043,
            36.7437
          ],
          [
            28.8001,
            36.7356
          ],
          [
            28.7972,
            36.727
          ]
        ]
      },
      "properties": {
        "time_europe_berlin": [
          "31.10.2025 09:25:53",
          "31.10.2025 09:26:09",
          "31.10.2025 09:26:25",
          "31.10.2025 09:26:41",
          "31.10.2025 09:26:57",
          "31.10.2025 09:27:13",
          "31.10.2025 09:27:29",
          "31.10.2025 09:27:45",
          "31.10.2025 09:28:05",
          "31.10.2025 09:28:22",
          "31.10.2025 09:28:40",
          "31.10.2025 09:29:00",
          "31.10.2025 09:29:20",
          "31.10.2025 09:29:55",
          "31.10.2025 09:30:38",
          "31.10.2025 09:31:08",
          "31.10.2025 09:31:36",
          "31.10.2025 09:32:06",
          "31.10.2025 09:32:36",
          "31.10.2025 09:33:06",
          "31.10.2025 09:33:36",
          "31.10.2025 09:34:06",
          "31.10.2025 09:34:36",
          "31.10.2025 09:35:06",
          "31.10.2025 09:35:36",
          "31.10.2025 09:36:06",
          "31.10.2025 09:36:36",
          "31.10.2025 09:37:06",
          "31.10.2025 09:37:26",
          "31.10.2025 09:37:48",
          "31.10.2025 09:38:18",
          "31.10.2025 09:38:46",
          "31.10.2025 09:39:16",
          "31.10.2025 09:39:40",
          "31.10.2025 09:40:10",
          "31.10.2025 09:40:55",
          "31.10.2025 09:41:25",
          "31.10.2025 09:41:55",
          "31.10.2025 09:42:25",
          "31.10.2025 09:42:41",
          "31.10.2025 09:43:02",
          "31.10.2025 09:43:44",
          "31.10.2025 09:44:14",
          "31.10.2025 09:44:34",
          "31.10.2025 09:45:04",
          "31.10.2025 09:45:34",
          "31.10.2025 09:46:04",
          "31.10.2025 09:46:24",
          "31.10.2025 09:46:54",
          "31.10.2025 09:47:24",
          "31.10.2025 09:47:55",
          "31.10.2025 09:48:27",
          "31.10.2025 09:48:57",
          "31.10.2025 09:49:27",
          "31.10.2025 09:49:57",
          "31.10.2025 09:50:27",
          "31.10.2025 09:50:57",
          "31.10.2025 09:51:55",
          "31.10.2025 09:52:25",
          "31.10.2025 09:52:55",
          "31.10.2025 09:53:25",
          "31.10.2025 09:53:55",
          "31.10.2025 09:54:25",
          "31.10.2025 09:54:51",
          "31.10.2025 09:55:37",
          "31.10.2025 09:56:06",
          "31.10.2025 09:56:36",
          "31.10.2025 09:57:06",
          "31.10.2025 09:57:49",
          "31.10.2025 09:58:19",
          "31.10.2025 09:58:57",
          "31.10.2025 09:59:19",
          "31.10.2025 09:59:36",
          "31.10.2025 09:59:56",
          "31.10.2025 10:00:40",
          "31.10.2025 10:01:10",
          "31.10.2025 10:01:40",
          "31.10.2025 10:02:10",
          "31.10.2025 10:02:40",
          "31.10.2025 10:03:10",
          "31.10.2025 10:03:40",
          "31.10.2025 10:04:10",
          "31.10.2025 10:04:40",
          "31.10.2025 10:05:10",
          "31.10.2025 10:05:40",
          "31.10.2025 10:06:10",
          "31.10.2025 10:06:40",
          "31.10.2025 10:07:10",
          "31.10.2025 10:07:40",
          "31.10.2025 10:08:10",
          "31.10.2025 10:08:40",
          "31.10.2025 10:09:10",
          "31.10.2025 10:09:40",
          "31.10.2025 10:10:10",
          "31.10.2025 10:10:40",
          "31.10.2025 10:11:10",
          "31.10.2025 10:11:40",
          "31.10.2025 10:12:10",
          "31.10.2025 10:12:40",
          "31.10.2025 10:13:10",
          "31.10.2025 10:13:40",
          "31.10.2025 10:14:10",
          "31.10.2025 10:14:40",
          "31.10.2025 10:15:10",
          "31.10.2025 10:15:40",
          "31.10.2025 10:16:11",
          "31.10.2025 10:16:41",
          "31.10.2025 10:17:11",
          "31.10.2025 10:17:42",
          "31.10.2025 10:18:13",
          "31.10.2025 10:18:43",
          "31.10.2025 10:19:13",
          "31.10.2025 10:19:43",
          "31.10.2025 10:20:13",
          "31.10.2025 10:20:43",
          "31.10.2025 10:21:13",
          "31.10.2025 10:21:43",
          "31.10.2025 10:22:13",
          "31.10.2025 10:22:43",
          "31.10.2025 10:23:13",
          "31.10.2025 10:23:43",
          "31.10.2025 10:24:13",
          "31.10.2025 10:24:43",
          "31.10.2025 10:25:13",
          "31.10.2025 10:25:43",
          "31.10.2025 10:26:13",
          "31.10.2025 10:26:43",
          "31.10.2025 10:27:13",
          "31.10.2025 10:27:43",
          "31.10.2025 10:28:14",
          "31.10.2025 10:28:44",
          "31.10.2025 10:29:14",
          "31.10.2025 10:29:44",
          "31.10.2025 10:30:14",
          "31.10.2025 10:30:55",
          "31.10.2025 10:31:25",
          "31.10.2025 10:31:55",
          "31.10.2025 10:32:25",
          "31.10.2025 10:32:55",
          "31.10.2025 10:33:25",
          "31.10.2025 10:34:05",
          "31.10.2025 10:34:35",
          "31.10.2025 10:35:05",
          "31.10.2025 10:35:35",
          "31.10.2025 10:36:05",
          "31.10.2025 10:36:35",
          "31.10.2025 10:37:06",
          "31.10.2025 10:37:36",
          "31.10.2025 10:38:06",
          "31.10.2025 10:38:36",
          "31.10.2025 10:39:06",
          "31.10.2025 10:39:36",
          "31.10.2025 10:40:06",
          "31.10.2025 10:40:36",
          "31.10.2025 10:41:09",
          "31.10.2025 10:41:39",
          "31.10.2025 10:42:09",
          "31.10.2025 10:42:40",
          "31.10.2025 10:43:10",
          "31.10.2025 10:43:40",
          "31.10.2025 10:44:10",
          "31.10.2025 10:44:41",
          "31.10.2025 10:45:11",
          "31.10.2025 10:45:43",
          "31.10.2025 10:46:14",
          "31.10.2025 10:46:46",
          "31.10.2025 10:47:16",
          "31.10.2025 10:47:46",
          "31.10.2025 10:48:16",
          "31.10.2025 10:48:46",
          "31.10.2025 10:49:16",
          "31.10.2025 10:49:47",
          "31.10.2025 10:50:17",
          "31.10.2025 10:50:47",
          "31.10.2025 10:51:17",
          "31.10.2025 10:51:48",
          "31.10.2025 10:52:18",
          "31.10.2025 10:52:48",
          "31.10.2025 10:53:18",
          "31.10.2025 10:53:49",
          "31.10.2025 10:54:19",
          "31.10.2025 10:54:49",
          "31.10.2025 10:55:19",
          "31.10.2025 10:55:49",
          "31.10.2025 10:56:20",
          "31.10.2025 10:56:50",
          "31.10.2025 10:57:20",
          "31.10.2025 10:57:55",
          "31.10.2025 10:58:25",
          "31.10.2025 10:58:55",
          "31.10.2025 10:59:25",
          "31.10.2025 10:59:55",
          "31.10.2025 11:00:26",
          "31.10.2025 11:00:56",
          "31.10.2025 11:01:27",
          "31.10.2025 11:01:57",
          "31.10.2025 11:02:32",
          "31.10.2025 11:03:02",
          "31.10.2025 11:03:33",
          "31.10.2025 11:04:04",
          "31.10.2025 11:04:38",
          "31.10.2025 11:05:08",
          "31.10.2025 11:05:39",
          "31.10.2025 11:06:09",
          "31.10.2025 11:06:40",
          "31.10.2025 11:07:10",
          "31.10.2025 11:07:40",
          "31.10.2025 11:08:11",
          "31.10.2025 11:08:41",
          "31.10.2025 11:09:12",
          "31.10.2025 11:09:42",
          "31.10.2025 11:10:13",
          "31.10.2025 11:10:43",
          "31.10.2025 11:11:14",
          "31.10.2025 11:11:43",
          "31.10.2025 11:12:14",
          "31.10.2025 11:12:45",
          "31.10.2025 11:13:15",
          "31.10.2025 11:13:45",
          "31.10.2025 11:14:15",
          "31.10.2025 11:14:46",
          "31.10.2025 11:15:02",
          "31.10.2025 11:15:33",
          "31.10.2025 11:16:04",
          "31.10.2025 11:16:35",
          "31.10.2025 11:17:05",
          "31.10.2025 11:17:36",
          "31.10.2025 11:18:06",
          "31.10.2025 11:18:36",
          "31.10.2025 11:19:06",
          "31.10.2025 11:19:42",
          "31.10.2025 11:20:12",
          "31.10.2025 11:20:43",
          "31.10.2025 11:21:13",
          "31.10.2025 11:21:56",
          "31.10.2025 11:22:27",
          "31.10.2025 11:22:57",
          "31.10.2025 11:23:27",
          "31.10.2025 11:23:58",
          "31.10.2025 11:24:28",
          "31.10.2025 11:24:58",
          "31.10.2025 11:25:29",
          "31.10.2025 11:25:59",
          "31.10.2025 11:26:29",
          "31.10.2025 11:26:59",
          "31.10.2025 11:27:29",
          "31.10.2025 11:27:59",
          "31.10.2025 11:28:29",
          "31.10.2025 11:28:59",
          "31.10.2025 11:29:30",
          "31.10.2025 11:30:00",
          "31.10.2025 11:30:30",
          "31.10.2025 11:31:01",
          "31.10.2025 11:31:31",
          "31.10.2025 11:32:01",
          "31.10.2025 11:32:31",
          "31.10.2025 11:33:01",
          "31.10.2025 11:33:32",
          "31.10.2025 11:34:02",
          "31.10.2025 11:34:32",
          "31.10.2025 11:35:02",
          "31.10.2025 11:35:32",
          "31.10.2025 11:36:02",
          "31.10.2025 11:36:33",
          "31.10.2025 11:37:03",
          "31.10.2025 11:37:33",
          "31.10.2025 11:38:04",
          "31.10.2025 11:38:34",
          "31.10.2025 11:39:04",
          "31.10.2025 11:39:35",
          "31.10.2025 11:40:05",
          "31.10.2025 11:40:33",
          "31.10.2025 11:41:03",
          "31.10.2025 11:41:34",
          "31.10.2025 11:42:06",
          "31.10.2025 11:42:36",
          "31.10.2025 11:43:06",
          "31.10.2025 11:43:38",
          "31.10.2025 11:44:08",
          "31.10.2025 11:44:38",
          "31.10.2025 11:45:08",
          "31.10.2025 11:45:38",
          "31.10.2025 11:46:08",
          "31.10.2025 11:46:38",
          "31.10.2025 11:47:08",
          "31.10.2025 11:47:38",
          "31.10.2025 11:48:08",
          "31.10.2025 11:48:38",
          "31.10.2025 11:49:08",
          "31.10.2025 11:49:39",
          "31.10.2025 11:50:09",
          "31.10.2025 11:50:39",
          "31.10.2025 11:51:09",
          "31.10.2025 11:51:40",
          "31.10.2025 11:52:10",
          "31.10.2025 11:52:40",
          "31.10.2025 11:53:10",
          "31.10.2025 11:53:40",
          "31.10.2025 11:54:10",
          "31.10.2025 11:54:45",
          "31.10.2025 11:55:10",
          "31.10.2025 11:55:39",
          "31.10.2025 11:55:58",
          "31.10.2025 11:56:28",
          "31.10.2025 11:57:00",
          "31.10.2025 11:57:29",
          "31.10.2025 11:58:58",
          "31.10.2025 11:59:31",
          "31.10.2025 12:00:01",
          "31.10.2025 12:00:23",
          "31.10.2025 12:00:54",
          "31.10.2025 12:01:28",
          "31.10.2025 12:02:00",
          "31.10.2025 12:02:32",
          "31.10.2025 12:03:04",
          "31.10.2025 12:03:35",
          "31.10.2025 12:04:05",
          "31.10.2025 12:04:35",
          "31.10.2025 12:05:06",
          "31.10.2025 12:05:37",
          "31.10.2025 12:06:08",
          "31.10.2025 12:06:40",
          "31.10.2025 12:07:10",
          "31.10.2025 12:07:41",
          "31.10.2025 12:08:11",
          "31.10.2025 12:08:41",
          "31.10.2025 12:09:11",
          "31.10.2025 12:09:41",
          "31.10.2025 12:10:11",
          "31.10.2025 12:10:41",
          "31.10.2025 12:11:16",
          "31.10.2025 12:11:33",
          "31.10.2025 12:12:06",
          "31.10.2025 12:12:36",
          "31.10.2025 12:13:06",
          "31.10.2025 12:13:36",
          "31.10.2025 12:14:06",
          "31.10.2025 12:14:36",
          "31.10.2025 12:15:06",
          "31.10.2025 12:15:26",
          "31.10.2025 12:15:52",
          "31.10.2025 12:16:35",
          "31.10.2025 12:17:05",
          "31.10.2025 12:17:36",
          "31.10.2025 12:18:07",
          "31.10.2025 12:18:29",
          "31.10.2025 12:18:47",
          "31.10.2025 12:19:06",
          "31.10.2025 12:19:38",
          "31.10.2025 12:20:08",
          "31.10.2025 12:20:25",
          "31.10.2025 12:20:45",
          "31.10.2025 12:21:15",
          "31.10.2025 12:21:45",
          "31.10.2025 12:22:15",
          "31.10.2025 12:22:38",
          "31.10.2025 12:23:09",
          "31.10.2025 12:23:43",
          "31.10.2025 12:23:59",
          "31.10.2025 12:24:22",
          "31.10.2025 12:24:39",
          "31.10.2025 12:25:11",
          "31.10.2025 12:25:41",
          "31.10.2025 12:26:11",
          "31.10.2025 12:26:16",
          "31.10.2025 12:26:31",
          "31.10.2025 12:26:47",
          "31.10.2025 12:27:07",
          "31.10.2025 12:27:23",
          "31.10.2025 12:27:39",
          "31.10.2025 12:27:55"
        ],
        "course_deg_clockwise_from_north": [
          "138",
          "139",
          "140",
          "140",
          "137",
          "120",
          "99",
          "93",
          "93",
          "94",
          "98",
          "117",
          "126",
          "126",
          "121",
          "120",
          "121",
          "123",
          "122",
          "121",
          "123",
          "122",
          "122",
          "122",
          "122",
          "122",
          "123",
          "123",
          "124",
          "131",
          "133",
          "131",
          "132",
          "132",
          "132",
          "131",
          "132",
          "132",
          "130",
          "128",
          "127",
          "127",
          "127",
          "128",
          "128",
          "127",
          "128",
          "128",
          "127",
          "128",
          "128",
          "127",
          "128",
          "128",
          "128",
          "128",
          "129",
          "128",
          "129",
          "128",
          "128",
          "128",
          "128",
          "129",
          "128",
          "129",
          "129",
          "129",
          "129",
          "130",
          "129",
          "129",
          "128",
          "130",
          "129",
          "130",
          "129",
          "130",
          "130",
          "129",
          "130",
          "129",
          "130",
          "129",
          "130",
          "130",
          "130",
          "130",
          "130",
          "130",
          "130",
          "130",
          "130",
          "130",
          "130",
          "131",
          "130",
          "131",
          "130",
          "131",
          "130",
          "131",
          "130",
          "131",
          "130",
          "131",
          "131",
          "131",
          "131",
          "131",
          "131",
          "131",
          "131",
          "131",
          "131",
          "131",
          "132",
          "131",
          "131",
          "132",
          "132",
          "132",
          "131",
          "132",
          "132",
          "132",
          "132",
          "131",
          "132",
          "132",
          "132",
          "132",
          "132",
          "132",
          "132",
          "133",
          "132",
          "132",
          "133",
          "132",
          "133",
          "132",
          "133",
          "133",
          "133",
          "133",
          "133",
          "133",
          "133",
          "133",
          "133",
          "133",
          "133",
          "133",
          "133",
          "133",
          "133",
          "133",
          "133",
          "133",
          "134",
          "134",
          "133",
          "134",
          "134",
          "133",
          "134",
          "134",
          "134",
          "134",
          "134",
          "134",
          "134",
          "134",
          "134",
          "134",
          "134",
          "134",
          "134",
          "134",
          "135",
          "134",
          "135",
          "134",
          "135",
          "134",
          "135",
          "134",
          "135",
          "135",
          "135",
          "135",
          "134",
          "135",
          "135",
          "135",
          "135",
          "135",
          "135",
          "136",
          "135",
          "135",
          "135",
          "135",
          "135",
          "135",
          "136",
          "136",
          "136",
          "137",
          "136",
          "137",
          "135",
          "137",
          "136",
          "137",
          "137",
          "137",
          "137",
          "137",
          "137",
          "134",
          "131",
          "132",
          "132",
          "131",
          "132",
          "132",
          "132",
          "131",
          "132",
          "132",
          "131",
          "132",
          "132",
          "132",
          "131",
          "132",
          "131",
          "132",
          "132",
          "132",
          "132",
          "133",
          "133",
          "132",
          "132",
          "132",
          "132",
          "133",
          "133",
          "132",
          "133",
          "132",
          "133",
          "133",
          "133",
          "133",
          "132",
          "133",
          "133",
          "132",
          "133",
          "133",
          "133",
          "133",
          "133",
          "133",
          "134",
          "133",
          "133",
          "133",
          "133",
          "133",
          "134",
          "134",
          "133",
          "134",
          "134",
          "134",
          "134",
          "134",
          "133",
          "134",
          "134",
          "133",
          "134",
          "134",
          "134",
          "133",
          "134",
          "135",
          "134",
          "134",
          "134",
          "134",
          "135",
          "135",
          "133",
          "113",
          "103",
          "99",
          "97",
          "98",
          "99",
          "101",
          "127",
          "128",
          "129",
          "130",
          "138",
          "139",
          "139",
          "138",
          "138",
          "139",
          "139",
          "139",
          "139",
          "139",
          "139",
          "139",
          "139",
          "139",
          "139",
          "139",
          "139",
          "139",
          "139",
          "139",
          "139",
          "142",
          "161",
          "166",
          "168",
          "167",
          "167",
          "166",
          "165",
          "146",
          "105",
          "81",
          "79",
          "81",
          "80",
          "81",
          "113",
          "128",
          "138",
          "140",
          "161",
          "192",
          "209",
          "212",
          "212",
          "216",
          "221",
          "220",
          "220",
          "216",
          "210",
          "210",
          "210",
          "211",
          "211",
          "211",
          "209",
          "212",
          "212",
          "195",
          "196"
        ],
        "speed_kts": [
          "143",
          "142",
          "147",
          "165",
          "187",
          "198",
          "202",
          "204",
          "209",
          "217",
          "227",
          "232",
          "243",
          "268",
          "288",
          "297",
          "302",
          "317",
          "323",
          "338",
          "352",
          "367",
          "376",
          "385",
          "391",
          "393",
          "395",
          "398",
          "400",
          "395",
          "395",
          "401",
          "402",
          "407",
          "412",
          "427",
          "433",
          "438",
          "449",
          "454",
          "457",
          "464",
          "468",
          "469",
          "471",
          "471",
          "471",
          "472",
          "466",
          "461",
          "467",
          "467",
          "467",
          "466",
          "468",
          "467",
          "465",
          "463",
          "462",
          "461",
          "465",
          "468",
          "468",
          "468",
          "469",
          "469",
          "469",
          "470",
          "470",
          "469",
          "468",
          "468",
          "468",
          "469",
          "468",
          "466",
          "462",
          "460",
          "457",
          "456",
          "455",
          "453",
          "451",
          "450",
          "449",
          "449",
          "448",
          "447",
          "446",
          "445",
          "444",
          "443",
          "443",
          "445",
          "446",
          "447",
          "447",
          "447",
          "448",
          "448",
          "448",
          "449",
          "448",
          "447",
          "448",
          "447",
          "446",
          "446",
          "445",
          "445",
          "444",
          "444",
          "444",
          "444",
          "444",
          "444",
          "444",
          "444",
          "444",
          "444",
          "443",
          "444",
          "444",
          "444",
          "443",
          "443",
          "440",
          "440",
          "439",
          "439",
          "438",
          "437",
          "437",
          "436",
          "435",
          "436",
          "435",
          "436",
          "435",
          "435",
          "437",
          "437",
          "438",
          "438",
          "438",
          "439",
          "439",
          "439",
          "440",
          "440",
          "440",
          "440",
          "441",
          "441",
          "440",
          "440",
          "440",
          "440",
          "439",
          "439",
          "440",
          "439",
          "439",
          "439",
          "439",
          "439",
          "439",
          "439",
          "439",
          "439",
          "439",
          "437",
          "434",
          "433",
          "432",
          "430",
          "430",
          "430",
          "431",
          "431",
          "432",
          "433",
          "435",
          "434",
          "436",
          "436",
          "437",
          "438",
          "440",
          "443",
          "444",
          "445",
          "448",
          "452",
          "455",
          "457",
          "459",
          "460",
          "460",
          "459",
          "458",
          "458",
          "460",
          "460",
          "460",
          "461",
          "460",
          "461",
          "462",
          "461",
          "463",
          "463",
          "464",
          "465",
          "467",
          "468",
          "468",
          "469",
          "470",
          "469",
          "468",
          "468",
          "468",
          "468",
          "466",
          "467",
          "467",
          "467",
          "467",
          "468",
          "467",
          "468",
          "468",
          "467",
          "464",
          "463",
          "463",
          "463",
          "464",
          "464",
          "465",
          "466",
          "467",
          "467",
          "468",
          "467",
          "467",
          "467",
          "467",
          "468",
          "469",
          "467",
          "467",
          "466",
          "465",
          "465",
          "464",
          "463",
          "463",
          "461",
          "461",
          "461",
          "462",
          "462",
          "463",
          "464",
          "463",
          "462",
          "460",
          "460",
          "460",
          "460",
          "460",
          "458",
          "458",
          "457",
          "456",
          "458",
          "457",
          "457",
          "459",
          "458",
          "459",
          "459",
          "459",
          "460",
          "461",
          "459",
          "459",
          "460",
          "460",
          "458",
          "459",
          "459",
          "459",
          "458",
          "458",
          "459",
          "461",
          "465",
          "467",
          "469",
          "470",
          "469",
          "469",
          "469",
          "470",
          "460",
          "457",
          "478",
          "465",
          "457",
          "462",
          "449",
          "455",
          "465",
          "467",
          "468",
          "459",
          "465",
          "468",
          "461",
          "458",
          "454",
          "451",
          "447",
          "447",
          "449",
          "447",
          "440",
          "428",
          "422",
          "399",
          "378",
          "361",
          "348",
          "335",
          "319",
          "303",
          "299",
          "311",
          "313",
          "310",
          "305",
          "297",
          "288",
          "271",
          "263",
          "256",
          "253",
          "250",
          "245",
          "243",
          "241",
          "239",
          "237",
          "232",
          "217",
          "211",
          "197",
          "193",
          "181",
          "172",
          "152",
          "151",
          "132",
          "125",
          "120",
          "119",
          "120",
          "120"
        ],
        "speed_mph": [
          "165",
          "163",
          "169",
          "190",
          "215",
          "228",
          "232",
          "235",
          "241",
          "250",
          "261",
          "267",
          "280",
          "308",
          "331",
          "342",
          "348",
          "365",
          "372",
          "389",
          "405",
          "422",
          "433",
          "443",
          "450",
          "452",
          "455",
          "458",
          "460",
          "455",
          "455",
          "461",
          "463",
          "468",
          "474",
          "491",
          "498",
          "504",
          "517",
          "522",
          "526",
          "534",
          "539",
          "540",
          "542",
          "542",
          "542",
          "543",
          "536",
          "531",
          "537",
          "537",
          "537",
          "536",
          "539",
          "537",
          "535",
          "533",
          "532",
          "531",
          "535",
          "539",
          "539",
          "539",
          "540",
          "540",
          "540",
          "541",
          "541",
          "540",
          "539",
          "539",
          "539",
          "540",
          "539",
          "536",
          "532",
          "529",
          "526",
          "525",
          "524",
          "521",
          "519",
          "518",
          "517",
          "517",
          "516",
          "514",
          "513",
          "512",
          "511",
          "510",
          "510",
          "512",
          "513",
          "514",
          "514",
          "514",
          "516",
          "516",
          "516",
          "517",
          "516",
          "514",
          "516",
          "514",
          "513",
          "513",
          "512",
          "512",
          "511",
          "511",
          "511",
          "511",
          "511",
          "511",
          "511",
          "511",
          "511",
          "511",
          "510",
          "511",
          "511",
          "511",
          "510",
          "510",
          "506",
          "506",
          "505",
          "505",
          "504",
          "503",
          "503",
          "502",
          "501",
          "502",
          "501",
          "502",
          "501",
          "501",
          "503",
          "503",
          "504",
          "504",
          "504",
          "505",
          "505",
          "505",
          "506",
          "506",
          "506",
          "506",
          "507",
          "507",
          "506",
          "506",
          "506",
          "506",
          "505",
          "505",
          "506",
          "505",
          "505",
          "505",
          "505",
          "505",
          "505",
          "505",
          "505",
          "505",
          "505",
          "503",
          "499",
          "498",
          "497",
          "495",
          "495",
          "495",
          "496",
          "496",
          "497",
          "498",
          "501",
          "499",
          "502",
          "502",
          "503",
          "504",
          "506",
          "510",
          "511",
          "512",
          "516",
          "520",
          "524",
          "526",
          "528",
          "529",
          "529",
          "528",
          "527",
          "527",
          "529",
          "529",
          "529",
          "531",
          "529",
          "531",
          "532",
          "531",
          "533",
          "533",
          "534",
          "535",
          "537",
          "539",
          "539",
          "540",
          "541",
          "540",
          "539",
          "539",
          "539",
          "539",
          "536",
          "537",
          "537",
          "537",
          "537",
          "539",
          "537",
          "539",
          "539",
          "537",
          "534",
          "533",
          "533",
          "533",
          "534",
          "534",
          "535",
          "536",
          "537",
          "537",
          "539",
          "537",
          "537",
          "537",
          "537",
          "539",
          "540",
          "537",
          "537",
          "536",
          "535",
          "535",
          "534",
          "533",
          "533",
          "531",
          "531",
          "531",
          "532",
          "532",
          "533",
          "534",
          "533",
          "532",
          "529",
          "529",
          "529",
          "529",
          "529",
          "527",
          "527",
          "526",
          "525",
          "527",
          "526",
          "526",
          "528",
          "527",
          "528",
          "528",
          "528",
          "529",
          "531",
          "528",
          "528",
          "529",
          "529",
          "527",
          "528",
          "528",
          "528",
          "527",
          "527",
          "528",
          "531",
          "535",
          "537",
          "540",
          "541",
          "540",
          "540",
          "540",
          "541",
          "529",
          "526",
          "550",
          "535",
          "526",
          "532",
          "517",
          "524",
          "535",
          "537",
          "539",
          "528",
          "535",
          "539",
          "531",
          "527",
          "522",
          "519",
          "514",
          "514",
          "517",
          "514",
          "506",
          "493",
          "486",
          "459",
          "435",
          "415",
          "400",
          "386",
          "367",
          "349",
          "344",
          "358",
          "360",
          "357",
          "351",
          "342",
          "331",
          "312",
          "303",
          "295",
          "291",
          "288",
          "282",
          "280",
          "277",
          "275",
          "273",
          "267",
          "250",
          "243",
          "227",
          "222",
          "208",
          "198",
          "175",
          "174",
          "152",
          "144",
          "138",
          "137",
          "138",
          "138"
        ],
        "altitude_ft": [
          "675",
          "1575",
          "2475",
          "2925",
          "3525",
          "4250",
          "5225",
          "6050",
          "7100",
          "7950",
          "8825",
          "9675",
          "10200",
          "11575",
          "13100",
          "14125",
          "15150",
          "16000",
          "17000",
          "18025",
          "19000",
          "20050",
          "21025",
          "22000",
          "23000",
          "23950",
          "24950",
          "25975",
          "26650",
          "27350",
          "28375",
          "29275",
          "30175",
          "30850",
          "31600",
          "32525",
          "33125",
          "33700",
          "34200",
          "34475",
          "34800",
          "35500",
          "36000",
          "36350",
          "36800",
          "37325",
          "37800",
          "38000",
          "38525",
          "38950",
          "39000",
          "39000",
          "39000",
          "39000",
          "39000",
          "39000",
          "39300",
          "40025",
          "40400",
          "40800",
          "41000",
          "41000",
          "41000",
          "41000",
          "41000",
          "41000",
          "41000",
          "41000",
          "41000",
          "41000",
          "41000",
          "41000",
          "41000",
          "41000",
          "41000",
          "41000",
          "41000",
          "41000",
          "41000",
          "41000",
          "41000",
          "41000",
          "41000",
          "41000",
          "41000",
          "41000",
          "41000",
          "41000",
          "41000",
          "41000",
          "41000",
          "41000",
          "41000",
          "41000",
          "41000",
          "41000",
          "41000",
          "41000",
          "41000",
          "41000",
          "41000",
          "41000",
          "41000",
          "41000",
          "41000",
          "41000",
          "41000",
          "41000",
          "41000",
          "41000",
          "41000",
          "41000",
          "41000",
          "41000",
          "41000",
          "41000",
          "41000",
          "41000",
          "41000",
          "41000",
          "41000",
          "41000",
          "41000",
          "41000",
          "41000",
          "41000",
          "41000",
          "41000",
          "41000",
          "41000",
          "41000",
          "41000",
          "41000",
          "41000",
          "41000",
          "41000",
          "41000",
          "41000",
          "41000",
          "41000",
          "41000",
          "41000",
          "41000",
          "41000",
          "41000",
          "41000",
          "41000",
          "41000",
          "41000",
          "41000",
          "41000",
          "41000",
          "41000",
          "41000",
          "41000",
          "41000",
          "41000",
          "41000",
          "41000",
          "41000",
          "41000",
          "41000",
          "41000",
          "41000",
          "41000",
          "41000",
          "41000",
          "41000",
          "41000",
          "41000",
          "41000",
          "41000",
          "41000",
          "41000",
          "41000",
          "41000",
          "41000",
          "41000",
          "41000",
          "41000",
          "41000",
          "41000",
          "41000",
          "41000",
          "41000",
          "41000",
          "41000",
          "41000",
          "41000",
          "41000",
          "41000",
          "41000",
          "41000",
          "41000",
          "41000",
          "41000",
          "41000",
          "41000",
          "41000",
          "41000",
          "41000",
          "41000",
          "41000",
          "41000",
          "41000",
          "41000",
          "41000",
          "41000",
          "41000",
          "41000",
          "41000",
          "41000",
          "41000",
          "41000",
          "41000",
          "41000",
          "41000",
          "41000",
          "41000",
          "41000",
          "41000",
          "41000",
          "41000",
          "41000",
          "41000",
          "41000",
          "41000",
          "41000",
          "41000",
          "41000",
          "41000",
          "41000",
          "41000",
          "41000",
          "41000",
          "41000",
          "41000",
          "41000",
          "41000",
          "41000",
          "41000",
          "41000",
          "41000",
          "41000",
          "41000",
          "41000",
          "41000",
          "41000",
          "41000",
          "41000",
          "41000",
          "41000",
          "41000",
          "41000",
          "41000",
          "41000",
          "41000",
          "41000",
          "41000",
          "41000",
          "41000",
          "41000",
          "41000",
          "41000",
          "41000",
          "41000",
          "41000",
          "41000",
          "41000",
          "41000",
          "41000",
          "41000",
          "41000",
          "41000",
          "41000",
          "41000",
          "41000",
          "41000",
          "41000",
          "41000",
          "41000",
          "41000",
          "41000",
          "41000",
          "41000",
          "41000",
          "41000",
          "41000",
          "41000",
          "41000",
          "41000",
          "41000",
          "41000",
          "41000",
          "41000",
          "41000",
          "41000",
          "41000",
          "41000",
          "41000",
          "41000",
          "41000",
          "41000",
          "41000",
          "41000",
          "41000",
          "41000",
          "41000",
          "41000",
          "41000",
          "41000",
          "41000",
          "41000",
          "41000",
          "41000",
          "41000",
          "41000",
          "41000",
          "40925",
          "39725",
          "38450",
          "37100",
          "35850",
          "34600",
          "33325",
          "32075",
          "30850",
          "29600",
          "28325",
          "27125",
          "25600",
          "24850",
          "23525",
          "22275",
          "21025",
          "19800",
          "18550",
          "17550",
          "16550",
          "16125",
          "15575",
          "14500",
          "13725",
          "12975",
          "12200",
          "11750",
          "11375",
          "10950",
          "10075",
          "9275",
          "8825",
          "8250",
          "7400",
          "6625",
          "5825",
          "5225",
          "4475",
          "3850",
          "3525",
          "3225",
          "2950",
          "2275",
          "1775",
          "1250",
          "1150",
          "975",
          "725",
          "475",
          "325",
          "150",
          ""
        ],
        "vertical_rate_fpm": [
          "",
          "3375",
          "2531",
          "1969",
          "2484",
          "3188",
          "3375",
          "3125",
          "3081",
          "2957",
          "2724",
          "2063",
          "2073",
          "2231",
          "2096",
          "2121",
          "1940",
          "1850",
          "2025",
          "2000",
          "2025",
          "2025",
          "1950",
          "1975",
          "1950",
          "1950",
          "2025",
          "2040",
          "1964",
          "1990",
          "1991",
          "1862",
          "1750",
          "1583",
          "1340",
          "1220",
          "1175",
          "1075",
          "1011",
          "973",
          "976",
          "1000",
          "1020",
          "960",
          "975",
          "1000",
          "810",
          "870",
          "950",
          "467",
          "48",
          "",
          "",
          "",
          "",
          "300",
          "699",
          "750",
          "775",
          "600",
          "200",
          "",
          "",
          "",
          "",
          "",
          "",
          "",
          "",
          "",
          "",
          "",
          "",
          "",
          "",
          "",
          "",
          "",
          "",
          "",
          "",
          "",
          "",
          "",
          "",
          "",
          "",
          "",
          "",
          "",
          "",
          "",
          "",
          "",
          "",
          "",
          "",
          "",
          "",
          "",
          "",
          "",
          "",
          "",
          "",
          "",
          "",
          "",
          "",
          "",
          "",
          "",
          "",
          "",
          "",
          "",
          "",
          "",
          "",
          "",
          "",
          "",
          "",
          "",
          "",
          "",
          "",
          "",
          "",
          "",
          "",
          "",
          "",
          "",
          "",
          "",
          "",
          "",
          "",
          "",
          "",
          "",
          "",
          "",
          "",
          "",
          "",
          "",
          "",
          "",
          "",
          "",
          "",
          "",
          "",
          "",
          "",
          "",
          "",
          "",
          "",
          "",
          "",
          "",
          "",
          "",
          "",
          "",
          "",
          "",
          "",
          "",
          "",
          "",
          "",
          "",
          "",
          "",
          "",
          "",
          "",
          "",
          "",
          "",
          "",
          "",
          "",
          "",
          "",
          "",
          "",
          "",
          "",
          "",
          "",
          "",
          "",
          "",
          "",
          "",
          "",
          "",
          "",
          "",
          "",
          "",
          "",
          "",
          "",
          "",
          "",
          "",
          "",
          "",
          "",
          "",
          "",
          "",
          "",
          "",
          "",
          "",
          "",
          "",
          "",
          "",
          "",
          "",
          "",
          "",
          "",
          "",
          "",
          "",
          "",
          "",
          "",
          "",
          "",
          "",
          "",
          "",
          "",
          "",
          "",
          "",
          "",
          "",
          "",
          "",
          "",
          "",
          "",
          "",
          "",
          "",
          "",
          "",
          "",
          "",
          "",
          "",
          "",
          "",
          "",
          "",
          "",
          "",
          "",
          "",
          "",
          "",
          "",
          "",
          "",
          "",
          "",
          "",
          "",
          "",
          "",
          "",
          "",
          "",
          "",
          "",
          "",
          "",
          "",
          "",
          "",
          "",
          "",
          "",
          "",
          "",
          "",
          "",
          "",
          "",
          "",
          "",
          "",
          "",
          "",
          "",
          "",
          "",
          "",
          "",
          "",
          "",
          "",
          "",
          "",
          "",
          "",
          "-74",
          "-1234",
          "-2395",
          "-2500",
          "-2516",
          "-2459",
          "-2484",
          "-2525",
          "-2475",
          "-2475",
          "-2525",
          "-2475",
          "-2515",
          "-2625",
          "-2490",
          "-2452",
          "-2500",
          "-2475",
          "-2475",
          "-2250",
          "-2000",
          "-1710",
          "-1272",
          "-1413",
          "-1521",
          "-1500",
          "-1476",
          "-1387",
          "-1238",
          "-1297",
          "-1529",
          "-1621",
          "-1596",
          "-1662",
          "-1710",
          "-1625",
          "-1575",
          "-1585",
          "-1500",
          "-1269",
          "-1140",
          "-962",
          "-863",
          "-1163",
          "-1137",
          "-1025",
          "-1071",
          "-825",
          "-823",
          "-833",
          "-667",
          "-609",
          "-703",
          "-750"
        ],
        "reporting_facility": [
          "FlightAware ADS-B(CGN / EDDK)",
          "FlightAware ADS-B(EDRW)",
          "FlightAware ADS-B(EDKB)",
          "FlightAware ADS-B(EDKB)",
          "FlightAware ADS-B(EDKB)",
          "FlightAware ADS-B(CGN / EDDK)",
          "FlightAware ADS-B(GKE / ETNG)",
          "FlightAware ADS-B(EDLM)",
          "FlightAware ADS-B(EDRK)",
          "FlightAware ADS-B(DTM / EDLW)",
          "FlightAware ADS-B(AAH / EDKA)",
          "FlightAware ADS-B(EDKB)",
          "FlightAware ADS-B(UDE / EHVK)",
          "FlightAware ADS-B(EDKN)",
          "FlightAware ADS-B(CGN / EDDK)",
          "FlightAware ADS-B(EDRE)",
          "FlightAware ADS-B(EDLS)",
          "FlightAware ADS-B(EDEP)",
          "FlightAware ADS-B(ESS / EDLE)",
          "FlightAware ADS-B(SCN / EDDR)",
          "FlightAware ADS-B(FRA / EDDF)",
          "FlightAware ADS-B(QEF / EDFE)",
          "FlightAware ADS-B(UDE / EHVK)",
          "FlightAware ADS-B(CGN / EDDK)",
          "FlightAware ADS-B(EDFC)",
          "FlightAware ADS-B(FRA / EDDF)",
          "FlightAware ADS-B(FRA / EDDF)",
          "FlightAware ADS-B(EDFB)",
          "FlightAware ADS-B(GKE / ETNG)",
          "FlightAware ADS-B(EDMG)",
          "FlightAware ADS-B(EDEF)",
          "FlightAware ADS-B(UDE / EHVK)",
          "FlightAware ADS-B(EDGH)",
          "FlightAware ADS-B(EDEP)",
          "FlightAware ADS-B(EDFZ)",
          "FlightAware ADS-B(EDVY)",
          "FlightAware ADS-B(AAH / EDKA)",
          "FlightAware ADS-B(LEJ / EDDP)",
          "FlightAware ADS-B(LEJ / EDDP)",
          "FlightAware ADS-B(ETOU)",
          "FlightAware ADS-B(ETSA)",
          "FlightAware ADS-B(EDNW)",
          "FlightAware ADS-B(FKB / EDSB)",
          "FlightAware ADS-B(ERF / EDDE)",
          "FlightAware ADS-B(HDB / EDIU)",
          "FlightAware ADS-B(NUE / EDDN)",
          "FlightAware ADS-B(FRA / EDDF)",
          "FlightAware ADS-B(EDFP)",
          "FlightAware ADS-B(LKPL)",
          "FlightAware ADS-B(STR / EDDS)",
          "FlightAware ADS-B(EDPO)",
          "FlightAware ADS-B(STR / EDDS)",
          "FlightAware ADS-B(STR / EDDS)",
          "FlightAware ADS-B(NUE / EDDN)",
          "FlightAware ADS-B(QEF / EDFE)",
          "FlightAware ADS-B(EDQT)",
          "FlightAware ADS-B(SCN / EDDR)",
          "FlightAware ADS-B(EDBS)",
          "FlightAware ADS-B(AGB / EDMA)",
          "FlightAware ADS-B(OBF / EDMO)",
          "FlightAware ADS-B(EDGH)",
          "FlightAware ADS-B(LKCS)",
          "FlightAware ADS-B(LKSN)",
          "FlightAware ADS-B(VIP / LSMP)",
          "FlightAware ADS-B(ETHA)",
          "FlightAware ADS-B(EDMG)",
          "FlightAware ADS-B(LKMB)",
          "FlightAware ADS-B(LKRK)",
          "FlightAware ADS-B(EDQC)",
          "FlightAware ADS-B(MUC / EDDM)",
          "FlightAware ADS-B(PED / LKPD)",
          "FlightAware ADS-B(BRQ / LKTB)",
          "FlightAware ADS-B(NUE / EDDN)",
          "FlightAware ADS-B(EDPE)",
          "FlightAware ADS-B(SZG / LOWS)",
          "FlightAware ADS-B(LKTA)",
          "FlightAware ADS-B(IGS / ETSI)",
          "FlightAware ADS-B(EDQC)",
          "FlightAware ADS-B(LOLU)",
          "FlightAware ADS-B(MUC / EDDM)",
          "FlightAware ADS-B(LKTC)",
          "FlightAware ADS-B(SZG / LOWS)",
          "FlightAware ADS-B(SZG / LOWS)",
          "FlightAware ADS-B(EDMR)",
          "FlightAware ADS-B(LKPL)",
          "FlightAware ADS-B(OBF / EDMO)",
          "FlightAware ADS-B(BRQ / LKTB)",
          "FlightAware ADS-B(LOLS)",
          "FlightAware ADS-B(ETSA)",
          "FlightAware ADS-B(EDNF)",
          "FlightAware ADS-B(EDNF)",
          "FlightAware ADS-B(LKTC)",
          "FlightAware ADS-B(LKKT)",
          "FlightAware ADS-B(MUC / EDDM)",
          "FlightAware ADS-B(LKTC)",
          "FlightAware ADS-B(LSPH)",
          "FlightAware ADS-B(LSPH)",
          "FlightAware ADS-B(OBF / EDMO)",
          "FlightAware ADS-B(EDMQ)",
          "FlightAware ADS-B(LKCS)",
          "FlightAware ADS-B(LKSA)",
          "FlightAware ADS-B(LKTC)",
          "FlightAware ADS-B(LKMH)",
          "FlightAware ADS-B(LKHN)",
          "FlightAware ADS-B(LKHN)",
          "FlightAware ADS-B(AVB / LIPA)",
          "FlightAware ADS-B(VIE / LOWW)",
          "FlightAware ADS-B(EDNA)",
          "FlightAware ADS-B(BTS / LZIB)",
          "FlightAware ADS-B(VIE / LOWW)",
          "FlightAware ADS-B(GRZ / LOWG)",
          "FlightAware ADS-B(LOIZ)",
          "FlightAware ADS-B(GRZ / LOWG)",
          "FlightAware ADS-B(GRZ / LOWG)",
          "FlightAware ADS-B(LHPR)",
          "FlightAware ADS-B(LKTA)",
          "FlightAware ADS-B(VIE / LOWW)",
          "FlightAware ADS-B(GRZ / LOWG)",
          "FlightAware ADS-B(GRZ / LOWG)",
          "FlightAware ADS-B(GRZ / LOWG)",
          "FlightAware ADS-B(GRZ / LOWG)",
          "FlightAware ADS-B(GRZ / LOWG)",
          "FlightAware ADS-B(LOKG)",
          "FlightAware ADS-B(GRZ / LOWG)",
          "FlightAware ADS-B(LIDT)",
          "FlightAware ADS-B(GRZ / LOWG)",
          "FlightAware ADS-B(LOKG)",
          "FlightAware ADS-B",
          "FlightAware ADS-B",
          "FlightAware ADS-B",
          "FlightAware ADS-B(GRZ / LOWG)",
          "FlightAware ADS-B(GRZ / LOWG)",
          "FlightAware ADS-B(BTS / LZIB)",
          "FlightAware ADS-B(PZY / LZPP)",
          "FlightAware ADS-B(BTS / LZIB)",
          "FlightAware ADS-B(LJNM)",
          "FlightAware ADS-B(LJNM)",
          "FlightAware ADS-B(LJNM)",
          "FlightAware ADS-B(MBX / LJMB)",
          "FlightAware ADS-B(LIPS)",
          "FlightAware ADS-B(LHFM)",
          "FlightAware ADS-B(BUD / LHBP)",
          "FlightAware ADS-B(BUD / LHBP)",
          "FlightAware ADS-B(ARW / LRAR)",
          "FlightAware ADS-B(AVB / LIPA)",
          "FlightAware ADS-B(LDVA)",
          "FlightAware ADS-B(GRZ / LOWG)",
          "FlightAware ADS-B(BTS / LZIB)",
          "FlightAware ADS-B(AVB / LIPA)",
          "FlightAware ADS-B(GRZ / LOWG)",
          "FlightAware ADS-B(LHSY)",
          "FlightAware ADS-B(AVB / LIPA)",
          "FlightAware ADS-B(LIBX)",
          "FlightAware ADS-B(LYSM)",
          "FlightAware ADS-B(SJJ / LQSA)",
          "FlightAware ADS-B(SJJ / LQSA)",
          "FlightAware ADS-B(SJJ / LQSA)",
          "FlightAware ADS-B(SJJ / LQSA)",
          "FlightAware ADS-B(ARW / LRAR)",
          "FlightAware ADS-B(LHKE)",
          "FlightAware ADS-B(BUD / LHBP)",
          "FlightAware ADS-B(BEG / LYBE)",
          "FlightAware ADS-B(BUD / LHBP)",
          "FlightAware ADS-B(BEG / LYBE)",
          "FlightAware ADS-B(QBG / LYPA)",
          "FlightAware ADS-B(LDOB)",
          "FlightAware ADS-B(ZAG / LDZA)",
          "FlightAware ADS-B(PEV / LHPP)",
          "FlightAware ADS-B(SJJ / LQSA)",
          "FlightAware ADS-B(SJJ / LQSA)",
          "FlightAware ADS-B(SJJ / LQSA)",
          "FlightAware ADS-B(SJJ / LQSA)",
          "FlightAware ADS-B(SJJ / LQSA)",
          "FlightAware ADS-B(BJY / LYBT)",
          "FlightAware ADS-B(BUD / LHBP)",
          "FlightAware ADS-B(BUD / LHBP)",
          "FlightAware ADS-B(BJY / LYBT)",
          "FlightAware ADS-B(SOB / LHSM)",
          "FlightAware ADS-B(LYNK)",
          "FlightAware ADS-B(BJY / LYBT)",
          "FlightAware ADS-B(BJY / LYBT)",
          "FlightAware ADS-B(BRI / LIBD)",
          "FlightAware ADS-B(BRI / LIBD)",
          "FlightAware ADS-B(BRI / LIBD)",
          "FlightAware ADS-B(BRI / LIBD)",
          "FlightAware ADS-B(BRI / LIBD)",
          "FlightAware ADS-B(LHUD)",
          "FlightAware ADS-B(TSR / LRTR)",
          "FlightAware ADS-B(TSR / LRTR)",
          "FlightAware ADS-B(SOB / LHSM)",
          "FlightAware ADS-B(BEG / LYBE)",
          "FlightAware ADS-B(TSR / LRTR)",
          "FlightAware ADS-B(TSR / LRTR)",
          "FlightAware ADS-B(TSR / LRTR)",
          "FlightAware ADS-B(TSR / LRTR)",
          "FlightAware ADS-B(LBPL)",
          "FlightAware ADS-B(BEG / LYBE)",
          "FlightAware ADS-B(BEG / LYBE)",
          "FlightAware ADS-B(TSR / LRTR)",
          "FlightAware ADS-B(BEG / LYBE)",
          "FlightAware ADS-B(INI / LYNI)",
          "FlightAware ADS-B(INI / LYNI)",
          "FlightAware ADS-B(INI / LYNI)",
          "FlightAware ADS-B(INI / LYNI)",
          "FlightAware ADS-B(INI / LYNI)",
          "FlightAware ADS-B(INI / LYNI)",
          "FlightAware ADS-B(INI / LYNI)",
          "FlightAware ADS-B(INI / LYNI)",
          "FlightAware ADS-B(INI / LYNI)",
          "FlightAware ADS-B(INI / LYNI)",
          "FlightAware ADS-B(INI / LYNI)",
          "FlightAware ADS-B(SKP / LWSK)",
          "FlightAware ADS-B(TGD / LYPG)",
          "FlightAware ADS-B(TQR / LINI)",
          "FlightAware ADS-B(TSR / LRTR)",
          "FlightAware ADS-B(TGD / LYPG)",
          "FlightAware ADS-B(BJY / LYBT)",
          "FlightAware ADS-B(INI / LYNI)",
          "FlightAware ADS-B(INI / LYNI)",
          "FlightAware ADS-B(INI / LYNI)",
          "FlightAware ADS-B(INI / LYNI)",
          "FlightAware ADS-B(CRA / LRCV)",
          "FlightAware ADS-B(INI / LYNI)",
          "FlightAware ADS-B(LIBX)",
          "FlightAware ADS-B(KZI / LGKZ)",
          "FlightAware ADS-B(CRA / LRCV)",
          "FlightAware ADS-B(KZI / LGKZ)",
          "FlightAware ADS-B(KZI / LGKZ)",
          "FlightAware ADS-B(CRA / LRCV)",
          "FlightAware ADS-B(KZI / LGKZ)",
          "FlightAware ADS-B(LBPK)",
          "FlightAware ADS-B(LBPL)",
          "FlightAware ADS-B(SKP / LWSK)",
          "FlightAware ADS-B(BDS / LIBR)",
          "FlightAware ADS-B(KVA / LGKV)",
          "FlightAware ADS-B(SKP / LWSK)",
          "FlightAware ADS-B(PDV / LBPD)",
          "FlightAware ADS-B(KVA / LGKV)",
          "FlightAware ADS-B(PDV / LBPD)",
          "FlightAware ADS-B(PDV / LBPD)",
          "FlightAware ADS-B(CRA / LRCV)",
          "FlightAware ADS-B(LBSL)",
          "FlightAware ADS-B(SKP / LWSK)",
          "FlightAware ADS-B(PDV / LBPD)",
          "FlightAware ADS-B(PDV / LBPD)",
          "FlightAware ADS-B(SKP / LWSK)",
          "FlightAware ADS-B(KVA / LGKV)",
          "FlightAware ADS-B(SKP / LWSK)",
          "FlightAware ADS-B(KVA / LGKV)",
          "FlightAware ADS-B(SKP / LWSK)",
          "FlightAware ADS-B(KVA / LGKV)",
          "FlightAware ADS-B(KVA / LGKV)",
          "FlightAware ADS-B(SKP / LWSK)",
          "FlightAware ADS-B(SKP / LWSK)",
          "FlightAware ADS-B(KVA / LGKV)",
          "FlightAware ADS-B(KVA / LGKV)",
          "FlightAware ADS-B(KVA / LGKV)",
          "FlightAware ADS-B(KVA / LGKV)",
          "FlightAware ADS-B(KVA / LGKV)",
          "FlightAware ADS-B(KVA / LGKV)",
          "FlightAware ADS-B(KVA / LGKV)",
          "FlightAware ADS-B(KVA / LGKV)",
          "FlightAware ADS-B(KVA / LGKV)",
          "FlightAware ADS-B(SKG / LGTS)",
          "FlightAware ADS-B(KVA / LGKV)",
          "FlightAware ADS-B(KVA / LGKV)",
          "FlightAware ADS-B(KVA / LGKV)",
          "FlightAware ADS-B(KVA / LGKV)",
          "FlightAware ADS-B(KVA / LGKV)",
          "FlightAware ADS-B(SKP / LWSK)",
          "FlightAware ADS-B(KVA / LGKV)",
          "FlightAware ADS-B(ATH / LGAV)",
          "FlightAware ADS-B(MJT / LGMT)",
          "FlightAware ADS-B(LBBR)",
          "FlightAware ADS-B(JAM / LBIA)",
          "FlightAware ADS-B(KVA / LGKV)",
          "FlightAware ADS-B(KVA / LGKV)",
          "FlightAware ADS-B(JAM / LBIA)",
          "FlightAware ADS-B(BOJ / LBBG)",
          "FlightAware ADS-B(JSI / LGSK)",
          "FlightAware ADS-B(LBSL)",
          "FlightAware ADS-B(CHQ / LGSA)",
          "FlightAware ADS-B(KVA / LGKV)",
          "FlightAware ADS-B(KVA / LGKV)",
          "FlightAware ADS-B(KVA / LGKV)",
          "FlightAware ADS-B(KVA / LGKV)",
          "FlightAware ADS-B(KVA / LGKV)",
          "FlightAware ADS-B(KVA / LGKV)",
          "FlightAware ADS-B(KVA / LGKV)",
          "FlightAware ADS-B(KVA / LGKV)",
          "FlightAware ADS-B(KVA / LGKV)",
          "FlightAware ADS-B(CHQ / LGSA)",
          "FlightAware ADS-B(JAM / LBIA)",
          "FlightAware ADS-B(KVA / LGKV)",
          "FlightAware ADS-B(MJT / LGMT)",
          "FlightAware ADS-B(MJT / LGMT)",
          "FlightAware ADS-B(MJT / LGMT)",
          "FlightAware ADS-B(MJT / LGMT)",
          "FlightAware ADS-B(SKG / LGTS)",
          "FlightAware ADS-B(RHO / LGRP)",
          "FlightAware ADS-B(JSI / LGSK)",
          "FlightAware ADS-B(HER / LGIR)",
          "FlightAware ADS-B(SKG / LGTS)",
          "FlightAware ADS-B(GKD / LTFK)",
          "FlightAware ADS-B(KVA / LGKV)",
          "FlightAware ADS-B(AXD / LGAL)",
          "FlightAware MLAT(7 sites)",
          "FlightAware MLAT(7 sites)",
          "FlightAware MLAT(9 sites)",
          "FlightAware MLAT(10 sites)",
          "FlightAware MLAT(9 sites)",
          "FlightAware MLAT(4 sites)",
          "FlightAware MLAT(6 sites)",
          "FlightAware MLAT(4 sites)",
          "FlightAware MLAT(6 sites)",
          "FlightAware ADS-B(JKH / LGHI)",
          "FlightAware ADS-B(JKH / LGHI)",
          "FlightAware ADS-B(JKH / LGHI)",
          "FlightAware ADS-B(LTBD)",
          "FlightAware ADS-B(LTFN)",
          "FlightAware ADS-B(LTBD)",
          "FlightAware ADS-B(LTFN)",
          "FlightAware ADS-B(LTFN)",
          "FlightAware ADS-B(LTFN)",
          "FlightAware ADS-B(LTFN)",
          "FlightAware ADS-B(LTFN)",
          "FlightAware ADS-B(LTFN)",
          "FlightAware ADS-B(LTBD)",
          "FlightAware ADS-B(LTFN)",
          "FlightAware ADS-B(RHO / LGRP)",
          "FlightAware ADS-B(BJV / LTFE)",
          "FlightAware ADS-B(AYT / LTAI)",
          "FlightAware ADS-B(JKH / LGHI)",
          "FlightAware ADS-B(BJV / LTFE)",
          "FlightAware ADS-B(BJV / LTFE)",
          "FlightAware ADS-B(BJV / LTFE)",
          "FlightAware ADS-B(BJV / LTFE)",
          "FlightAware ADS-B(RHO / LGRP)",
          "FlightAware ADS-B(RHO / LGRP)",
          "FlightAware ADS-B(BJV / LTFE)",
          "FlightAware ADS-B(RHO / LGRP)",
          "FlightAware ADS-B(USQ / LTBO)",
          "FlightAware ADS-B(BJV / LTFE)",
          "FlightAware ADS-B(BJV / LTFE)",
          "FlightAware ADS-B(DLM / LTBS)",
          "FlightAware ADS-B(RHO / LGRP)",
          "FlightAware ADS-B(DLM / LTBS)",
          "FlightAware ADS-B(USQ / LTBO)",
          "FlightAware ADS-B(DLM / LTBS)",
          "FlightAware ADS-B(DLM / LTBS)",
          "FlightAware ADS-B(DLM / LTBS)",
          "FlightAware ADS-B(DLM / LTBS)",
          "FlightAware ADS-B(HER / LGIR)",
          "FlightAware ADS-B(DLM / LTBS)",
          "FlightAware ADS-B(HER / LGIR)",
          "FlightAware ADS-B(RHO / LGRP)",
          "FlightAware ADS-B(DLM / LTBS)",
          "FlightAware ADS-B(RHO / LGRP)",
          "FlightAware ADS-B(DLM / LTBS)",
          "FlightAware ADS-B(RHO / LGRP)",
          "FlightAware ADS-B(DLM / LTBS)",
          "FlightAware ADS-B(DLM / LTBS)",
          "FlightAware ADS-B(DLM / LTBS)",
          "FlightAware ADS-B(DLM / LTBS)",
          "Surface and Near-Surface",
          "FlightAware ADS-B(DLM / LTBS)",
          "FlightAware ADS-B(RHO / LGRP)",
          "FlightAware ADS-B(RHO / LGRP)",
          "FlightAware ADS-B(DLM / LTBS)",
          "FlightAware ADS-B(DLM / LTBS)",
          "FlightAware ADS-B(DLM / LTBS)"
        ]
      }
    }
  ]
}