{
  "type": "FeatureCollection",
  "features": [
    {
      "type": "Feature",
      "geometry": {
        "type": "LineString",
        "coordinates": [
          [
            7.1461,
            50.8531
          ],
          [
            7.1581,
            50.8443
          ],
          [
            7.1694,
            50.836
          ],
          [
            7.1864,
            50.8273
          ],
          [
            7.2044,
            50.8194
          ],
          [
            7.2264,
            50.8135
          ],
          [
            7.2588,
            50.8103
          ],
          [
            7.2824,
            50.809
          ],
          [
            7.32,
            50.8078
          ],
          [
            7.3463,
            50.8126
          ],
          [
            7.3852,
            50.8284
          ],
          [
            7.4253,
            50.8461
          ],
          [
            7.4555,
            50.858
          ],
          [
            7.4855,
            50.8693
          ],
          [
            7.5268,
            50.8853
          ],
          [
            7.5767,
            50.9047
          ],
          [
            7.625,
            50.9229
          ],
          [
            7.6714,
            50.9406
          ],
          [
            7.7157,
            50.9577
          ],
          [
            7.7729,
            50.9793
          ],
          [
            7.8232,
            50.9983
          ],
          [
            7.8612,
            51.0127
          ],
          [
            7.8998,
            51.0273
          ],
          [
            7.9393,
            51.0423
          ],
          [
            7.9716,
            51.0545
          ],
          [
            8.0177,
            51.0717
          ],
          [
            8.0695,
            51.0912
          ],
          [
            8.1016,
            51.1031
          ],
          [
            8.1347,
            51.1156
          ],
          [
            8.2097,
            51.1435
          ],
          [
            8.2607,
            51.1625
          ],
          [
            8.3132,
            51.182
          ],
          [
            8.3626,
            51.2003
          ],
          [
            8.3927,
            51.2115
          ],
          [
            8.4252,
            51.2234
          ],
          [
            8.4733,
            51.2412
          ],
          [
            8.5117,
            51.2554
          ],
          [
            8.581,
            51.2809
          ],
          [
            8.6289,
            51.2985
          ],
          [
            8.6818,
            51.3178
          ],
          [
            8.7309,
            51.3358
          ],
          [
            8.7793,
            51.3537
          ],
          [
            8.8274,
            51.371
          ],
          [
            8.8518,
            51.38
          ],
          [
            8.8716,
            51.391
          ],
          [
            8.9008,
            51.4101
          ],
          [
            8.9391,
            51.4361
          ],
          [
            8.9771,
            51.4614
          ],
          [
            8.9996,
            51.4762
          ],
          [
            9.0239,
            51.4826
          ],
          [
            9.0456,
            51.4781
          ],
          [
            9.0679,
            51.4688
          ],
          [
            9.1002,
            51.4543
          ],
          [
            9.1297,
            51.4412
          ],
          [
            9.1481,
            51.4362
          ],
          [
            9.1736,
            51.4332
          ],
          [
            9.1929,
            51.4318
          ],
          [
            9.2296,
            51.4297
          ],
          [
            9.2636,
            51.4278
          ],
          [
            9.2981,
            51.4259
          ],
          [
            9.3313,
            51.4241
          ],
          [
            9.3489,
            51.4231
          ],
          [
            9.3729,
            51.4217
          ],
          [
            9.401,
            51.4199
          ],
          [
            9.4221,
            51.4189
          ],
          [
            9.4383,
            51.4263
          ],
          [
            9.4405,
            51.4381
          ],
          [
            9.4272,
            51.4485
          ],
          [
            9.3941,
            51.4509
          ],
          [
            9.3652,
            51.4544
          ],
          [
            9.3331,
            51.4586
          ],
          [
            9.3167,
            51.455
          ],
          [
            9.3116,
            51.4444
          ],
          [
            9.3155,
            51.4335
          ],
          [
            9.3288,
            51.4248
          ],
          [
            9.3493,
            51.4231
          ]
        ]
      },
      "properties": {
        "time_europe_berlin": [
          "01.10.2025 09:19:29",
          "01.10.2025 09:19:45",
          "01.10.2025 09:20:01",
          "01.10.2025 09:20:17",
          "01.10.2025 09:20:33",
          "01.10.2025 09:20:49",
          "01.10.2025 09:21:10",
          "01.10.2025 09:21:26",
          "01.10.2025 09:21:50",
          "01.10.2025 09:22:08",
          "01.10.2025 09:22:36",
          "01.10.2025 09:23:06",
          "01.10.2025 09:23:25",
          "01.10.2025 09:23:45",
          "01.10.2025 09:24:10",
          "01.10.2025 09:24:40",
          "01.10.2025 09:25:10",
          "01.10.2025 09:25:40",
          "01.10.2025 09:26:07",
          "01.10.2025 09:26:45",
          "01.10.2025 09:27:21",
          "01.10.2025 09:27:52",
          "01.10.2025 09:28:24",
          "01.10.2025 09:28:54",
          "01.10.2025 09:29:18",
          "01.10.2025 09:29:49",
          "01.10.2025 09:30:23",
          "01.10.2025 09:30:44",
          "01.10.2025 09:31:05",
          "01.10.2025 09:31:50",
          "01.10.2025 09:32:21",
          "01.10.2025 09:32:51",
          "01.10.2025 09:33:21",
          "01.10.2025 09:33:39",
          "01.10.2025 09:33:59",
          "01.10.2025 09:34:29",
          "01.10.2025 09:34:51",
          "01.10.2025 09:35:35",
          "01.10.2025 09:36:05",
          "01.10.2025 09:36:38",
          "01.10.2025 09:37:08",
          "01.10.2025 09:37:38",
          "01.10.2025 09:38:08",
          "01.10.2025 09:38:25",
          "01.10.2025 09:38:41",
          "01.10.2025 09:39:05",
          "01.10.2025 09:39:35",
          "01.10.2025 09:40:05",
          "01.10.2025 09:40:24",
          "01.10.2025 09:40:41",
          "01.10.2025 09:40:57",
          "01.10.2025 09:41:18",
          "01.10.2025 09:41:48",
          "01.10.2025 09:42:15",
          "01.10.2025 09:42:32",
          "01.10.2025 09:42:52",
          "01.10.2025 09:43:08",
          "01.10.2025 09:43:38",
          "01.10.2025 09:44:08",
          "01.10.2025 09:44:38",
          "01.10.2025 09:45:08",
          "01.10.2025 09:45:24",
          "01.10.2025 09:45:46",
          "01.10.2025 09:46:10",
          "01.10.2025 09:46:27",
          "01.10.2025 09:46:44",
          "01.10.2025 09:47:00",
          "01.10.2025 09:47:18",
          "01.10.2025 09:47:44",
          "01.10.2025 09:48:08",
          "01.10.2025 09:48:34",
          "01.10.2025 09:48:51",
          "01.10.2025 09:49:09",
          "01.10.2025 09:49:26",
          "01.10.2025 09:49:45",
          "01.10.2025 09:50:08"
        ],
        "course_deg_clockwise_from_north": [
          138,
          139,
          137,
          126,
          125,
          103,
          97,
          94,
          89,
          64,
          56,
          56,
          59,
          59,
          58,
          59,
          59,
          59,
          59,
          59,
          59,
          59,
          59,
          59,
          59,
          59,
          59,
          59,
          59,
          59,
          59,
          60,
          59,
          60,
          60,
          59,
          60,
          60,
          60,
          60,
          60,
          60,
          60,
          56,
          45,
          43,
          43,
          43,
          46,
          88,
          121,
          125,
          126,
          123,
          105,
          98,
          96,
          95,
          95,
          95,
          95,
          95,
          97,
          95,
          90,
          26,
          353,
          294,
          273,
          283,
          278,
          225,
          172,
          157,
          120,
          92
        ],
        "speed_kts": [
          151,
          150,
          164,
          189,
          203,
          206,
          207,
          211,
          214,
          222,
          228,
          235,
          241,
          252,
          261,
          269,
          258,
          255,
          251,
          230,
          210,
          195,
          192,
          209,
          224,
          237,
          248,
          253,
          257,
          264,
          266,
          268,
          263,
          260,
          257,
          255,
          254,
          254,
          252,
          250,
          255,
          252,
          237,
          232,
          231,
          245,
          256,
          242,
          226,
          202,
          187,
          177,
          175,
          175,
          173,
          172,
          171,
          156,
          153,
          154,
          155,
          154,
          146,
          164,
          166,
          163,
          170,
          169,
          179,
          168,
          158,
          145,
          133,
          138,
          132,
          123
        ],
        "speed_mph": [
          174.0,
          173.0,
          189.0,
          217.0,
          234.0,
          237.0,
          238.0,
          243.0,
          246.0,
          255.0,
          262.0,
          270.0,
          277.0,
          290.0,
          300.0,
          310.0,
          297.0,
          293.0,
          289.0,
          265.0,
          242.0,
          224.0,
          221.0,
          241.0,
          258.0,
          273.0,
          285.0,
          291.0,
          296.0,
          304.0,
          306.0,
          308.0,
          303.0,
          299.0,
          296.0,
          293.0,
          292.0,
          292.0,
          290.0,
          288.0,
          293.0,
          290.0,
          273.0,
          267.0,
          266.0,
          282.0,
          295.0,
          278.0,
          260.0,
          232.0,
          215.0,
          204.0,
          201.0,
          201.0,
          199.0,
          198.0,
          197.0,
          180.0,
          176.0,
          177.0,
          178.0,
          177.0,
          168.0,
          189.0,
          191.0,
          188.0,
          196.0,
          194.0,
          206.0,
          193.0,
          182.0,
          167.0,
          153.0,
          159.0,
          152.0,
          142.0
        ],
        "altitude_ft": [
          800,
          1825,
          2550,
          3100,
          3725,
          4425,
          5475,
          6225,
          7450,
          8225,
          8900,
          9000,
          9050,
          9375,
          9825,
          10325,
          10800,
          11000,
          11000,
          11000,
          11000,
          11000,
          11000,
          11000,
          11000,
          11000,
          11000,
          11000,
          11000,
          11000,
          11000,
          11000,
          11000,
          11000,
          11000,
          11000,
          11000,
          11000,
          11000,
          11000,
          10675,
          9350,
          8075,
          7375,
          6750,
          5775,
          4550,
          3350,
          3075,
          3025,
          3000,
          3000,
          3000,
          3000,
          3025,
          2950,
          2725,
          2250,
          1825,
          1375,
          975,
          750,
          725,
          1125,
          1175,
          1175,
          1000,
          1175,
          1325,
          1500,
          1175,
          1125,
          1000,
          1075,
          1050,
          750
        ],
        "vertical_rate_fpm": [
          0.0,
          3281.0,
          2391.0,
          2203.0,
          2484.0,
          2838.0,
          2919.0,
          2963.0,
          2857.0,
          1891.0,
          802.0,
          184.0,
          577.0,
          1033.0,
          1036.0,
          975.0,
          675.0,
          211.0,
          0.0,
          0.0,
          0.0,
          0.0,
          0.0,
          0.0,
          0.0,
          0.0,
          0.0,
          0.0,
          0.0,
          0.0,
          0.0,
          0.0,
          0.0,
          0.0,
          0.0,
          0.0,
          0.0,
          0.0,
          0.0,
          -310.0,
          -1650.0,
          -2600.0,
          -2521.0,
          -2409.0,
          -2400.0,
          -2444.0,
          -2425.0,
          -1806.0,
          -542.0,
          -136.0,
          -41.0,
          0.0,
          0.0,
          34.0,
          -81.0,
          -500.0,
          -913.0,
          -900.0,
          -875.0,
          -850.0,
          -815.0,
          -395.0,
          489.0,
          659.0,
          88.0,
          -318.0,
          0.0,
          443.0,
          390.0,
          -180.0,
          -523.0,
          -300.0,
          -86.0,
          83.0,
          -464.0,
          -783.0
        ]
      }
    }
  ]
}