{
  "type": "FeatureCollection",
  "features": [
    {
      "type": "Feature",
      "geometry": {
        "type": "LineString",
        "coordinates": [
          [
            -2.7303,
            51.3823
          ],
          [
            -2.7458,
            51.3816
          ],
          [
            -2.7626,
            51.3811
          ],
          [
            -2.779,
            51.3807
          ],
          [
            -2.7991,
            51.3803
          ],
          [
            -2.8177,
            51.3798
          ],
          [
            -2.8513,
            51.3789
          ],
          [
            -2.8725,
            51.3795
          ],
          [
            -2.8909,
            51.3926
          ],
          [
            -2.8891,
            51.4099
          ],
          [
            -2.8698,
            51.4247
          ],
          [
            -2.8361,
            51.4344
          ],
          [
            -2.8009,
            51.439
          ],
          [
            -2.7515,
            51.4411
          ],
          [
            -2.7154,
            51.441
          ],
          [
            -2.6669,
            51.4404
          ],
          [
            -2.5907,
            51.4406
          ],
          [
            -2.5021,
            51.4414
          ],
          [
            -2.4271,
            51.4415
          ],
          [
            -2.3666,
            51.4407
          ],
          [
            -2.3151,
            51.4386
          ],
          [
            -2.2594,
            51.4354
          ],
          [
            -2.126,
            51.4286
          ],
          [
            -2.0252,
            51.4236
          ],
          [
            -1.9197,
            51.4182
          ],
          [
            -1.8214,
            51.4128
          ],
          [
            -1.7127,
            51.4067
          ],
          [
            -1.6317,
            51.4027
          ],
          [
            -1.5769,
            51.4003
          ],
          [
            -1.4638,
            51.3941
          ],
          [
            -1.3567,
            51.3881
          ],
          [
            -1.2491,
            51.3822
          ],
          [
            -1.1383,
            51.3759
          ],
          [
            -1.0294,
            51.3693
          ],
          [
            -0.9176,
            51.3628
          ],
          [
            -0.8061,
            51.3567
          ],
          [
            -0.6902,
            51.3485
          ],
          [
            -0.584,
            51.3423
          ],
          [
            -0.4729,
            51.3358
          ],
          [
            -0.3718,
            51.3286
          ],
          [
            -0.2599,
            51.3221
          ],
          [
            -0.1968,
            51.3179
          ],
          [
            -0.0874,
            51.3102
          ],
          [
            0.0188,
            51.3031
          ],
          [
            0.1355,
            51.2954
          ],
          [
            0.2507,
            51.2872
          ],
          [
            0.3633,
            51.2794
          ],
          [
            0.4748,
            51.2714
          ],
          [
            0.6364,
            51.2597
          ],
          [
            0.7429,
            51.2523
          ],
          [
            0.8499,
            51.244
          ],
          [
            0.9573,
            51.236
          ],
          [
            1.0715,
            51.2271
          ],
          [
            1.1304,
            51.2228
          ],
          [
            1.245,
            51.2137
          ],
          [
            1.3548,
            51.2049
          ],
          [
            1.4572,
            51.1969
          ],
          [
            1.6182,
            51.1811
          ],
          [
            1.7038,
            51.1726
          ],
          [
            1.8111,
            51.1618
          ],
          [
            1.9171,
            51.1516
          ],
          [
            2.0256,
            51.1408
          ],
          [
            2.1575,
            51.1266
          ],
          [
            2.2178,
            51.1205
          ],
          [
            2.3248,
            51.1094
          ],
          [
            2.4461,
            51.0972
          ],
          [
            2.5541,
            51.0855
          ],
          [
            2.6258,
            51.0781
          ],
          [
            2.7047,
            51.0692
          ],
          [
            2.8102,
            51.058
          ],
          [
            2.9155,
            51.0467
          ],
          [
            3.0181,
            51.0351
          ],
          [
            3.0878,
            51.0273
          ],
          [
            3.1899,
            51.0165
          ],
          [
            3.2725,
            51.0066
          ],
          [
            3.3793,
            50.9947
          ],
          [
            3.4805,
            50.9835
          ],
          [
            3.5803,
            50.9714
          ],
          [
            3.6761,
            50.9609
          ],
          [
            3.7596,
            50.9506
          ],
          [
            3.9015,
            50.9341
          ],
          [
            3.9759,
            50.9253
          ],
          [
            4.0422,
            50.9179
          ],
          [
            4.202,
            50.8986
          ],
          [
            4.2794,
            50.8887
          ],
          [
            4.381,
            50.8762
          ],
          [
            4.4804,
            50.864
          ],
          [
            4.5834,
            50.8516
          ],
          [
            4.6828,
            50.8391
          ],
          [
            4.7589,
            50.8296
          ],
          [
            4.843,
            50.818
          ],
          [
            4.9631,
            50.8031
          ],
          [
            5.04,
            50.7929
          ],
          [
            5.1079,
            50.7851
          ],
          [
            5.1909,
            50.7736
          ],
          [
            5.2881,
            50.7613
          ],
          [
            5.3826,
            50.7484
          ],
          [
            5.5607,
            50.7252
          ],
          [
            5.6259,
            50.7167
          ],
          [
            5.7179,
            50.7038
          ],
          [
            5.8097,
            50.6914
          ],
          [
            5.8879,
            50.6811
          ],
          [
            5.9555,
            50.6713
          ],
          [
            6.0526,
            50.6583
          ],
          [
            6.1047,
            50.6526
          ],
          [
            6.184,
            50.6671
          ],
          [
            6.2739,
            50.6975
          ],
          [
            6.3254,
            50.7149
          ],
          [
            6.4437,
            50.7549
          ],
          [
            6.519,
            50.7799
          ],
          [
            6.6359,
            50.819
          ],
          [
            6.7098,
            50.8442
          ],
          [
            6.7519,
            50.8586
          ],
          [
            6.7896,
            50.8716
          ],
          [
            6.8243,
            50.8838
          ],
          [
            6.8578,
            50.8955
          ],
          [
            6.9177,
            50.9166
          ],
          [
            6.9814,
            50.9373
          ],
          [
            7.0393,
            50.9543
          ],
          [
            7.0969,
            50.971
          ],
          [
            7.13,
            50.9797
          ],
          [
            7.1761,
            50.988
          ],
          [
            7.2356,
            50.9975
          ],
          [
            7.2986,
            51.0068
          ],
          [
            7.3362,
            51.0093
          ],
          [
            7.366,
            51.0018
          ],
          [
            7.3892,
            50.9914
          ],
          [
            7.4043,
            50.9761
          ],
          [
            7.4007,
            50.9607
          ],
          [
            7.3939,
            50.9488
          ],
          [
            7.3795,
            50.9394
          ],
          [
            7.3544,
            50.9307
          ],
          [
            7.322,
            50.9203
          ],
          [
            7.2967,
            50.9126
          ],
          [
            7.2681,
            50.9038
          ],
          [
            7.2456,
            50.897
          ],
          [
            7.2331,
            50.8933
          ],
          [
            7.2199,
            50.8893
          ],
          [
            7.2077,
            50.8855
          ],
          [
            7.1963,
            50.8821
          ],
          [
            7.1852,
            50.8788
          ],
          [
            7.1719,
            50.8747
          ],
          [
            7.1605,
            50.8712
          ]
        ]
      },
      "properties": {
        "time_europe_berlin": [
          "02.11.2025 11:34:16",
          "02.11.2025 11:34:31",
          "02.11.2025 11:34:47",
          "02.11.2025 11:35:03",
          "02.11.2025 11:35:19",
          "02.11.2025 11:35:35",
          "02.11.2025 11:36:02",
          "02.11.2025 11:36:18",
          "02.11.2025 11:36:38",
          "02.11.2025 11:36:54",
          "02.11.2025 11:37:11",
          "02.11.2025 11:37:28",
          "02.11.2025 11:37:44",
          "02.11.2025 11:38:04",
          "02.11.2025 11:38:21",
          "02.11.2025 11:38:38",
          "02.11.2025 11:39:07",
          "02.11.2025 11:39:37",
          "02.11.2025 11:40:03",
          "02.11.2025 11:40:22",
          "02.11.2025 11:40:39",
          "02.11.2025 11:40:57",
          "02.11.2025 11:41:38",
          "02.11.2025 11:42:08",
          "02.11.2025 11:42:38",
          "02.11.2025 11:43:07",
          "02.11.2025 11:43:37",
          "02.11.2025 11:44:00",
          "02.11.2025 11:44:16",
          "02.11.2025 11:44:46",
          "02.11.2025 11:45:16",
          "02.11.2025 11:45:46",
          "02.11.2025 11:46:16",
          "02.11.2025 11:46:46",
          "02.11.2025 11:47:16",
          "02.11.2025 11:47:46",
          "02.11.2025 11:48:16",
          "02.11.2025 11:48:46",
          "02.11.2025 11:49:16",
          "02.11.2025 11:49:44",
          "02.11.2025 11:50:14",
          "02.11.2025 11:50:30",
          "02.11.2025 11:51:00",
          "02.11.2025 11:51:30",
          "02.11.2025 11:52:01",
          "02.11.2025 11:52:32",
          "02.11.2025 11:53:02",
          "02.11.2025 11:53:32",
          "02.11.2025 11:54:16",
          "02.11.2025 11:54:46",
          "02.11.2025 11:55:16",
          "02.11.2025 11:55:46",
          "02.11.2025 11:56:15",
          "02.11.2025 11:56:33",
          "02.11.2025 11:57:04",
          "02.11.2025 11:57:34",
          "02.11.2025 11:58:04",
          "02.11.2025 11:58:49",
          "02.11.2025 11:59:13",
          "02.11.2025 11:59:43",
          "02.11.2025 12:00:13",
          "02.11.2025 12:00:43",
          "02.11.2025 12:01:21",
          "02.11.2025 12:01:38",
          "02.11.2025 12:02:08",
          "02.11.2025 12:02:42",
          "02.11.2025 12:03:12",
          "02.11.2025 12:03:32",
          "02.11.2025 12:03:55",
          "02.11.2025 12:04:25",
          "02.11.2025 12:04:55",
          "02.11.2025 12:05:24",
          "02.11.2025 12:05:43",
          "02.11.2025 12:06:13",
          "02.11.2025 12:06:36",
          "02.11.2025 12:07:06",
          "02.11.2025 12:07:36",
          "02.11.2025 12:08:04",
          "02.11.2025 12:08:31",
          "02.11.2025 12:08:54",
          "02.11.2025 12:09:35",
          "02.11.2025 12:09:56",
          "02.11.2025 12:10:15",
          "02.11.2025 12:11:01",
          "02.11.2025 12:11:23",
          "02.11.2025 12:11:53",
          "02.11.2025 12:12:23",
          "02.11.2025 12:12:53",
          "02.11.2025 12:13:23",
          "02.11.2025 12:13:46",
          "02.11.2025 12:14:12",
          "02.11.2025 12:14:47",
          "02.11.2025 12:15:12",
          "02.11.2025 12:15:32",
          "02.11.2025 12:15:56",
          "02.11.2025 12:16:26",
          "02.11.2025 12:16:56",
          "02.11.2025 12:17:50",
          "02.11.2025 12:18:10",
          "02.11.2025 12:18:40",
          "02.11.2025 12:19:10",
          "02.11.2025 12:19:35",
          "02.11.2025 12:19:59",
          "02.11.2025 12:20:29",
          "02.11.2025 12:20:47",
          "02.11.2025 12:21:13",
          "02.11.2025 12:21:45",
          "02.11.2025 12:22:03",
          "02.11.2025 12:22:46",
          "02.11.2025 12:23:12",
          "02.11.2025 12:23:56",
          "02.11.2025 12:24:26",
          "02.11.2025 12:24:44",
          "02.11.2025 12:25:01",
          "02.11.2025 12:25:17",
          "02.11.2025 12:25:33",
          "02.11.2025 12:26:03",
          "02.11.2025 12:26:37",
          "02.11.2025 12:27:07",
          "02.11.2025 12:27:37",
          "02.11.2025 12:27:55",
          "02.11.2025 12:28:17",
          "02.11.2025 12:28:47",
          "02.11.2025 12:29:17",
          "02.11.2025 12:29:36",
          "02.11.2025 12:29:53",
          "02.11.2025 12:30:09",
          "02.11.2025 12:30:26",
          "02.11.2025 12:30:44",
          "02.11.2025 12:31:00",
          "02.11.2025 12:31:18",
          "02.11.2025 12:31:41",
          "02.11.2025 12:32:11",
          "02.11.2025 12:32:35",
          "02.11.2025 12:33:05",
          "02.11.2025 12:33:29",
          "02.11.2025 12:33:45",
          "02.11.2025 12:34:01",
          "02.11.2025 12:34:17",
          "02.11.2025 12:34:33",
          "02.11.2025 12:34:49",
          "02.11.2025 12:35:05",
          "02.11.2025 12:35:21"
        ],
        "course_deg_clockwise_from_north": [
          266,
          267,
          268,
          268,
          268,
          268,
          267,
          287,
          344,
          22,
          56,
          73,
          83,
          88,
          92,
          91,
          89,
          90,
          90,
          93,
          94,
          96,
          95,
          95,
          94,
          95,
          95,
          94,
          95,
          94,
          96,
          94,
          95,
          95,
          95,
          96,
          95,
          95,
          96,
          95,
          96,
          97,
          96,
          96,
          97,
          97,
          96,
          96,
          96,
          98,
          97,
          97,
          97,
          97,
          97,
          97,
          98,
          98,
          100,
          98,
          100,
          99,
          99,
          99,
          100,
          100,
          99,
          100,
          99,
          101,
          99,
          101,
          99,
          101,
          100,
          101,
          100,
          100,
          101,
          100,
          101,
          100,
          101,
          101,
          101,
          102,
          101,
          101,
          101,
          102,
          101,
          102,
          101,
          101,
          102,
          102,
          101,
          101,
          103,
          102,
          101,
          103,
          102,
          103,
          91,
          63,
          61,
          62,
          62,
          63,
          61,
          61,
          62,
          61,
          61,
          61,
          61,
          64,
          65,
          66,
          72,
          75,
          77,
          77,
          100,
          117,
          134,
          168,
          198,
          203,
          238,
          242,
          244,
          246,
          244,
          245,
          245,
          244,
          244,
          245,
          245,
          243,
          244
        ],
        "speed_kts": [
          138,
          140,
          143,
          151,
          160,
          164,
          175,
          182,
          216,
          250,
          273,
          294,
          312,
          329,
          345,
          357,
          376,
          399,
          410,
          418,
          424,
          431,
          448,
          467,
          472,
          478,
          479,
          481,
          484,
          483,
          495,
          498,
          513,
          511,
          507,
          503,
          498,
          503,
          507,
          505,
          502,
          503,
          502,
          502,
          508,
          508,
          506,
          503,
          499,
          497,
          497,
          496,
          495,
          495,
          494,
          494,
          494,
          491,
          490,
          490,
          489,
          490,
          490,
          490,
          489,
          491,
          491,
          490,
          490,
          490,
          489,
          487,
          488,
          487,
          487,
          488,
          489,
          489,
          489,
          489,
          489,
          489,
          488,
          477,
          475,
          477,
          476,
          471,
          466,
          461,
          461,
          459,
          460,
          462,
          465,
          465,
          463,
          450,
          443,
          435,
          426,
          429,
          430,
          429,
          433,
          440,
          440,
          437,
          430,
          428,
          399,
          375,
          359,
          343,
          328,
          318,
          300,
          288,
          290,
          290,
          288,
          287,
          283,
          279,
          272,
          253,
          233,
          208,
          188,
          171,
          158,
          170,
          166,
          153,
          139,
          136,
          124,
          118,
          111,
          113,
          113,
          112,
          110
        ],
        "speed_mph": [
          159.0,
          161.0,
          165.0,
          174.0,
          184.0,
          189.0,
          201.0,
          209.0,
          249.0,
          288.0,
          314.0,
          338.0,
          359.0,
          379.0,
          397.0,
          411.0,
          433.0,
          459.0,
          472.0,
          481.0,
          488.0,
          496.0,
          516.0,
          537.0,
          543.0,
          550.0,
          551.0,
          554.0,
          557.0,
          556.0,
          570.0,
          573.0,
          590.0,
          588.0,
          583.0,
          579.0,
          573.0,
          579.0,
          583.0,
          581.0,
          578.0,
          579.0,
          578.0,
          578.0,
          585.0,
          585.0,
          582.0,
          579.0,
          574.0,
          572.0,
          572.0,
          571.0,
          570.0,
          570.0,
          568.0,
          568.0,
          568.0,
          565.0,
          564.0,
          564.0,
          563.0,
          564.0,
          564.0,
          564.0,
          563.0,
          565.0,
          565.0,
          564.0,
          564.0,
          564.0,
          563.0,
          560.0,
          562.0,
          560.0,
          560.0,
          562.0,
          563.0,
          563.0,
          563.0,
          563.0,
          563.0,
          563.0,
          562.0,
          549.0,
          547.0,
          549.0,
          548.0,
          542.0,
          536.0,
          531.0,
          531.0,
          528.0,
          529.0,
          532.0,
          535.0,
          535.0,
          533.0,
          518.0,
          510.0,
          501.0,
          490.0,
          494.0,
          495.0,
          494.0,
          498.0,
          506.0,
          506.0,
          503.0,
          495.0,
          493.0,
          459.0,
          432.0,
          413.0,
          395.0,
          377.0,
          366.0,
          345.0,
          331.0,
          334.0,
          334.0,
          331.0,
          330.0,
          326.0,
          321.0,
          313.0,
          291.0,
          268.0,
          239.0,
          216.0,
          197.0,
          182.0,
          196.0,
          191.0,
          176.0,
          160.0,
          157.0,
          143.0,
          136.0,
          128.0,
          130.0,
          130.0,
          129.0,
          127.0
        ],
        "altitude_ft": [
          1300,
          2275,
          3275,
          4025,
          4950,
          5900,
          7425,
          8500,
          9625,
          10325,
          11000,
          11625,
          12200,
          12875,
          13425,
          13975,
          14950,
          16275,
          17525,
          18475,
          19325,
          20250,
          22050,
          22975,
          24175,
          25350,
          26625,
          27475,
          28125,
          29250,
          30000,
          30725,
          31000,
          31450,
          31950,
          32475,
          32925,
          33000,
          33000,
          33000,
          33000,
          33000,
          33000,
          33000,
          33000,
          33000,
          33000,
          33000,
          33000,
          33000,
          33000,
          33000,
          33000,
          33000,
          33000,
          33000,
          33000,
          33000,
          33000,
          33000,
          33000,
          33000,
          33000,
          33000,
          33000,
          33000,
          33000,
          33025,
          33025,
          33000,
          33000,
          33025,
          33025,
          33025,
          33025,
          33025,
          33000,
          33025,
          33000,
          33000,
          33025,
          33000,
          33025,
          32900,
          32300,
          31325,
          30375,
          29450,
          28600,
          27950,
          27225,
          26200,
          25550,
          24950,
          24100,
          23125,
          22225,
          20425,
          19875,
          19125,
          18475,
          18075,
          18000,
          17825,
          17525,
          16925,
          16125,
          15650,
          14525,
          13775,
          12625,
          11825,
          11350,
          10900,
          10425,
          10050,
          9300,
          8450,
          7725,
          6950,
          6500,
          6000,
          5225,
          4450,
          3975,
          3725,
          3525,
          3400,
          3300,
          3225,
          3200,
          3100,
          2675,
          2350,
          1950,
          1650,
          1475,
          1275,
          1100,
          975,
          825,
          650,
          475
        ],
        "vertical_rate_fpm": [
          0.0,
          3823.0,
          3281.0,
          3141.0,
          3516.0,
          3453.0,
          3628.0,
          3667.0,
          3042.0,
          2500.0,
          2294.0,
          2182.0,
          2083.0,
          1986.0,
          1941.0,
          1989.0,
          2339.0,
          2759.0,
          2933.0,
          3000.0,
          3043.0,
          2771.0,
          2303.0,
          2125.0,
          2415.0,
          2492.0,
          2406.0,
          2308.0,
          2315.0,
          1875.0,
          1475.0,
          1000.0,
          725.0,
          950.0,
          1025.0,
          975.0,
          525.0,
          75.0,
          0.0,
          0.0,
          0.0,
          0.0,
          0.0,
          0.0,
          0.0,
          0.0,
          0.0,
          0.0,
          0.0,
          0.0,
          0.0,
          0.0,
          0.0,
          0.0,
          0.0,
          0.0,
          0.0,
          0.0,
          0.0,
          0.0,
          0.0,
          0.0,
          0.0,
          0.0,
          0.0,
          0.0,
          30.0,
          35.0,
          -28.0,
          -25.0,
          25.0,
          31.0,
          0.0,
          0.0,
          0.0,
          -25.0,
          0.0,
          0.0,
          -30.0,
          23.0,
          0.0,
          0.0,
          -92.0,
          -640.0,
          -1817.0,
          -1925.0,
          -1875.0,
          -1775.0,
          -1698.0,
          -1684.0,
          -1721.0,
          -1675.0,
          -1667.0,
          -1977.0,
          -2028.0,
          -1875.0,
          -1929.0,
          -1905.0,
          -1560.0,
          -1400.0,
          -1145.0,
          -582.0,
          -278.0,
          -594.0,
          -1227.0,
          -1448.0,
          -1530.0,
          -1574.0,
          -1630.0,
          -1629.0,
          -1581.0,
          -1594.0,
          -1586.0,
          -1682.0,
          -1594.0,
          -1467.0,
          -1500.0,
          -1477.0,
          -1500.0,
          -1531.0,
          -1425.0,
          -1471.0,
          -1550.0,
          -1531.0,
          -1208.0,
          -818.0,
          -591.0,
          -386.0,
          -309.0,
          -176.0,
          -183.0,
          -594.0,
          -833.0,
          -806.0,
          -778.0,
          -713.0,
          -703.0,
          -703.0,
          -563.0,
          -516.0,
          -609.0,
          -656.0,
          -656.0
        ]
      }
    }
  ]
}