{
  "type": "FeatureCollection",
  "features": [
    {
      "type": "Feature",
      "geometry": {
        "type": "LineString",
        "coordinates": [
          [
            -2.2926,
            53.3408
          ],
          [
            -2.3081,
            53.334
          ],
          [
            -2.3224,
            53.3274
          ],
          [
            -2.3362,
            53.3199
          ],
          [
            -2.3452,
            53.3074
          ],
          [
            -2.3424,
            53.294
          ],
          [
            -2.3316,
            53.2792
          ],
          [
            -2.3165,
            53.2641
          ],
          [
            -2.3003,
            53.2494
          ],
          [
            -2.2789,
            53.2283
          ],
          [
            -2.2637,
            53.2118
          ],
          [
            -2.2397,
            53.1861
          ],
          [
            -2.214,
            53.1592
          ],
          [
            -2.1955,
            53.1387
          ],
          [
            -2.1762,
            53.1158
          ],
          [
            -2.1067,
            53.0497
          ],
          [
            -2.0768,
            53.0244
          ],
          [
            -2.0477,
            53.0028
          ],
          [
            -1.9224,
            52.909
          ],
          [
            -1.8645,
            52.8647
          ],
          [
            -1.8077,
            52.8225
          ],
          [
            -1.7329,
            52.7689
          ],
          [
            -1.6985,
            52.7439
          ],
          [
            -1.6734,
            52.7188
          ],
          [
            -1.6451,
            52.683
          ],
          [
            -1.6174,
            52.6466
          ],
          [
            -1.5226,
            52.5284
          ],
          [
            -1.4784,
            52.4746
          ],
          [
            -1.452,
            52.4427
          ],
          [
            -1.4169,
            52.4117
          ],
          [
            -1.3754,
            52.3869
          ],
          [
            -1.3284,
            52.3644
          ],
          [
            -1.2426,
            52.3276
          ],
          [
            -1.0544,
            52.2458
          ],
          [
            -1.0091,
            52.2262
          ],
          [
            -0.9029,
            52.1798
          ],
          [
            -0.82,
            52.1432
          ],
          [
            -0.7353,
            52.1059
          ],
          [
            -0.6496,
            52.0679
          ],
          [
            -0.5653,
            52.0305
          ],
          [
            -0.4799,
            51.9923
          ],
          [
            -0.3921,
            51.953
          ],
          [
            -0.3081,
            51.9154
          ],
          [
            -0.226,
            51.8784
          ],
          [
            -0.1386,
            51.8389
          ],
          [
            -0.0561,
            51.8016
          ],
          [
            0.0272,
            51.7637
          ],
          [
            0.108,
            51.7268
          ],
          [
            0.1938,
            51.6877
          ],
          [
            0.2764,
            51.6496
          ],
          [
            0.3271,
            51.6263
          ],
          [
            0.3736,
            51.6053
          ],
          [
            0.4413,
            51.5825
          ],
          [
            0.4958,
            51.5672
          ],
          [
            0.5507,
            51.5524
          ],
          [
            0.6671,
            51.5198
          ],
          [
            0.7546,
            51.4948
          ],
          [
            0.8512,
            51.4673
          ],
          [
            0.9452,
            51.4404
          ],
          [
            1.0384,
            51.4136
          ],
          [
            1.1316,
            51.3867
          ],
          [
            1.2025,
            51.3661
          ],
          [
            1.2918,
            51.3401
          ],
          [
            1.3869,
            51.3123
          ],
          [
            1.4791,
            51.2852
          ],
          [
            1.5669,
            51.2595
          ],
          [
            1.6601,
            51.2319
          ],
          [
            1.7482,
            51.2058
          ],
          [
            1.7979,
            51.1925
          ],
          [
            1.8582,
            51.1813
          ],
          [
            1.9749,
            51.1639
          ],
          [
            2.0724,
            51.1489
          ],
          [
            2.1539,
            51.1359
          ],
          [
            2.2536,
            51.1201
          ],
          [
            2.3545,
            51.1041
          ],
          [
            2.4445,
            51.0895
          ],
          [
            2.5138,
            51.0784
          ],
          [
            2.7425,
            51.0412
          ],
          [
            2.8577,
            51.0223
          ],
          [
            2.9522,
            51.0066
          ],
          [
            3.0334,
            50.993
          ],
          [
            3.1252,
            50.9778
          ],
          [
            3.2115,
            50.9633
          ],
          [
            3.2816,
            50.9515
          ],
          [
            3.3411,
            50.943
          ],
          [
            3.3989,
            50.9376
          ],
          [
            3.4905,
            50.9296
          ],
          [
            3.5789,
            50.9209
          ],
          [
            3.6719,
            50.912
          ],
          [
            3.8033,
            50.8991
          ],
          [
            3.8946,
            50.8901
          ],
          [
            3.9887,
            50.8807
          ],
          [
            4.0533,
            50.8742
          ],
          [
            4.1767,
            50.8619
          ],
          [
            4.2381,
            50.8556
          ],
          [
            4.3317,
            50.8458
          ],
          [
            4.4222,
            50.8365
          ],
          [
            4.5146,
            50.827
          ],
          [
            4.6064,
            50.8172
          ],
          [
            4.6998,
            50.8072
          ],
          [
            4.7919,
            50.7975
          ],
          [
            4.8574,
            50.7905
          ],
          [
            4.9448,
            50.781
          ],
          [
            5.0754,
            50.7667
          ],
          [
            5.176,
            50.7556
          ],
          [
            5.2673,
            50.7455
          ],
          [
            5.3563,
            50.7356
          ],
          [
            5.4497,
            50.725
          ],
          [
            5.5354,
            50.7152
          ],
          [
            5.5842,
            50.7097
          ],
          [
            5.6665,
            50.7002
          ],
          [
            5.757,
            50.6897
          ],
          [
            5.8448,
            50.6796
          ],
          [
            5.9284,
            50.6698
          ],
          [
            5.9841,
            50.6697
          ],
          [
            6.0351,
            50.6825
          ],
          [
            6.0834,
            50.7007
          ],
          [
            6.141,
            50.7254
          ],
          [
            6.2096,
            50.7541
          ],
          [
            6.2766,
            50.7811
          ],
          [
            6.3254,
            50.7948
          ],
          [
            6.373,
            50.8055
          ],
          [
            6.4261,
            50.8172
          ],
          [
            6.5124,
            50.8364
          ],
          [
            6.5668,
            50.8481
          ],
          [
            6.599,
            50.8548
          ],
          [
            6.6452,
            50.8646
          ],
          [
            6.6933,
            50.875
          ],
          [
            6.7184,
            50.8835
          ],
          [
            6.7377,
            50.9002
          ],
          [
            6.766,
            50.9273
          ],
          [
            6.7959,
            50.9553
          ],
          [
            6.8095,
            50.9715
          ],
          [
            6.8161,
            50.9996
          ],
          [
            6.8394,
            51.0213
          ],
          [
            6.8589,
            51.0309
          ],
          [
            6.8881,
            51.0313
          ],
          [
            6.8947,
            51.0303
          ],
          [
            6.9109,
            51.0268
          ],
          [
            6.9306,
            51.0179
          ],
          [
            6.9466,
            51.0074
          ],
          [
            6.9627,
            50.9957
          ],
          [
            6.9765,
            50.9857
          ],
          [
            6.9913,
            50.9753
          ],
          [
            7.0037,
            50.9667
          ],
          [
            7.0157,
            50.9584
          ],
          [
            7.0256,
            50.9508
          ],
          [
            7.0368,
            50.9391
          ],
          [
            7.0453,
            50.9289
          ],
          [
            7.0532,
            50.9194
          ],
          [
            7.0589,
            50.9143
          ],
          [
            7.0602,
            50.9133
          ],
          [
            7.0685,
            50.9071
          ],
          [
            7.0769,
            50.9014
          ],
          [
            7.0853,
            50.8956
          ],
          [
            7.0938,
            50.8898
          ],
          [
            7.1018,
            50.8842
          ],
          [
            7.1102,
            50.8782
          ],
          [
            7.1195,
            50.8718
          ]
        ]
      },
      "properties": {
        "time_europe_berlin": [
          "04.12.2025 17:33:30",
          "04.12.2025 17:33:46",
          "04.12.2025 17:34:02",
          "04.12.2025 17:34:18",
          "04.12.2025 17:34:34",
          "04.12.2025 17:34:50",
          "04.12.2025 17:35:07",
          "04.12.2025 17:35:25",
          "04.12.2025 17:35:42",
          "04.12.2025 17:36:07",
          "04.12.2025 17:36:28",
          "04.12.2025 17:36:58",
          "04.12.2025 17:37:28",
          "04.12.2025 17:37:47",
          "04.12.2025 17:38:07",
          "04.12.2025 17:39:00",
          "04.12.2025 17:39:18",
          "04.12.2025 17:39:34",
          "04.12.2025 17:40:41",
          "04.12.2025 17:41:11",
          "04.12.2025 17:41:39",
          "04.12.2025 17:42:16",
          "04.12.2025 17:42:32",
          "04.12.2025 17:42:48",
          "04.12.2025 17:43:09",
          "04.12.2025 17:43:30",
          "04.12.2025 17:44:39",
          "04.12.2025 17:45:09",
          "04.12.2025 17:45:27",
          "04.12.2025 17:45:46",
          "04.12.2025 17:46:02",
          "04.12.2025 17:46:20",
          "04.12.2025 17:46:50",
          "04.12.2025 17:47:56",
          "04.12.2025 17:48:12",
          "04.12.2025 17:48:50",
          "04.12.2025 17:49:20",
          "04.12.2025 17:49:50",
          "04.12.2025 17:50:20",
          "04.12.2025 17:50:50",
          "04.12.2025 17:51:20",
          "04.12.2025 17:51:50",
          "04.12.2025 17:52:20",
          "04.12.2025 17:52:50",
          "04.12.2025 17:53:20",
          "04.12.2025 17:53:50",
          "04.12.2025 17:54:20",
          "04.12.2025 17:54:50",
          "04.12.2025 17:55:20",
          "04.12.2025 17:55:50",
          "04.12.2025 17:56:09",
          "04.12.2025 17:56:26",
          "04.12.2025 17:56:48",
          "04.12.2025 17:57:06",
          "04.12.2025 17:57:24",
          "04.12.2025 17:57:59",
          "04.12.2025 17:58:29",
          "04.12.2025 17:59:00",
          "04.12.2025 17:59:30",
          "04.12.2025 18:00:00",
          "04.12.2025 18:00:30",
          "04.12.2025 18:00:53",
          "04.12.2025 18:01:23",
          "04.12.2025 18:01:53",
          "04.12.2025 18:02:23",
          "04.12.2025 18:02:53",
          "04.12.2025 18:03:23",
          "04.12.2025 18:03:53",
          "04.12.2025 18:04:09",
          "04.12.2025 18:04:28",
          "04.12.2025 18:05:04",
          "04.12.2025 18:05:34",
          "04.12.2025 18:05:59",
          "04.12.2025 18:06:29",
          "04.12.2025 18:06:59",
          "04.12.2025 18:07:29",
          "04.12.2025 18:07:51",
          "04.12.2025 18:09:01",
          "04.12.2025 18:09:39",
          "04.12.2025 18:10:09",
          "04.12.2025 18:10:35",
          "04.12.2025 18:11:05",
          "04.12.2025 18:11:35",
          "04.12.2025 18:12:00",
          "04.12.2025 18:12:20",
          "04.12.2025 18:12:40",
          "04.12.2025 18:13:10",
          "04.12.2025 18:13:40",
          "04.12.2025 18:14:10",
          "04.12.2025 18:14:52",
          "04.12.2025 18:15:22",
          "04.12.2025 18:15:53",
          "04.12.2025 18:16:14",
          "04.12.2025 18:16:53",
          "04.12.2025 18:17:15",
          "04.12.2025 18:17:45",
          "04.12.2025 18:18:15",
          "04.12.2025 18:18:45",
          "04.12.2025 18:19:15",
          "04.12.2025 18:19:45",
          "04.12.2025 18:20:15",
          "04.12.2025 18:20:35",
          "04.12.2025 18:21:04",
          "04.12.2025 18:21:47",
          "04.12.2025 18:22:17",
          "04.12.2025 18:22:47",
          "04.12.2025 18:23:16",
          "04.12.2025 18:23:46",
          "04.12.2025 18:24:16",
          "04.12.2025 18:24:34",
          "04.12.2025 18:25:04",
          "04.12.2025 18:25:34",
          "04.12.2025 18:26:04",
          "04.12.2025 18:26:34",
          "04.12.2025 18:26:53",
          "04.12.2025 18:27:12",
          "04.12.2025 18:27:30",
          "04.12.2025 18:27:54",
          "04.12.2025 18:28:24",
          "04.12.2025 18:28:53",
          "04.12.2025 18:29:15",
          "04.12.2025 18:29:37",
          "04.12.2025 18:30:07",
          "04.12.2025 18:30:58",
          "04.12.2025 18:31:28",
          "04.12.2025 18:31:49",
          "04.12.2025 18:32:18",
          "04.12.2025 18:32:48",
          "04.12.2025 18:33:05",
          "04.12.2025 18:33:24",
          "04.12.2025 18:33:54",
          "04.12.2025 18:34:24",
          "04.12.2025 18:34:40",
          "04.12.2025 18:35:04",
          "04.12.2025 18:35:29",
          "04.12.2025 18:35:45",
          "04.12.2025 18:36:03",
          "04.12.2025 18:36:07",
          "04.12.2025 18:36:19",
          "04.12.2025 18:36:35",
          "04.12.2025 18:36:51",
          "04.12.2025 18:37:07",
          "04.12.2025 18:37:23",
          "04.12.2025 18:37:39",
          "04.12.2025 18:37:55",
          "04.12.2025 18:38:11",
          "04.12.2025 18:38:27",
          "04.12.2025 18:38:49",
          "04.12.2025 18:39:09",
          "04.12.2025 18:39:27",
          "04.12.2025 18:39:39",
          "04.12.2025 18:39:43",
          "04.12.2025 18:39:59",
          "04.12.2025 18:40:15",
          "04.12.2025 18:40:31",
          "04.12.2025 18:40:47",
          "04.12.2025 18:41:03",
          "04.12.2025 18:41:19",
          "04.12.2025 18:41:36"
        ],
        "course_deg_clockwise_from_north": [
          232,
          235,
          231,
          223,
          185,
          164,
          151,
          147,
          147,
          150,
          151,
          150,
          150,
          154,
          151,
          148,
          142,
          141,
          142,
          142,
          140,
          139,
          143,
          153,
          155,
          155,
          154,
          153,
          152,
          138,
          130,
          126,
          125,
          126,
          125,
          126,
          126,
          126,
          126,
          126,
          126,
          126,
          126,
          126,
          126,
          126,
          126,
          126,
          126,
          127,
          127,
          124,
          115,
          114,
          113,
          115,
          115,
          115,
          115,
          115,
          115,
          115,
          115,
          115,
          115,
          115,
          115,
          115,
          109,
          105,
          103,
          104,
          104,
          104,
          104,
          105,
          104,
          105,
          105,
          105,
          105,
          105,
          105,
          105,
          100,
          98,
          98,
          99,
          99,
          99,
          99,
          99,
          99,
          99,
          99,
          99,
          99,
          99,
          100,
          99,
          99,
          100,
          100,
          100,
          100,
          100,
          100,
          100,
          100,
          100,
          100,
          100,
          100,
          101,
          77,
          62,
          57,
          56,
          57,
          58,
          70,
          71,
          71,
          71,
          72,
          72,
          71,
          71,
          45,
          34,
          34,
          34,
          15,
          10,
          42,
          68,
          103,
          104,
          114,
          132,
          138,
          140,
          139,
          138,
          138,
          138,
          145,
          151,
          153,
          149,
          142,
          142,
          137,
          138,
          137,
          138,
          139,
          137,
          138
        ],
        "speed_kts": [
          142,
          149,
          154,
          169,
          192,
          201,
          206,
          206,
          209,
          213,
          206,
          216,
          236,
          267,
          294,
          350,
          367,
          378,
          409,
          415,
          415,
          414,
          414,
          414,
          414,
          413,
          422,
          433,
          439,
          449,
          455,
          460,
          465,
          460,
          459,
          457,
          455,
          462,
          470,
          473,
          472,
          471,
          468,
          465,
          464,
          463,
          463,
          461,
          461,
          462,
          460,
          462,
          463,
          464,
          464,
          462,
          461,
          461,
          460,
          460,
          460,
          461,
          460,
          458,
          458,
          456,
          454,
          454,
          455,
          457,
          457,
          455,
          455,
          455,
          454,
          452,
          451,
          444,
          439,
          434,
          429,
          425,
          418,
          411,
          408,
          411,
          412,
          420,
          426,
          428,
          426,
          426,
          426,
          425,
          421,
          423,
          426,
          423,
          426,
          434,
          436,
          433,
          431,
          436,
          446,
          433,
          422,
          412,
          394,
          389,
          399,
          406,
          407,
          405,
          408,
          404,
          400,
          394,
          376,
          351,
          321,
          290,
          258,
          245,
          244,
          238,
          231,
          231,
          233,
          232,
          237,
          243,
          247,
          243,
          232,
          221,
          212,
          213,
          211,
          205,
          205,
          193,
          187,
          172,
          153,
          148,
          137,
          128,
          121,
          117,
          115,
          113,
          105,
          105,
          103,
          107,
          109,
          112,
          111
        ],
        "speed_mph": [
          163.0,
          171.0,
          177.0,
          194.0,
          221.0,
          231.0,
          237.0,
          237.0,
          241.0,
          245.0,
          237.0,
          249.0,
          272.0,
          307.0,
          338.0,
          403.0,
          422.0,
          435.0,
          471.0,
          478.0,
          478.0,
          476.0,
          476.0,
          476.0,
          476.0,
          475.0,
          486.0,
          498.0,
          505.0,
          517.0,
          524.0,
          529.0,
          535.0,
          529.0,
          528.0,
          526.0,
          524.0,
          532.0,
          541.0,
          544.0,
          543.0,
          542.0,
          539.0,
          535.0,
          534.0,
          533.0,
          533.0,
          531.0,
          531.0,
          532.0,
          529.0,
          532.0,
          533.0,
          534.0,
          534.0,
          532.0,
          531.0,
          531.0,
          529.0,
          529.0,
          529.0,
          531.0,
          529.0,
          527.0,
          527.0,
          525.0,
          522.0,
          522.0,
          524.0,
          526.0,
          526.0,
          524.0,
          524.0,
          524.0,
          522.0,
          520.0,
          519.0,
          511.0,
          505.0,
          499.0,
          494.0,
          489.0,
          481.0,
          473.0,
          470.0,
          473.0,
          474.0,
          483.0,
          490.0,
          493.0,
          490.0,
          490.0,
          490.0,
          489.0,
          484.0,
          487.0,
          490.0,
          487.0,
          490.0,
          499.0,
          502.0,
          498.0,
          496.0,
          502.0,
          513.0,
          498.0,
          486.0,
          474.0,
          453.0,
          448.0,
          459.0,
          467.0,
          468.0,
          466.0,
          470.0,
          465.0,
          460.0,
          453.0,
          433.0,
          404.0,
          369.0,
          334.0,
          297.0,
          282.0,
          281.0,
          274.0,
          266.0,
          266.0,
          268.0,
          267.0,
          273.0,
          280.0,
          284.0,
          280.0,
          267.0,
          254.0,
          244.0,
          245.0,
          243.0,
          236.0,
          236.0,
          222.0,
          215.0,
          198.0,
          176.0,
          170.0,
          158.0,
          147.0,
          139.0,
          135.0,
          132.0,
          130.0,
          121.0,
          121.0,
          119.0,
          123.0,
          125.0,
          129.0,
          128.0
        ],
        "altitude_ft": [
          950,
          1925,
          2800,
          3525,
          4300,
          5250,
          6325,
          7425,
          8650,
          10425,
          12025,
          14275,
          16325,
          17225,
          18050,
          20300,
          21100,
          21775,
          24550,
          25850,
          27250,
          29000,
          29675,
          30350,
          31175,
          32000,
          34000,
          34500,
          34750,
          34975,
          35200,
          35400,
          35800,
          37075,
          37400,
          38150,
          38750,
          38975,
          39000,
          39000,
          39000,
          39000,
          39000,
          39000,
          39000,
          39000,
          39000,
          39000,
          39000,
          39000,
          39000,
          39000,
          39000,
          39000,
          39000,
          39000,
          39000,
          39000,
          39000,
          39000,
          39000,
          39000,
          39000,
          39000,
          39000,
          39000,
          39000,
          39000,
          39000,
          39000,
          39000,
          39000,
          39000,
          39000,
          39000,
          39000,
          39000,
          38575,
          37650,
          36875,
          36200,
          35425,
          34700,
          34075,
          33650,
          33325,
          33025,
          33000,
          33000,
          33000,
          33000,
          33000,
          33000,
          33000,
          32850,
          32125,
          31400,
          31000,
          30325,
          29350,
          28300,
          27425,
          26250,
          24525,
          23200,
          21975,
          20775,
          19525,
          18750,
          18275,
          17575,
          16825,
          16025,
          15325,
          14800,
          14350,
          13825,
          13000,
          12000,
          11200,
          10575,
          10025,
          9250,
          8000,
          7200,
          7025,
          7000,
          7000,
          7000,
          6925,
          6450,
          5925,
          5550,
          5225,
          5175,
          5150,
          4925,
          4875,
          4700,
          4475,
          4175,
          3850,
          3550,
          3250,
          3075,
          2725,
          2500,
          2225,
          1975,
          1725,
          1600,
          1575,
          1475,
          1325,
          1150,
          1000,
          850,
          675,
          475
        ],
        "vertical_rate_fpm": [
          0.0,
          3469.0,
          3000.0,
          2813.0,
          3234.0,
          3682.0,
          3729.0,
          3986.0,
          4286.0,
          4402.0,
          4529.0,
          4300.0,
          3612.0,
          2654.0,
          2527.0,
          2577.0,
          2603.0,
          2494.0,
          2521.0,
          2793.0,
          2908.0,
          2745.0,
          2531.0,
          2432.0,
          2357.0,
          1883.0,
          1515.0,
          938.0,
          770.0,
          771.0,
          750.0,
          750.0,
          1047.0,
          1171.0,
          1194.0,
          1191.0,
          825.0,
          250.0,
          25.0,
          0.0,
          0.0,
          0.0,
          0.0,
          0.0,
          0.0,
          0.0,
          0.0,
          0.0,
          0.0,
          0.0,
          0.0,
          0.0,
          0.0,
          0.0,
          0.0,
          0.0,
          0.0,
          0.0,
          0.0,
          0.0,
          0.0,
          0.0,
          0.0,
          0.0,
          0.0,
          0.0,
          0.0,
          0.0,
          0.0,
          0.0,
          0.0,
          0.0,
          0.0,
          0.0,
          0.0,
          0.0,
          -277.0,
          -750.0,
          -1500.0,
          -1554.0,
          -1554.0,
          -1500.0,
          -1473.0,
          -1400.0,
          -1125.0,
          -750.0,
          -325.0,
          -25.0,
          0.0,
          0.0,
          0.0,
          0.0,
          0.0,
          -148.0,
          -1010.0,
          -1450.0,
          -1125.0,
          -1075.0,
          -1650.0,
          -2025.0,
          -2310.0,
          -2510.0,
          -2417.0,
          -2507.0,
          -2550.0,
          -2466.0,
          -2492.0,
          -2025.0,
          -1563.0,
          -1469.0,
          -1450.0,
          -1550.0,
          -1500.0,
          -1500.0,
          -1539.0,
          -1581.0,
          -1929.0,
          -2028.0,
          -1831.0,
          -1676.0,
          -1602.0,
          -1529.0,
          -1500.0,
          -1519.0,
          -1147.0,
          -240.0,
          -25.0,
          0.0,
          -125.0,
          -673.0,
          -1000.0,
          -1174.0,
          -1050.0,
          -459.0,
          -110.0,
          -441.0,
          -750.0,
          -844.0,
          -857.0,
          -984.0,
          -1172.0,
          -1172.0,
          -1125.0,
          -891.0,
          -984.0,
          -1078.0,
          -789.0,
          -750.0,
          -789.0,
          -750.0,
          -563.0,
          -375.0,
          -469.0,
          -609.0,
          -609.0,
          -563.0,
          -609.0,
          -682.0,
          -706.0
        ]
      }
    }
  ]
}