{
  "type": "FeatureCollection",
  "features": [
    {
      "type": "Feature",
      "geometry": {
        "type": "LineString",
        "coordinates": [
          [
            18.251,
            42.5684
          ],
          [
            18.2326,
            42.5762
          ],
          [
            18.2134,
            42.5845
          ],
          [
            18.1921,
            42.5934
          ],
          [
            18.1655,
            42.6043
          ],
          [
            18.1379,
            42.6143
          ],
          [
            18.1089,
            42.6231
          ],
          [
            18.0874,
            42.6295
          ],
          [
            18.0658,
            42.6365
          ],
          [
            18.0316,
            42.648
          ],
          [
            17.9876,
            42.6617
          ],
          [
            17.942,
            42.6763
          ],
          [
            17.8925,
            42.692
          ],
          [
            17.8403,
            42.7086
          ],
          [
            17.8043,
            42.7203
          ],
          [
            17.7735,
            42.7343
          ],
          [
            17.7239,
            42.7626
          ],
          [
            17.6738,
            42.7928
          ],
          [
            17.6216,
            42.8233
          ],
          [
            17.5673,
            42.8542
          ],
          [
            17.5115,
            42.8859
          ],
          [
            17.4563,
            42.9172
          ],
          [
            17.3997,
            42.9494
          ],
          [
            17.3398,
            42.9833
          ],
          [
            17.2804,
            43.0171
          ],
          [
            17.2207,
            43.0504
          ],
          [
            17.1592,
            43.0853
          ],
          [
            17.0958,
            43.1207
          ],
          [
            17.0312,
            43.1568
          ],
          [
            16.9644,
            43.1939
          ],
          [
            16.8983,
            43.2312
          ],
          [
            16.8303,
            43.2686
          ],
          [
            16.7606,
            43.3073
          ],
          [
            16.6823,
            43.3508
          ],
          [
            16.6164,
            43.3868
          ],
          [
            16.5453,
            43.4262
          ],
          [
            16.4774,
            43.4633
          ],
          [
            16.408,
            43.5013
          ],
          [
            16.3369,
            43.5399
          ],
          [
            16.2684,
            43.5777
          ],
          [
            16.2192,
            43.6046
          ],
          [
            16.15,
            43.642
          ],
          [
            16.0793,
            43.6799
          ],
          [
            16.011,
            43.7173
          ],
          [
            15.9433,
            43.7535
          ],
          [
            15.8718,
            43.7922
          ],
          [
            15.7995,
            43.8306
          ],
          [
            15.733,
            43.8668
          ],
          [
            15.6641,
            43.9031
          ],
          [
            15.5919,
            43.9417
          ],
          [
            15.5269,
            43.9765
          ],
          [
            15.4599,
            44.012
          ],
          [
            15.3918,
            44.0477
          ],
          [
            15.3279,
            44.0818
          ],
          [
            15.2561,
            44.1189
          ],
          [
            15.1877,
            44.1556
          ],
          [
            15.1165,
            44.1925
          ],
          [
            15.0761,
            44.2135
          ],
          [
            15.0072,
            44.2497
          ],
          [
            14.9352,
            44.2873
          ],
          [
            14.8632,
            44.3245
          ],
          [
            14.7937,
            44.3608
          ],
          [
            14.7223,
            44.3974
          ],
          [
            14.6497,
            44.435
          ],
          [
            14.5982,
            44.4614
          ],
          [
            14.5224,
            44.5003
          ],
          [
            14.4591,
            44.5329
          ],
          [
            14.3886,
            44.5689
          ],
          [
            14.3144,
            44.6069
          ],
          [
            14.2435,
            44.6427
          ],
          [
            14.1677,
            44.6814
          ],
          [
            14.0953,
            44.7177
          ],
          [
            14.0184,
            44.7569
          ],
          [
            13.9452,
            44.7937
          ],
          [
            13.869,
            44.8318
          ],
          [
            13.7972,
            44.8676
          ],
          [
            13.7246,
            44.9041
          ],
          [
            13.6501,
            44.9411
          ],
          [
            13.5772,
            44.9771
          ],
          [
            13.5066,
            45.0122
          ],
          [
            13.4327,
            45.0492
          ],
          [
            13.3605,
            45.0846
          ],
          [
            13.2868,
            45.1204
          ],
          [
            13.2389,
            45.1498
          ],
          [
            13.1843,
            45.1959
          ],
          [
            13.1538,
            45.2244
          ],
          [
            13.1047,
            45.2711
          ],
          [
            13.0505,
            45.3207
          ],
          [
            12.9963,
            45.3701
          ],
          [
            12.9437,
            45.4187
          ],
          [
            12.8911,
            45.4665
          ],
          [
            12.8251,
            45.5266
          ],
          [
            12.7715,
            45.5746
          ],
          [
            12.7188,
            45.6233
          ],
          [
            12.6661,
            45.6704
          ],
          [
            12.6157,
            45.7158
          ],
          [
            12.5616,
            45.7644
          ],
          [
            12.5113,
            45.8097
          ],
          [
            12.4569,
            45.8578
          ],
          [
            12.4014,
            45.9082
          ],
          [
            12.3488,
            45.9547
          ],
          [
            12.2954,
            46.0023
          ],
          [
            12.2449,
            46.0425
          ],
          [
            12.1864,
            46.0846
          ],
          [
            12.1251,
            46.1287
          ],
          [
            12.0646,
            46.1722
          ],
          [
            12.0066,
            46.2144
          ],
          [
            11.9454,
            46.2585
          ],
          [
            11.8875,
            46.3002
          ],
          [
            11.825,
            46.3447
          ],
          [
            11.7681,
            46.3859
          ],
          [
            11.7078,
            46.4287
          ],
          [
            11.6487,
            46.4714
          ],
          [
            11.5884,
            46.514
          ],
          [
            11.5268,
            46.5577
          ],
          [
            11.4671,
            46.5999
          ],
          [
            11.4167,
            46.6356
          ],
          [
            11.3527,
            46.681
          ],
          [
            11.2965,
            46.7202
          ],
          [
            11.2376,
            46.7619
          ],
          [
            11.1767,
            46.8044
          ],
          [
            11.1173,
            46.8448
          ],
          [
            11.0608,
            46.8826
          ],
          [
            11.0003,
            46.9242
          ],
          [
            10.9422,
            46.9629
          ],
          [
            10.8832,
            47.0025
          ],
          [
            10.8226,
            47.0429
          ],
          [
            10.7637,
            47.0824
          ],
          [
            10.7048,
            47.1219
          ],
          [
            10.664,
            47.1487
          ],
          [
            10.6041,
            47.189
          ],
          [
            10.532,
            47.236
          ],
          [
            10.4723,
            47.2761
          ],
          [
            10.4115,
            47.3158
          ],
          [
            10.3523,
            47.3554
          ],
          [
            10.3225,
            47.3744
          ],
          [
            10.2625,
            47.4138
          ],
          [
            10.2031,
            47.4531
          ],
          [
            10.1428,
            47.4924
          ],
          [
            10.1034,
            47.5179
          ],
          [
            10.0651,
            47.5424
          ],
          [
            10.0092,
            47.5793
          ],
          [
            9.9461,
            47.6198
          ],
          [
            9.8837,
            47.6605
          ],
          [
            9.8415,
            47.6871
          ],
          [
            9.7922,
            47.7196
          ],
          [
            9.7252,
            47.7624
          ],
          [
            9.6713,
            47.7969
          ],
          [
            9.6342,
            47.8204
          ],
          [
            9.5837,
            47.8532
          ],
          [
            9.529,
            47.8876
          ],
          [
            9.4647,
            47.9287
          ],
          [
            9.4106,
            47.9631
          ],
          [
            9.3522,
            48.0001
          ],
          [
            9.2951,
            48.036
          ],
          [
            9.2523,
            48.0635
          ],
          [
            9.1612,
            48.1209
          ],
          [
            9.1221,
            48.1449
          ],
          [
            9.0596,
            48.1843
          ],
          [
            8.9983,
            48.2227
          ],
          [
            8.9653,
            48.2431
          ],
          [
            8.93,
            48.2647
          ],
          [
            8.8358,
            48.3235
          ],
          [
            8.7902,
            48.3522
          ],
          [
            8.7311,
            48.3881
          ],
          [
            8.6601,
            48.4324
          ],
          [
            8.6082,
            48.4639
          ],
          [
            8.4693,
            48.5457
          ],
          [
            8.4177,
            48.581
          ],
          [
            8.3782,
            48.6048
          ],
          [
            8.3333,
            48.6326
          ],
          [
            8.294,
            48.656
          ],
          [
            8.2252,
            48.6985
          ],
          [
            8.1639,
            48.7348
          ],
          [
            8.1011,
            48.7732
          ],
          [
            8.0366,
            48.8115
          ],
          [
            7.9678,
            48.8535
          ],
          [
            7.9208,
            48.8815
          ],
          [
            7.8559,
            48.9205
          ],
          [
            7.7916,
            48.9582
          ],
          [
            7.728,
            48.9967
          ],
          [
            7.6659,
            49.0332
          ],
          [
            7.6024,
            49.0715
          ],
          [
            7.537,
            49.1091
          ],
          [
            7.4434,
            49.1649
          ],
          [
            7.3794,
            49.202
          ],
          [
            7.3393,
            49.2256
          ],
          [
            7.2813,
            49.26
          ],
          [
            7.2197,
            49.2959
          ],
          [
            7.1558,
            49.3327
          ],
          [
            7.0893,
            49.372
          ],
          [
            7.0195,
            49.4121
          ],
          [
            6.9538,
            49.4496
          ],
          [
            6.8876,
            49.4882
          ],
          [
            6.8469,
            49.5093
          ],
          [
            6.8049,
            49.5299
          ],
          [
            6.7317,
            49.5639
          ],
          [
            6.6551,
            49.601
          ],
          [
            6.6171,
            49.6198
          ],
          [
            6.5668,
            49.6441
          ],
          [
            6.495,
            49.6783
          ],
          [
            6.4203,
            49.714
          ],
          [
            6.349,
            49.7482
          ],
          [
            6.2919,
            49.7754
          ],
          [
            6.2175,
            49.8109
          ],
          [
            6.1452,
            49.8448
          ],
          [
            6.0719,
            49.8792
          ],
          [
            5.9967,
            49.9155
          ],
          [
            5.9349,
            49.9438
          ],
          [
            5.8489,
            49.9845
          ],
          [
            5.7719,
            50.0205
          ],
          [
            5.6982,
            50.055
          ],
          [
            5.6284,
            50.0874
          ],
          [
            5.5608,
            50.1185
          ],
          [
            5.4886,
            50.1521
          ],
          [
            5.4252,
            50.1813
          ],
          [
            5.3578,
            50.2117
          ],
          [
            5.2843,
            50.2406
          ],
          [
            5.232,
            50.2601
          ],
          [
            5.1523,
            50.2911
          ],
          [
            5.078,
            50.3203
          ],
          [
            5.0007,
            50.3498
          ],
          [
            4.9019,
            50.3882
          ],
          [
            4.8093,
            50.4234
          ],
          [
            4.7055,
            50.46
          ],
          [
            4.6234,
            50.4898
          ],
          [
            4.5479,
            50.5169
          ],
          [
            4.4919,
            50.537
          ],
          [
            4.4317,
            50.5579
          ],
          [
            4.3538,
            50.5859
          ],
          [
            4.2783,
            50.6127
          ],
          [
            4.2175,
            50.6337
          ],
          [
            4.1522,
            50.6568
          ],
          [
            4.0768,
            50.6832
          ],
          [
            4.0181,
            50.7037
          ],
          [
            3.939,
            50.7314
          ],
          [
            3.892,
            50.7479
          ],
          [
            3.8106,
            50.7756
          ],
          [
            3.7561,
            50.795
          ],
          [
            3.6814,
            50.8208
          ],
          [
            3.609,
            50.8452
          ],
          [
            3.5326,
            50.8715
          ],
          [
            3.4834,
            50.8888
          ],
          [
            3.4081,
            50.9143
          ],
          [
            3.296,
            50.9522
          ],
          [
            3.2139,
            50.9804
          ],
          [
            3.1753,
            50.9931
          ],
          [
            3.1248,
            51.0099
          ],
          [
            3.0438,
            51.0371
          ],
          [
            2.9689,
            51.0629
          ],
          [
            2.8896,
            51.0892
          ],
          [
            2.8172,
            51.113
          ],
          [
            2.7383,
            51.1393
          ],
          [
            2.6603,
            51.1654
          ],
          [
            2.6112,
            51.1812
          ],
          [
            2.5292,
            51.2086
          ],
          [
            2.4515,
            51.2339
          ],
          [
            2.3517,
            51.2667
          ],
          [
            2.2718,
            51.2927
          ],
          [
            2.186,
            51.3208
          ],
          [
            2.0933,
            51.3522
          ],
          [
            2.0473,
            51.3711
          ],
          [
            1.9833,
            51.3995
          ],
          [
            1.93,
            51.4222
          ],
          [
            1.8218,
            51.4668
          ],
          [
            1.7406,
            51.5012
          ],
          [
            1.6865,
            51.5235
          ],
          [
            1.6183,
            51.5523
          ],
          [
            1.5678,
            51.5727
          ],
          [
            1.5067,
            51.5984
          ],
          [
            1.3746,
            51.6527
          ],
          [
            1.2986,
            51.6842
          ],
          [
            1.2516,
            51.7031
          ],
          [
            1.1739,
            51.7354
          ],
          [
            1.0666,
            51.7788
          ],
          [
            0.9853,
            51.812
          ],
          [
            0.9079,
            51.843
          ],
          [
            0.8581,
            51.8632
          ],
          [
            0.7787,
            51.8953
          ],
          [
            0.7173,
            51.92
          ],
          [
            0.6566,
            51.9437
          ],
          [
            0.6097,
            51.9586
          ],
          [
            0.5506,
            51.9758
          ],
          [
            0.4819,
            51.9948
          ],
          [
            0.3694,
            52.0265
          ],
          [
            0.2823,
            52.0513
          ],
          [
            0.2426,
            52.063
          ],
          [
            0.1561,
            52.0874
          ],
          [
            0.0732,
            52.1109
          ],
          [
            -0.012,
            52.1339
          ],
          [
            -0.0956,
            52.157
          ],
          [
            -0.17,
            52.179
          ],
          [
            -0.2495,
            52.2029
          ],
          [
            -0.3029,
            52.2232
          ],
          [
            -0.3561,
            52.246
          ],
          [
            -0.4583,
            52.2898
          ],
          [
            -0.5291,
            52.3191
          ],
          [
            -0.5995,
            52.3485
          ],
          [
            -0.6699,
            52.3779
          ],
          [
            -0.7077,
            52.3937
          ],
          [
            -0.8057,
            52.4355
          ],
          [
            -0.8634,
            52.4602
          ],
          [
            -0.901,
            52.4756
          ],
          [
            -1.0689,
            52.5418
          ],
          [
            -1.1452,
            52.5739
          ],
          [
            -1.2191,
            52.6035
          ],
          [
            -1.2629,
            52.6219
          ],
          [
            -1.3129,
            52.6416
          ],
          [
            -1.4017,
            52.6774
          ],
          [
            -1.4637,
            52.7028
          ],
          [
            -1.5594,
            52.7409
          ],
          [
            -1.6579,
            52.7811
          ],
          [
            -1.7088,
            52.8004
          ],
          [
            -1.7769,
            52.8284
          ],
          [
            -1.8436,
            52.8541
          ],
          [
            -1.9043,
            52.879
          ],
          [
            -1.9996,
            52.9163
          ],
          [
            -2.0541,
            52.9434
          ],
          [
            -2.1027,
            52.9699
          ],
          [
            -2.1433,
            52.9924
          ],
          [
            -2.2203,
            53.0359
          ],
          [
            -2.2745,
            53.0679
          ],
          [
            -2.3444,
            53.1109
          ],
          [
            -2.3812,
            53.1335
          ],
          [
            -2.4175,
            53.1419
          ],
          [
            -2.456,
            53.1434
          ],
          [
            -2.496,
            53.1441
          ],
          [
            -2.5296,
            53.1456
          ],
          [
            -2.5892,
            53.1497
          ],
          [
            -2.6328,
            53.1535
          ],
          [
            -2.6832,
            53.1571
          ],
          [
            -2.7207,
            53.1599
          ],
          [
            -2.7755,
            53.1639
          ],
          [
            -2.8302,
            53.1681
          ],
          [
            -2.8834,
            53.1723
          ],
          [
            -2.9144,
            53.1756
          ],
          [
            -2.9384,
            53.1845
          ],
          [
            -2.9521,
            53.1912
          ],
          [
            -2.9615,
            53.1959
          ],
          [
            -2.9856,
            53.2077
          ],
          [
            -3.0108,
            53.2198
          ],
          [
            -3.0328,
            53.2302
          ],
          [
            -3.0617,
            53.2448
          ],
          [
            -3.0715,
            53.2622
          ],
          [
            -3.0635,
            53.2775
          ],
          [
            -3.0358,
            53.2987
          ],
          [
            -3.0118,
            53.3096
          ],
          [
            -2.98,
            53.3132
          ],
          [
            -2.9654,
            53.3141
          ],
          [
            -2.9513,
            53.3149
          ],
          [
            -2.9217,
            53.3165
          ],
          [
            -2.8951,
            53.3177
          ],
          [
            -2.8712,
            53.3135
          ],
          [
            -2.8483,
            53.3051
          ],
          [
            -2.8357,
            53.2942
          ],
          [
            -2.8339,
            53.2815
          ],
          [
            -2.8446,
            53.2707
          ],
          [
            -2.8581,
            53.2617
          ],
          [
            -2.8756,
            53.2492
          ],
          [
            -2.8971,
            53.2337
          ],
          [
            -2.9087,
            53.2255
          ],
          [
            -2.9172,
            53.2198
          ],
          [
            -2.9267,
            53.2131
          ],
          [
            -2.936,
            53.2067
          ],
          [
            -2.946,
            53.1999
          ],
          [
            -2.9556,
            53.1933
          ],
          [
            -2.9657,
            53.1864
          ]
        ]
      },
      "properties": {
        "time_europe_berlin": [
          "31.10.2025 16:24:15",
          "31.10.2025 16:24:35",
          "31.10.2025 16:24:55",
          "31.10.2025 16:25:15",
          "31.10.2025 16:25:38",
          "31.10.2025 16:26:01",
          "31.10.2025 16:26:23",
          "31.10.2025 16:26:39",
          "31.10.2025 16:26:55",
          "31.10.2025 16:27:20",
          "31.10.2025 16:27:51",
          "31.10.2025 16:28:21",
          "31.10.2025 16:28:51",
          "31.10.2025 16:29:22",
          "31.10.2025 16:29:41",
          "31.10.2025 16:29:59",
          "31.10.2025 16:30:29",
          "31.10.2025 16:30:59",
          "31.10.2025 16:31:29",
          "31.10.2025 16:31:59",
          "31.10.2025 16:32:30",
          "31.10.2025 16:33:00",
          "31.10.2025 16:33:30",
          "31.10.2025 16:34:00",
          "31.10.2025 16:34:30",
          "31.10.2025 16:35:00",
          "31.10.2025 16:35:30",
          "31.10.2025 16:36:00",
          "31.10.2025 16:36:30",
          "31.10.2025 16:37:00",
          "31.10.2025 16:37:30",
          "31.10.2025 16:38:00",
          "31.10.2025 16:38:30",
          "31.10.2025 16:39:03",
          "31.10.2025 16:39:33",
          "31.10.2025 16:40:04",
          "31.10.2025 16:40:34",
          "31.10.2025 16:41:04",
          "31.10.2025 16:41:34",
          "31.10.2025 16:42:04",
          "31.10.2025 16:42:25",
          "31.10.2025 16:42:55",
          "31.10.2025 16:43:25",
          "31.10.2025 16:43:55",
          "31.10.2025 16:44:25",
          "31.10.2025 16:44:55",
          "31.10.2025 16:45:26",
          "31.10.2025 16:45:56",
          "31.10.2025 16:46:27",
          "31.10.2025 16:46:57",
          "31.10.2025 16:47:27",
          "31.10.2025 16:47:57",
          "31.10.2025 16:48:27",
          "31.10.2025 16:48:56",
          "31.10.2025 16:49:27",
          "31.10.2025 16:49:57",
          "31.10.2025 16:50:27",
          "31.10.2025 16:50:44",
          "31.10.2025 16:51:14",
          "31.10.2025 16:51:44",
          "31.10.2025 16:52:14",
          "31.10.2025 16:52:44",
          "31.10.2025 16:53:14",
          "31.10.2025 16:53:44",
          "31.10.2025 16:54:05",
          "31.10.2025 16:54:37",
          "31.10.2025 16:55:04",
          "31.10.2025 16:55:34",
          "31.10.2025 16:56:04",
          "31.10.2025 16:56:34",
          "31.10.2025 16:57:05",
          "31.10.2025 16:57:35",
          "31.10.2025 16:58:07",
          "31.10.2025 16:58:38",
          "31.10.2025 16:59:09",
          "31.10.2025 16:59:39",
          "31.10.2025 17:00:09",
          "31.10.2025 17:00:40",
          "31.10.2025 17:01:10",
          "31.10.2025 17:01:40",
          "31.10.2025 17:02:10",
          "31.10.2025 17:02:41",
          "31.10.2025 17:03:11",
          "31.10.2025 17:03:33",
          "31.10.2025 17:04:03",
          "31.10.2025 17:04:19",
          "31.10.2025 17:04:49",
          "31.10.2025 17:05:19",
          "31.10.2025 17:05:49",
          "31.10.2025 17:06:19",
          "31.10.2025 17:06:49",
          "31.10.2025 17:07:28",
          "31.10.2025 17:07:58",
          "31.10.2025 17:08:28",
          "31.10.2025 17:08:58",
          "31.10.2025 17:09:28",
          "31.10.2025 17:09:58",
          "31.10.2025 17:10:28",
          "31.10.2025 17:10:58",
          "31.10.2025 17:11:29",
          "31.10.2025 17:11:59",
          "31.10.2025 17:12:29",
          "31.10.2025 17:12:55",
          "31.10.2025 17:13:25",
          "31.10.2025 17:13:55",
          "31.10.2025 17:14:25",
          "31.10.2025 17:14:55",
          "31.10.2025 17:15:25",
          "31.10.2025 17:15:55",
          "31.10.2025 17:16:25",
          "31.10.2025 17:16:55",
          "31.10.2025 17:17:25",
          "31.10.2025 17:17:55",
          "31.10.2025 17:18:25",
          "31.10.2025 17:18:55",
          "31.10.2025 17:19:25",
          "31.10.2025 17:19:51",
          "31.10.2025 17:20:22",
          "31.10.2025 17:20:52",
          "31.10.2025 17:21:22",
          "31.10.2025 17:21:52",
          "31.10.2025 17:22:22",
          "31.10.2025 17:22:52",
          "31.10.2025 17:23:22",
          "31.10.2025 17:23:52",
          "31.10.2025 17:24:22",
          "31.10.2025 17:24:52",
          "31.10.2025 17:25:22",
          "31.10.2025 17:25:52",
          "31.10.2025 17:26:13",
          "31.10.2025 17:26:43",
          "31.10.2025 17:27:19",
          "31.10.2025 17:27:49",
          "31.10.2025 17:28:19",
          "31.10.2025 17:28:49",
          "31.10.2025 17:29:05",
          "31.10.2025 17:29:35",
          "31.10.2025 17:30:05",
          "31.10.2025 17:30:35",
          "31.10.2025 17:30:55",
          "31.10.2025 17:31:14",
          "31.10.2025 17:31:44",
          "31.10.2025 17:32:14",
          "31.10.2025 17:32:44",
          "31.10.2025 17:33:06",
          "31.10.2025 17:33:34",
          "31.10.2025 17:34:04",
          "31.10.2025 17:34:32",
          "31.10.2025 17:34:49",
          "31.10.2025 17:35:14",
          "31.10.2025 17:35:40",
          "31.10.2025 17:36:12",
          "31.10.2025 17:36:38",
          "31.10.2025 17:37:06",
          "31.10.2025 17:37:34",
          "31.10.2025 17:37:56",
          "31.10.2025 17:38:40",
          "31.10.2025 17:38:58",
          "31.10.2025 17:39:28",
          "31.10.2025 17:39:58",
          "31.10.2025 17:40:14",
          "31.10.2025 17:40:31",
          "31.10.2025 17:41:16",
          "31.10.2025 17:41:39",
          "31.10.2025 17:42:08",
          "31.10.2025 17:42:41",
          "31.10.2025 17:43:07",
          "31.10.2025 17:44:12",
          "31.10.2025 17:44:38",
          "31.10.2025 17:44:56",
          "31.10.2025 17:45:18",
          "31.10.2025 17:45:36",
          "31.10.2025 17:46:08",
          "31.10.2025 17:46:38",
          "31.10.2025 17:47:08",
          "31.10.2025 17:47:38",
          "31.10.2025 17:48:10",
          "31.10.2025 17:48:32",
          "31.10.2025 17:49:02",
          "31.10.2025 17:49:32",
          "31.10.2025 17:50:02",
          "31.10.2025 17:50:31",
          "31.10.2025 17:51:00",
          "31.10.2025 17:51:30",
          "31.10.2025 17:52:13",
          "31.10.2025 17:52:43",
          "31.10.2025 17:53:01",
          "31.10.2025 17:53:27",
          "31.10.2025 17:53:54",
          "31.10.2025 17:54:24",
          "31.10.2025 17:54:54",
          "31.10.2025 17:55:24",
          "31.10.2025 17:55:54",
          "31.10.2025 17:56:22",
          "31.10.2025 17:56:40",
          "31.10.2025 17:56:58",
          "31.10.2025 17:57:29",
          "31.10.2025 17:58:00",
          "31.10.2025 17:58:16",
          "31.10.2025 17:58:38",
          "31.10.2025 17:59:08",
          "31.10.2025 17:59:38",
          "31.10.2025 18:00:08",
          "31.10.2025 18:00:32",
          "31.10.2025 18:01:02",
          "31.10.2025 18:01:32",
          "31.10.2025 18:02:02",
          "31.10.2025 18:02:33",
          "31.10.2025 18:02:58",
          "31.10.2025 18:03:34",
          "31.10.2025 18:04:05",
          "31.10.2025 18:04:35",
          "31.10.2025 18:05:05",
          "31.10.2025 18:05:32",
          "31.10.2025 18:06:02",
          "31.10.2025 18:06:28",
          "31.10.2025 18:06:55",
          "31.10.2025 18:07:25",
          "31.10.2025 18:07:46",
          "31.10.2025 18:08:16",
          "31.10.2025 18:08:46",
          "31.10.2025 18:09:16",
          "31.10.2025 18:09:55",
          "31.10.2025 18:10:32",
          "31.10.2025 18:11:12",
          "31.10.2025 18:11:42",
          "31.10.2025 18:12:12",
          "31.10.2025 18:12:35",
          "31.10.2025 18:12:58",
          "31.10.2025 18:13:28",
          "31.10.2025 18:13:58",
          "31.10.2025 18:14:21",
          "31.10.2025 18:14:47",
          "31.10.2025 18:15:17",
          "31.10.2025 18:15:41",
          "31.10.2025 18:16:11",
          "31.10.2025 18:16:32",
          "31.10.2025 18:17:02",
          "31.10.2025 18:17:23",
          "31.10.2025 18:17:53",
          "31.10.2025 18:18:23",
          "31.10.2025 18:18:53",
          "31.10.2025 18:19:12",
          "31.10.2025 18:19:42",
          "31.10.2025 18:20:27",
          "31.10.2025 18:20:57",
          "31.10.2025 18:21:14",
          "31.10.2025 18:21:33",
          "31.10.2025 18:22:04",
          "31.10.2025 18:22:34",
          "31.10.2025 18:23:04",
          "31.10.2025 18:23:31",
          "31.10.2025 18:24:01",
          "31.10.2025 18:24:31",
          "31.10.2025 18:24:49",
          "31.10.2025 18:25:20",
          "31.10.2025 18:25:50",
          "31.10.2025 18:26:27",
          "31.10.2025 18:26:57",
          "31.10.2025 18:27:27",
          "31.10.2025 18:28:03",
          "31.10.2025 18:28:22",
          "31.10.2025 18:28:47",
          "31.10.2025 18:29:07",
          "31.10.2025 18:29:50",
          "31.10.2025 18:30:21",
          "31.10.2025 18:30:43",
          "31.10.2025 18:31:08",
          "31.10.2025 18:31:28",
          "31.10.2025 18:31:51",
          "31.10.2025 18:32:41",
          "31.10.2025 18:33:11",
          "31.10.2025 18:33:28",
          "31.10.2025 18:33:58",
          "31.10.2025 18:34:39",
          "31.10.2025 18:35:09",
          "31.10.2025 18:35:39",
          "31.10.2025 18:35:58",
          "31.10.2025 18:36:28",
          "31.10.2025 18:36:51",
          "31.10.2025 18:37:14",
          "31.10.2025 18:37:30",
          "31.10.2025 18:37:51",
          "31.10.2025 18:38:15",
          "31.10.2025 18:38:55",
          "31.10.2025 18:39:25",
          "31.10.2025 18:39:41",
          "31.10.2025 18:40:11",
          "31.10.2025 18:40:39",
          "31.10.2025 18:41:09",
          "31.10.2025 18:41:39",
          "31.10.2025 18:42:05",
          "31.10.2025 18:42:34",
          "31.10.2025 18:42:56",
          "31.10.2025 18:43:17",
          "31.10.2025 18:44:00",
          "31.10.2025 18:44:29",
          "31.10.2025 18:44:59",
          "31.10.2025 18:45:29",
          "31.10.2025 18:45:46",
          "31.10.2025 18:46:25",
          "31.10.2025 18:46:47",
          "31.10.2025 18:47:03",
          "31.10.2025 18:48:08",
          "31.10.2025 18:48:40",
          "31.10.2025 18:49:10",
          "31.10.2025 18:49:28",
          "31.10.2025 18:49:49",
          "31.10.2025 18:50:29",
          "31.10.2025 18:50:59",
          "31.10.2025 18:51:43",
          "31.10.2025 18:52:26",
          "31.10.2025 18:52:48",
          "31.10.2025 18:53:18",
          "31.10.2025 18:53:46",
          "31.10.2025 18:54:13",
          "31.10.2025 18:54:53",
          "31.10.2025 18:55:18",
          "31.10.2025 18:55:42",
          "31.10.2025 18:56:02",
          "31.10.2025 18:56:41",
          "31.10.2025 18:57:11",
          "31.10.2025 18:57:53",
          "31.10.2025 18:58:16",
          "31.10.2025 18:58:36",
          "31.10.2025 18:58:57",
          "31.10.2025 18:59:19",
          "31.10.2025 18:59:37",
          "31.10.2025 19:00:07",
          "31.10.2025 19:00:29",
          "31.10.2025 19:00:59",
          "31.10.2025 19:01:20",
          "31.10.2025 19:01:50",
          "31.10.2025 19:02:20",
          "31.10.2025 19:02:50",
          "31.10.2025 19:03:06",
          "31.10.2025 19:03:22",
          "31.10.2025 19:03:31",
          "31.10.2025 19:03:38",
          "31.10.2025 19:03:54",
          "31.10.2025 19:04:10",
          "31.10.2025 19:04:26",
          "31.10.2025 19:04:46",
          "31.10.2025 19:05:04",
          "31.10.2025 19:05:20",
          "31.10.2025 19:05:44",
          "31.10.2025 19:06:01",
          "31.10.2025 19:06:19",
          "31.10.2025 19:06:27",
          "31.10.2025 19:06:35",
          "31.10.2025 19:06:51",
          "31.10.2025 19:07:07",
          "31.10.2025 19:07:23",
          "31.10.2025 19:07:39",
          "31.10.2025 19:07:55",
          "31.10.2025 19:08:11",
          "31.10.2025 19:08:27",
          "31.10.2025 19:08:43",
          "31.10.2025 19:09:05",
          "31.10.2025 19:09:35",
          "31.10.2025 19:09:51",
          "31.10.2025 19:10:07",
          "31.10.2025 19:10:23",
          "31.10.2025 19:10:39",
          "31.10.2025 19:10:55",
          "31.10.2025 19:11:11",
          "31.10.2025 19:11:27"
        ],
        "course_deg_clockwise_from_north": [
          "300",
          "300",
          "300",
          "299",
          "299",
          "294",
          "292",
          "293",
          "294",
          "294",
          "293",
          "293",
          "293",
          "294",
          "297",
          "304",
          "309",
          "309",
          "308",
          "308",
          "308",
          "308",
          "307",
          "309",
          "308",
          "307",
          "307",
          "307",
          "307",
          "308",
          "307",
          "308",
          "307",
          "308",
          "307",
          "307",
          "306",
          "307",
          "307",
          "308",
          "306",
          "308",
          "306",
          "307",
          "307",
          "307",
          "306",
          "307",
          "307",
          "306",
          "306",
          "306",
          "307",
          "306",
          "307",
          "306",
          "305",
          "306",
          "305",
          "307",
          "306",
          "305",
          "307",
          "305",
          "306",
          "305",
          "307",
          "305",
          "305",
          "306",
          "305",
          "305",
          "305",
          "305",
          "306",
          "305",
          "305",
          "306",
          "305",
          "305",
          "305",
          "305",
          "305",
          "317",
          "322",
          "323",
          "323",
          "322",
          "322",
          "322",
          "323",
          "323",
          "322",
          "322",
          "322",
          "322",
          "322",
          "322",
          "322",
          "322",
          "322",
          "322",
          "317",
          "315",
          "316",
          "317",
          "316",
          "316",
          "316",
          "316",
          "316",
          "316",
          "316",
          "316",
          "316",
          "316",
          "318",
          "316",
          "315",
          "316",
          "316",
          "315",
          "314",
          "314",
          "315",
          "313",
          "316",
          "313",
          "315",
          "315",
          "315",
          "314",
          "314",
          "315",
          "313",
          "314",
          "314",
          "314",
          "315",
          "313",
          "314",
          "314",
          "314",
          "313",
          "314",
          "313",
          "314",
          "313",
          "315",
          "313",
          "314",
          "312",
          "314",
          "313",
          "314",
          "315",
          "313",
          "312",
          "313",
          "313",
          "312",
          "313",
          "313",
          "313",
          "313",
          "312",
          "313",
          "313",
          "312",
          "313",
          "312",
          "312",
          "313",
          "314",
          "312",
          "313",
          "311",
          "313",
          "312",
          "312",
          "312",
          "313",
          "312",
          "312",
          "312",
          "311",
          "313",
          "311",
          "312",
          "312",
          "311",
          "312",
          "312",
          "311",
          "308",
          "306",
          "307",
          "307",
          "308",
          "306",
          "307",
          "307",
          "306",
          "307",
          "306",
          "306",
          "306",
          "306",
          "306",
          "306",
          "307",
          "306",
          "305",
          "306",
          "307",
          "306",
          "303",
          "300",
          "301",
          "301",
          "301",
          "301",
          "301",
          "300",
          "299",
          "300",
          "300",
          "299",
          "299",
          "299",
          "298",
          "299",
          "299",
          "299",
          "299",
          "299",
          "299",
          "299",
          "299",
          "298",
          "299",
          "300",
          "298",
          "298",
          "298",
          "299",
          "297",
          "299",
          "298",
          "299",
          "298",
          "298",
          "297",
          "298",
          "297",
          "297",
          "297",
          "298",
          "297",
          "297",
          "302",
          "305",
          "305",
          "304",
          "304",
          "303",
          "304",
          "303",
          "304",
          "304",
          "303",
          "303",
          "303",
          "304",
          "303",
          "304",
          "303",
          "304",
          "304",
          "302",
          "299",
          "295",
          "294",
          "295",
          "295",
          "295",
          "296",
          "295",
          "294",
          "294",
          "295",
          "297",
          "298",
          "304",
          "306",
          "304",
          "304",
          "304",
          "305",
          "304",
          "305",
          "305",
          "303",
          "305",
          "303",
          "305",
          "304",
          "304",
          "303",
          "304",
          "303",
          "302",
          "303",
          "303",
          "304",
          "302",
          "305",
          "312",
          "312",
          "312",
          "314",
          "315",
          "316",
          "309",
          "280",
          "271",
          "272",
          "276",
          "277",
          "278",
          "276",
          "278",
          "277",
          "277",
          "278",
          "285",
          "308",
          "309",
          "310",
          "309",
          "308",
          "308",
          "321",
          "360",
          "34",
          "40",
          "69",
          "84",
          "85",
          "85",
          "85",
          "90",
          "118",
          "127",
          "165",
          "189",
          "221",
          "221",
          "220",
          "220",
          "222",
          "221",
          "219",
          "222",
          "221",
          "222",
          "221"
        ],
        "speed_kts": [
          "167",
          "172",
          "182",
          "205",
          "215",
          "223",
          "228",
          "233",
          "236",
          "240",
          "252",
          "273",
          "292",
          "310",
          "321",
          "328",
          "341",
          "351",
          "357",
          "361",
          "366",
          "377",
          "386",
          "394",
          "401",
          "407",
          "415",
          "426",
          "436",
          "443",
          "448",
          "450",
          "451",
          "453",
          "454",
          "455",
          "455",
          "456",
          "457",
          "456",
          "456",
          "454",
          "451",
          "450",
          "448",
          "448",
          "447",
          "445",
          "442",
          "438",
          "433",
          "431",
          "440",
          "446",
          "449",
          "450",
          "451",
          "451",
          "452",
          "453",
          "454",
          "454",
          "454",
          "454",
          "454",
          "455",
          "455",
          "456",
          "457",
          "456",
          "455",
          "456",
          "456",
          "454",
          "454",
          "453",
          "454",
          "454",
          "452",
          "451",
          "453",
          "451",
          "449",
          "446",
          "443",
          "443",
          "442",
          "441",
          "438",
          "437",
          "436",
          "434",
          "433",
          "432",
          "433",
          "432",
          "432",
          "433",
          "434",
          "436",
          "437",
          "437",
          "434",
          "434",
          "434",
          "434",
          "431",
          "429",
          "428",
          "429",
          "429",
          "429",
          "429",
          "429",
          "428",
          "425",
          "423",
          "422",
          "418",
          "417",
          "416",
          "414",
          "412",
          "412",
          "411",
          "409",
          "408",
          "408",
          "409",
          "408",
          "409",
          "409",
          "410",
          "408",
          "407",
          "407",
          "404",
          "404",
          "405",
          "403",
          "405",
          "404",
          "405",
          "405",
          "407",
          "406",
          "408",
          "408",
          "408",
          "409",
          "411",
          "412",
          "414",
          "413",
          "414",
          "413",
          "410",
          "409",
          "409",
          "408",
          "406",
          "408",
          "407",
          "406",
          "408",
          "407",
          "410",
          "412",
          "411",
          "412",
          "411",
          "411",
          "410",
          "411",
          "411",
          "413",
          "412",
          "414",
          "414",
          "414",
          "414",
          "415",
          "415",
          "415",
          "418",
          "419",
          "422",
          "420",
          "421",
          "423",
          "422",
          "422",
          "423",
          "423",
          "421",
          "420",
          "421",
          "420",
          "421",
          "419",
          "421",
          "421",
          "421",
          "422",
          "421",
          "420",
          "421",
          "421",
          "421",
          "419",
          "420",
          "419",
          "416",
          "417",
          "418",
          "416",
          "414",
          "412",
          "413",
          "413",
          "412",
          "412",
          "412",
          "411",
          "411",
          "411",
          "409",
          "405",
          "406",
          "405",
          "401",
          "400",
          "399",
          "397",
          "396",
          "398",
          "397",
          "397",
          "396",
          "394",
          "392",
          "395",
          "392",
          "393",
          "395",
          "397",
          "396",
          "400",
          "400",
          "403",
          "403",
          "405",
          "407",
          "408",
          "407",
          "408",
          "409",
          "412",
          "410",
          "410",
          "415",
          "418",
          "419",
          "418",
          "418",
          "419",
          "422",
          "423",
          "424",
          "425",
          "424",
          "423",
          "423",
          "425",
          "425",
          "424",
          "424",
          "426",
          "427",
          "425",
          "422",
          "417",
          "416",
          "417",
          "417",
          "418",
          "418",
          "418",
          "418",
          "417",
          "412",
          "406",
          "396",
          "397",
          "394",
          "381",
          "376",
          "375",
          "384",
          "393",
          "408",
          "409",
          "407",
          "397",
          "393",
          "391",
          "379",
          "365",
          "342",
          "332",
          "349",
          "360",
          "363",
          "363",
          "364",
          "362",
          "367",
          "368",
          "363",
          "356",
          "344",
          "322",
          "298",
          "280",
          "245",
          "241",
          "240",
          "250",
          "253",
          "242",
          "233",
          "237",
          "238",
          "237",
          "234",
          "237",
          "249",
          "249",
          "249",
          "250",
          "249",
          "237",
          "227",
          "234",
          "232",
          "239",
          "239",
          "234",
          "230",
          "227",
          "224",
          "223",
          "210",
          "207",
          "181",
          "162",
          "165",
          "169",
          "159",
          "138",
          "116",
          "111",
          "112",
          "123",
          "128",
          "122",
          "122"
        ],
        "speed_mph": [
          "192",
          "198",
          "209",
          "236",
          "247",
          "257",
          "262",
          "268",
          "272",
          "276",
          "290",
          "314",
          "336",
          "357",
          "369",
          "377",
          "392",
          "404",
          "411",
          "415",
          "421",
          "434",
          "444",
          "453",
          "461",
          "468",
          "478",
          "490",
          "502",
          "510",
          "516",
          "518",
          "519",
          "521",
          "522",
          "524",
          "524",
          "525",
          "526",
          "525",
          "525",
          "522",
          "519",
          "518",
          "516",
          "516",
          "514",
          "512",
          "509",
          "504",
          "498",
          "496",
          "506",
          "513",
          "517",
          "518",
          "519",
          "519",
          "520",
          "521",
          "522",
          "522",
          "522",
          "522",
          "522",
          "524",
          "524",
          "525",
          "526",
          "525",
          "524",
          "525",
          "525",
          "522",
          "522",
          "521",
          "522",
          "522",
          "520",
          "519",
          "521",
          "519",
          "517",
          "513",
          "510",
          "510",
          "509",
          "507",
          "504",
          "503",
          "502",
          "499",
          "498",
          "497",
          "498",
          "497",
          "497",
          "498",
          "499",
          "502",
          "503",
          "503",
          "499",
          "499",
          "499",
          "499",
          "496",
          "494",
          "493",
          "494",
          "494",
          "494",
          "494",
          "494",
          "493",
          "489",
          "487",
          "486",
          "481",
          "480",
          "479",
          "476",
          "474",
          "474",
          "473",
          "471",
          "470",
          "470",
          "471",
          "470",
          "471",
          "471",
          "472",
          "470",
          "468",
          "468",
          "465",
          "465",
          "466",
          "464",
          "466",
          "465",
          "466",
          "466",
          "468",
          "467",
          "470",
          "470",
          "470",
          "471",
          "473",
          "474",
          "476",
          "475",
          "476",
          "475",
          "472",
          "471",
          "471",
          "470",
          "467",
          "470",
          "468",
          "467",
          "470",
          "468",
          "472",
          "474",
          "473",
          "474",
          "473",
          "473",
          "472",
          "473",
          "473",
          "475",
          "474",
          "476",
          "476",
          "476",
          "476",
          "478",
          "478",
          "478",
          "481",
          "482",
          "486",
          "483",
          "484",
          "487",
          "486",
          "486",
          "487",
          "487",
          "484",
          "483",
          "484",
          "483",
          "484",
          "482",
          "484",
          "484",
          "484",
          "486",
          "484",
          "483",
          "484",
          "484",
          "484",
          "482",
          "483",
          "482",
          "479",
          "480",
          "481",
          "479",
          "476",
          "474",
          "475",
          "475",
          "474",
          "474",
          "474",
          "473",
          "473",
          "473",
          "471",
          "466",
          "467",
          "466",
          "461",
          "460",
          "459",
          "457",
          "456",
          "458",
          "457",
          "457",
          "456",
          "453",
          "451",
          "455",
          "451",
          "452",
          "455",
          "457",
          "456",
          "460",
          "460",
          "464",
          "464",
          "466",
          "468",
          "470",
          "468",
          "470",
          "471",
          "474",
          "472",
          "472",
          "478",
          "481",
          "482",
          "481",
          "481",
          "482",
          "486",
          "487",
          "488",
          "489",
          "488",
          "487",
          "487",
          "489",
          "489",
          "488",
          "488",
          "490",
          "491",
          "489",
          "486",
          "480",
          "479",
          "480",
          "480",
          "481",
          "481",
          "481",
          "481",
          "480",
          "474",
          "467",
          "456",
          "457",
          "453",
          "438",
          "433",
          "432",
          "442",
          "452",
          "470",
          "471",
          "468",
          "457",
          "452",
          "450",
          "436",
          "420",
          "394",
          "382",
          "402",
          "414",
          "418",
          "418",
          "419",
          "417",
          "422",
          "423",
          "418",
          "410",
          "396",
          "371",
          "343",
          "322",
          "282",
          "277",
          "276",
          "288",
          "291",
          "278",
          "268",
          "273",
          "274",
          "273",
          "269",
          "273",
          "287",
          "287",
          "287",
          "288",
          "287",
          "273",
          "261",
          "269",
          "267",
          "275",
          "275",
          "269",
          "265",
          "261",
          "258",
          "257",
          "242",
          "238",
          "208",
          "186",
          "190",
          "194",
          "183",
          "159",
          "133",
          "128",
          "129",
          "142",
          "147",
          "140",
          "140"
        ],
        "altitude_ft": [
          "950",
          "1925",
          "2850",
          "3450",
          "4425",
          "5500",
          "6625",
          "7450",
          "8250",
          "9500",
          "10825",
          "11950",
          "13000",
          "14025",
          "14700",
          "15325",
          "16350",
          "17350",
          "18375",
          "19425",
          "20450",
          "21225",
          "21975",
          "22700",
          "23525",
          "24275",
          "24950",
          "25500",
          "26000",
          "26525",
          "27100",
          "27725",
          "28350",
          "29050",
          "29625",
          "30275",
          "30875",
          "31475",
          "32100",
          "32725",
          "33150",
          "33800",
          "34475",
          "35125",
          "35750",
          "36400",
          "37025",
          "37625",
          "38250",
          "38900",
          "39500",
          "39975",
          "40000",
          "40000",
          "40000",
          "40000",
          "40000",
          "40000",
          "40000",
          "40000",
          "40000",
          "40000",
          "40000",
          "40000",
          "40000",
          "40000",
          "40000",
          "40000",
          "40000",
          "40000",
          "40000",
          "40000",
          "40000",
          "40000",
          "40000",
          "40000",
          "40000",
          "40000",
          "40000",
          "40000",
          "40000",
          "40000",
          "40000",
          "40000",
          "40000",
          "40000",
          "40000",
          "40000",
          "40000",
          "40000",
          "40000",
          "40000",
          "40000",
          "40000",
          "40000",
          "40000",
          "40000",
          "40000",
          "40000",
          "40000",
          "40000",
          "40000",
          "40000",
          "40000",
          "40000",
          "40000",
          "40000",
          "40000",
          "40000",
          "40000",
          "40000",
          "40000",
          "40000",
          "40000",
          "40000",
          "40000",
          "40000",
          "40000",
          "40000",
          "40000",
          "40000",
          "40000",
          "40000",
          "40000",
          "40000",
          "40000",
          "40000",
          "40000",
          "40000",
          "40000",
          "40000",
          "40000",
          "40000",
          "40000",
          "40000",
          "40000",
          "40000",
          "40000",
          "40000",
          "40000",
          "40000",
          "40000",
          "40000",
          "40000",
          "40000",
          "40000",
          "40000",
          "40000",
          "40000",
          "40000",
          "40000",
          "40000",
          "40000",
          "40000",
          "40000",
          "40000",
          "40000",
          "40000",
          "40000",
          "40000",
          "40000",
          "40000",
          "40000",
          "40000",
          "40000",
          "40000",
          "40000",
          "40000",
          "40000",
          "40000",
          "40000",
          "40000",
          "40000",
          "40000",
          "40000",
          "40000",
          "40000",
          "40000",
          "40000",
          "40000",
          "40000",
          "40000",
          "40000",
          "40000",
          "40000",
          "40000",
          "40000",
          "40000",
          "40000",
          "40000",
          "40000",
          "40000",
          "40000",
          "40000",
          "40000",
          "40000",
          "40000",
          "40000",
          "40000",
          "40000",
          "40000",
          "40000",
          "40000",
          "40000",
          "40000",
          "40000",
          "40000",
          "40000",
          "40000",
          "40000",
          "40000",
          "40000",
          "40000",
          "40000",
          "40000",
          "40000",
          "40000",
          "40000",
          "40000",
          "40000",
          "40000",
          "40000",
          "40000",
          "40000",
          "40000",
          "40000",
          "40000",
          "40000",
          "40000",
          "40000",
          "40000",
          "40000",
          "40000",
          "40000",
          "40000",
          "40000",
          "40000",
          "40000",
          "40000",
          "40000",
          "40000",
          "40000",
          "40000",
          "40000",
          "40000",
          "40000",
          "40000",
          "40000",
          "40000",
          "40000",
          "40000",
          "40000",
          "40000",
          "40000",
          "40000",
          "40000",
          "40000",
          "40000",
          "40000",
          "40000",
          "40000",
          "40000",
          "40000",
          "40000",
          "40000",
          "40000",
          "40000",
          "40000",
          "40000",
          "40000",
          "40000",
          "40000",
          "40000",
          "40000",
          "40000",
          "40000",
          "40000",
          "40000",
          "40000",
          "40000",
          "40000",
          "40000",
          "40000",
          "40000",
          "40000",
          "40000",
          "40000",
          "40000",
          "39600",
          "38600",
          "37600",
          "36700",
          "35600",
          "34750",
          "34075",
          "32625",
          "31475",
          "30300",
          "29150",
          "28525",
          "27075",
          "26350",
          "25975",
          "22750",
          "21125",
          "19650",
          "19125",
          "18575",
          "17725",
          "17100",
          "16275",
          "15525",
          "15150",
          "14650",
          "14150",
          "13675",
          "13025",
          "12575",
          "12175",
          "12000",
          "11725",
          "11225",
          "10475",
          "10075",
          "10000",
          "10000",
          "10000",
          "9725",
          "9125",
          "8675",
          "8100",
          "7700",
          "7075",
          "6500",
          "5900",
          "5600",
          "5225",
          "5025",
          "4875",
          "4500",
          "4175",
          "4050",
          "4050",
          "4050",
          "4050",
          "4050",
          "4025",
          "3900",
          "3825",
          "3725",
          "3550",
          "3300",
          "3075",
          "2800",
          "2600",
          "2500",
          "2525",
          "2525",
          "2325",
          "1925",
          "1700",
          "1550",
          "1400",
          "1225",
          "1050",
          "900",
          "700"
        ],
        "vertical_rate_fpm": [
          "",
          "2850",
          "2288",
          "2198",
          "2674",
          "2933",
          "3079",
          "3047",
          "3000",
          "2759",
          "2410",
          "2175",
          "2041",
          "2040",
          "2108",
          "2063",
          "2025",
          "2025",
          "2075",
          "2041",
          "1770",
          "1525",
          "1475",
          "1550",
          "1575",
          "1425",
          "1225",
          "1050",
          "1025",
          "1100",
          "1200",
          "1250",
          "1262",
          "1214",
          "1205",
          "1230",
          "1200",
          "1225",
          "1250",
          "1235",
          "1265",
          "1325",
          "1325",
          "1275",
          "1275",
          "1254",
          "1205",
          "1205",
          "1254",
          "1250",
          "1075",
          "500",
          "25",
          "",
          "",
          "",
          "",
          "",
          "",
          "",
          "",
          "",
          "",
          "",
          "",
          "",
          "",
          "",
          "",
          "",
          "",
          "",
          "",
          "",
          "",
          "",
          "",
          "",
          "",
          "",
          "",
          "",
          "",
          "",
          "",
          "",
          "",
          "",
          "",
          "",
          "",
          "",
          "",
          "",
          "",
          "",
          "",
          "",
          "",
          "",
          "",
          "",
          "",
          "",
          "",
          "",
          "",
          "",
          "",
          "",
          "",
          "",
          "",
          "",
          "",
          "",
          "",
          "",
          "",
          "",
          "",
          "",
          "",
          "",
          "",
          "",
          "",
          "",
          "",
          "",
          "",
          "",
          "",
          "",
          "",
          "",
          "",
          "",
          "",
          "",
          "",
          "",
          "",
          "",
          "",
          "",
          "",
          "",
          "",
          "",
          "",
          "",
          "",
          "",
          "",
          "",
          "",
          "",
          "",
          "",
          "",
          "",
          "",
          "",
          "",
          "",
          "",
          "",
          "",
          "",
          "",
          "",
          "",
          "",
          "",
          "",
          "",
          "",
          "",
          "",
          "",
          "",
          "",
          "",
          "",
          "",
          "",
          "",
          "",
          "",
          "",
          "",
          "",
          "",
          "",
          "",
          "",
          "",
          "",
          "",
          "",
          "",
          "",
          "",
          "",
          "",
          "",
          "",
          "",
          "",
          "",
          "",
          "",
          "",
          "",
          "",
          "",
          "",
          "",
          "",
          "",
          "",
          "",
          "",
          "",
          "",
          "",
          "",
          "",
          "",
          "",
          "",
          "",
          "",
          "",
          "",
          "",
          "",
          "",
          "",
          "",
          "",
          "",
          "",
          "",
          "",
          "",
          "",
          "",
          "",
          "",
          "",
          "",
          "",
          "",
          "",
          "",
          "",
          "",
          "",
          "",
          "",
          "",
          "",
          "",
          "",
          "",
          "",
          "",
          "",
          "",
          "",
          "",
          "",
          "",
          "",
          "",
          "",
          "",
          "",
          "",
          "",
          "",
          "",
          "",
          "",
          "",
          "-414",
          "-1448",
          "-2000",
          "-2036",
          "-2182",
          "-2294",
          "-2128",
          "-1992",
          "-2167",
          "-2364",
          "-2325",
          "-2266",
          "-2223",
          "-2139",
          "-1737",
          "-2667",
          "-3000",
          "-3000",
          "-2500",
          "-1654",
          "-1377",
          "-1264",
          "-1176",
          "-1086",
          "-1038",
          "-1010",
          "-1034",
          "-1064",
          "-1007",
          "-1015",
          "-1041",
          "-784",
          "-458",
          "-674",
          "-1042",
          "-1062",
          "-663",
          "-110",
          "",
          "-413",
          "-1094",
          "-1212",
          "-1183",
          "-1147",
          "-1206",
          "-1200",
          "-1175",
          "-1174",
          "-1266",
          "-1380",
          "-1313",
          "-1370",
          "-1313",
          "-844",
          "-208",
          "",
          "",
          "",
          "-37",
          "-257",
          "-462",
          "-656",
          "-688",
          "-797",
          "-891",
          "-938",
          "-891",
          "-563",
          "-141",
          "47",
          "-316",
          "-692",
          "-815",
          "-703",
          "-563",
          "-609",
          "-656",
          "-609",
          "-656",
          "-750"
        ],
        "reporting_facility": [
          "FlightAware ADS-B(DBV / LDDU)",
          "FlightAware ADS-B(DBV / LDDU)",
          "FlightAware ADS-B(DBV / LDDU)",
          "FlightAware ADS-B(DBV / LDDU)",
          "FlightAware ADS-B(BRI / LIBD)",
          "FlightAware ADS-B(BRI / LIBD)",
          "FlightAware ADS-B(BDS / LIBR)",
          "FlightAware ADS-B(PSR / LIBP)",
          "FlightAware ADS-B(PSR / LIBP)",
          "FlightAware ADS-B(LIBX)",
          "FlightAware ADS-B(DBV / LDDU)",
          "FlightAware ADS-B(DBV / LDDU)",
          "FlightAware ADS-B(DBV / LDDU)",
          "FlightAware ADS-B(DBV / LDDU)",
          "FlightAware ADS-B(SPU / LDSP)",
          "FlightAware ADS-B(BRI / LIBD)",
          "FlightAware ADS-B(BRI / LIBD)",
          "FlightAware ADS-B(BDS / LIBR)",
          "FlightAware ADS-B(BDS / LIBR)",
          "FlightAware ADS-B(DBV / LDDU)",
          "FlightAware ADS-B(TQR / LINI)",
          "FlightAware ADS-B(TQR / LINI)",
          "FlightAware ADS-B(BDS / LIBR)",
          "FlightAware ADS-B(BRI / LIBD)",
          "FlightAware ADS-B(DBV / LDDU)",
          "FlightAware ADS-B(LDOR)",
          "FlightAware ADS-B(LCC / LIBN)",
          "FlightAware ADS-B(SPU / LDSP)",
          "FlightAware ADS-B(SPU / LDSP)",
          "FlightAware ADS-B(SPU / LDSP)",
          "FlightAware ADS-B(BDS / LIBR)",
          "FlightAware ADS-B(BDS / LIBR)",
          "FlightAware ADS-B(BDS / LIBR)",
          "FlightAware ADS-B(PSR / LIBP)",
          "FlightAware ADS-B(FOG / LIBF)",
          "FlightAware ADS-B(PSR / LIBP)",
          "FlightAware ADS-B(FOG / LIBF)",
          "FlightAware ADS-B(AOI / LIPY)",
          "FlightAware ADS-B(FOG / LIBF)",
          "FlightAware ADS-B(LDOB)",
          "FlightAware ADS-B(BDS / LIBR)",
          "FlightAware ADS-B(BDS / LIBR)",
          "FlightAware ADS-B(BDS / LIBR)",
          "FlightAware ADS-B(SJJ / LQSA)",
          "FlightAware ADS-B(TQR / LINI)",
          "FlightAware ADS-B(AOI / LIPY)",
          "FlightAware ADS-B(PSR / LIBP)",
          "FlightAware ADS-B(ZAD / LDZD)",
          "FlightAware ADS-B(ZAD / LDZD)",
          "FlightAware ADS-B(PSR / LIBP)",
          "FlightAware ADS-B(BRI / LIBD)",
          "FlightAware ADS-B(AOI / LIPY)",
          "FlightAware ADS-B(AOI / LIPY)",
          "FlightAware ADS-B(BRI / LIBD)",
          "FlightAware ADS-B(BRI / LIBD)",
          "FlightAware ADS-B(LIRC)",
          "FlightAware ADS-B(PSR / LIBP)",
          "FlightAware ADS-B(AVB / LIPA)",
          "FlightAware ADS-B(AVB / LIPA)",
          "FlightAware ADS-B(LJU / LJLJ)",
          "FlightAware ADS-B(AVB / LIPA)",
          "FlightAware ADS-B(QRT / LIQN)",
          "FlightAware ADS-B(RMI / LIPR)",
          "FlightAware ADS-B(BLQ / LIPE)",
          "FlightAware ADS-B(LIDT)",
          "FlightAware ADS-B(LIDC)",
          "FlightAware ADS-B(PEG / LIRZ)",
          "FlightAware ADS-B(RMI / LIPR)",
          "FlightAware ADS-B(RMI / LIPR)",
          "FlightAware ADS-B(EBA / LIRJ)",
          "FlightAware ADS-B(EBA / LIRJ)",
          "FlightAware ADS-B(EBA / LIRJ)",
          "FlightAware ADS-B(RJK / LDRI)",
          "FlightAware ADS-B(AOI / LIPY)",
          "FlightAware ADS-B(AOI / LIPY)",
          "FlightAware ADS-B(LIDT)",
          "FlightAware ADS-B(AOI / LIPY)",
          "FlightAware ADS-B(PSR / LIBP)",
          "FlightAware ADS-B(PSR / LIBP)",
          "FlightAware ADS-B(LIDC)",
          "FlightAware ADS-B(PSR / LIBP)",
          "FlightAware ADS-B(LIDC)",
          "FlightAware ADS-B(BLQ / LIPE)",
          "FlightAware ADS-B(MXP / LIMC)",
          "FlightAware ADS-B(LIPU)",
          "FlightAware ADS-B(SOB / LHSM)",
          "FlightAware ADS-B(LJNM)",
          "FlightAware ADS-B(LIDU)",
          "FlightAware ADS-B(LIDU)",
          "FlightAware ADS-B(VRN / LIPX)",
          "FlightAware ADS-B(VRN / LIPX)",
          "FlightAware ADS-B(GRZ / LOWG)",
          "FlightAware ADS-B(LIPU)",
          "FlightAware ADS-B(LIPU)",
          "FlightAware ADS-B(LIPU)",
          "FlightAware ADS-B(LIDU)",
          "FlightAware ADS-B(PUY / LDPL)",
          "FlightAware ADS-B(LIKE)",
          "FlightAware ADS-B(LIAO)",
          "FlightAware ADS-B(LIPU)",
          "FlightAware ADS-B(LIPV)",
          "FlightAware ADS-B(LIPU)",
          "FlightAware ADS-B(FLR / LIRQ)",
          "FlightAware ADS-B(LIMS)",
          "FlightAware ADS-B(MUC / EDDM)",
          "FlightAware ADS-B(EDNX)",
          "FlightAware ADS-B(VRN / LIPX)",
          "FlightAware ADS-B(LIDT)",
          "FlightAware ADS-B(LIPV)",
          "FlightAware ADS-B(EDCS)",
          "FlightAware ADS-B(LIPV)",
          "FlightAware ADS-B(LIPV)",
          "FlightAware ADS-B(MUC / EDDM)",
          "FlightAware ADS-B(LJU / LJLJ)",
          "FlightAware ADS-B(EDNL)",
          "FlightAware ADS-B(MUC / EDDM)",
          "FlightAware ADS-B(GRZ / LOWG)",
          "FlightAware ADS-B(LIDT)",
          "FlightAware ADS-B(TRN / LIMF)",
          "FlightAware ADS-B(EDME)",
          "FlightAware ADS-B(KLU / LOWK)",
          "FlightAware ADS-B(RBM / EDMS)",
          "FlightAware ADS-B(MUC / EDDM)",
          "FlightAware ADS-B(LIN / LIML)",
          "FlightAware ADS-B(VIP / LSMP)",
          "FlightAware ADS-B(BZO / LIPB)",
          "FlightAware ADS-B(EDMJ)",
          "FlightAware ADS-B(EDNT)",
          "FlightAware ADS-B(ETSE)",
          "FlightAware ADS-B(MUC / EDDM)",
          "FlightAware ADS-B(HOH / LOIH)",
          "FlightAware ADS-B(EDTD)",
          "FlightAware ADS-B(ETHA)",
          "FlightAware ADS-B(MUC / EDDM)",
          "FlightAware ADS-B(LSZK)",
          "FlightAware ADS-B(MUC / EDDM)",
          "FlightAware ADS-B(LIMB)",
          "FlightAware ADS-B(LSME)",
          "FlightAware ADS-B(LSPK)",
          "FlightAware ADS-B(EDTP)",
          "FlightAware ADS-B(OBF / EDMO)",
          "FlightAware ADS-B(EDMG)",
          "FlightAware ADS-B(MXP / LIMC)",
          "FlightAware ADS-B(STR / EDDS)",
          "FlightAware ADS-B(LSME)",
          "FlightAware ADS-B(LSGN)",
          "FlightAware ADS-B(OBF / EDMO)",
          "FlightAware ADS-B(EDMG)",
          "FlightAware ADS-B(EDMR)",
          "FlightAware ADS-B(LSPA)",
          "FlightAware ADS-B(LSZG)",
          "FlightAware ADS-B(IGS / ETSI)",
          "FlightAware ADS-B(ETSE)",
          "FlightAware ADS-B(ETHN)",
          "FlightAware ADS-B(MUC / EDDM)",
          "FlightAware ADS-B(MUC / EDDM)",
          "FlightAware ADS-B(NUE / EDDN)",
          "FlightAware ADS-B(LSME)",
          "FlightAware ADS-B(SXB / LFST)",
          "FlightAware ADS-B(EDSV)",
          "FlightAware ADS-B(ETHA)",
          "FlightAware ADS-B(LOLW)",
          "FlightAware ADS-B(LFSH)",
          "FlightAware ADS-B(LSPO)",
          "FlightAware ADS-B(EDFJ)",
          "FlightAware ADS-B(EDMX)",
          "FlightAware ADS-B(ETHA)",
          "FlightAware MLAT(4 sites)",
          "FlightAware ADS-B(ETHA)",
          "FlightAware ADS-B(EDMJ)",
          "FlightAware ADS-B(LSXS)",
          "FlightAware ADS-B(STR / EDDS)",
          "FlightAware ADS-B(EDLZ)",
          "FlightAware ADS-B(STR / EDDS)",
          "FlightAware ADS-B(EDRL)",
          "FlightAware ADS-B(EDRL)",
          "FlightAware ADS-B(MHG / EDFM)",
          "FlightAware ADS-B(IGS / ETSI)",
          "FlightAware ADS-B(STR / EDDS)",
          "FlightAware ADS-B(EHDP)",
          "FlightAware ADS-B(FKB / EDSB)",
          "FlightAware ADS-B(EDFB)",
          "FlightAware ADS-B(LSMD)",
          "FlightAware ADS-B(LUX / ELLX)",
          "FlightAware ADS-B(EDBS)",
          "FlightAware ADS-B(FKB / EDSB)",
          "FlightAware ADS-B(FKB / EDSB)",
          "FlightAware ADS-B(FRA / EDDF)",
          "FlightAware ADS-B(EDFW)",
          "FlightAware ADS-B(ESS / EDLE)",
          "FlightAware ADS-B(EDLS)",
          "FlightAware ADS-B(EDLS)",
          "FlightAware ADS-B(GKE / ETNG)",
          "FlightAware ADS-B(CGN / EDDK)",
          "FlightAware ADS-B(QEF / EDFE)",
          "FlightAware ADS-B(EDRY)",
          "FlightAware ADS-B(EDRY)",
          "FlightAware ADS-B(EHDL)",
          "FlightAware ADS-B(EDRY)",
          "FlightAware ADS-B(EDEP)",
          "FlightAware ADS-B(SCN / EDDR)",
          "FlightAware ADS-B(LFQB)",
          "FlightAware ADS-B(LUX / ELLX)",
          "FlightAware ADS-B(QEF / EDFE)",
          "FlightAware ADS-B(ELUC)",
          "FlightAware ADS-B(ETOU)",
          "FlightAware ADS-B(ELUC)",
          "FlightAware ADS-B(BRU / EBBR)",
          "FlightAware ADS-B(AAH / EDKA)",
          "FlightAware ADS-B(DUS / EDDL)",
          "FlightAware ADS-B(EDLF)",
          "FlightAware ADS-B(EDLF)",
          "FlightAware ADS-B(GKE / ETNG)",
          "FlightAware ADS-B(FRA / EDDF)",
          "FlightAware ADS-B(DUS / EDDL)",
          "FlightAware ADS-B(DUS / EDDL)",
          "FlightAware ADS-B(LGG / EBLG)",
          "FlightAware ADS-B(STR / EDDS)",
          "FlightAware ADS-B(ETOU)",
          "FlightAware ADS-B(EGMT)",
          "FlightAware ADS-B(RTM / EHRD)",
          "FlightAware ADS-B(ANR / EBAW)",
          "FlightAware ADS-B(LGG / EBLG)",
          "FlightAware ADS-B(EDLG)",
          "FlightAware ADS-B(MST / EHBK)",
          "FlightAware ADS-B(DUS / EDDL)",
          "FlightAware ADS-B(ANR / EBAW)",
          "FlightAware ADS-B(LFQL)",
          "FlightAware ADS-B(LHR / EGLL)",
          "FlightAware ADS-B(EBBL)",
          "FlightAware ADS-B(STN / EGSS)",
          "FlightAware ADS-B(SEN / EGMC)",
          "FlightAware ADS-B(EHHV)",
          "FlightAware ADS-B(AMS / EHAM)",
          "FlightAware ADS-B(RTM / EHRD)",
          "FlightAware ADS-B(BRU / EBBR)",
          "FlightAware ADS-B(DUS / EDDL)",
          "FlightAware ADS-B(EHLW)",
          "FlightAware ADS-B(UTC / EHSB)",
          "FlightAware ADS-B(RCS / EGTO)",
          "FlightAware ADS-B(RTM / EHRD)",
          "FlightAware ADS-B(EHBD)",
          "FlightAware ADS-B(EGKH)",
          "FlightAware ADS-B(LUX / ELLX)",
          "FlightAware ADS-B(EGSL)",
          "FlightAware ADS-B(EIN / EHEH)",
          "FlightAware ADS-B(LIL / LFQQ)",
          "FlightAware ADS-B(EIN / EHEH)",
          "FlightAware ADS-B(RTM / EHRD)",
          "FlightAware ADS-B(LFON)",
          "FlightAware ADS-B(LFON)",
          "FlightAware ADS-B(RCS / EGTO)",
          "FlightAware ADS-B(EGBG)",
          "FlightAware ADS-B(EGKH)",
          "FlightAware ADS-B(EHMZ)",
          "FlightAware ADS-B(LCY / EGLC)",
          "FlightAware ADS-B(EHMZ)",
          "FlightAware ADS-B(EGYD)",
          "FlightAware ADS-B(OKH / EGXJ)",
          "FlightAware ADS-B(EME / EDWE)",
          "FlightAware ADS-B(EMA / EGNX)",
          "FlightAware ADS-B(EGKR)",
          "FlightAware ADS-B(EGKR)",
          "FlightAware ADS-B(RCS / EGTO)",
          "FlightAware ADS-B(DHR / EHKD)",
          "FlightAware ADS-B(EGNA)",
          "FlightAware ADS-B(ODH / EGVO)",
          "FlightAware ADS-B(EBBL)",
          "FlightAware ADS-B(EGSG)",
          "FlightAware ADS-B(MSE / EGMH)",
          "FlightAware ADS-B(EGSM)",
          "FlightAware ADS-B(SOU / EGHI)",
          "FlightAware ADS-B(BRS / EGGD)",
          "FlightAware ADS-B(LCY / EGLC)",
          "FlightAware ADS-B(LTN / EGGW)",
          "FlightAware ADS-B(RTM / EHRD)",
          "FlightAware ADS-B(KNF / EGYM)",
          "FlightAware ADS-B(LHR / EGLL)",
          "FlightAware ADS-B(QCY / EGXC)",
          "FlightAware ADS-B(EGCM)",
          "FlightAware ADS-B(STN / EGSS)",
          "FlightAware ADS-B(LYX / EGMD)",
          "FlightAware ADS-B(CBG / EGSC)",
          "FlightAware ADS-B(ORM / EGBK)",
          "FlightAware ADS-B(LTN / EGGW)",
          "FlightAware ADS-B(EGSL)",
          "FlightAware ADS-B(GLO / EGBJ)",
          "FlightAware ADS-B(GLZ / EHGR)",
          "FlightAware ADS-B(EMA / EGNX)",
          "FlightAware ADS-B(EGXE)",
          "FlightAware ADS-B(LHR / EGLL)",
          "FlightAware ADS-B(EGSR)",
          "FlightAware ADS-B(NWI / EGSH)",
          "FlightAware ADS-B",
          "FlightAware ADS-B(EGNY)",
          "FlightAware ADS-B(EGXT)",
          "FlightAware ADS-B(EGTF)",
          "FlightAware ADS-B(EGSR)",
          "FlightAware ADS-B(EGKH)",
          "FlightAware ADS-B(BRS / EGGD)",
          "FlightAware ADS-B(EGNO)",
          "FlightAware ADS-B(LCY / EGLC)",
          "FlightAware ADS-B(CVT / EGBE)",
          "FlightAware ADS-B(GLO / EGBJ)",
          "FlightAware ADS-B(LGW / EGKK)",
          "FlightAware ADS-B(LYX / EGMD)",
          "FlightAware ADS-B(EGNF)",
          "FlightAware ADS-B(EGWN)",
          "FlightAware ADS-B(NQT / EGBN)",
          "FlightAware ADS-B(GLO / EGBJ)",
          "FlightAware ADS-B(BHX / EGBB)",
          "FlightAware ADS-B(EMA / EGNX)",
          "FlightAware ADS-B(EMA / EGNX)",
          "FlightAware ADS-B(EGWN)",
          "FlightAware ADS-B(EGTU)",
          "FlightAware ADS-B(EMA / EGNX)",
          "FlightAware ADS-B(EGCB)",
          "FlightAware ADS-B(ORM / EGBK)",
          "FlightAware ADS-B(MAN / EGCC)",
          "FlightAware ADS-B(FFD / EGVA)",
          "FlightAware ADS-B(EGCW)",
          "FlightAware ADS-B(BHX / EGBB)",
          "FlightAware ADS-B(MAN / EGCC)",
          "FlightAware ADS-B(EGBM)",
          "FlightAware ADS-B(EMA / EGNX)",
          "FlightAware ADS-B(EGNO)",
          "FlightAware ADS-B(DSA / EGCN)",
          "FlightAware ADS-B(MAN / EGCC)",
          "FlightAware ADS-B(EGNO)",
          "FlightAware ADS-B(EGBG)",
          "FlightAware ADS-B(EGNO)",
          "FlightAware ADS-B(EGNO)",
          "FlightAware ADS-B(MAN / EGCC)",
          "FlightAware ADS-B(EGBW)",
          "FlightAware ADS-B(EGCB)",
          "FlightAware ADS-B(EGOS)",
          "FlightAware ADS-B(EGBO)",
          "Surface and Near-Surface",
          "FlightAware ADS-B(MAN / EGCC)",
          "FlightAware ADS-B(EGNO)",
          "FlightAware ADS-B(EGWC)",
          "FlightAware ADS-B(MAN / EGCC)",
          "FlightAware ADS-B(MAN / EGCC)",
          "FlightAware ADS-B(EGOS)",
          "FlightAware ADS-B(LPL / EGGP)",
          "FlightAware ADS-B(CEG / EGNR)",
          "FlightAware ADS-B(EGWC)",
          "FlightAware ADS-B(MAN / EGCC)",
          "Surface and Near-Surface",
          "FlightAware ADS-B(CEG / EGNR)",
          "FlightAware ADS-B(CEG / EGNR)",
          "FlightAware ADS-B(CEG / EGNR)",
          "FlightAware ADS-B(LPL / EGGP)",
          "FlightAware ADS-B(MAN / EGCC)",
          "FlightAware ADS-B(MAN / EGCC)",
          "FlightAware ADS-B(MAN / EGCC)",
          "FlightAware ADS-B(CEG / EGNR)",
          "FlightAware ADS-B(CEG / EGNR)",
          "FlightAware ADS-B(CEG / EGNR)",
          "FlightAware ADS-B(EGNO)",
          "FlightAware ADS-B(EGCR)",
          "FlightAware ADS-B(EGCB)",
          "FlightAware ADS-B(LPL / EGGP)",
          "FlightAware ADS-B(CEG / EGNR)",
          "FlightAware ADS-B(LPL / EGGP)",
          "FlightAware ADS-B(LPL / EGGP)",
          "FlightAware ADS-B(CEG / EGNR)"
        ]
      }
    }
  ]
}