{
  "type": "FeatureCollection",
  "features": [
    {
      "type": "Feature",
      "geometry": {
        "type": "LineString",
        "coordinates": [
          [
            11.1974,
            43.8052
          ],
          [
            11.1849,
            43.7982
          ],
          [
            11.1681,
            43.7971
          ],
          [
            11.1521,
            43.8008
          ],
          [
            11.1361,
            43.8053
          ],
          [
            11.1185,
            43.8097
          ],
          [
            11.0985,
            43.8171
          ],
          [
            11.0906,
            43.8327
          ],
          [
            11.097,
            43.8542
          ],
          [
            11.1106,
            43.8713
          ],
          [
            11.1311,
            43.8902
          ],
          [
            11.1625,
            43.9164
          ],
          [
            11.1951,
            43.9434
          ],
          [
            11.2324,
            43.975
          ],
          [
            11.2568,
            43.9962
          ],
          [
            11.2701,
            44.0219
          ],
          [
            11.2725,
            44.0481
          ],
          [
            11.2686,
            44.0991
          ],
          [
            11.2627,
            44.1468
          ],
          [
            11.2578,
            44.195
          ],
          [
            11.2543,
            44.246
          ],
          [
            11.2503,
            44.2974
          ],
          [
            11.2464,
            44.3505
          ],
          [
            11.2426,
            44.4068
          ],
          [
            11.2385,
            44.4635
          ],
          [
            11.2344,
            44.5243
          ],
          [
            11.2305,
            44.5811
          ],
          [
            11.2262,
            44.6414
          ],
          [
            11.2218,
            44.7033
          ],
          [
            11.2173,
            44.7664
          ],
          [
            11.2127,
            44.8337
          ],
          [
            11.2082,
            44.8972
          ],
          [
            11.2034,
            44.965
          ],
          [
            11.1991,
            45.0258
          ],
          [
            11.1947,
            45.0886
          ],
          [
            11.1902,
            45.1523
          ],
          [
            11.1858,
            45.2134
          ],
          [
            11.1815,
            45.2742
          ],
          [
            11.1771,
            45.3377
          ],
          [
            11.1726,
            45.4017
          ],
          [
            11.1679,
            45.4654
          ],
          [
            11.1633,
            45.5286
          ],
          [
            11.1585,
            45.5935
          ],
          [
            11.1541,
            45.6557
          ],
          [
            11.1499,
            45.7158
          ],
          [
            11.1455,
            45.7763
          ],
          [
            11.141,
            45.8368
          ],
          [
            11.1366,
            45.8984
          ],
          [
            11.132,
            45.9603
          ],
          [
            11.1279,
            46.0189
          ],
          [
            11.1233,
            46.0824
          ],
          [
            11.119,
            46.1395
          ],
          [
            11.1159,
            46.1766
          ],
          [
            11.1068,
            46.2084
          ],
          [
            11.0901,
            46.2403
          ],
          [
            11.0562,
            46.2911
          ],
          [
            11.0183,
            46.3438
          ],
          [
            10.983,
            46.3955
          ],
          [
            10.9475,
            46.448
          ],
          [
            10.9127,
            46.4985
          ],
          [
            10.878,
            46.55
          ],
          [
            10.8422,
            46.6027
          ],
          [
            10.8069,
            46.6545
          ],
          [
            10.772,
            46.706
          ],
          [
            10.7339,
            46.7615
          ],
          [
            10.6978,
            46.8142
          ],
          [
            10.6609,
            46.868
          ],
          [
            10.6241,
            46.9216
          ],
          [
            10.5872,
            46.975
          ],
          [
            10.5495,
            47.0298
          ],
          [
            10.5134,
            47.0818
          ],
          [
            10.4739,
            47.1373
          ],
          [
            10.4217,
            47.2035
          ],
          [
            10.3788,
            47.2564
          ],
          [
            10.3379,
            47.3078
          ],
          [
            10.3018,
            47.3528
          ],
          [
            10.2617,
            47.4028
          ],
          [
            10.2241,
            47.4495
          ],
          [
            10.1823,
            47.5014
          ],
          [
            10.1438,
            47.5495
          ],
          [
            10.1021,
            47.6008
          ],
          [
            10.075,
            47.6345
          ],
          [
            10.0521,
            47.6625
          ],
          [
            10.0109,
            47.7135
          ],
          [
            9.9695,
            47.7645
          ],
          [
            9.9471,
            47.7916
          ],
          [
            9.9054,
            47.8427
          ],
          [
            9.8649,
            47.8922
          ],
          [
            9.8216,
            47.9447
          ],
          [
            9.7894,
            47.9838
          ],
          [
            9.7471,
            48.0352
          ],
          [
            9.6917,
            48.1018
          ],
          [
            9.6499,
            48.1528
          ],
          [
            9.6182,
            48.1912
          ],
          [
            9.5763,
            48.2412
          ],
          [
            9.5346,
            48.2913
          ],
          [
            9.4933,
            48.3408
          ],
          [
            9.4511,
            48.3912
          ],
          [
            9.4099,
            48.4401
          ],
          [
            9.3781,
            48.4781
          ],
          [
            9.3402,
            48.523
          ],
          [
            9.3014,
            48.5689
          ],
          [
            9.2651,
            48.6118
          ],
          [
            9.2388,
            48.6487
          ],
          [
            9.1846,
            48.7323
          ],
          [
            9.165,
            48.761
          ],
          [
            9.1342,
            48.8074
          ],
          [
            9.1105,
            48.8429
          ],
          [
            9.0882,
            48.8759
          ],
          [
            9.0662,
            48.8997
          ],
          [
            9.0394,
            48.9234
          ],
          [
            8.9903,
            48.9627
          ],
          [
            8.9397,
            49.0022
          ],
          [
            8.8795,
            49.0513
          ],
          [
            8.8341,
            49.0882
          ],
          [
            8.7619,
            49.1466
          ],
          [
            8.7169,
            49.183
          ],
          [
            8.6663,
            49.2239
          ],
          [
            8.6181,
            49.2629
          ],
          [
            8.5755,
            49.2969
          ],
          [
            8.5354,
            49.3293
          ],
          [
            8.4835,
            49.3707
          ],
          [
            8.438,
            49.4073
          ],
          [
            8.3851,
            49.4497
          ],
          [
            8.3332,
            49.491
          ],
          [
            8.2275,
            49.5748
          ],
          [
            8.1751,
            49.6164
          ],
          [
            8.1181,
            49.6614
          ],
          [
            8.0678,
            49.7011
          ],
          [
            8.0128,
            49.7443
          ],
          [
            7.9591,
            49.7865
          ],
          [
            7.9041,
            49.8293
          ],
          [
            7.8513,
            49.8707
          ],
          [
            7.7976,
            49.9126
          ],
          [
            7.7427,
            49.9551
          ],
          [
            7.6897,
            49.9962
          ],
          [
            7.6345,
            50.0389
          ],
          [
            7.5824,
            50.0791
          ],
          [
            7.5299,
            50.1195
          ],
          [
            7.4768,
            50.1604
          ],
          [
            7.4204,
            50.2034
          ],
          [
            7.3656,
            50.2456
          ],
          [
            7.3107,
            50.2878
          ],
          [
            7.2237,
            50.3546
          ],
          [
            7.1715,
            50.3964
          ],
          [
            7.132,
            50.4283
          ],
          [
            7.0874,
            50.465
          ],
          [
            7.0359,
            50.5067
          ],
          [
            6.9653,
            50.5571
          ],
          [
            6.9196,
            50.5787
          ],
          [
            6.8302,
            50.6154
          ],
          [
            6.777,
            50.6365
          ],
          [
            6.6695,
            50.6806
          ],
          [
            6.5782,
            50.7189
          ],
          [
            6.515,
            50.7451
          ],
          [
            6.4573,
            50.7687
          ],
          [
            6.4005,
            50.7924
          ],
          [
            6.3406,
            50.817
          ],
          [
            6.2895,
            50.8378
          ],
          [
            6.2198,
            50.8665
          ],
          [
            6.1565,
            50.8924
          ],
          [
            6.0799,
            50.9237
          ],
          [
            6.0229,
            50.9468
          ],
          [
            5.9895,
            50.9605
          ],
          [
            5.9648,
            50.9797
          ],
          [
            5.9528,
            51.0043
          ],
          [
            5.9473,
            51.0258
          ],
          [
            5.9412,
            51.0632
          ],
          [
            5.9362,
            51.0905
          ],
          [
            5.9276,
            51.1281
          ],
          [
            5.9204,
            51.1623
          ],
          [
            5.9158,
            51.1844
          ],
          [
            5.9109,
            51.2085
          ],
          [
            5.9049,
            51.2359
          ],
          [
            5.8994,
            51.2562
          ],
          [
            5.8928,
            51.2732
          ],
          [
            5.8829,
            51.2949
          ],
          [
            5.8701,
            51.3193
          ],
          [
            5.8602,
            51.3383
          ],
          [
            5.8469,
            51.3668
          ],
          [
            5.8358,
            51.3908
          ],
          [
            5.8226,
            51.4189
          ],
          [
            5.8128,
            51.4397
          ],
          [
            5.7978,
            51.4573
          ],
          [
            5.7793,
            51.4706
          ],
          [
            5.7576,
            51.4837
          ],
          [
            5.7297,
            51.4992
          ],
          [
            5.6901,
            51.5209
          ],
          [
            5.6633,
            51.5367
          ],
          [
            5.6361,
            51.5518
          ],
          [
            5.6055,
            51.5658
          ],
          [
            5.5766,
            51.578
          ],
          [
            5.5592,
            51.5855
          ],
          [
            5.5357,
            51.5874
          ],
          [
            5.516,
            51.5795
          ],
          [
            5.4963,
            51.5633
          ],
          [
            5.4838,
            51.5507
          ],
          [
            5.4741,
            51.5395
          ],
          [
            5.4596,
            51.5263
          ],
          [
            5.4451,
            51.5133
          ],
          [
            5.4406,
            51.5093
          ],
          [
            5.4366,
            51.5057
          ],
          [
            5.4285,
            51.4983
          ],
          [
            5.4209,
            51.4917
          ],
          [
            5.4131,
            51.4845
          ],
          [
            5.4058,
            51.4781
          ],
          [
            5.3979,
            51.471
          ],
          [
            5.3899,
            51.4638
          ],
          [
            5.3814,
            51.4563
          ]
        ]
      },
      "properties": {
        "time_europe_berlin": [
          "30.10.2025 13:28:06",
          "30.10.2025 13:28:22",
          "30.10.2025 13:28:38",
          "30.10.2025 13:28:54",
          "30.10.2025 13:29:10",
          "30.10.2025 13:29:26",
          "30.10.2025 13:29:45",
          "30.10.2025 13:30:03",
          "30.10.2025 13:30:25",
          "30.10.2025 13:30:43",
          "30.10.2025 13:31:06",
          "30.10.2025 13:31:36",
          "30.10.2025 13:32:06",
          "30.10.2025 13:32:36",
          "30.10.2025 13:32:55",
          "30.10.2025 13:33:13",
          "30.10.2025 13:33:31",
          "30.10.2025 13:34:04",
          "30.10.2025 13:34:34",
          "30.10.2025 13:35:04",
          "30.10.2025 13:35:34",
          "30.10.2025 13:36:04",
          "30.10.2025 13:36:34",
          "30.10.2025 13:37:04",
          "30.10.2025 13:37:34",
          "30.10.2025 13:38:04",
          "30.10.2025 13:38:34",
          "30.10.2025 13:39:04",
          "30.10.2025 13:39:34",
          "30.10.2025 13:40:04",
          "30.10.2025 13:40:34",
          "30.10.2025 13:41:04",
          "30.10.2025 13:41:34",
          "30.10.2025 13:42:04",
          "30.10.2025 13:42:34",
          "30.10.2025 13:43:04",
          "30.10.2025 13:43:34",
          "30.10.2025 13:44:04",
          "30.10.2025 13:44:34",
          "30.10.2025 13:45:04",
          "30.10.2025 13:45:35",
          "30.10.2025 13:46:05",
          "30.10.2025 13:46:35",
          "30.10.2025 13:47:06",
          "30.10.2025 13:47:36",
          "30.10.2025 13:48:06",
          "30.10.2025 13:48:36",
          "30.10.2025 13:49:06",
          "30.10.2025 13:49:36",
          "30.10.2025 13:50:06",
          "30.10.2025 13:50:36",
          "30.10.2025 13:51:06",
          "30.10.2025 13:51:24",
          "30.10.2025 13:51:41",
          "30.10.2025 13:51:57",
          "30.10.2025 13:52:27",
          "30.10.2025 13:52:57",
          "30.10.2025 13:53:27",
          "30.10.2025 13:53:57",
          "30.10.2025 13:54:27",
          "30.10.2025 13:54:57",
          "30.10.2025 13:55:27",
          "30.10.2025 13:55:57",
          "30.10.2025 13:56:27",
          "30.10.2025 13:56:58",
          "30.10.2025 13:57:28",
          "30.10.2025 13:57:58",
          "30.10.2025 13:58:28",
          "30.10.2025 13:58:59",
          "30.10.2025 13:59:29",
          "30.10.2025 13:59:59",
          "30.10.2025 14:00:29",
          "30.10.2025 14:01:08",
          "30.10.2025 14:01:38",
          "30.10.2025 14:02:08",
          "30.10.2025 14:02:36",
          "30.10.2025 14:03:06",
          "30.10.2025 14:03:36",
          "30.10.2025 14:04:07",
          "30.10.2025 14:04:37",
          "30.10.2025 14:05:07",
          "30.10.2025 14:05:28",
          "30.10.2025 14:05:44",
          "30.10.2025 14:06:14",
          "30.10.2025 14:06:44",
          "30.10.2025 14:07:00",
          "30.10.2025 14:07:30",
          "30.10.2025 14:08:00",
          "30.10.2025 14:08:30",
          "30.10.2025 14:08:53",
          "30.10.2025 14:09:23",
          "30.10.2025 14:10:02",
          "30.10.2025 14:10:32",
          "30.10.2025 14:10:56",
          "30.10.2025 14:11:26",
          "30.10.2025 14:11:56",
          "30.10.2025 14:12:26",
          "30.10.2025 14:12:56",
          "30.10.2025 14:13:26",
          "30.10.2025 14:13:50",
          "30.10.2025 14:14:20",
          "30.10.2025 14:14:50",
          "30.10.2025 14:15:20",
          "30.10.2025 14:15:42",
          "30.10.2025 14:16:35",
          "30.10.2025 14:16:52",
          "30.10.2025 14:17:22",
          "30.10.2025 14:17:43",
          "30.10.2025 14:18:05",
          "30.10.2025 14:18:21",
          "30.10.2025 14:18:38",
          "30.10.2025 14:19:08",
          "30.10.2025 14:19:38",
          "30.10.2025 14:20:15",
          "30.10.2025 14:20:43",
          "30.10.2025 14:21:27",
          "30.10.2025 14:21:55",
          "30.10.2025 14:22:25",
          "30.10.2025 14:22:55",
          "30.10.2025 14:23:22",
          "30.10.2025 14:23:47",
          "30.10.2025 14:24:17",
          "30.10.2025 14:24:45",
          "30.10.2025 14:25:15",
          "30.10.2025 14:25:45",
          "30.10.2025 14:26:44",
          "30.10.2025 14:27:14",
          "30.10.2025 14:27:44",
          "30.10.2025 14:28:14",
          "30.10.2025 14:28:44",
          "30.10.2025 14:29:14",
          "30.10.2025 14:29:44",
          "30.10.2025 14:30:14",
          "30.10.2025 14:30:44",
          "30.10.2025 14:31:14",
          "30.10.2025 14:31:44",
          "30.10.2025 14:32:14",
          "30.10.2025 14:32:44",
          "30.10.2025 14:33:14",
          "30.10.2025 14:33:44",
          "30.10.2025 14:34:14",
          "30.10.2025 14:34:44",
          "30.10.2025 14:35:14",
          "30.10.2025 14:36:02",
          "30.10.2025 14:36:32",
          "30.10.2025 14:36:56",
          "30.10.2025 14:37:19",
          "30.10.2025 14:37:49",
          "30.10.2025 14:38:27",
          "30.10.2025 14:38:48",
          "30.10.2025 14:39:26",
          "30.10.2025 14:39:49",
          "30.10.2025 14:40:36",
          "30.10.2025 14:41:17",
          "30.10.2025 14:41:47",
          "30.10.2025 14:42:17",
          "30.10.2025 14:42:47",
          "30.10.2025 14:43:17",
          "30.10.2025 14:43:42",
          "30.10.2025 14:44:18",
          "30.10.2025 14:44:52",
          "30.10.2025 14:45:29",
          "30.10.2025 14:45:59",
          "30.10.2025 14:46:17",
          "30.10.2025 14:46:37",
          "30.10.2025 14:46:57",
          "30.10.2025 14:47:15",
          "30.10.2025 14:47:45",
          "30.10.2025 14:48:06",
          "30.10.2025 14:48:36",
          "30.10.2025 14:49:03",
          "30.10.2025 14:49:23",
          "30.10.2025 14:49:44",
          "30.10.2025 14:50:07",
          "30.10.2025 14:50:23",
          "30.10.2025 14:50:40",
          "30.10.2025 14:51:00",
          "30.10.2025 14:51:25",
          "30.10.2025 14:51:44",
          "30.10.2025 14:52:14",
          "30.10.2025 14:52:39",
          "30.10.2025 14:53:07",
          "30.10.2025 14:53:27",
          "30.10.2025 14:53:44",
          "30.10.2025 14:54:00",
          "30.10.2025 14:54:19",
          "30.10.2025 14:54:39",
          "30.10.2025 14:55:09",
          "30.10.2025 14:55:33",
          "30.10.2025 14:55:57",
          "30.10.2025 14:56:23",
          "30.10.2025 14:56:49",
          "30.10.2025 14:57:06",
          "30.10.2025 14:57:24",
          "30.10.2025 14:57:42",
          "30.10.2025 14:58:06",
          "30.10.2025 14:58:26",
          "30.10.2025 14:58:44",
          "30.10.2025 14:59:10",
          "30.10.2025 14:59:37",
          "30.10.2025 14:59:45",
          "30.10.2025 14:59:53",
          "30.10.2025 15:00:09",
          "30.10.2025 15:00:25",
          "30.10.2025 15:00:41",
          "30.10.2025 15:00:57",
          "30.10.2025 15:01:13",
          "30.10.2025 15:01:29",
          "30.10.2025 15:01:45"
        ],
        "course_deg_clockwise_from_north": [
          "229",
          "243",
          "281",
          "291",
          "292",
          "287",
          "316",
          "355",
          "24",
          "35",
          "41",
          "42",
          "41",
          "40",
          "36",
          "10",
          "1",
          "356",
          "355",
          "357",
          "357",
          "357",
          "357",
          "357",
          "357",
          "357",
          "357",
          "357",
          "357",
          "357",
          "357",
          "357",
          "357",
          "357",
          "357",
          "357",
          "357",
          "357",
          "357",
          "357",
          "357",
          "357",
          "357",
          "357",
          "357",
          "357",
          "357",
          "357",
          "357",
          "357",
          "357",
          "357",
          "355",
          "344",
          "337",
          "334",
          "334",
          "335",
          "335",
          "335",
          "335",
          "335",
          "335",
          "335",
          "335",
          "335",
          "335",
          "335",
          "335",
          "335",
          "335",
          "333",
          "331",
          "332",
          "332",
          "331",
          "331",
          "331",
          "332",
          "332",
          "331",
          "332",
          "331",
          "331",
          "331",
          "331",
          "331",
          "331",
          "331",
          "332",
          "331",
          "331",
          "331",
          "331",
          "331",
          "331",
          "331",
          "330",
          "331",
          "331",
          "331",
          "331",
          "332",
          "336",
          "336",
          "336",
          "336",
          "336",
          "334",
          "326",
          "322",
          "319",
          "320",
          "321",
          "321",
          "321",
          "321",
          "321",
          "321",
          "321",
          "320",
          "320",
          "322",
          "321",
          "321",
          "321",
          "320",
          "320",
          "320",
          "320",
          "321",
          "320",
          "320",
          "320",
          "320",
          "320",
          "320",
          "320",
          "320",
          "320",
          "320",
          "320",
          "320",
          "321",
          "321",
          "322",
          "323",
          "321",
          "311",
          "305",
          "302",
          "302",
          "303",
          "304",
          "303",
          "303",
          "303",
          "303",
          "303",
          "303",
          "303",
          "303",
          "303",
          "304",
          "333",
          "348",
          "353",
          "354",
          "353",
          "352",
          "353",
          "353",
          "353",
          "352",
          "348",
          "345",
          "343",
          "342",
          "343",
          "344",
          "344",
          "344",
          "343",
          "324",
          "316",
          "313",
          "311",
          "312",
          "314",
          "309",
          "305",
          "305",
          "300",
          "252",
          "226",
          "213",
          "207",
          "212",
          "215",
          "215",
          "215",
          "215",
          "213",
          "216",
          "215",
          "215",
          "216",
          "214",
          "215"
        ],
        "speed_kts": [
          "150",
          "159",
          "166",
          "164",
          "172",
          "175",
          "203",
          "221",
          "227",
          "235",
          "235",
          "247",
          "274",
          "310",
          "317",
          "326",
          "327",
          "337",
          "347",
          "358",
          "366",
          "382",
          "395",
          "407",
          "417",
          "427",
          "433",
          "438",
          "449",
          "465",
          "470",
          "472",
          "467",
          "460",
          "449",
          "448",
          "450",
          "453",
          "459",
          "459",
          "456",
          "449",
          "443",
          "440",
          "440",
          "441",
          "440",
          "439",
          "439",
          "437",
          "434",
          "433",
          "431",
          "425",
          "423",
          "424",
          "416",
          "415",
          "412",
          "412",
          "414",
          "415",
          "417",
          "419",
          "422",
          "423",
          "424",
          "425",
          "427",
          "429",
          "430",
          "429",
          "425",
          "419",
          "406",
          "401",
          "401",
          "403",
          "406",
          "411",
          "414",
          "417",
          "418",
          "419",
          "419",
          "421",
          "422",
          "422",
          "423",
          "422",
          "421",
          "418",
          "417",
          "417",
          "417",
          "417",
          "410",
          "404",
          "391",
          "377",
          "370",
          "376",
          "381",
          "385",
          "375",
          "375",
          "376",
          "375",
          "376",
          "372",
          "371",
          "370",
          "370",
          "370",
          "369",
          "370",
          "371",
          "364",
          "357",
          "357",
          "365",
          "376",
          "382",
          "390",
          "396",
          "398",
          "397",
          "396",
          "395",
          "394",
          "394",
          "395",
          "396",
          "395",
          "394",
          "393",
          "391",
          "381",
          "380",
          "386",
          "399",
          "401",
          "398",
          "395",
          "393",
          "393",
          "392",
          "390",
          "384",
          "380",
          "377",
          "375",
          "367",
          "355",
          "335",
          "321",
          "319",
          "324",
          "324",
          "317",
          "322",
          "323",
          "297",
          "276",
          "265",
          "273",
          "276",
          "277",
          "275",
          "268",
          "263",
          "260",
          "257",
          "255",
          "251",
          "243",
          "233",
          "224",
          "218",
          "217",
          "223",
          "228",
          "237",
          "237",
          "240",
          "241",
          "240",
          "222",
          "214",
          "202",
          "188",
          "176",
          "178",
          "175",
          "180",
          "177",
          "161",
          "150",
          "124",
          "126",
          "129",
          "123",
          "115",
          "114",
          "113",
          "114",
          "115",
          "119",
          "120"
        ],
        "speed_mph": [
          "173",
          "183",
          "191",
          "189",
          "198",
          "201",
          "234",
          "254",
          "261",
          "270",
          "270",
          "284",
          "315",
          "357",
          "365",
          "375",
          "376",
          "388",
          "399",
          "412",
          "421",
          "440",
          "455",
          "468",
          "480",
          "491",
          "498",
          "504",
          "517",
          "535",
          "541",
          "543",
          "537",
          "529",
          "517",
          "516",
          "518",
          "521",
          "528",
          "528",
          "525",
          "517",
          "510",
          "506",
          "506",
          "507",
          "506",
          "505",
          "505",
          "503",
          "499",
          "498",
          "496",
          "489",
          "487",
          "488",
          "479",
          "478",
          "474",
          "474",
          "476",
          "478",
          "480",
          "482",
          "486",
          "487",
          "488",
          "489",
          "491",
          "494",
          "495",
          "494",
          "489",
          "482",
          "467",
          "461",
          "461",
          "464",
          "467",
          "473",
          "476",
          "480",
          "481",
          "482",
          "482",
          "484",
          "486",
          "486",
          "487",
          "486",
          "484",
          "481",
          "480",
          "480",
          "480",
          "480",
          "472",
          "465",
          "450",
          "434",
          "426",
          "433",
          "438",
          "443",
          "432",
          "432",
          "433",
          "432",
          "433",
          "428",
          "427",
          "426",
          "426",
          "426",
          "425",
          "426",
          "427",
          "419",
          "411",
          "411",
          "420",
          "433",
          "440",
          "449",
          "456",
          "458",
          "457",
          "456",
          "455",
          "453",
          "453",
          "455",
          "456",
          "455",
          "453",
          "452",
          "450",
          "438",
          "437",
          "444",
          "459",
          "461",
          "458",
          "455",
          "452",
          "452",
          "451",
          "449",
          "442",
          "437",
          "434",
          "432",
          "422",
          "409",
          "386",
          "369",
          "367",
          "373",
          "373",
          "365",
          "371",
          "372",
          "342",
          "318",
          "305",
          "314",
          "318",
          "319",
          "316",
          "308",
          "303",
          "299",
          "296",
          "293",
          "289",
          "280",
          "268",
          "258",
          "251",
          "250",
          "257",
          "262",
          "273",
          "273",
          "276",
          "277",
          "276",
          "255",
          "246",
          "232",
          "216",
          "203",
          "205",
          "201",
          "207",
          "204",
          "185",
          "173",
          "143",
          "145",
          "148",
          "142",
          "132",
          "131",
          "130",
          "131",
          "132",
          "137",
          "138"
        ],
        "altitude_ft": [
          "400",
          "1150",
          "2125",
          "3150",
          "3850",
          "4650",
          "5500",
          "6400",
          "7600",
          "8625",
          "9950",
          "11675",
          "12925",
          "14050",
          "15000",
          "15750",
          "16550",
          "18100",
          "19450",
          "20700",
          "22000",
          "23100",
          "24125",
          "25125",
          "26150",
          "27200",
          "28150",
          "29175",
          "29925",
          "30325",
          "31050",
          "31775",
          "32825",
          "33925",
          "35125",
          "35975",
          "36550",
          "37050",
          "37400",
          "37850",
          "38350",
          "38975",
          "39650",
          "40225",
          "40625",
          "40925",
          "41225",
          "41550",
          "41825",
          "42100",
          "42450",
          "42725",
          "42900",
          "43000",
          "43000",
          "43000",
          "43000",
          "43000",
          "43000",
          "43000",
          "43000",
          "43000",
          "43000",
          "43000",
          "43000",
          "43000",
          "43000",
          "43000",
          "43000",
          "43000",
          "43000",
          "43000",
          "43000",
          "43000",
          "43000",
          "43000",
          "43000",
          "43000",
          "43000",
          "43000",
          "43000",
          "43000",
          "43000",
          "43000",
          "43000",
          "43000",
          "43000",
          "43000",
          "43000",
          "43000",
          "43000",
          "43000",
          "43000",
          "43000",
          "43000",
          "43000",
          "42950",
          "42275",
          "41575",
          "40975",
          "40225",
          "39525",
          "38775",
          "38225",
          "38000",
          "38000",
          "38000",
          "38000",
          "38000",
          "38000",
          "38000",
          "38000",
          "38000",
          "38000",
          "38000",
          "38000",
          "38000",
          "37950",
          "37275",
          "36600",
          "36025",
          "35225",
          "34650",
          "34150",
          "34000",
          "34000",
          "34000",
          "34000",
          "34000",
          "34000",
          "34000",
          "34000",
          "34000",
          "34000",
          "34000",
          "34000",
          "34000",
          "33425",
          "32450",
          "31475",
          "30425",
          "29425",
          "28450",
          "26875",
          "25900",
          "25100",
          "24300",
          "23325",
          "22050",
          "21375",
          "20075",
          "19325",
          "17750",
          "16350",
          "15350",
          "14400",
          "13425",
          "12425",
          "11625",
          "11025",
          "11000",
          "11000",
          "10975",
          "10675",
          "10325",
          "9975",
          "9700",
          "9175",
          "8825",
          "8300",
          "7825",
          "7525",
          "7175",
          "7000",
          "7000",
          "7000",
          "7000",
          "7000",
          "7000",
          "6850",
          "6575",
          "6300",
          "6125",
          "6000",
          "5750",
          "5450",
          "5125",
          "4575",
          "4200",
          "3975",
          "3700",
          "3425",
          "3300",
          "3175",
          "3000",
          "2800",
          "2475",
          "2175",
          "1825",
          "1450",
          "1350",
          "1275",
          "1100",
          "950",
          "775",
          "625",
          "450",
          "300",
          "125"
        ],
        "vertical_rate_fpm": [
          "",
          "3234",
          "3750",
          "3234",
          "2813",
          "2829",
          "2838",
          "3150",
          "3338",
          "3439",
          "3453",
          "2975",
          "2375",
          "2541",
          "2757",
          "2583",
          "2765",
          "2762",
          "2600",
          "2550",
          "2400",
          "2125",
          "2025",
          "2025",
          "2075",
          "2000",
          "1975",
          "1775",
          "1150",
          "1125",
          "1450",
          "1775",
          "2150",
          "2300",
          "2050",
          "1425",
          "1075",
          "850",
          "800",
          "934",
          "1107",
          "1300",
          "1230",
          "959",
          "700",
          "600",
          "625",
          "600",
          "550",
          "625",
          "625",
          "563",
          "471",
          "182",
          "",
          "",
          "",
          "",
          "",
          "",
          "",
          "",
          "",
          "",
          "",
          "",
          "",
          "",
          "",
          "",
          "",
          "",
          "",
          "",
          "",
          "",
          "",
          "",
          "",
          "",
          "",
          "",
          "",
          "",
          "",
          "",
          "",
          "",
          "",
          "",
          "",
          "",
          "",
          "",
          "",
          "-50",
          "-725",
          "-1375",
          "-1444",
          "-1500",
          "-1450",
          "-1450",
          "-1500",
          "-620",
          "-193",
          "",
          "",
          "",
          "",
          "",
          "",
          "",
          "",
          "",
          "",
          "",
          "-52",
          "-725",
          "-1421",
          "-1442",
          "-1500",
          "-1422",
          "-1112",
          "-650",
          "-101",
          "",
          "",
          "",
          "",
          "",
          "",
          "",
          "",
          "",
          "",
          "",
          "-575",
          "-1550",
          "-1950",
          "-2025",
          "-2050",
          "-1975",
          "-1962",
          "-1962",
          "-1972",
          "-2043",
          "-2009",
          "-1985",
          "-1983",
          "-2008",
          "-2016",
          "-1993",
          "-2028",
          "-2028",
          "-1950",
          "-1925",
          "-1975",
          "-1964",
          "-1377",
          "-536",
          "-21",
          "-22",
          "-406",
          "-1026",
          "-1050",
          "-987",
          "-1000",
          "-1029",
          "-1029",
          "-1053",
          "-989",
          "-951",
          "-716",
          "-269",
          "",
          "",
          "",
          "",
          "-184",
          "-464",
          "-623",
          "-563",
          "-486",
          "-682",
          "-943",
          "-962",
          "-1050",
          "-1028",
          "-750",
          "-600",
          "-635",
          "-558",
          "-429",
          "-500",
          "-536",
          "-716",
          "-987",
          "-886",
          "-821",
          "-814",
          "-656",
          "-625",
          "-609",
          "-609",
          "-609",
          "-609",
          "-609",
          "-609",
          "-656"
        ],
        "reporting_facility": [
          "FlightAware ADS-B(FLR / LIRQ)",
          "FlightAware ADS-B(FLR / LIRQ)",
          "FlightAware ADS-B(FLR / LIRQ)",
          "FlightAware ADS-B(FLR / LIRQ)",
          "FlightAware ADS-B(FLR / LIRQ)",
          "FlightAware ADS-B(FLR / LIRQ)",
          "FlightAware ADS-B(EBA / LIRJ)",
          "FlightAware ADS-B(FLR / LIRQ)",
          "FlightAware ADS-B(FLR / LIRQ)",
          "FlightAware ADS-B(LIDG)",
          "FlightAware ADS-B(BLQ / LIPE)",
          "FlightAware ADS-B(PMF / LIMP)",
          "FlightAware ADS-B(BLQ / LIPE)",
          "FlightAware ADS-B(VRN / LIPX)",
          "FlightAware ADS-B(LIDF)",
          "FlightAware ADS-B(GOA / LIMJ)",
          "FlightAware ADS-B(LIPM)",
          "FlightAware ADS-B(BLQ / LIPE)",
          "FlightAware ADS-B(FLR / LIRQ)",
          "FlightAware ADS-B(RMI / LIPR)",
          "FlightAware ADS-B(RMI / LIPR)",
          "FlightAware ADS-B(LIKO)",
          "FlightAware ADS-B(BLQ / LIPE)",
          "FlightAware ADS-B(BLQ / LIPE)",
          "FlightAware ADS-B(BLQ / LIPE)",
          "FlightAware ADS-B(MXP / LIMC)",
          "FlightAware ADS-B(AOI / LIPY)",
          "FlightAware ADS-B(LIPU)",
          "FlightAware ADS-B(LIPM)",
          "FlightAware ADS-B(LJAJ)",
          "FlightAware ADS-B(VIC / LIPT)",
          "FlightAware ADS-B(LIN / LIML)",
          "FlightAware ADS-B(VIC / LIPT)",
          "FlightAware ADS-B(LIMB)",
          "FlightAware ADS-B(BLQ / LIPE)",
          "FlightAware ADS-B(LIPU)",
          "FlightAware ADS-B(EBA / LIRJ)",
          "FlightAware ADS-B(PEG / LIRZ)",
          "FlightAware ADS-B(PEG / LIRZ)",
          "FlightAware ADS-B(EDMI)",
          "FlightAware ADS-B(PEG / LIRZ)",
          "FlightAware ADS-B(PEG / LIRZ)",
          "FlightAware ADS-B(LIPU)",
          "FlightAware ADS-B(LIPF)",
          "FlightAware ADS-B(AGB / EDMA)",
          "FlightAware ADS-B(ETSA)",
          "FlightAware ADS-B(MUC / EDDM)",
          "FlightAware ADS-B(VCE / LIPZ)",
          "FlightAware ADS-B(EDPR)",
          "FlightAware ADS-B(EBA / LIRJ)",
          "FlightAware ADS-B(MXP / LIMC)",
          "FlightAware ADS-B(LIDT)",
          "FlightAware ADS-B(EDNA)",
          "FlightAware ADS-B(FMM / EDJA)",
          "FlightAware ADS-B(LILE)",
          "FlightAware ADS-B(LIDT)",
          "FlightAware ADS-B(BZO / LIPB)",
          "FlightAware ADS-B(BZO / LIPB)",
          "FlightAware ADS-B(BZO / LIPB)",
          "FlightAware ADS-B(FDH / EDNY)",
          "FlightAware ADS-B(LILC)",
          "FlightAware ADS-B(LILC)",
          "FlightAware ADS-B(FDH / EDNY)",
          "FlightAware ADS-B(ACH / LSZR)",
          "FlightAware ADS-B(EAP / LFSB)",
          "FlightAware ADS-B(BZO / LIPB)",
          "FlightAware ADS-B(BZO / LIPB)",
          "FlightAware ADS-B(EAP / LFSB)",
          "FlightAware ADS-B(EAP / LFSB)",
          "FlightAware ADS-B(OBF / EDMO)",
          "FlightAware ADS-B(TRN / LIMF)",
          "FlightAware ADS-B(MUC / EDDM)",
          "FlightAware ADS-B(VIP / LSMP)",
          "FlightAware ADS-B(ETSA)",
          "FlightAware ADS-B(HOH / LOIH)",
          "FlightAware ADS-B(MUC / EDDM)",
          "FlightAware ADS-B(EDNX)",
          "FlightAware ADS-B(EDSH)",
          "FlightAware ADS-B(ETHA)",
          "FlightAware ADS-B(LSPL)",
          "FlightAware ADS-B(ZRH / LSZH)",
          "FlightAware ADS-B(MUC / EDDM)",
          "FlightAware ADS-B(MUC / EDDM)",
          "FlightAware ADS-B(NUE / EDDN)",
          "FlightAware ADS-B(EDTU)",
          "FlightAware ADS-B(MUC / EDDM)",
          "FlightAware ADS-B(EDMG)",
          "FlightAware ADS-B(STR / EDDS)",
          "FlightAware ADS-B(FDH / EDNY)",
          "FlightAware ADS-B(EDMG)",
          "FlightAware ADS-B(EDTZ)",
          "FlightAware ADS-B(EDMG)",
          "FlightAware ADS-B(STR / EDDS)",
          "FlightAware ADS-B(LSZV)",
          "FlightAware ADS-B(EAP / LFSB)",
          "FlightAware ADS-B(STR / EDDS)",
          "FlightAware ADS-B(STR / EDDS)",
          "FlightAware ADS-B(MUC / EDDM)",
          "FlightAware ADS-B(IGS / ETSI)",
          "FlightAware ADS-B(MUC / EDDM)",
          "FlightAware ADS-B(ENC / LFSN)",
          "FlightAware ADS-B(NUE / EDDN)",
          "FlightAware ADS-B(STR / EDDS)",
          "FlightAware ADS-B(EDSG)",
          "FlightAware ADS-B(EDTO)",
          "FlightAware ADS-B(MUC / EDDM)",
          "FlightAware ADS-B(BZO / LIPB)",
          "FlightAware ADS-B(SCN / EDDR)",
          "FlightAware ADS-B(STR / EDDS)",
          "FlightAware ADS-B(EDTC)",
          "FlightAware ADS-B(FRA / EDDF)",
          "FlightAware ADS-B(MHG / EDFM)",
          "FlightAware ADS-B(LEJ / EDDP)",
          "FlightAware ADS-B(EDRI)",
          "FlightAware ADS-B(GHF / EDQG)",
          "FlightAware ADS-B(EDRL)",
          "FlightAware ADS-B(EDMG)",
          "FlightAware ADS-B(STR / EDDS)",
          "FlightAware ADS-B(EDFZ)",
          "FlightAware ADS-B(FKB / EDSB)",
          "FlightAware ADS-B(EDTC)",
          "FlightAware ADS-B(EDNQ)",
          "FlightAware ADS-B(DUS / EDDL)",
          "FlightAware ADS-B(FRZ / ETHF)",
          "FlightAware ADS-B(EDGP)",
          "FlightAware ADS-B(ETNN)",
          "FlightAware ADS-B(CGN / EDDK)",
          "FlightAware ADS-B(EDMG)",
          "FlightAware ADS-B(BBJ / EDRB)",
          "FlightAware ADS-B(EDFZ)",
          "FlightAware ADS-B(EDRY)",
          "FlightAware ADS-B(EDFZ)",
          "FlightAware ADS-B(FRA / EDDF)",
          "FlightAware ADS-B(DTM / EDLW)",
          "FlightAware ADS-B(EDRA)",
          "FlightAware ADS-B(EDFZ)",
          "FlightAware ADS-B(STR / EDDS)",
          "FlightAware ADS-B(ETOU)",
          "FlightAware ADS-B(EDEP)",
          "FlightAware ADS-B(CGN / EDDK)",
          "FlightAware ADS-B(NUE / EDDN)",
          "FlightAware ADS-B(LUX / ELLX)",
          "FlightAware ADS-B(EDFW)",
          "FlightAware ADS-B(STR / EDDS)",
          "FlightAware ADS-B(MGL / EDLN)",
          "FlightAware ADS-B(DUS / EDDL)",
          "FlightAware ADS-B(EHTE)",
          "FlightAware ADS-B(EBCF)",
          "FlightAware ADS-B(MST / EHBK)",
          "FlightAware ADS-B(FRA / EDDF)",
          "FlightAware ADS-B(EDKL)",
          "FlightAware ADS-B(DUS / EDDL)",
          "FlightAware ADS-B(EBHL)",
          "FlightAware ADS-B(AAH / EDKA)",
          "FlightAware ADS-B(AAH / EDKA)",
          "FlightAware ADS-B(GKE / ETNG)",
          "FlightAware ADS-B(DTM / EDLW)",
          "FlightAware ADS-B(EDLM)",
          "FlightAware ADS-B(DUS / EDDL)",
          "FlightAware ADS-B(AAH / EDKA)",
          "FlightAware ADS-B(MST / EHBK)",
          "FlightAware ADS-B(MST / EHBK)",
          "FlightAware ADS-B(EDLG)",
          "FlightAware ADS-B(MGL / EDLN)",
          "FlightAware ADS-B(RTM / EHRD)",
          "FlightAware ADS-B(EHBD)",
          "FlightAware ADS-B(EIN / EHEH)",
          "FlightAware ADS-B(BRU / EBBR)",
          "FlightAware ADS-B(EBBL)",
          "FlightAware ADS-B(EDKL)",
          "FlightAware ADS-B(RTM / EHRD)",
          "FlightAware ADS-B(DUS / EDDL)",
          "FlightAware ADS-B(UDE / EHVK)",
          "FlightAware ADS-B(EIN / EHEH)",
          "FlightAware ADS-B(EHSE)",
          "FlightAware ADS-B(EDLD)",
          "FlightAware ADS-B(ETNN)",
          "FlightAware ADS-B(EHAK)",
          "FlightAware ADS-B(EBBH)",
          "FlightAware ADS-B(EBBH)",
          "FlightAware ADS-B(EDLB)",
          "FlightAware ADS-B(GKE / ETNG)",
          "FlightAware ADS-B(ANR / EBAW)",
          "FlightAware ADS-B(RTM / EHRD)",
          "FlightAware ADS-B(NRN / EDLV)",
          "FlightAware ADS-B(DUS / EDDL)",
          "FlightAware ADS-B(RTM / EHRD)",
          "FlightAware ADS-B(EHBD)",
          "FlightAware ADS-B(EHDB)",
          "FlightAware ADS-B(EBDT)",
          "FlightAware ADS-B(EHTE)",
          "FlightAware ADS-B(UDE / EHVK)",
          "FlightAware ADS-B(EHDL)",
          "FlightAware ADS-B(EIN / EHEH)",
          "FlightAware ADS-B(EBBL)",
          "FlightAware ADS-B(MST / EHBK)",
          "FlightAware ADS-B(GLZ / EHGR)",
          "FlightAware ADS-B(EIN / EHEH)",
          "FlightAware ADS-B(UDE / EHVK)",
          "FlightAware ADS-B(NRN / EDLV)",
          "Surface and Near-Surface",
          "FlightAware ADS-B(RTM / EHRD)",
          "FlightAware ADS-B(RTM / EHRD)",
          "FlightAware ADS-B(EHDL)",
          "FlightAware ADS-B(GLZ / EHGR)",
          "FlightAware ADS-B(GLZ / EHGR)",
          "FlightAware ADS-B(EIN / EHEH)",
          "FlightAware ADS-B(EIN / EHEH)",
          "FlightAware ADS-B(EIN / EHEH)"
        ]
      }
    }
  ]
}