{
  "type": "FeatureCollection",
  "features": [
    {
      "type": "Feature",
      "geometry": {
        "type": "LineString",
        "coordinates": [
          [
            -1.704,
            55.0346
          ],
          [
            -1.704,
            55.0346
          ],
          [
            -1.7217,
            55.0312
          ],
          [
            -1.7386,
            55.0263
          ],
          [
            -1.7608,
            55.02
          ],
          [
            -1.789,
            55.0089
          ],
          [
            -1.8135,
            54.9874
          ],
          [
            -1.8304,
            54.9501
          ],
          [
            -1.8406,
            54.932
          ],
          [
            -1.8567,
            54.8862
          ],
          [
            -1.8717,
            54.8432
          ],
          [
            -1.8933,
            54.7976
          ],
          [
            -1.9171,
            54.7509
          ],
          [
            -1.9406,
            54.7038
          ],
          [
            -1.9628,
            54.6525
          ],
          [
            -1.9742,
            54.598
          ],
          [
            -1.9607,
            54.5234
          ],
          [
            -1.944,
            54.4625
          ],
          [
            -1.9315,
            54.3362
          ],
          [
            -1.9148,
            54.2878
          ],
          [
            -1.8278,
            54.2462
          ],
          [
            -1.5181,
            54.1723
          ],
          [
            -1.4121,
            54.1417
          ],
          [
            -1.3149,
            54.1144
          ],
          [
            -1.2071,
            54.081
          ],
          [
            -1.1089,
            54.0508
          ],
          [
            -1.0144,
            54.0226
          ],
          [
            -0.9032,
            53.9906
          ],
          [
            -0.8006,
            53.9608
          ],
          [
            -0.7037,
            53.9311
          ],
          [
            -0.6081,
            53.9016
          ],
          [
            -0.5078,
            53.8713
          ],
          [
            -0.4098,
            53.8415
          ],
          [
            -0.3055,
            53.8086
          ],
          [
            -0.2083,
            53.7799
          ],
          [
            -0.1119,
            53.7481
          ],
          [
            -0.0143,
            53.7175
          ],
          [
            0.0912,
            53.6945
          ],
          [
            0.2072,
            53.6712
          ],
          [
            0.3128,
            53.6518
          ],
          [
            0.4213,
            53.6269
          ],
          [
            0.5268,
            53.6043
          ],
          [
            0.637,
            53.5805
          ],
          [
            0.7372,
            53.5593
          ],
          [
            0.8444,
            53.5355
          ],
          [
            0.9451,
            53.5131
          ],
          [
            1.0556,
            53.4879
          ],
          [
            1.1593,
            53.4651
          ],
          [
            1.261,
            53.4418
          ],
          [
            1.363,
            53.4186
          ],
          [
            1.4603,
            53.3962
          ],
          [
            1.558,
            53.3744
          ],
          [
            1.662,
            53.3499
          ],
          [
            1.761,
            53.327
          ],
          [
            1.8606,
            53.3039
          ],
          [
            2.0081,
            53.2693
          ],
          [
            2.1085,
            53.2456
          ],
          [
            2.2091,
            53.2221
          ],
          [
            2.3074,
            53.1984
          ],
          [
            2.4064,
            53.1747
          ],
          [
            2.5073,
            53.1507
          ],
          [
            2.6081,
            53.1266
          ],
          [
            2.7169,
            53.0997
          ],
          [
            2.834,
            53.0713
          ],
          [
            2.897,
            53.0559
          ],
          [
            2.9711,
            53.0384
          ],
          [
            3.1195,
            53.0015
          ],
          [
            3.2178,
            52.9767
          ],
          [
            3.3165,
            52.9528
          ],
          [
            3.4167,
            52.9276
          ],
          [
            3.5146,
            52.9022
          ],
          [
            3.6066,
            52.8799
          ],
          [
            3.6797,
            52.8598
          ],
          [
            3.7408,
            52.8341
          ],
          [
            3.8083,
            52.794
          ],
          [
            3.886,
            52.7419
          ],
          [
            3.9601,
            52.6916
          ],
          [
            4.032,
            52.6448
          ],
          [
            4.1078,
            52.5937
          ],
          [
            4.1787,
            52.5469
          ],
          [
            4.2429,
            52.5044
          ],
          [
            4.3123,
            52.4576
          ],
          [
            4.3866,
            52.4081
          ],
          [
            4.4568,
            52.3608
          ],
          [
            4.5313,
            52.3106
          ],
          [
            4.5722,
            52.2829
          ],
          [
            4.6355,
            52.2404
          ],
          [
            4.7061,
            52.1921
          ],
          [
            4.7762,
            52.1439
          ],
          [
            4.8725,
            52.0785
          ],
          [
            4.9293,
            52.0398
          ],
          [
            4.9718,
            52.016
          ],
          [
            5.0204,
            51.9913
          ],
          [
            5.0676,
            51.9677
          ],
          [
            5.1768,
            51.9127
          ],
          [
            5.2149,
            51.8937
          ],
          [
            5.2963,
            51.8533
          ],
          [
            5.3659,
            51.8084
          ],
          [
            5.4134,
            51.7714
          ],
          [
            5.4456,
            51.7461
          ],
          [
            5.4832,
            51.7168
          ],
          [
            5.5477,
            51.6666
          ],
          [
            5.6075,
            51.622
          ],
          [
            5.6677,
            51.5765
          ],
          [
            5.7261,
            51.5311
          ],
          [
            5.787,
            51.4849
          ],
          [
            5.8442,
            51.4407
          ],
          [
            5.9013,
            51.3972
          ],
          [
            5.9583,
            51.3531
          ],
          [
            6.017,
            51.3083
          ],
          [
            6.0483,
            51.2842
          ],
          [
            6.1179,
            51.2297
          ],
          [
            6.1749,
            51.1875
          ],
          [
            6.2293,
            51.1473
          ],
          [
            6.2841,
            51.1066
          ],
          [
            6.3402,
            51.0646
          ],
          [
            6.3715,
            51.0428
          ],
          [
            6.4071,
            51.023
          ],
          [
            6.4571,
            50.9965
          ],
          [
            6.4944,
            50.9764
          ],
          [
            6.5584,
            50.9417
          ],
          [
            6.6178,
            50.9092
          ],
          [
            6.6652,
            50.8833
          ],
          [
            6.7221,
            50.852
          ],
          [
            6.7809,
            50.8195
          ],
          [
            6.8142,
            50.8013
          ],
          [
            6.8724,
            50.7748
          ],
          [
            6.9125,
            50.7574
          ],
          [
            6.9622,
            50.7346
          ],
          [
            7.0003,
            50.7218
          ],
          [
            7.0624,
            50.7031
          ],
          [
            7.1084,
            50.6892
          ],
          [
            7.1432,
            50.6818
          ],
          [
            7.1809,
            50.6747
          ],
          [
            7.214,
            50.6717
          ],
          [
            7.2656,
            50.6732
          ],
          [
            7.2935,
            50.6763
          ],
          [
            7.3305,
            50.6855
          ],
          [
            7.3522,
            50.6943
          ],
          [
            7.3595,
            50.7084
          ],
          [
            7.3521,
            50.7251
          ],
          [
            7.3386,
            50.7363
          ],
          [
            7.3176,
            50.7504
          ],
          [
            7.2896,
            50.7696
          ],
          [
            7.2777,
            50.7753
          ],
          [
            7.2721,
            50.7767
          ],
          [
            7.2521,
            50.7816
          ],
          [
            7.2378,
            50.7902
          ],
          [
            7.2252,
            50.7987
          ],
          [
            7.2145,
            50.806
          ],
          [
            7.2035,
            50.8135
          ],
          [
            7.1936,
            50.8205
          ],
          [
            7.1838,
            50.8274
          ],
          [
            7.1746,
            50.8339
          ],
          [
            7.1644,
            50.8408
          ],
          [
            7.1554,
            50.8471
          ],
          [
            7.1462,
            50.8534
          ]
        ]
      },
      "properties": {
        "time_europe_berlin": [
          "09.10.2025 18:55:24",
          "09.10.2025 18:55:24",
          "09.10.2025 18:55:41",
          "09.10.2025 18:55:57",
          "09.10.2025 18:56:14",
          "09.10.2025 18:56:34",
          "09.10.2025 18:57:00",
          "09.10.2025 18:57:34",
          "09.10.2025 18:57:50",
          "09.10.2025 18:58:22",
          "09.10.2025 18:58:52",
          "09.10.2025 18:59:24",
          "09.10.2025 18:59:55",
          "09.10.2025 19:00:25",
          "09.10.2025 19:00:55",
          "09.10.2025 19:01:25",
          "09.10.2025 19:02:04",
          "09.10.2025 19:02:34",
          "09.10.2025 19:03:40",
          "09.10.2025 19:04:09",
          "09.10.2025 19:04:48",
          "09.10.2025 19:06:10",
          "09.10.2025 19:06:43",
          "09.10.2025 19:07:14",
          "09.10.2025 19:07:48",
          "09.10.2025 19:08:20",
          "09.10.2025 19:08:50",
          "09.10.2025 19:09:24",
          "09.10.2025 19:09:56",
          "09.10.2025 19:10:26",
          "09.10.2025 19:10:57",
          "09.10.2025 19:11:29",
          "09.10.2025 19:12:00",
          "09.10.2025 19:12:31",
          "09.10.2025 19:13:02",
          "09.10.2025 19:13:33",
          "09.10.2025 19:14:03",
          "09.10.2025 19:14:33",
          "09.10.2025 19:15:06",
          "09.10.2025 19:15:36",
          "09.10.2025 19:16:08",
          "09.10.2025 19:16:39",
          "09.10.2025 19:17:11",
          "09.10.2025 19:17:41",
          "09.10.2025 19:18:13",
          "09.10.2025 19:18:43",
          "09.10.2025 19:19:16",
          "09.10.2025 19:19:47",
          "09.10.2025 19:20:18",
          "09.10.2025 19:20:48",
          "09.10.2025 19:21:18",
          "09.10.2025 19:21:48",
          "09.10.2025 19:22:18",
          "09.10.2025 19:22:48",
          "09.10.2025 19:23:18",
          "09.10.2025 19:24:02",
          "09.10.2025 19:24:32",
          "09.10.2025 19:25:02",
          "09.10.2025 19:25:32",
          "09.10.2025 19:26:02",
          "09.10.2025 19:26:32",
          "09.10.2025 19:27:02",
          "09.10.2025 19:27:36",
          "09.10.2025 19:28:11",
          "09.10.2025 19:28:30",
          "09.10.2025 19:28:52",
          "09.10.2025 19:29:37",
          "09.10.2025 19:30:07",
          "09.10.2025 19:30:37",
          "09.10.2025 19:31:07",
          "09.10.2025 19:31:37",
          "09.10.2025 19:32:06",
          "09.10.2025 19:32:28",
          "09.10.2025 19:32:49",
          "09.10.2025 19:33:16",
          "09.10.2025 19:33:46",
          "09.10.2025 19:34:16",
          "09.10.2025 19:34:46",
          "09.10.2025 19:35:16",
          "09.10.2025 19:35:46",
          "09.10.2025 19:36:11",
          "09.10.2025 19:36:41",
          "09.10.2025 19:37:11",
          "09.10.2025 19:37:41",
          "09.10.2025 19:38:11",
          "09.10.2025 19:38:28",
          "09.10.2025 19:38:55",
          "09.10.2025 19:39:25",
          "09.10.2025 19:39:55",
          "09.10.2025 19:40:36",
          "09.10.2025 19:41:00",
          "09.10.2025 19:41:17",
          "09.10.2025 19:41:35",
          "09.10.2025 19:41:53",
          "09.10.2025 19:42:32",
          "09.10.2025 19:42:49",
          "09.10.2025 19:43:19",
          "09.10.2025 19:43:49",
          "09.10.2025 19:44:13",
          "09.10.2025 19:44:29",
          "09.10.2025 19:44:48",
          "09.10.2025 19:45:18",
          "09.10.2025 19:45:48",
          "09.10.2025 19:46:18",
          "09.10.2025 19:46:48",
          "09.10.2025 19:47:18",
          "09.10.2025 19:47:48",
          "09.10.2025 19:48:18",
          "09.10.2025 19:48:48",
          "09.10.2025 19:49:18",
          "09.10.2025 19:49:38",
          "09.10.2025 19:50:16",
          "09.10.2025 19:50:46",
          "09.10.2025 19:51:16",
          "09.10.2025 19:51:46",
          "09.10.2025 19:52:17",
          "09.10.2025 19:52:34",
          "09.10.2025 19:52:52",
          "09.10.2025 19:53:15",
          "09.10.2025 19:53:35",
          "09.10.2025 19:54:05",
          "09.10.2025 19:54:35",
          "09.10.2025 19:54:57",
          "09.10.2025 19:55:27",
          "09.10.2025 19:55:57",
          "09.10.2025 19:56:15",
          "09.10.2025 19:56:44",
          "09.10.2025 19:57:04",
          "09.10.2025 19:57:32",
          "09.10.2025 19:57:53",
          "09.10.2025 19:58:23",
          "09.10.2025 19:58:44",
          "09.10.2025 19:59:02",
          "09.10.2025 19:59:20",
          "09.10.2025 19:59:37",
          "09.10.2025 20:00:05",
          "09.10.2025 20:00:22",
          "09.10.2025 20:00:48",
          "09.10.2025 20:01:04",
          "09.10.2025 20:01:20",
          "09.10.2025 20:01:38",
          "09.10.2025 20:01:54",
          "09.10.2025 20:02:16",
          "09.10.2025 20:02:46",
          "09.10.2025 20:02:57",
          "09.10.2025 20:03:02",
          "09.10.2025 20:03:18",
          "09.10.2025 20:03:34",
          "09.10.2025 20:03:50",
          "09.10.2025 20:04:06",
          "09.10.2025 20:04:22",
          "09.10.2025 20:04:38",
          "09.10.2025 20:04:54",
          "09.10.2025 20:05:10",
          "09.10.2025 20:05:26",
          "09.10.2025 20:05:42",
          "09.10.2025 20:05:58"
        ],
        "course_deg_clockwise_from_north": [
          236,
          236,
          247,
          246,
          244,
          239,
          224,
          205,
          202,
          195,
          196,
          196,
          196,
          195,
          190,
          177,
          175,
          176,
          174,
          137,
          116,
          116,
          117,
          116,
          117,
          116,
          117,
          116,
          117,
          117,
          116,
          118,
          117,
          118,
          117,
          118,
          113,
          110,
          110,
          111,
          109,
          110,
          110,
          111,
          110,
          111,
          110,
          111,
          111,
          111,
          111,
          111,
          112,
          110,
          111,
          111,
          112,
          112,
          112,
          111,
          112,
          112,
          111,
          113,
          111,
          112,
          112,
          113,
          112,
          113,
          113,
          113,
          118,
          131,
          137,
          138,
          138,
          137,
          138,
          137,
          138,
          137,
          138,
          138,
          138,
          138,
          138,
          138,
          138,
          138,
          136,
          130,
          129,
          130,
          129,
          129,
          129,
          140,
          142,
          141,
          142,
          141,
          141,
          141,
          140,
          141,
          141,
          141,
          141,
          140,
          142,
          140,
          139,
          140,
          140,
          139,
          135,
          131,
          131,
          130,
          131,
          131,
          131,
          130,
          132,
          129,
          124,
          126,
          124,
          116,
          116,
          113,
          107,
          106,
          90,
          87,
          71,
          68,
          40,
          357,
          332,
          318,
          317,
          317,
          296,
          290,
          298,
          317,
          318,
          317,
          316,
          318,
          319,
          317,
          319,
          317,
          317
        ],
        "speed_kts": [
          77,
          77,
          106,
          125,
          152,
          181,
          201,
          232,
          242,
          298,
          310,
          334,
          346,
          354,
          404,
          418,
          408,
          418,
          424,
          432,
          434,
          446,
          456,
          452,
          446,
          452,
          456,
          458,
          462,
          454,
          454,
          456,
          460,
          462,
          470,
          476,
          472,
          472,
          472,
          474,
          468,
          466,
          464,
          462,
          462,
          462,
          460,
          462,
          462,
          462,
          462,
          464,
          465,
          464,
          465,
          465,
          466,
          466,
          466,
          465,
          466,
          465,
          464,
          466,
          465,
          465,
          464,
          464,
          465,
          465,
          465,
          465,
          469,
          479,
          483,
          484,
          484,
          483,
          481,
          468,
          471,
          473,
          477,
          478,
          477,
          476,
          473,
          470,
          467,
          462,
          463,
          462,
          462,
          461,
          457,
          453,
          441,
          441,
          441,
          441,
          440,
          440,
          424,
          420,
          423,
          423,
          418,
          410,
          402,
          396,
          394,
          388,
          384,
          381,
          383,
          376,
          373,
          372,
          370,
          369,
          368,
          367,
          362,
          350,
          346,
          350,
          329,
          303,
          300,
          304,
          319,
          311,
          294,
          278,
          265,
          243,
          213,
          219,
          217,
          201,
          203,
          203,
          187,
          189,
          185,
          185,
          173,
          163,
          144,
          140,
          136,
          123,
          127,
          121,
          116,
          117,
          118
        ],
        "speed_mph": [
          89.0,
          89.0,
          122.0,
          144.0,
          175.0,
          208.0,
          231.0,
          267.0,
          278.0,
          343.0,
          357.0,
          384.0,
          398.0,
          407.0,
          465.0,
          481.0,
          470.0,
          481.0,
          488.0,
          497.0,
          499.0,
          513.0,
          525.0,
          520.0,
          513.0,
          520.0,
          525.0,
          527.0,
          532.0,
          522.0,
          522.0,
          525.0,
          529.0,
          532.0,
          541.0,
          548.0,
          543.0,
          543.0,
          543.0,
          545.0,
          539.0,
          536.0,
          534.0,
          532.0,
          532.0,
          532.0,
          529.0,
          532.0,
          532.0,
          532.0,
          532.0,
          534.0,
          535.0,
          534.0,
          535.0,
          535.0,
          536.0,
          536.0,
          536.0,
          535.0,
          536.0,
          535.0,
          534.0,
          536.0,
          535.0,
          535.0,
          534.0,
          534.0,
          535.0,
          535.0,
          535.0,
          535.0,
          540.0,
          551.0,
          556.0,
          557.0,
          557.0,
          556.0,
          554.0,
          539.0,
          542.0,
          544.0,
          549.0,
          550.0,
          549.0,
          548.0,
          544.0,
          541.0,
          537.0,
          532.0,
          533.0,
          532.0,
          532.0,
          531.0,
          526.0,
          521.0,
          507.0,
          507.0,
          507.0,
          507.0,
          506.0,
          506.0,
          488.0,
          483.0,
          487.0,
          487.0,
          481.0,
          472.0,
          463.0,
          456.0,
          453.0,
          447.0,
          442.0,
          438.0,
          441.0,
          433.0,
          429.0,
          428.0,
          426.0,
          425.0,
          423.0,
          422.0,
          417.0,
          403.0,
          398.0,
          403.0,
          379.0,
          349.0,
          345.0,
          350.0,
          367.0,
          358.0,
          338.0,
          320.0,
          305.0,
          280.0,
          245.0,
          252.0,
          250.0,
          231.0,
          234.0,
          234.0,
          215.0,
          217.0,
          213.0,
          213.0,
          199.0,
          188.0,
          166.0,
          161.0,
          157.0,
          142.0,
          146.0,
          139.0,
          133.0,
          135.0,
          136.0
        ],
        "altitude_ft": [
          900,
          900,
          1900,
          2550,
          3350,
          4475,
          5625,
          6875,
          7600,
          9600,
          11125,
          12300,
          13700,
          14775,
          15000,
          15700,
          17375,
          18125,
          19975,
          20800,
          21800,
          23875,
          24475,
          25500,
          26750,
          27675,
          28475,
          29400,
          30275,
          31350,
          32300,
          33075,
          33850,
          34600,
          34975,
          35000,
          35000,
          35000,
          35000,
          35000,
          35000,
          35000,
          35000,
          35000,
          35000,
          35000,
          35000,
          35000,
          35000,
          35000,
          35000,
          35000,
          35000,
          35000,
          35000,
          35000,
          35000,
          35000,
          35000,
          35000,
          35000,
          35000,
          35000,
          35000,
          35000,
          35000,
          35000,
          35000,
          35000,
          35000,
          35000,
          35000,
          35000,
          35000,
          35000,
          35000,
          35000,
          35000,
          34925,
          34050,
          33225,
          32275,
          31250,
          30250,
          29300,
          28750,
          27875,
          26900,
          26175,
          25225,
          24475,
          23900,
          23300,
          22725,
          21475,
          21100,
          21000,
          21000,
          21000,
          21000,
          21000,
          20975,
          20025,
          19025,
          18050,
          17000,
          16200,
          16000,
          15425,
          14375,
          13700,
          12525,
          11475,
          10550,
          10050,
          10000,
          10000,
          10000,
          10000,
          10000,
          10000,
          10000,
          9975,
          9225,
          8175,
          8000,
          7275,
          6925,
          6550,
          6125,
          5125,
          4400,
          3925,
          3450,
          3075,
          2600,
          2600,
          2600,
          2600,
          2600,
          2600,
          2600,
          2600,
          2225,
          2025,
          1950,
          1800,
          1575,
          1350,
          1200,
          1050,
          950,
          825,
          650,
          425,
          200,
          50
        ],
        "vertical_rate_fpm": [
          0.0,
          3529.0,
          3000.0,
          2636.0,
          3122.0,
          2967.0,
          2400.0,
          2370.0,
          3406.0,
          3411.0,
          2613.0,
          2452.0,
          2434.0,
          1300.0,
          925.0,
          2065.0,
          2109.0,
          1625.0,
          1689.0,
          1610.0,
          1525.0,
          1396.0,
          1523.0,
          2100.0,
          1977.0,
          1669.0,
          1617.0,
          1636.0,
          1887.0,
          1992.0,
          1643.0,
          1476.0,
          1476.0,
          1089.0,
          387.0,
          25.0,
          0.0,
          0.0,
          0.0,
          0.0,
          0.0,
          0.0,
          0.0,
          0.0,
          0.0,
          0.0,
          0.0,
          0.0,
          0.0,
          0.0,
          0.0,
          0.0,
          0.0,
          0.0,
          0.0,
          0.0,
          0.0,
          0.0,
          0.0,
          0.0,
          0.0,
          0.0,
          0.0,
          0.0,
          0.0,
          0.0,
          0.0,
          0.0,
          0.0,
          0.0,
          0.0,
          0.0,
          0.0,
          0.0,
          0.0,
          0.0,
          0.0,
          -75.0,
          -950.0,
          -1855.0,
          -1936.0,
          -1975.0,
          -2025.0,
          -1950.0,
          -1915.0,
          -1943.0,
          -1947.0,
          -1700.0,
          -1415.0,
          -1569.0,
          -1939.0,
          -2014.0,
          -1958.0,
          -1921.0,
          -1741.0,
          -606.0,
          -100.0,
          0.0,
          0.0,
          0.0,
          -31.0,
          -975.0,
          -1950.0,
          -1975.0,
          -2025.0,
          -1850.0,
          -1000.0,
          -775.0,
          -1625.0,
          -2070.0,
          -1914.0,
          -1963.0,
          -1975.0,
          -1425.0,
          -541.0,
          -63.0,
          0.0,
          0.0,
          0.0,
          0.0,
          0.0,
          -29.0,
          -894.0,
          -1800.0,
          -1531.0,
          -1149.0,
          -1316.0,
          -906.0,
          -980.0,
          -1676.0,
          -2029.0,
          -1846.0,
          -1583.0,
          -1457.0,
          -1133.0,
          -633.0,
          0.0,
          0.0,
          0.0,
          0.0,
          0.0,
          0.0,
          -433.0,
          -841.0,
          -1031.0,
          -643.0,
          -703.0,
          -844.0,
          -703.0,
          -563.0,
          -469.0,
          -422.0,
          -563.0,
          -750.0,
          -844.0,
          -703.0,
          -563.0
        ]
      }
    }
  ]
}