{
  "type": "FeatureCollection",
  "features": [
    {
      "type": "Feature",
      "geometry": {
        "type": "LineString",
        "coordinates": [
          [
            7.1288,
            50.8654
          ],
          [
            7.1261,
            50.8672
          ],
          [
            7.1154,
            50.8754
          ],
          [
            7.106,
            50.8839
          ],
          [
            7.1059,
            50.897
          ],
          [
            7.1166,
            50.91
          ],
          [
            7.1279,
            50.9233
          ],
          [
            7.145,
            50.9373
          ],
          [
            7.1712,
            50.9487
          ],
          [
            7.2018,
            50.9579
          ],
          [
            7.2421,
            50.9688
          ],
          [
            7.2817,
            50.9726
          ],
          [
            7.3239,
            50.9643
          ],
          [
            7.3688,
            50.9458
          ],
          [
            7.4019,
            50.9277
          ],
          [
            7.4564,
            50.8941
          ],
          [
            7.5084,
            50.8622
          ],
          [
            7.5331,
            50.8401
          ],
          [
            7.5637,
            50.8003
          ],
          [
            7.582,
            50.7741
          ],
          [
            7.6285,
            50.7114
          ],
          [
            7.6591,
            50.6719
          ],
          [
            7.7207,
            50.5912
          ],
          [
            7.7561,
            50.5446
          ],
          [
            7.8245,
            50.4538
          ],
          [
            7.8698,
            50.3937
          ],
          [
            7.9177,
            50.3303
          ],
          [
            7.9649,
            50.2674
          ],
          [
            8.0134,
            50.2022
          ],
          [
            8.0619,
            50.1371
          ],
          [
            8.0976,
            50.089
          ],
          [
            8.1282,
            50.0457
          ],
          [
            8.1781,
            49.9786
          ],
          [
            8.2252,
            49.9163
          ],
          [
            8.2521,
            49.8793
          ],
          [
            8.2998,
            49.8142
          ],
          [
            8.3472,
            49.75
          ],
          [
            8.393,
            49.6873
          ],
          [
            8.4413,
            49.6202
          ],
          [
            8.5094,
            49.5268
          ],
          [
            8.5532,
            49.4658
          ],
          [
            8.6002,
            49.4006
          ],
          [
            8.6475,
            49.3349
          ],
          [
            8.6952,
            49.2682
          ],
          [
            8.7404,
            49.2045
          ],
          [
            8.7881,
            49.1378
          ],
          [
            8.8344,
            49.0725
          ],
          [
            8.8819,
            49.0053
          ],
          [
            8.9075,
            48.9692
          ],
          [
            8.9547,
            48.902
          ],
          [
            8.9984,
            48.8396
          ],
          [
            9.0453,
            48.7729
          ],
          [
            9.0909,
            48.7076
          ],
          [
            9.1336,
            48.6467
          ],
          [
            9.1619,
            48.6112
          ],
          [
            9.1972,
            48.571
          ],
          [
            9.2264,
            48.5389
          ],
          [
            9.2837,
            48.4782
          ],
          [
            9.3385,
            48.4184
          ],
          [
            9.4226,
            48.3252
          ],
          [
            9.4743,
            48.2679
          ],
          [
            9.5262,
            48.2096
          ],
          [
            9.5841,
            48.1445
          ],
          [
            9.6384,
            48.0838
          ],
          [
            9.6944,
            48.0202
          ],
          [
            9.818,
            47.8805
          ],
          [
            9.872,
            47.8188
          ],
          [
            9.9215,
            47.7619
          ],
          [
            9.9909,
            47.6826
          ],
          [
            10.0447,
            47.6211
          ],
          [
            10.0991,
            47.5579
          ],
          [
            10.1519,
            47.4972
          ],
          [
            10.204,
            47.4367
          ],
          [
            10.2562,
            47.3761
          ],
          [
            10.3101,
            47.3137
          ],
          [
            10.3475,
            47.2691
          ],
          [
            10.3705,
            47.2326
          ],
          [
            10.3912,
            47.1914
          ],
          [
            10.4102,
            47.15
          ],
          [
            10.452,
            47.0619
          ],
          [
            10.4832,
            46.9968
          ],
          [
            10.5129,
            46.9341
          ],
          [
            10.5437,
            46.8695
          ],
          [
            10.5739,
            46.8056
          ],
          [
            10.6031,
            46.7436
          ],
          [
            10.6324,
            46.6819
          ],
          [
            10.6621,
            46.6178
          ],
          [
            10.6925,
            46.5531
          ],
          [
            10.7217,
            46.4913
          ],
          [
            10.7499,
            46.4301
          ],
          [
            10.781,
            46.364
          ],
          [
            10.8104,
            46.3007
          ],
          [
            10.8402,
            46.2353
          ],
          [
            10.8712,
            46.1693
          ],
          [
            10.8995,
            46.1077
          ],
          [
            10.9283,
            46.045
          ],
          [
            10.9573,
            45.9806
          ],
          [
            10.9885,
            45.9138
          ],
          [
            11.0177,
            45.8492
          ],
          [
            11.0485,
            45.7819
          ],
          [
            11.0781,
            45.7166
          ],
          [
            11.1072,
            45.6522
          ],
          [
            11.1382,
            45.5834
          ],
          [
            11.1663,
            45.5206
          ],
          [
            11.1927,
            45.4538
          ],
          [
            11.2193,
            45.3873
          ],
          [
            11.2447,
            45.3228
          ],
          [
            11.272,
            45.2553
          ],
          [
            11.2987,
            45.1874
          ],
          [
            11.325,
            45.1219
          ],
          [
            11.3528,
            45.052
          ],
          [
            11.3782,
            44.9856
          ],
          [
            11.4047,
            44.9182
          ],
          [
            11.4318,
            44.8503
          ],
          [
            11.4583,
            44.7832
          ],
          [
            11.4839,
            44.7168
          ],
          [
            11.5107,
            44.6485
          ],
          [
            11.5385,
            44.5772
          ],
          [
            11.5632,
            44.5126
          ],
          [
            11.5903,
            44.4428
          ],
          [
            11.6158,
            44.3776
          ],
          [
            11.6408,
            44.312
          ],
          [
            11.6655,
            44.248
          ],
          [
            11.691,
            44.1815
          ],
          [
            11.715,
            44.1191
          ],
          [
            11.7411,
            44.0516
          ],
          [
            11.7654,
            43.9863
          ],
          [
            11.7898,
            43.9227
          ],
          [
            11.8039,
            43.8846
          ],
          [
            11.8211,
            43.8237
          ],
          [
            11.8393,
            43.7545
          ],
          [
            11.8584,
            43.6894
          ],
          [
            11.8774,
            43.6251
          ],
          [
            11.8959,
            43.5587
          ],
          [
            11.9138,
            43.4939
          ],
          [
            11.9321,
            43.4281
          ],
          [
            11.9508,
            43.3604
          ],
          [
            11.9687,
            43.2957
          ],
          [
            11.9868,
            43.2303
          ],
          [
            12.0051,
            43.1627
          ],
          [
            12.0237,
            43.0968
          ],
          [
            12.0405,
            43.0363
          ],
          [
            12.0589,
            42.9695
          ],
          [
            12.0777,
            42.8997
          ],
          [
            12.0953,
            42.8357
          ],
          [
            12.1133,
            42.77
          ],
          [
            12.131,
            42.7045
          ],
          [
            12.149,
            42.6386
          ],
          [
            12.1665,
            42.5733
          ],
          [
            12.1835,
            42.5105
          ],
          [
            12.202,
            42.443
          ],
          [
            12.2194,
            42.3778
          ],
          [
            12.2378,
            42.3103
          ],
          [
            12.2545,
            42.2456
          ],
          [
            12.2719,
            42.1819
          ],
          [
            12.2901,
            42.1144
          ],
          [
            12.307,
            42.051
          ],
          [
            12.3235,
            41.9876
          ],
          [
            12.3408,
            41.9229
          ],
          [
            12.3587,
            41.8565
          ],
          [
            12.3764,
            41.7879
          ],
          [
            12.3934,
            41.724
          ],
          [
            12.411,
            41.6581
          ],
          [
            12.4273,
            41.5955
          ],
          [
            12.4439,
            41.5322
          ],
          [
            12.4605,
            41.4676
          ],
          [
            12.4782,
            41.4007
          ],
          [
            12.4939,
            41.3399
          ],
          [
            12.5107,
            41.2748
          ],
          [
            12.527,
            41.2126
          ],
          [
            12.5432,
            41.1506
          ],
          [
            12.5587,
            41.0909
          ],
          [
            12.5748,
            41.0271
          ],
          [
            12.5913,
            40.963
          ],
          [
            12.6064,
            40.9059
          ],
          [
            12.6225,
            40.8418
          ],
          [
            12.6374,
            40.7827
          ],
          [
            12.654,
            40.7203
          ],
          [
            12.6693,
            40.6583
          ],
          [
            12.6848,
            40.5973
          ],
          [
            12.7003,
            40.5374
          ],
          [
            12.716,
            40.4748
          ],
          [
            12.7325,
            40.4096
          ],
          [
            12.7491,
            40.3447
          ],
          [
            12.7666,
            40.276
          ],
          [
            12.7823,
            40.2121
          ],
          [
            12.7988,
            40.1462
          ],
          [
            12.816,
            40.0788
          ],
          [
            12.8335,
            40.008
          ],
          [
            12.851,
            39.9374
          ],
          [
            12.8677,
            39.8707
          ],
          [
            12.8849,
            39.8021
          ],
          [
            12.9021,
            39.7329
          ],
          [
            12.9189,
            39.6644
          ],
          [
            12.9353,
            39.597
          ],
          [
            12.9524,
            39.5297
          ],
          [
            12.9689,
            39.462
          ],
          [
            12.9849,
            39.3954
          ],
          [
            13.0001,
            39.3344
          ],
          [
            13.0161,
            39.2692
          ],
          [
            13.032,
            39.2056
          ],
          [
            13.0496,
            39.1445
          ],
          [
            13.0681,
            39.0819
          ],
          [
            13.0856,
            39.0222
          ],
          [
            13.1033,
            38.9612
          ],
          [
            13.1204,
            38.903
          ],
          [
            13.1377,
            38.8427
          ],
          [
            13.1548,
            38.7838
          ],
          [
            13.171,
            38.7274
          ],
          [
            13.1867,
            38.6735
          ],
          [
            13.2016,
            38.6208
          ],
          [
            13.2157,
            38.5728
          ],
          [
            13.2253,
            38.5423
          ],
          [
            13.2498,
            38.4916
          ],
          [
            13.2713,
            38.4533
          ],
          [
            13.2823,
            38.4338
          ],
          [
            13.3006,
            38.4007
          ],
          [
            13.3187,
            38.3836
          ],
          [
            13.3496,
            38.3764
          ],
          [
            13.3773,
            38.3789
          ],
          [
            13.4057,
            38.3728
          ],
          [
            13.4261,
            38.357
          ],
          [
            13.4449,
            38.3293
          ],
          [
            13.4451,
            38.3083
          ],
          [
            13.4262,
            38.2914
          ],
          [
            13.4034,
            38.2809
          ],
          [
            13.374,
            38.271
          ],
          [
            13.3536,
            38.2645
          ],
          [
            13.3347,
            38.2659
          ],
          [
            13.3258,
            38.2792
          ],
          [
            13.3359,
            38.2967
          ],
          [
            13.3589,
            38.3027
          ],
          [
            13.3794,
            38.2957
          ],
          [
            13.3895,
            38.2795
          ],
          [
            13.3825,
            38.2634
          ],
          [
            13.3526,
            38.2568
          ],
          [
            13.3316,
            38.2538
          ],
          [
            13.3053,
            38.2472
          ],
          [
            13.2897,
            38.2424
          ],
          [
            13.2608,
            38.2327
          ],
          [
            13.2321,
            38.223
          ],
          [
            13.2062,
            38.2144
          ]
        ]
      },
      "properties": {
        "time_europe_berlin": [
          "27.10.2025 10:36:54",
          "27.10.2025 10:36:58",
          "27.10.2025 10:37:14",
          "27.10.2025 10:37:30",
          "27.10.2025 10:37:46",
          "27.10.2025 10:38:02",
          "27.10.2025 10:38:18",
          "27.10.2025 10:38:34",
          "27.10.2025 10:38:50",
          "27.10.2025 10:39:06",
          "27.10.2025 10:39:26",
          "27.10.2025 10:39:42",
          "27.10.2025 10:40:00",
          "27.10.2025 10:40:20",
          "27.10.2025 10:40:38",
          "27.10.2025 10:41:08",
          "27.10.2025 10:41:36",
          "27.10.2025 10:41:53",
          "27.10.2025 10:42:18",
          "27.10.2025 10:42:34",
          "27.10.2025 10:43:10",
          "27.10.2025 10:43:33",
          "27.10.2025 10:44:18",
          "27.10.2025 10:44:45",
          "27.10.2025 10:45:33",
          "27.10.2025 10:46:03",
          "27.10.2025 10:46:33",
          "27.10.2025 10:47:03",
          "27.10.2025 10:47:33",
          "27.10.2025 10:48:03",
          "27.10.2025 10:48:24",
          "27.10.2025 10:48:45",
          "27.10.2025 10:49:15",
          "27.10.2025 10:49:45",
          "27.10.2025 10:50:01",
          "27.10.2025 10:50:31",
          "27.10.2025 10:51:01",
          "27.10.2025 10:51:31",
          "27.10.2025 10:52:01",
          "27.10.2025 10:52:44",
          "27.10.2025 10:53:14",
          "27.10.2025 10:53:44",
          "27.10.2025 10:54:14",
          "27.10.2025 10:54:44",
          "27.10.2025 10:55:14",
          "27.10.2025 10:55:44",
          "27.10.2025 10:56:14",
          "27.10.2025 10:56:45",
          "27.10.2025 10:57:03",
          "27.10.2025 10:57:33",
          "27.10.2025 10:58:03",
          "27.10.2025 10:58:33",
          "27.10.2025 10:59:03",
          "27.10.2025 10:59:31",
          "27.10.2025 10:59:47",
          "27.10.2025 11:00:06",
          "27.10.2025 11:00:22",
          "27.10.2025 11:00:51",
          "27.10.2025 11:01:21",
          "27.10.2025 11:02:06",
          "27.10.2025 11:02:36",
          "27.10.2025 11:03:06",
          "27.10.2025 11:03:37",
          "27.10.2025 11:04:07",
          "27.10.2025 11:04:37",
          "27.10.2025 11:05:44",
          "27.10.2025 11:06:14",
          "27.10.2025 11:06:41",
          "27.10.2025 11:07:19",
          "27.10.2025 11:07:49",
          "27.10.2025 11:08:19",
          "27.10.2025 11:08:49",
          "27.10.2025 11:09:19",
          "27.10.2025 11:09:49",
          "27.10.2025 11:10:19",
          "27.10.2025 11:10:41",
          "27.10.2025 11:10:58",
          "27.10.2025 11:11:17",
          "27.10.2025 11:11:36",
          "27.10.2025 11:12:16",
          "27.10.2025 11:12:46",
          "27.10.2025 11:13:16",
          "27.10.2025 11:13:46",
          "27.10.2025 11:14:16",
          "27.10.2025 11:14:46",
          "27.10.2025 11:15:16",
          "27.10.2025 11:15:46",
          "27.10.2025 11:16:16",
          "27.10.2025 11:16:46",
          "27.10.2025 11:17:16",
          "27.10.2025 11:17:47",
          "27.10.2025 11:18:17",
          "27.10.2025 11:18:47",
          "27.10.2025 11:19:17",
          "27.10.2025 11:19:47",
          "27.10.2025 11:20:17",
          "27.10.2025 11:20:47",
          "27.10.2025 11:21:17",
          "27.10.2025 11:21:47",
          "27.10.2025 11:22:18",
          "27.10.2025 11:22:48",
          "27.10.2025 11:23:18",
          "27.10.2025 11:23:48",
          "27.10.2025 11:24:17",
          "27.10.2025 11:24:47",
          "27.10.2025 11:25:17",
          "27.10.2025 11:25:47",
          "27.10.2025 11:26:17",
          "27.10.2025 11:26:47",
          "27.10.2025 11:27:17",
          "27.10.2025 11:27:47",
          "27.10.2025 11:28:17",
          "27.10.2025 11:28:47",
          "27.10.2025 11:29:17",
          "27.10.2025 11:29:47",
          "27.10.2025 11:30:17",
          "27.10.2025 11:30:47",
          "27.10.2025 11:31:18",
          "27.10.2025 11:31:48",
          "27.10.2025 11:32:18",
          "27.10.2025 11:32:48",
          "27.10.2025 11:33:18",
          "27.10.2025 11:33:48",
          "27.10.2025 11:34:18",
          "27.10.2025 11:34:48",
          "27.10.2025 11:35:18",
          "27.10.2025 11:35:48",
          "27.10.2025 11:36:18",
          "27.10.2025 11:36:35",
          "27.10.2025 11:37:03",
          "27.10.2025 11:37:34",
          "27.10.2025 11:38:04",
          "27.10.2025 11:38:34",
          "27.10.2025 11:39:04",
          "27.10.2025 11:39:35",
          "27.10.2025 11:40:05",
          "27.10.2025 11:40:36",
          "27.10.2025 11:41:06",
          "27.10.2025 11:41:36",
          "27.10.2025 11:42:06",
          "27.10.2025 11:42:36",
          "27.10.2025 11:43:06",
          "27.10.2025 11:43:36",
          "27.10.2025 11:44:07",
          "27.10.2025 11:44:38",
          "27.10.2025 11:45:08",
          "27.10.2025 11:45:38",
          "27.10.2025 11:46:08",
          "27.10.2025 11:46:38",
          "27.10.2025 11:47:08",
          "27.10.2025 11:47:39",
          "27.10.2025 11:48:09",
          "27.10.2025 11:48:39",
          "27.10.2025 11:49:09",
          "27.10.2025 11:49:39",
          "27.10.2025 11:50:09",
          "27.10.2025 11:50:39",
          "27.10.2025 11:51:09",
          "27.10.2025 11:51:39",
          "27.10.2025 11:52:10",
          "27.10.2025 11:52:41",
          "27.10.2025 11:53:12",
          "27.10.2025 11:53:42",
          "27.10.2025 11:54:12",
          "27.10.2025 11:54:42",
          "27.10.2025 11:55:12",
          "27.10.2025 11:55:43",
          "27.10.2025 11:56:13",
          "27.10.2025 11:56:44",
          "27.10.2025 11:57:14",
          "27.10.2025 11:57:44",
          "27.10.2025 11:58:14",
          "27.10.2025 11:58:44",
          "27.10.2025 11:59:14",
          "27.10.2025 11:59:44",
          "27.10.2025 12:00:15",
          "27.10.2025 12:00:45",
          "27.10.2025 12:01:15",
          "27.10.2025 12:01:45",
          "27.10.2025 12:02:15",
          "27.10.2025 12:02:45",
          "27.10.2025 12:03:15",
          "27.10.2025 12:03:45",
          "27.10.2025 12:04:16",
          "27.10.2025 12:04:46",
          "27.10.2025 12:05:16",
          "27.10.2025 12:05:46",
          "27.10.2025 12:06:16",
          "27.10.2025 12:06:49",
          "27.10.2025 12:07:20",
          "27.10.2025 12:07:50",
          "27.10.2025 12:08:20",
          "27.10.2025 12:08:50",
          "27.10.2025 12:09:20",
          "27.10.2025 12:09:50",
          "27.10.2025 12:10:20",
          "27.10.2025 12:10:50",
          "27.10.2025 12:11:20",
          "27.10.2025 12:11:50",
          "27.10.2025 12:12:21",
          "27.10.2025 12:12:51",
          "27.10.2025 12:13:21",
          "27.10.2025 12:13:51",
          "27.10.2025 12:14:21",
          "27.10.2025 12:14:51",
          "27.10.2025 12:15:21",
          "27.10.2025 12:15:51",
          "27.10.2025 12:16:21",
          "27.10.2025 12:16:52",
          "27.10.2025 12:17:22",
          "27.10.2025 12:17:53",
          "27.10.2025 12:18:23",
          "27.10.2025 12:18:44",
          "27.10.2025 12:19:23",
          "27.10.2025 12:19:53",
          "27.10.2025 12:20:09",
          "27.10.2025 12:20:37",
          "27.10.2025 12:20:54",
          "27.10.2025 12:21:14",
          "27.10.2025 12:21:32",
          "27.10.2025 12:21:51",
          "27.10.2025 12:22:10",
          "27.10.2025 12:22:37",
          "27.10.2025 12:22:57",
          "27.10.2025 12:23:21",
          "27.10.2025 12:23:42",
          "27.10.2025 12:24:07",
          "27.10.2025 12:24:26",
          "27.10.2025 12:24:44",
          "27.10.2025 12:25:01",
          "27.10.2025 12:25:21",
          "27.10.2025 12:25:40",
          "27.10.2025 12:25:56",
          "27.10.2025 12:26:13",
          "27.10.2025 12:26:31",
          "27.10.2025 12:26:58",
          "27.10.2025 12:27:18",
          "27.10.2025 12:27:45",
          "27.10.2025 12:28:01",
          "27.10.2025 12:28:31",
          "27.10.2025 12:29:01",
          "27.10.2025 12:29:32"
        ],
        "course_deg_clockwise_from_north": [
          "318",
          "318",
          "323",
          "327",
          "20",
          "28",
          "28",
          "47",
          "61",
          "66",
          "69",
          "94",
          "117",
          "128",
          "132",
          "135",
          "136",
          "150",
          "156",
          "156",
          "154",
          "154",
          "154",
          "154",
          "154",
          "154",
          "154",
          "154",
          "154",
          "154",
          "155",
          "155",
          "154",
          "155",
          "155",
          "154",
          "155",
          "155",
          "155",
          "155",
          "155",
          "155",
          "155",
          "155",
          "155",
          "155",
          "155",
          "155",
          "155",
          "155",
          "155",
          "155",
          "155",
          "154",
          "151",
          "149",
          "149",
          "148",
          "149",
          "149",
          "149",
          "149",
          "149",
          "149",
          "150",
          "149",
          "150",
          "150",
          "150",
          "150",
          "149",
          "150",
          "149",
          "150",
          "150",
          "152",
          "159",
          "162",
          "163",
          "162",
          "162",
          "162",
          "162",
          "162",
          "162",
          "162",
          "162",
          "163",
          "162",
          "162",
          "162",
          "162",
          "162",
          "162",
          "163",
          "162",
          "162",
          "162",
          "163",
          "162",
          "162",
          "162",
          "163",
          "164",
          "165",
          "164",
          "164",
          "165",
          "165",
          "164",
          "164",
          "165",
          "164",
          "164",
          "165",
          "164",
          "164",
          "165",
          "165",
          "165",
          "165",
          "165",
          "165",
          "165",
          "165",
          "164",
          "164",
          "164",
          "166",
          "170",
          "168",
          "168",
          "168",
          "169",
          "169",
          "169",
          "168",
          "168",
          "169",
          "169",
          "168",
          "169",
          "169",
          "169",
          "168",
          "169",
          "168",
          "168",
          "169",
          "169",
          "169",
          "169",
          "169",
          "169",
          "169",
          "168",
          "169",
          "169",
          "169",
          "169",
          "169",
          "169",
          "169",
          "169",
          "169",
          "169",
          "169",
          "169",
          "169",
          "169",
          "169",
          "169",
          "169",
          "169",
          "169",
          "169",
          "169",
          "169",
          "169",
          "169",
          "169",
          "169",
          "169",
          "169",
          "169",
          "170",
          "169",
          "169",
          "169",
          "169",
          "169",
          "169",
          "169",
          "169",
          "169",
          "169",
          "169",
          "169",
          "169",
          "169",
          "168",
          "167",
          "167",
          "167",
          "167",
          "167",
          "167",
          "168",
          "167",
          "168",
          "167",
          "167",
          "163",
          "158",
          "156",
          "156",
          "155",
          "124",
          "91",
          "83",
          "122",
          "144",
          "157",
          "202",
          "233",
          "243",
          "248",
          "250",
          "304",
          "355",
          "48",
          "90",
          "134",
          "176",
          "222",
          "265",
          "255",
          "250",
          "247",
          "247",
          "247",
          "247"
        ],
        "speed_kts": [
          "111",
          "137",
          "152",
          "150",
          "186",
          "205",
          "220",
          "255",
          "283",
          "293",
          "316",
          "333",
          "347",
          "350",
          "347",
          "349",
          "359",
          "367",
          "392",
          "403",
          "419",
          "424",
          "427",
          "435",
          "470",
          "494",
          "503",
          "512",
          "526",
          "528",
          "527",
          "525",
          "520",
          "515",
          "515",
          "521",
          "519",
          "518",
          "517",
          "510",
          "506",
          "521",
          "524",
          "523",
          "519",
          "517",
          "516",
          "514",
          "514",
          "518",
          "511",
          "518",
          "524",
          "528",
          "531",
          "529",
          "526",
          "519",
          "510",
          "502",
          "501",
          "509",
          "517",
          "525",
          "526",
          "531",
          "526",
          "524",
          "520",
          "517",
          "512",
          "510",
          "509",
          "510",
          "511",
          "510",
          "505",
          "501",
          "499",
          "491",
          "485",
          "485",
          "483",
          "481",
          "479",
          "477",
          "475",
          "475",
          "476",
          "481",
          "483",
          "483",
          "482",
          "487",
          "487",
          "489",
          "491",
          "491",
          "493",
          "494",
          "495",
          "498",
          "498",
          "498",
          "498",
          "499",
          "500",
          "500",
          "503",
          "504",
          "505",
          "502",
          "506",
          "506",
          "506",
          "508",
          "507",
          "506",
          "502",
          "497",
          "492",
          "489",
          "488",
          "487",
          "487",
          "487",
          "486",
          "486",
          "484",
          "479",
          "480",
          "479",
          "478",
          "481",
          "479",
          "482",
          "483",
          "483",
          "482",
          "480",
          "479",
          "479",
          "478",
          "477",
          "478",
          "477",
          "479",
          "478",
          "478",
          "477",
          "478",
          "481",
          "482",
          "482",
          "480",
          "480",
          "478",
          "478",
          "478",
          "473",
          "471",
          "470",
          "468",
          "466",
          "465",
          "464",
          "463",
          "462",
          "459",
          "457",
          "454",
          "453",
          "454",
          "451",
          "451",
          "448",
          "446",
          "447",
          "449",
          "452",
          "454",
          "459",
          "473",
          "486",
          "488",
          "482",
          "479",
          "484",
          "491",
          "494",
          "498",
          "501",
          "503",
          "504",
          "499",
          "495",
          "484",
          "473",
          "466",
          "460",
          "456",
          "451",
          "449",
          "446",
          "444",
          "439",
          "434",
          "425",
          "409",
          "388",
          "358",
          "330",
          "318",
          "300",
          "291",
          "285",
          "281",
          "288",
          "271",
          "259",
          "262",
          "258",
          "246",
          "215",
          "210",
          "215",
          "211",
          "192",
          "184",
          "204",
          "229",
          "238",
          "237",
          "224",
          "205",
          "188",
          "176",
          "176",
          "180",
          "178",
          "171",
          "141"
        ],
        "speed_mph": [
          "128",
          "158",
          "175",
          "173",
          "214",
          "236",
          "253",
          "293",
          "326",
          "337",
          "364",
          "383",
          "399",
          "403",
          "399",
          "402",
          "413",
          "422",
          "451",
          "464",
          "482",
          "488",
          "491",
          "501",
          "541",
          "568",
          "579",
          "589",
          "605",
          "608",
          "606",
          "604",
          "598",
          "593",
          "593",
          "600",
          "597",
          "596",
          "595",
          "587",
          "582",
          "600",
          "603",
          "602",
          "597",
          "595",
          "594",
          "592",
          "592",
          "596",
          "588",
          "596",
          "603",
          "608",
          "611",
          "609",
          "605",
          "597",
          "587",
          "578",
          "577",
          "586",
          "595",
          "604",
          "605",
          "611",
          "605",
          "603",
          "598",
          "595",
          "589",
          "587",
          "586",
          "587",
          "588",
          "587",
          "581",
          "577",
          "574",
          "565",
          "558",
          "558",
          "556",
          "554",
          "551",
          "549",
          "547",
          "547",
          "548",
          "554",
          "556",
          "556",
          "555",
          "560",
          "560",
          "563",
          "565",
          "565",
          "567",
          "568",
          "570",
          "573",
          "573",
          "573",
          "573",
          "574",
          "575",
          "575",
          "579",
          "580",
          "581",
          "578",
          "582",
          "582",
          "582",
          "585",
          "583",
          "582",
          "578",
          "572",
          "566",
          "563",
          "562",
          "560",
          "560",
          "560",
          "559",
          "559",
          "557",
          "551",
          "552",
          "551",
          "550",
          "554",
          "551",
          "555",
          "556",
          "556",
          "555",
          "552",
          "551",
          "551",
          "550",
          "549",
          "550",
          "549",
          "551",
          "550",
          "550",
          "549",
          "550",
          "554",
          "555",
          "555",
          "552",
          "552",
          "550",
          "550",
          "550",
          "544",
          "542",
          "541",
          "539",
          "536",
          "535",
          "534",
          "533",
          "532",
          "528",
          "526",
          "522",
          "521",
          "522",
          "519",
          "519",
          "516",
          "513",
          "514",
          "517",
          "520",
          "522",
          "528",
          "544",
          "559",
          "562",
          "555",
          "551",
          "557",
          "565",
          "568",
          "573",
          "577",
          "579",
          "580",
          "574",
          "570",
          "557",
          "544",
          "536",
          "529",
          "525",
          "519",
          "517",
          "513",
          "511",
          "505",
          "499",
          "489",
          "471",
          "447",
          "412",
          "380",
          "366",
          "345",
          "335",
          "328",
          "323",
          "331",
          "312",
          "298",
          "302",
          "297",
          "283",
          "247",
          "242",
          "247",
          "243",
          "221",
          "212",
          "235",
          "264",
          "274",
          "273",
          "258",
          "236",
          "216",
          "203",
          "203",
          "207",
          "205",
          "197",
          "162"
        ],
        "altitude_ft": [
          "650",
          "725",
          "1400",
          "2500",
          "3425",
          "4225",
          "4925",
          "5300",
          "5475",
          "6125",
          "6950",
          "7725",
          "8725",
          "9725",
          "10575",
          "12075",
          "13500",
          "14350",
          "15625",
          "16625",
          "19000",
          "20625",
          "23575",
          "24925",
          "26425",
          "26950",
          "27925",
          "28825",
          "29175",
          "29900",
          "30475",
          "31075",
          "32050",
          "32975",
          "33475",
          "33975",
          "34000",
          "34000",
          "34000",
          "34275",
          "34950",
          "35000",
          "35000",
          "35000",
          "35000",
          "35000",
          "35000",
          "35000",
          "35000",
          "35050",
          "35975",
          "36400",
          "36625",
          "36925",
          "37150",
          "37575",
          "37950",
          "38650",
          "39350",
          "40425",
          "40900",
          "41000",
          "41000",
          "41000",
          "41000",
          "41000",
          "41000",
          "41000",
          "41000",
          "41000",
          "41000",
          "41000",
          "41000",
          "41000",
          "41000",
          "41000",
          "41000",
          "41000",
          "41000",
          "41000",
          "41000",
          "41000",
          "41000",
          "41000",
          "41000",
          "41000",
          "41000",
          "41000",
          "41000",
          "41000",
          "41000",
          "41000",
          "41000",
          "41000",
          "41000",
          "41000",
          "41000",
          "41000",
          "41000",
          "41000",
          "41000",
          "41000",
          "41000",
          "41000",
          "41000",
          "41000",
          "41000",
          "41000",
          "41000",
          "41000",
          "41000",
          "41000",
          "41000",
          "41000",
          "41000",
          "41000",
          "41000",
          "41000",
          "41000",
          "41000",
          "41000",
          "41000",
          "41000",
          "41000",
          "41000",
          "41000",
          "41000",
          "41000",
          "41000",
          "41000",
          "41000",
          "41000",
          "41000",
          "41000",
          "41000",
          "41000",
          "41000",
          "41000",
          "41000",
          "41000",
          "41000",
          "41000",
          "41000",
          "41000",
          "41000",
          "41000",
          "41000",
          "41000",
          "41000",
          "41000",
          "41000",
          "41000",
          "41000",
          "41000",
          "41000",
          "41000",
          "41000",
          "41000",
          "41000",
          "41000",
          "41000",
          "41000",
          "41000",
          "41000",
          "41000",
          "41000",
          "41000",
          "41000",
          "41000",
          "41000",
          "41000",
          "41000",
          "41000",
          "41000",
          "41025",
          "41000",
          "41000",
          "40425",
          "39675",
          "38925",
          "38175",
          "37375",
          "36600",
          "35850",
          "35050",
          "34325",
          "33550",
          "33050",
          "33000",
          "33000",
          "33000",
          "32600",
          "31875",
          "31075",
          "30125",
          "29150",
          "28150",
          "27125",
          "26175",
          "25175",
          "24150",
          "23175",
          "22150",
          "21200",
          "20025",
          "18825",
          "17550",
          "16300",
          "15100",
          "14025",
          "13050",
          "12275",
          "11725",
          "10775",
          "10000",
          "9600",
          "8900",
          "8475",
          "8125",
          "7800",
          "7500",
          "7075",
          "6200",
          "5500",
          "4750",
          "4100",
          "3525",
          "3450",
          "3450",
          "3450",
          "3450",
          "3450",
          "3450",
          "3450",
          "3450",
          "3425",
          "3450",
          "3150",
          "2850",
          "2350",
          "1900",
          "1475"
        ],
        "vertical_rate_fpm": [
          "",
          "2250",
          "3328",
          "3797",
          "3234",
          "2813",
          "2016",
          "1031",
          "1547",
          "2458",
          "2667",
          "3132",
          "3158",
          "2921",
          "2938",
          "3026",
          "3033",
          "3036",
          "3329",
          "3894",
          "4068",
          "4037",
          "3583",
          "2280",
          "1558",
          "1500",
          "1875",
          "1250",
          "1075",
          "1529",
          "1679",
          "1853",
          "1900",
          "1859",
          "1304",
          "525",
          "25",
          "",
          "226",
          "781",
          "725",
          "50",
          "",
          "",
          "",
          "",
          "",
          "",
          "63",
          "975",
          "1350",
          "650",
          "543",
          "716",
          "1114",
          "1371",
          "1433",
          "1424",
          "1420",
          "1240",
          "575",
          "98",
          "",
          "",
          "",
          "",
          "",
          "",
          "",
          "",
          "",
          "",
          "",
          "",
          "",
          "",
          "",
          "",
          "",
          "",
          "",
          "",
          "",
          "",
          "",
          "",
          "",
          "",
          "",
          "",
          "",
          "",
          "",
          "",
          "",
          "",
          "",
          "",
          "",
          "",
          "",
          "",
          "",
          "",
          "",
          "",
          "",
          "",
          "",
          "",
          "",
          "",
          "",
          "",
          "",
          "",
          "",
          "",
          "",
          "",
          "",
          "",
          "",
          "",
          "",
          "",
          "",
          "",
          "",
          "",
          "",
          "",
          "",
          "",
          "",
          "",
          "",
          "",
          "",
          "",
          "",
          "",
          "",
          "",
          "",
          "",
          "",
          "",
          "",
          "",
          "",
          "",
          "",
          "",
          "",
          "",
          "",
          "",
          "",
          "",
          "",
          "",
          "",
          "",
          "",
          "",
          "",
          "",
          "",
          "",
          "",
          "",
          "",
          "25",
          "",
          "-25",
          "-575",
          "-1325",
          "-1500",
          "-1500",
          "-1550",
          "-1575",
          "-1500",
          "-1525",
          "-1525",
          "-1500",
          "-1275",
          "-524",
          "-47",
          "",
          "-400",
          "-1125",
          "-1525",
          "-1750",
          "-1925",
          "-1975",
          "-2025",
          "-1975",
          "-1918",
          "-1992",
          "-2000",
          "-2000",
          "-1975",
          "-2125",
          "-2375",
          "-2475",
          "-2525",
          "-2410",
          "-2238",
          "-2016",
          "-1721",
          "-1559",
          "-1500",
          "-1500",
          "-1533",
          "-1500",
          "-1500",
          "-1257",
          "-1066",
          "-1014",
          "-1145",
          "-1696",
          "-2011",
          "-1977",
          "-1867",
          "-1598",
          "-886",
          "-122",
          "",
          "",
          "",
          "",
          "",
          "",
          "-33",
          "",
          "-351",
          "-837",
          "-1043",
          "-950",
          "-861",
          "-823"
        ],
        "reporting_facility": [
          "Surface and Near-Surface",
          "FlightAware ADS-B(CGN / EDDK)",
          "FlightAware ADS-B(ETNN)",
          "FlightAware ADS-B(DUS / EDDL)",
          "FlightAware ADS-B(AAH / EDKA)",
          "FlightAware ADS-B(MGL / EDLN)",
          "FlightAware ADS-B(EDKL)",
          "FlightAware ADS-B(DUS / EDDL)",
          "FlightAware ADS-B(CGN / EDDK)",
          "FlightAware ADS-B(AAH / EDKA)",
          "FlightAware ADS-B(DUS / EDDL)",
          "FlightAware ADS-B(CGN / EDDK)",
          "FlightAware ADS-B(CGN / EDDK)",
          "FlightAware ADS-B(CGN / EDDK)",
          "FlightAware ADS-B(AAH / EDKA)",
          "FlightAware ADS-B(EDKN)",
          "FlightAware ADS-B(EDKN)",
          "FlightAware ADS-B(EDFY)",
          "FlightAware ADS-B(CGN / EDDK)",
          "FlightAware ADS-B(CGN / EDDK)",
          "FlightAware ADS-B(FRA / EDDF)",
          "FlightAware ADS-B(CGN / EDDK)",
          "FlightAware ADS-B(SGE / EDGS)",
          "FlightAware ADS-B(EBBH)",
          "FlightAware ADS-B(EDFG)",
          "FlightAware ADS-B(EDRK)",
          "FlightAware ADS-B(EDKB)",
          "FlightAware ADS-B(EDGR)",
          "FlightAware ADS-B(EDFZ)",
          "FlightAware ADS-B(EDTX)",
          "FlightAware ADS-B(EDKB)",
          "FlightAware ADS-B(QEF / EDFE)",
          "FlightAware ADS-B(ETOU)",
          "FlightAware ADS-B(CGN / EDDK)",
          "FlightAware ADS-B(EDGH)",
          "FlightAware ADS-B(NUE / EDDN)",
          "FlightAware ADS-B(STR / EDDS)",
          "FlightAware ADS-B(EDFS)",
          "FlightAware ADS-B(EDTC)",
          "FlightAware ADS-B(EDKL)",
          "FlightAware ADS-B(EDFB)",
          "FlightAware ADS-B(EDFV)",
          "FlightAware ADS-B(DUS / EDDL)",
          "FlightAware ADS-B(EDFV)",
          "FlightAware ADS-B(EDRI)",
          "FlightAware ADS-B(LSXS)",
          "FlightAware ADS-B(EDRI)",
          "FlightAware ADS-B(EDBS)",
          "FlightAware ADS-B(OBF / EDMO)",
          "FlightAware ADS-B(LSPH)",
          "FlightAware ADS-B(ETSA)",
          "FlightAware ADS-B(EDMI)",
          "FlightAware ADS-B(EDRT)",
          "FlightAware ADS-B(EDPU)",
          "FlightAware ADS-B(LSPL)",
          "FlightAware ADS-B(EDEF)",
          "FlightAware ADS-B(EAP / LFSB)",
          "FlightAware ADS-B(SXB / LFST)",
          "FlightAware ADS-B(LSPH)",
          "FlightAware ADS-B(EDTO)",
          "FlightAware ADS-B(FDH / EDNY)",
          "FlightAware ADS-B(EDMR)",
          "FlightAware ADS-B(LSZK)",
          "FlightAware ADS-B(EDRT)",
          "FlightAware ADS-B(AGB / EDMA)",
          "FlightAware ADS-B(MUC / EDDM)",
          "FlightAware ADS-B(NUE / EDDN)",
          "FlightAware ADS-B(LSPH)",
          "FlightAware ADS-B(BXO / LSZC)",
          "FlightAware ADS-B(EDTM)",
          "FlightAware ADS-B(ACH / LSZR)",
          "FlightAware ADS-B(EDTM)",
          "FlightAware ADS-B(EDEW)",
          "FlightAware ADS-B(EDMJ)",
          "FlightAware ADS-B(STR / EDDS)",
          "FlightAware ADS-B(LOIJ)",
          "FlightAware ADS-B(MUC / EDDM)",
          "FlightAware ADS-B(EDFW)",
          "FlightAware ADS-B(EDMR)",
          "FlightAware ADS-B(EDTM)",
          "FlightAware ADS-B(FMM / EDJA)",
          "FlightAware ADS-B(MUC / EDDM)",
          "FlightAware ADS-B(LSXB)",
          "FlightAware ADS-B(MUC / EDDM)",
          "FlightAware ADS-B(LIDT)",
          "FlightAware ADS-B(VIP / LSMP)",
          "FlightAware ADS-B(LSPH)",
          "FlightAware ADS-B(EDMB)",
          "FlightAware ADS-B(VIP / LSMP)",
          "FlightAware ADS-B(ETHA)",
          "FlightAware ADS-B(LIDT)",
          "FlightAware ADS-B(LIDT)",
          "FlightAware ADS-B(LIDT)",
          "FlightAware ADS-B(FMM / EDJA)",
          "FlightAware ADS-B(LIDL)",
          "FlightAware ADS-B(LIQB)",
          "FlightAware ADS-B(EDMR)",
          "FlightAware ADS-B(BGY / LIME)",
          "FlightAware ADS-B(LIDH)",
          "FlightAware ADS-B(VCE / LIPZ)",
          "FlightAware ADS-B(VCE / LIPZ)",
          "FlightAware ADS-B(VCE / LIPZ)",
          "FlightAware ADS-B(EDMR)",
          "FlightAware ADS-B(TSF / LIPH)",
          "FlightAware ADS-B(BZO / LIPB)",
          "FlightAware ADS-B(LIAT)",
          "FlightAware ADS-B(LILR)",
          "FlightAware ADS-B(ETHL)",
          "FlightAware ADS-B(LILR)",
          "FlightAware ADS-B(LIDU)",
          "FlightAware ADS-B(VRN / LIPX)",
          "FlightAware ADS-B(VRN / LIPX)",
          "FlightAware ADS-B(LIVV)",
          "FlightAware ADS-B(AOI / LIPY)",
          "FlightAware ADS-B(LIAT)",
          "FlightAware ADS-B(PMF / LIMP)",
          "FlightAware ADS-B(FLR / LIRQ)",
          "FlightAware ADS-B(MXP / LIMC)",
          "FlightAware ADS-B(VRN / LIPX)",
          "FlightAware ADS-B(LIPS)",
          "FlightAware ADS-B(VCE / LIPZ)",
          "FlightAware ADS-B(BLQ / LIPE)",
          "FlightAware ADS-B(LIPU)",
          "FlightAware ADS-B(CEQ / LFMD)",
          "FlightAware ADS-B(VRN / LIPX)",
          "FlightAware ADS-B(LIAF)",
          "FlightAware ADS-B(VCE / LIPZ)",
          "FlightAware ADS-B(PEG / LIRZ)",
          "FlightAware ADS-B(LIKE)",
          "FlightAware ADS-B(FLR / LIRQ)",
          "FlightAware ADS-B(AOI / LIPY)",
          "FlightAware ADS-B(FLR / LIRQ)",
          "FlightAware ADS-B(FLR / LIRQ)",
          "FlightAware ADS-B(FLR / LIRQ)",
          "FlightAware ADS-B(AOI / LIPY)",
          "FlightAware ADS-B(FLR / LIRQ)",
          "FlightAware ADS-B(LIQB)",
          "FlightAware ADS-B(AOI / LIPY)",
          "FlightAware ADS-B(TTB / LIET)",
          "FlightAware ADS-B(AOI / LIPY)",
          "FlightAware ADS-B(AOI / LIPY)",
          "FlightAware ADS-B(FLR / LIRQ)",
          "FlightAware ADS-B(AOI / LIPY)",
          "FlightAware ADS-B(AOI / LIPY)",
          "FlightAware ADS-B(FCO / LIRF)",
          "FlightAware ADS-B(AOI / LIPY)",
          "FlightAware ADS-B(FCO / LIRF)",
          "FlightAware ADS-B(AOI / LIPY)",
          "FlightAware ADS-B(AOI / LIPY)",
          "FlightAware ADS-B(PEG / LIRZ)",
          "FlightAware ADS-B(AOI / LIPY)",
          "FlightAware ADS-B(CIA / LIRA)",
          "FlightAware ADS-B(AOI / LIPY)",
          "FlightAware ADS-B(AOI / LIPY)",
          "FlightAware ADS-B(LIPC)",
          "FlightAware ADS-B(LIRG)",
          "FlightAware ADS-B(LIPC)",
          "FlightAware ADS-B(PSR / LIBP)",
          "FlightAware ADS-B(PSR / LIBP)",
          "FlightAware ADS-B(PSR / LIBP)",
          "FlightAware ADS-B(CEQ / LFMD)",
          "FlightAware ADS-B(LIQQ)",
          "FlightAware ADS-B(LISB)",
          "FlightAware ADS-B(PSR / LIBP)",
          "FlightAware ADS-B(PSR / LIBP)",
          "FlightAware ADS-B(LISB)",
          "FlightAware ADS-B(LFKG)",
          "FlightAware ADS-B(CIA / LIRA)",
          "FlightAware ADS-B(LIPC)",
          "FlightAware ADS-B(LIAU)",
          "FlightAware ADS-B(LIAU)",
          "FlightAware ADS-B(PEG / LIRZ)",
          "FlightAware ADS-B(TAR / LIBG)",
          "FlightAware ADS-B(FCO / LIRF)",
          "FlightAware ADS-B(CIA / LIRA)",
          "FlightAware ADS-B(NAP / LIRN)",
          "FlightAware ADS-B(FNU / LIER)",
          "FlightAware ADS-B(LIAU)",
          "FlightAware ADS-B(FCO / LIRF)",
          "FlightAware ADS-B(CIA / LIRA)",
          "FlightAware ADS-B(LIRE)",
          "FlightAware ADS-B(LIQQ)",
          "FlightAware ADS-B(LIRE)",
          "FlightAware ADS-B(FCO / LIRF)",
          "FlightAware ADS-B(FCO / LIRF)",
          "FlightAware ADS-B(LIRL)",
          "FlightAware ADS-B(LIRL)",
          "FlightAware ADS-B(REG / LICR)",
          "FlightAware ADS-B(LIAU)",
          "FlightAware ADS-B(PEG / LIRZ)",
          "FlightAware ADS-B(PEG / LIRZ)",
          "FlightAware ADS-B(REG / LICR)",
          "FlightAware ADS-B(REG / LICR)",
          "FlightAware ADS-B(NAP / LIRN)",
          "FlightAware ADS-B(NAP / LIRN)",
          "FlightAware ADS-B(NAP / LIRN)",
          "FlightAware ADS-B(NAP / LIRN)",
          "FlightAware ADS-B(NAP / LIRN)",
          "FlightAware ADS-B(NAP / LIRN)",
          "FlightAware ADS-B(NAP / LIRN)",
          "FlightAware ADS-B(NAP / LIRN)",
          "FlightAware ADS-B(PMO / LICJ)",
          "FlightAware ADS-B(PMO / LICJ)",
          "FlightAware ADS-B(LIAU)",
          "FlightAware ADS-B(LIRE)",
          "FlightAware ADS-B(LIRL)",
          "FlightAware ADS-B(MLA / LMML)",
          "FlightAware ADS-B(LICP)",
          "FlightAware ADS-B(NAP / LIRN)",
          "FlightAware ADS-B(NAP / LIRN)",
          "FlightAware ADS-B(NAP / LIRN)",
          "FlightAware ADS-B(REG / LICR)",
          "FlightAware ADS-B(TTB / LIET)",
          "FlightAware ADS-B(NAP / LIRN)",
          "FlightAware ADS-B(LICP)",
          "FlightAware ADS-B(PNL / LICG)",
          "FlightAware ADS-B(LICP)",
          "FlightAware ADS-B(PNL / LICG)",
          "FlightAware ADS-B(LICP)",
          "FlightAware ADS-B(LICP)",
          "FlightAware ADS-B(LICP)",
          "FlightAware ADS-B(PNL / LICG)",
          "FlightAware ADS-B(PNL / LICG)",
          "FlightAware ADS-B(LICP)",
          "FlightAware ADS-B(LICP)",
          "FlightAware ADS-B(LICP)",
          "FlightAware ADS-B(LICP)",
          "FlightAware ADS-B(LICP)",
          "FlightAware ADS-B(LICP)",
          "FlightAware ADS-B(LICP)",
          "FlightAware ADS-B(LICP)",
          "FlightAware ADS-B(LICP)",
          "FlightAware ADS-B(LICP)",
          "FlightAware ADS-B(LICP)",
          "FlightAware ADS-B(LICP)",
          "FlightAware ADS-B(LICP)",
          "FlightAware ADS-B(LICP)",
          "FlightAware ADS-B(LICP)",
          "FlightAware ADS-B(LICP)",
          "FlightAware ADS-B(LICP)",
          "FlightAware ADS-B(LICP)",
          "FlightAware ADS-B(LICP)"
        ]
      }
    }
  ]
}