{
  "type": "FeatureCollection",
  "features": [
    {
      "type": "Feature",
      "geometry": {
        "type": "LineString",
        "coordinates": [
          [
            7.1288,
            50.8654
          ],
          [
            7.1261,
            50.8672
          ],
          [
            7.1154,
            50.8754
          ],
          [
            7.106,
            50.8839
          ],
          [
            7.1059,
            50.897
          ],
          [
            7.1166,
            50.91
          ],
          [
            7.1279,
            50.9233
          ],
          [
            7.145,
            50.9373
          ],
          [
            7.1712,
            50.9487
          ],
          [
            7.2018,
            50.9579
          ],
          [
            7.2421,
            50.9688
          ],
          [
            7.2817,
            50.9726
          ],
          [
            7.3239,
            50.9643
          ],
          [
            7.3688,
            50.9458
          ],
          [
            7.4019,
            50.9277
          ],
          [
            7.4564,
            50.8941
          ],
          [
            7.5084,
            50.8622
          ],
          [
            7.5331,
            50.8401
          ],
          [
            7.5637,
            50.8003
          ],
          [
            7.582,
            50.7741
          ],
          [
            7.6285,
            50.7114
          ],
          [
            7.6591,
            50.6719
          ],
          [
            7.7207,
            50.5912
          ],
          [
            7.7561,
            50.5446
          ],
          [
            7.8245,
            50.4538
          ],
          [
            7.8698,
            50.3937
          ],
          [
            7.9177,
            50.3303
          ],
          [
            7.9649,
            50.2674
          ],
          [
            8.0134,
            50.2022
          ],
          [
            8.0619,
            50.1371
          ],
          [
            8.0976,
            50.089
          ],
          [
            8.1282,
            50.0457
          ],
          [
            8.1781,
            49.9786
          ],
          [
            8.2252,
            49.9163
          ],
          [
            8.2521,
            49.8793
          ],
          [
            8.2998,
            49.8142
          ],
          [
            8.3472,
            49.75
          ],
          [
            8.393,
            49.6873
          ],
          [
            8.4413,
            49.6202
          ],
          [
            8.5094,
            49.5268
          ],
          [
            8.5532,
            49.4658
          ],
          [
            8.6002,
            49.4006
          ],
          [
            8.6475,
            49.3349
          ],
          [
            8.6952,
            49.2682
          ],
          [
            8.7404,
            49.2045
          ],
          [
            8.7881,
            49.1378
          ],
          [
            8.8344,
            49.0725
          ],
          [
            8.8819,
            49.0053
          ],
          [
            8.9075,
            48.9692
          ],
          [
            8.9547,
            48.902
          ],
          [
            8.9984,
            48.8396
          ],
          [
            9.0453,
            48.7729
          ],
          [
            9.0909,
            48.7076
          ],
          [
            9.1336,
            48.6467
          ],
          [
            9.1619,
            48.6112
          ],
          [
            9.1972,
            48.571
          ],
          [
            9.2264,
            48.5389
          ],
          [
            9.2837,
            48.4782
          ],
          [
            9.3385,
            48.4184
          ],
          [
            9.4226,
            48.3252
          ],
          [
            9.4743,
            48.2679
          ],
          [
            9.5262,
            48.2096
          ],
          [
            9.5841,
            48.1445
          ],
          [
            9.6384,
            48.0838
          ],
          [
            9.6944,
            48.0202
          ],
          [
            9.818,
            47.8805
          ],
          [
            9.872,
            47.8188
          ],
          [
            9.9215,
            47.7619
          ],
          [
            9.9909,
            47.6826
          ],
          [
            10.0447,
            47.6211
          ],
          [
            10.0991,
            47.5579
          ],
          [
            10.1519,
            47.4972
          ],
          [
            10.204,
            47.4367
          ],
          [
            10.2562,
            47.3761
          ],
          [
            10.3101,
            47.3137
          ],
          [
            10.3475,
            47.2691
          ],
          [
            10.3705,
            47.2326
          ],
          [
            10.3912,
            47.1914
          ],
          [
            10.4102,
            47.15
          ],
          [
            10.452,
            47.0619
          ],
          [
            10.4832,
            46.9968
          ],
          [
            10.5129,
            46.9341
          ],
          [
            10.5437,
            46.8695
          ],
          [
            10.5739,
            46.8056
          ],
          [
            10.6031,
            46.7436
          ],
          [
            10.6324,
            46.6819
          ],
          [
            10.6621,
            46.6178
          ],
          [
            10.6925,
            46.5531
          ],
          [
            10.7217,
            46.4913
          ],
          [
            10.7499,
            46.4301
          ],
          [
            10.781,
            46.364
          ],
          [
            10.8104,
            46.3007
          ],
          [
            10.8402,
            46.2353
          ],
          [
            10.8712,
            46.1693
          ],
          [
            10.8995,
            46.1077
          ],
          [
            10.9283,
            46.045
          ],
          [
            10.9573,
            45.9806
          ],
          [
            10.9885,
            45.9138
          ],
          [
            11.0177,
            45.8492
          ],
          [
            11.0485,
            45.7819
          ],
          [
            11.0781,
            45.7166
          ],
          [
            11.1072,
            45.6522
          ],
          [
            11.1382,
            45.5834
          ],
          [
            11.1663,
            45.5206
          ],
          [
            11.1927,
            45.4538
          ],
          [
            11.2193,
            45.3873
          ],
          [
            11.2447,
            45.3228
          ],
          [
            11.272,
            45.2553
          ],
          [
            11.2987,
            45.1874
          ],
          [
            11.325,
            45.1219
          ],
          [
            11.3528,
            45.052
          ],
          [
            11.3782,
            44.9856
          ],
          [
            11.4047,
            44.9182
          ],
          [
            11.4318,
            44.8503
          ],
          [
            11.4583,
            44.7832
          ],
          [
            11.4839,
            44.7168
          ],
          [
            11.5107,
            44.6485
          ],
          [
            11.5385,
            44.5772
          ],
          [
            11.5632,
            44.5126
          ],
          [
            11.5903,
            44.4428
          ],
          [
            11.6158,
            44.3776
          ],
          [
            11.6408,
            44.312
          ],
          [
            11.6655,
            44.248
          ],
          [
            11.691,
            44.1815
          ],
          [
            11.715,
            44.1191
          ],
          [
            11.7411,
            44.0516
          ],
          [
            11.7654,
            43.9863
          ],
          [
            11.7898,
            43.9227
          ],
          [
            11.8039,
            43.8846
          ],
          [
            11.8211,
            43.8237
          ],
          [
            11.8393,
            43.7545
          ],
          [
            11.8584,
            43.6894
          ],
          [
            11.8774,
            43.6251
          ],
          [
            11.8959,
            43.5587
          ],
          [
            11.9138,
            43.4939
          ],
          [
            11.9321,
            43.4281
          ],
          [
            11.9508,
            43.3604
          ],
          [
            11.9687,
            43.2957
          ],
          [
            11.9868,
            43.2303
          ],
          [
            12.0051,
            43.1627
          ],
          [
            12.0237,
            43.0968
          ],
          [
            12.0405,
            43.0363
          ],
          [
            12.0589,
            42.9695
          ],
          [
            12.0777,
            42.8997
          ],
          [
            12.0953,
            42.8357
          ],
          [
            12.1133,
            42.77
          ],
          [
            12.131,
            42.7045
          ],
          [
            12.149,
            42.6386
          ],
          [
            12.1665,
            42.5733
          ],
          [
            12.1835,
            42.5105
          ],
          [
            12.202,
            42.443
          ],
          [
            12.2194,
            42.3778
          ],
          [
            12.2378,
            42.3103
          ],
          [
            12.2545,
            42.2456
          ],
          [
            12.2719,
            42.1819
          ],
          [
            12.2901,
            42.1144
          ],
          [
            12.307,
            42.051
          ],
          [
            12.3235,
            41.9876
          ],
          [
            12.3408,
            41.9229
          ],
          [
            12.3587,
            41.8565
          ],
          [
            12.3764,
            41.7879
          ],
          [
            12.3934,
            41.724
          ],
          [
            12.411,
            41.6581
          ],
          [
            12.4273,
            41.5955
          ],
          [
            12.4439,
            41.5322
          ],
          [
            12.4605,
            41.4676
          ],
          [
            12.4782,
            41.4007
          ],
          [
            12.4939,
            41.3399
          ],
          [
            12.5107,
            41.2748
          ],
          [
            12.527,
            41.2126
          ],
          [
            12.5432,
            41.1506
          ],
          [
            12.5587,
            41.0909
          ],
          [
            12.5748,
            41.0271
          ],
          [
            12.5913,
            40.963
          ],
          [
            12.6064,
            40.9059
          ],
          [
            12.6225,
            40.8418
          ],
          [
            12.6374,
            40.7827
          ],
          [
            12.654,
            40.7203
          ],
          [
            12.6693,
            40.6583
          ],
          [
            12.6848,
            40.5973
          ],
          [
            12.7003,
            40.5374
          ],
          [
            12.716,
            40.4748
          ],
          [
            12.7325,
            40.4096
          ],
          [
            12.7491,
            40.3447
          ],
          [
            12.7666,
            40.276
          ],
          [
            12.7823,
            40.2121
          ],
          [
            12.7988,
            40.1462
          ],
          [
            12.816,
            40.0788
          ],
          [
            12.8335,
            40.008
          ],
          [
            12.851,
            39.9374
          ],
          [
            12.8677,
            39.8707
          ],
          [
            12.8849,
            39.8021
          ],
          [
            12.9021,
            39.7329
          ],
          [
            12.9189,
            39.6644
          ],
          [
            12.9353,
            39.597
          ],
          [
            12.9524,
            39.5297
          ],
          [
            12.9689,
            39.462
          ],
          [
            12.9849,
            39.3954
          ],
          [
            13.0001,
            39.3344
          ],
          [
            13.0161,
            39.2692
          ],
          [
            13.032,
            39.2056
          ],
          [
            13.0496,
            39.1445
          ],
          [
            13.0681,
            39.0819
          ],
          [
            13.0856,
            39.0222
          ],
          [
            13.1033,
            38.9612
          ],
          [
            13.1204,
            38.903
          ],
          [
            13.1377,
            38.8427
          ],
          [
            13.1548,
            38.7838
          ],
          [
            13.171,
            38.7274
          ],
          [
            13.1867,
            38.6735
          ],
          [
            13.2016,
            38.6208
          ],
          [
            13.2157,
            38.5728
          ],
          [
            13.2253,
            38.5423
          ],
          [
            13.2498,
            38.4916
          ],
          [
            13.2713,
            38.4533
          ],
          [
            13.2823,
            38.4338
          ],
          [
            13.3006,
            38.4007
          ],
          [
            13.3187,
            38.3836
          ],
          [
            13.3496,
            38.3764
          ],
          [
            13.3773,
            38.3789
          ],
          [
            13.4057,
            38.3728
          ],
          [
            13.4261,
            38.357
          ],
          [
            13.4449,
            38.3293
          ],
          [
            13.4451,
            38.3083
          ],
          [
            13.4262,
            38.2914
          ],
          [
            13.4034,
            38.2809
          ],
          [
            13.374,
            38.271
          ],
          [
            13.3536,
            38.2645
          ],
          [
            13.3347,
            38.2659
          ],
          [
            13.3258,
            38.2792
          ],
          [
            13.3359,
            38.2967
          ],
          [
            13.3589,
            38.3027
          ],
          [
            13.3794,
            38.2957
          ],
          [
            13.3895,
            38.2795
          ],
          [
            13.3825,
            38.2634
          ],
          [
            13.3526,
            38.2568
          ],
          [
            13.3316,
            38.2538
          ],
          [
            13.3053,
            38.2472
          ],
          [
            13.2897,
            38.2424
          ],
          [
            13.2608,
            38.2327
          ],
          [
            13.2321,
            38.223
          ],
          [
            13.2062,
            38.2144
          ]
        ]
      },
      "properties": {
        "time_europe_berlin": [
          "27.10.2025 09:36:54",
          "27.10.2025 09:36:58",
          "27.10.2025 09:37:14",
          "27.10.2025 09:37:30",
          "27.10.2025 09:37:46",
          "27.10.2025 09:38:02",
          "27.10.2025 09:38:18",
          "27.10.2025 09:38:34",
          "27.10.2025 09:38:50",
          "27.10.2025 09:39:06",
          "27.10.2025 09:39:26",
          "27.10.2025 09:39:42",
          "27.10.2025 09:40:00",
          "27.10.2025 09:40:20",
          "27.10.2025 09:40:38",
          "27.10.2025 09:41:08",
          "27.10.2025 09:41:36",
          "27.10.2025 09:41:53",
          "27.10.2025 09:42:18",
          "27.10.2025 09:42:34",
          "27.10.2025 09:43:10",
          "27.10.2025 09:43:33",
          "27.10.2025 09:44:18",
          "27.10.2025 09:44:45",
          "27.10.2025 09:45:33",
          "27.10.2025 09:46:03",
          "27.10.2025 09:46:33",
          "27.10.2025 09:47:03",
          "27.10.2025 09:47:33",
          "27.10.2025 09:48:03",
          "27.10.2025 09:48:24",
          "27.10.2025 09:48:45",
          "27.10.2025 09:49:15",
          "27.10.2025 09:49:45",
          "27.10.2025 09:50:01",
          "27.10.2025 09:50:31",
          "27.10.2025 09:51:01",
          "27.10.2025 09:51:31",
          "27.10.2025 09:52:01",
          "27.10.2025 09:52:44",
          "27.10.2025 09:53:14",
          "27.10.2025 09:53:44",
          "27.10.2025 09:54:14",
          "27.10.2025 09:54:44",
          "27.10.2025 09:55:14",
          "27.10.2025 09:55:44",
          "27.10.2025 09:56:14",
          "27.10.2025 09:56:45",
          "27.10.2025 09:57:03",
          "27.10.2025 09:57:33",
          "27.10.2025 09:58:03",
          "27.10.2025 09:58:33",
          "27.10.2025 09:59:03",
          "27.10.2025 09:59:31",
          "27.10.2025 09:59:47",
          "27.10.2025 10:00:06",
          "27.10.2025 10:00:22",
          "27.10.2025 10:00:51",
          "27.10.2025 10:01:21",
          "27.10.2025 10:02:06",
          "27.10.2025 10:02:36",
          "27.10.2025 10:03:06",
          "27.10.2025 10:03:37",
          "27.10.2025 10:04:07",
          "27.10.2025 10:04:37",
          "27.10.2025 10:05:44",
          "27.10.2025 10:06:14",
          "27.10.2025 10:06:41",
          "27.10.2025 10:07:19",
          "27.10.2025 10:07:49",
          "27.10.2025 10:08:19",
          "27.10.2025 10:08:49",
          "27.10.2025 10:09:19",
          "27.10.2025 10:09:49",
          "27.10.2025 10:10:19",
          "27.10.2025 10:10:41",
          "27.10.2025 10:10:58",
          "27.10.2025 10:11:17",
          "27.10.2025 10:11:36",
          "27.10.2025 10:12:16",
          "27.10.2025 10:12:46",
          "27.10.2025 10:13:16",
          "27.10.2025 10:13:46",
          "27.10.2025 10:14:16",
          "27.10.2025 10:14:46",
          "27.10.2025 10:15:16",
          "27.10.2025 10:15:46",
          "27.10.2025 10:16:16",
          "27.10.2025 10:16:46",
          "27.10.2025 10:17:16",
          "27.10.2025 10:17:47",
          "27.10.2025 10:18:17",
          "27.10.2025 10:18:47",
          "27.10.2025 10:19:17",
          "27.10.2025 10:19:47",
          "27.10.2025 10:20:17",
          "27.10.2025 10:20:47",
          "27.10.2025 10:21:17",
          "27.10.2025 10:21:47",
          "27.10.2025 10:22:18",
          "27.10.2025 10:22:48",
          "27.10.2025 10:23:18",
          "27.10.2025 10:23:48",
          "27.10.2025 10:24:17",
          "27.10.2025 10:24:47",
          "27.10.2025 10:25:17",
          "27.10.2025 10:25:47",
          "27.10.2025 10:26:17",
          "27.10.2025 10:26:47",
          "27.10.2025 10:27:17",
          "27.10.2025 10:27:47",
          "27.10.2025 10:28:17",
          "27.10.2025 10:28:47",
          "27.10.2025 10:29:17",
          "27.10.2025 10:29:47",
          "27.10.2025 10:30:17",
          "27.10.2025 10:30:47",
          "27.10.2025 10:31:18",
          "27.10.2025 10:31:48",
          "27.10.2025 10:32:18",
          "27.10.2025 10:32:48",
          "27.10.2025 10:33:18",
          "27.10.2025 10:33:48",
          "27.10.2025 10:34:18",
          "27.10.2025 10:34:48",
          "27.10.2025 10:35:18",
          "27.10.2025 10:35:48",
          "27.10.2025 10:36:18",
          "27.10.2025 10:36:35",
          "27.10.2025 10:37:03",
          "27.10.2025 10:37:34",
          "27.10.2025 10:38:04",
          "27.10.2025 10:38:34",
          "27.10.2025 10:39:04",
          "27.10.2025 10:39:35",
          "27.10.2025 10:40:05",
          "27.10.2025 10:40:36",
          "27.10.2025 10:41:06",
          "27.10.2025 10:41:36",
          "27.10.2025 10:42:06",
          "27.10.2025 10:42:36",
          "27.10.2025 10:43:06",
          "27.10.2025 10:43:36",
          "27.10.2025 10:44:07",
          "27.10.2025 10:44:38",
          "27.10.2025 10:45:08",
          "27.10.2025 10:45:38",
          "27.10.2025 10:46:08",
          "27.10.2025 10:46:38",
          "27.10.2025 10:47:08",
          "27.10.2025 10:47:39",
          "27.10.2025 10:48:09",
          "27.10.2025 10:48:39",
          "27.10.2025 10:49:09",
          "27.10.2025 10:49:39",
          "27.10.2025 10:50:09",
          "27.10.2025 10:50:39",
          "27.10.2025 10:51:09",
          "27.10.2025 10:51:39",
          "27.10.2025 10:52:10",
          "27.10.2025 10:52:41",
          "27.10.2025 10:53:12",
          "27.10.2025 10:53:42",
          "27.10.2025 10:54:12",
          "27.10.2025 10:54:42",
          "27.10.2025 10:55:12",
          "27.10.2025 10:55:43",
          "27.10.2025 10:56:13",
          "27.10.2025 10:56:44",
          "27.10.2025 10:57:14",
          "27.10.2025 10:57:44",
          "27.10.2025 10:58:14",
          "27.10.2025 10:58:44",
          "27.10.2025 10:59:14",
          "27.10.2025 10:59:44",
          "27.10.2025 11:00:15",
          "27.10.2025 11:00:45",
          "27.10.2025 11:01:15",
          "27.10.2025 11:01:45",
          "27.10.2025 11:02:15",
          "27.10.2025 11:02:45",
          "27.10.2025 11:03:15",
          "27.10.2025 11:03:45",
          "27.10.2025 11:04:16",
          "27.10.2025 11:04:46",
          "27.10.2025 11:05:16",
          "27.10.2025 11:05:46",
          "27.10.2025 11:06:16",
          "27.10.2025 11:06:49",
          "27.10.2025 11:07:20",
          "27.10.2025 11:07:50",
          "27.10.2025 11:08:20",
          "27.10.2025 11:08:50",
          "27.10.2025 11:09:20",
          "27.10.2025 11:09:50",
          "27.10.2025 11:10:20",
          "27.10.2025 11:10:50",
          "27.10.2025 11:11:20",
          "27.10.2025 11:11:50",
          "27.10.2025 11:12:21",
          "27.10.2025 11:12:51",
          "27.10.2025 11:13:21",
          "27.10.2025 11:13:51",
          "27.10.2025 11:14:21",
          "27.10.2025 11:14:51",
          "27.10.2025 11:15:21",
          "27.10.2025 11:15:51",
          "27.10.2025 11:16:21",
          "27.10.2025 11:16:52",
          "27.10.2025 11:17:22",
          "27.10.2025 11:17:53",
          "27.10.2025 11:18:23",
          "27.10.2025 11:18:44",
          "27.10.2025 11:19:23",
          "27.10.2025 11:19:53",
          "27.10.2025 11:20:09",
          "27.10.2025 11:20:37",
          "27.10.2025 11:20:54",
          "27.10.2025 11:21:14",
          "27.10.2025 11:21:32",
          "27.10.2025 11:21:51",
          "27.10.2025 11:22:10",
          "27.10.2025 11:22:37",
          "27.10.2025 11:22:57",
          "27.10.2025 11:23:21",
          "27.10.2025 11:23:42",
          "27.10.2025 11:24:07",
          "27.10.2025 11:24:26",
          "27.10.2025 11:24:44",
          "27.10.2025 11:25:01",
          "27.10.2025 11:25:21",
          "27.10.2025 11:25:40",
          "27.10.2025 11:25:56",
          "27.10.2025 11:26:13",
          "27.10.2025 11:26:31",
          "27.10.2025 11:26:58",
          "27.10.2025 11:27:18",
          "27.10.2025 11:27:45",
          "27.10.2025 11:28:01",
          "27.10.2025 11:28:31",
          "27.10.2025 11:29:01",
          "27.10.2025 11:29:32"
        ],
        "course_deg_clockwise_from_north": [
          318,
          318,
          323,
          327,
          20,
          28,
          28,
          47,
          61,
          66,
          69,
          94,
          117,
          128,
          132,
          135,
          136,
          150,
          156,
          156,
          154,
          154,
          154,
          154,
          154,
          154,
          154,
          154,
          154,
          154,
          155,
          155,
          154,
          155,
          155,
          154,
          155,
          155,
          155,
          155,
          155,
          155,
          155,
          155,
          155,
          155,
          155,
          155,
          155,
          155,
          155,
          155,
          155,
          154,
          151,
          149,
          149,
          148,
          149,
          149,
          149,
          149,
          149,
          149,
          150,
          149,
          150,
          150,
          150,
          150,
          149,
          150,
          149,
          150,
          150,
          152,
          159,
          162,
          163,
          162,
          162,
          162,
          162,
          162,
          162,
          162,
          162,
          163,
          162,
          162,
          162,
          162,
          162,
          162,
          163,
          162,
          162,
          162,
          163,
          162,
          162,
          162,
          163,
          164,
          165,
          164,
          164,
          165,
          165,
          164,
          164,
          165,
          164,
          164,
          165,
          164,
          164,
          165,
          165,
          165,
          165,
          165,
          165,
          165,
          165,
          164,
          164,
          164,
          166,
          170,
          168,
          168,
          168,
          169,
          169,
          169,
          168,
          168,
          169,
          169,
          168,
          169,
          169,
          169,
          168,
          169,
          168,
          168,
          169,
          169,
          169,
          169,
          169,
          169,
          169,
          168,
          169,
          169,
          169,
          169,
          169,
          169,
          169,
          169,
          169,
          169,
          169,
          169,
          169,
          169,
          169,
          169,
          169,
          169,
          169,
          169,
          169,
          169,
          169,
          169,
          169,
          169,
          169,
          169,
          169,
          170,
          169,
          169,
          169,
          169,
          169,
          169,
          169,
          169,
          169,
          169,
          169,
          169,
          169,
          169,
          168,
          167,
          167,
          167,
          167,
          167,
          167,
          168,
          167,
          168,
          167,
          167,
          163,
          158,
          156,
          156,
          155,
          124,
          91,
          83,
          122,
          144,
          157,
          202,
          233,
          243,
          248,
          250,
          304,
          355,
          48,
          90,
          134,
          176,
          222,
          265,
          255,
          250,
          247,
          247,
          247,
          247
        ],
        "speed_kts": [
          111,
          137,
          152,
          150,
          186,
          205,
          220,
          255,
          283,
          293,
          316,
          333,
          347,
          350,
          347,
          349,
          359,
          367,
          392,
          403,
          419,
          424,
          427,
          435,
          470,
          494,
          503,
          512,
          526,
          528,
          527,
          525,
          520,
          515,
          515,
          521,
          519,
          518,
          517,
          510,
          506,
          521,
          524,
          523,
          519,
          517,
          516,
          514,
          514,
          518,
          511,
          518,
          524,
          528,
          531,
          529,
          526,
          519,
          510,
          502,
          501,
          509,
          517,
          525,
          526,
          531,
          526,
          524,
          520,
          517,
          512,
          510,
          509,
          510,
          511,
          510,
          505,
          501,
          499,
          491,
          485,
          485,
          483,
          481,
          479,
          477,
          475,
          475,
          476,
          481,
          483,
          483,
          482,
          487,
          487,
          489,
          491,
          491,
          493,
          494,
          495,
          498,
          498,
          498,
          498,
          499,
          500,
          500,
          503,
          504,
          505,
          502,
          506,
          506,
          506,
          508,
          507,
          506,
          502,
          497,
          492,
          489,
          488,
          487,
          487,
          487,
          486,
          486,
          484,
          479,
          480,
          479,
          478,
          481,
          479,
          482,
          483,
          483,
          482,
          480,
          479,
          479,
          478,
          477,
          478,
          477,
          479,
          478,
          478,
          477,
          478,
          481,
          482,
          482,
          480,
          480,
          478,
          478,
          478,
          473,
          471,
          470,
          468,
          466,
          465,
          464,
          463,
          462,
          459,
          457,
          454,
          453,
          454,
          451,
          451,
          448,
          446,
          447,
          449,
          452,
          454,
          459,
          473,
          486,
          488,
          482,
          479,
          484,
          491,
          494,
          498,
          501,
          503,
          504,
          499,
          495,
          484,
          473,
          466,
          460,
          456,
          451,
          449,
          446,
          444,
          439,
          434,
          425,
          409,
          388,
          358,
          330,
          318,
          300,
          291,
          285,
          281,
          288,
          271,
          259,
          262,
          258,
          246,
          215,
          210,
          215,
          211,
          192,
          184,
          204,
          229,
          238,
          237,
          224,
          205,
          188,
          176,
          176,
          180,
          178,
          171,
          141
        ],
        "speed_mph": [
          128.0,
          158.0,
          175.0,
          173.0,
          214.0,
          236.0,
          253.0,
          293.0,
          326.0,
          337.0,
          364.0,
          383.0,
          399.0,
          403.0,
          399.0,
          402.0,
          413.0,
          422.0,
          451.0,
          464.0,
          482.0,
          488.0,
          491.0,
          501.0,
          541.0,
          568.0,
          579.0,
          589.0,
          605.0,
          608.0,
          606.0,
          604.0,
          598.0,
          593.0,
          593.0,
          600.0,
          597.0,
          596.0,
          595.0,
          587.0,
          582.0,
          600.0,
          603.0,
          602.0,
          597.0,
          595.0,
          594.0,
          592.0,
          592.0,
          596.0,
          588.0,
          596.0,
          603.0,
          608.0,
          611.0,
          609.0,
          605.0,
          597.0,
          587.0,
          578.0,
          577.0,
          586.0,
          595.0,
          604.0,
          605.0,
          611.0,
          605.0,
          603.0,
          598.0,
          595.0,
          589.0,
          587.0,
          586.0,
          587.0,
          588.0,
          587.0,
          581.0,
          577.0,
          574.0,
          565.0,
          558.0,
          558.0,
          556.0,
          554.0,
          551.0,
          549.0,
          547.0,
          547.0,
          548.0,
          554.0,
          556.0,
          556.0,
          555.0,
          560.0,
          560.0,
          563.0,
          565.0,
          565.0,
          567.0,
          568.0,
          570.0,
          573.0,
          573.0,
          573.0,
          573.0,
          574.0,
          575.0,
          575.0,
          579.0,
          580.0,
          581.0,
          578.0,
          582.0,
          582.0,
          582.0,
          585.0,
          583.0,
          582.0,
          578.0,
          572.0,
          566.0,
          563.0,
          562.0,
          560.0,
          560.0,
          560.0,
          559.0,
          559.0,
          557.0,
          551.0,
          552.0,
          551.0,
          550.0,
          554.0,
          551.0,
          555.0,
          556.0,
          556.0,
          555.0,
          552.0,
          551.0,
          551.0,
          550.0,
          549.0,
          550.0,
          549.0,
          551.0,
          550.0,
          550.0,
          549.0,
          550.0,
          554.0,
          555.0,
          555.0,
          552.0,
          552.0,
          550.0,
          550.0,
          550.0,
          544.0,
          542.0,
          541.0,
          539.0,
          536.0,
          535.0,
          534.0,
          533.0,
          532.0,
          528.0,
          526.0,
          522.0,
          521.0,
          522.0,
          519.0,
          519.0,
          516.0,
          513.0,
          514.0,
          517.0,
          520.0,
          522.0,
          528.0,
          544.0,
          559.0,
          562.0,
          555.0,
          551.0,
          557.0,
          565.0,
          568.0,
          573.0,
          577.0,
          579.0,
          580.0,
          574.0,
          570.0,
          557.0,
          544.0,
          536.0,
          529.0,
          525.0,
          519.0,
          517.0,
          513.0,
          511.0,
          505.0,
          499.0,
          489.0,
          471.0,
          447.0,
          412.0,
          380.0,
          366.0,
          345.0,
          335.0,
          328.0,
          323.0,
          331.0,
          312.0,
          298.0,
          302.0,
          297.0,
          283.0,
          247.0,
          242.0,
          247.0,
          243.0,
          221.0,
          212.0,
          235.0,
          264.0,
          274.0,
          273.0,
          258.0,
          236.0,
          216.0,
          203.0,
          203.0,
          207.0,
          205.0,
          197.0,
          162.0
        ],
        "altitude_ft": [
          650,
          725,
          1400,
          2500,
          3425,
          4225,
          4925,
          5300,
          5475,
          6125,
          6950,
          7725,
          8725,
          9725,
          10575,
          12075,
          13500,
          14350,
          15625,
          16625,
          19000,
          20625,
          23575,
          24925,
          26425,
          26950,
          27925,
          28825,
          29175,
          29900,
          30475,
          31075,
          32050,
          32975,
          33475,
          33975,
          34000,
          34000,
          34000,
          34275,
          34950,
          35000,
          35000,
          35000,
          35000,
          35000,
          35000,
          35000,
          35000,
          35050,
          35975,
          36400,
          36625,
          36925,
          37150,
          37575,
          37950,
          38650,
          39350,
          40425,
          40900,
          41000,
          41000,
          41000,
          41000,
          41000,
          41000,
          41000,
          41000,
          41000,
          41000,
          41000,
          41000,
          41000,
          41000,
          41000,
          41000,
          41000,
          41000,
          41000,
          41000,
          41000,
          41000,
          41000,
          41000,
          41000,
          41000,
          41000,
          41000,
          41000,
          41000,
          41000,
          41000,
          41000,
          41000,
          41000,
          41000,
          41000,
          41000,
          41000,
          41000,
          41000,
          41000,
          41000,
          41000,
          41000,
          41000,
          41000,
          41000,
          41000,
          41000,
          41000,
          41000,
          41000,
          41000,
          41000,
          41000,
          41000,
          41000,
          41000,
          41000,
          41000,
          41000,
          41000,
          41000,
          41000,
          41000,
          41000,
          41000,
          41000,
          41000,
          41000,
          41000,
          41000,
          41000,
          41000,
          41000,
          41000,
          41000,
          41000,
          41000,
          41000,
          41000,
          41000,
          41000,
          41000,
          41000,
          41000,
          41000,
          41000,
          41000,
          41000,
          41000,
          41000,
          41000,
          41000,
          41000,
          41000,
          41000,
          41000,
          41000,
          41000,
          41000,
          41000,
          41000,
          41000,
          41000,
          41000,
          41000,
          41000,
          41000,
          41000,
          41000,
          41000,
          41025,
          41000,
          41000,
          40425,
          39675,
          38925,
          38175,
          37375,
          36600,
          35850,
          35050,
          34325,
          33550,
          33050,
          33000,
          33000,
          33000,
          32600,
          31875,
          31075,
          30125,
          29150,
          28150,
          27125,
          26175,
          25175,
          24150,
          23175,
          22150,
          21200,
          20025,
          18825,
          17550,
          16300,
          15100,
          14025,
          13050,
          12275,
          11725,
          10775,
          10000,
          9600,
          8900,
          8475,
          8125,
          7800,
          7500,
          7075,
          6200,
          5500,
          4750,
          4100,
          3525,
          3450,
          3450,
          3450,
          3450,
          3450,
          3450,
          3450,
          3450,
          3425,
          3450,
          3150,
          2850,
          2350,
          1900,
          1475
        ],
        "vertical_rate_fpm": [
          0.0,
          2250.0,
          3328.0,
          3797.0,
          3234.0,
          2813.0,
          2016.0,
          1031.0,
          1547.0,
          2458.0,
          2667.0,
          3132.0,
          3158.0,
          2921.0,
          2938.0,
          3026.0,
          3033.0,
          3036.0,
          3329.0,
          3894.0,
          4068.0,
          4037.0,
          3583.0,
          2280.0,
          1558.0,
          1500.0,
          1875.0,
          1250.0,
          1075.0,
          1529.0,
          1679.0,
          1853.0,
          1900.0,
          1859.0,
          1304.0,
          525.0,
          25.0,
          0.0,
          226.0,
          781.0,
          725.0,
          50.0,
          0.0,
          0.0,
          0.0,
          0.0,
          0.0,
          0.0,
          63.0,
          975.0,
          1350.0,
          650.0,
          543.0,
          716.0,
          1114.0,
          1371.0,
          1433.0,
          1424.0,
          1420.0,
          1240.0,
          575.0,
          98.0,
          0.0,
          0.0,
          0.0,
          0.0,
          0.0,
          0.0,
          0.0,
          0.0,
          0.0,
          0.0,
          0.0,
          0.0,
          0.0,
          0.0,
          0.0,
          0.0,
          0.0,
          0.0,
          0.0,
          0.0,
          0.0,
          0.0,
          0.0,
          0.0,
          0.0,
          0.0,
          0.0,
          0.0,
          0.0,
          0.0,
          0.0,
          0.0,
          0.0,
          0.0,
          0.0,
          0.0,
          0.0,
          0.0,
          0.0,
          0.0,
          0.0,
          0.0,
          0.0,
          0.0,
          0.0,
          0.0,
          0.0,
          0.0,
          0.0,
          0.0,
          0.0,
          0.0,
          0.0,
          0.0,
          0.0,
          0.0,
          0.0,
          0.0,
          0.0,
          0.0,
          0.0,
          0.0,
          0.0,
          0.0,
          0.0,
          0.0,
          0.0,
          0.0,
          0.0,
          0.0,
          0.0,
          0.0,
          0.0,
          0.0,
          0.0,
          0.0,
          0.0,
          0.0,
          0.0,
          0.0,
          0.0,
          0.0,
          0.0,
          0.0,
          0.0,
          0.0,
          0.0,
          0.0,
          0.0,
          0.0,
          0.0,
          0.0,
          0.0,
          0.0,
          0.0,
          0.0,
          0.0,
          0.0,
          0.0,
          0.0,
          0.0,
          0.0,
          0.0,
          0.0,
          0.0,
          0.0,
          0.0,
          0.0,
          0.0,
          0.0,
          0.0,
          25.0,
          0.0,
          -25.0,
          -575.0,
          -1325.0,
          -1500.0,
          -1500.0,
          -1550.0,
          -1575.0,
          -1500.0,
          -1525.0,
          -1525.0,
          -1500.0,
          -1275.0,
          -524.0,
          -47.0,
          0.0,
          -400.0,
          -1125.0,
          -1525.0,
          -1750.0,
          -1925.0,
          -1975.0,
          -2025.0,
          -1975.0,
          -1918.0,
          -1992.0,
          -2000.0,
          -2000.0,
          -1975.0,
          -2125.0,
          -2375.0,
          -2475.0,
          -2525.0,
          -2410.0,
          -2238.0,
          -2016.0,
          -1721.0,
          -1559.0,
          -1500.0,
          -1500.0,
          -1533.0,
          -1500.0,
          -1500.0,
          -1257.0,
          -1066.0,
          -1014.0,
          -1145.0,
          -1696.0,
          -2011.0,
          -1977.0,
          -1867.0,
          -1598.0,
          -886.0,
          -122.0,
          0.0,
          0.0,
          0.0,
          0.0,
          0.0,
          0.0,
          -33.0,
          0.0,
          -351.0,
          -837.0,
          -1043.0,
          -950.0,
          -861.0,
          -823.0
        ]
      }
    }
  ]
}